{"type":"FeatureCollection","features":[{"type":"Feature","geometry":{"type":"Point","coordinates":[65,33]},"properties":{"id":1,"name":"Afghanistan","iso2":"AF","iso3":"AFG"}},{"type":"Feature","geometry":{"type":"Point","coordinates":[19.9,60.116667]},"properties":{"id":2,"name":"Aland Islands","iso2":"AX","iso3":"ALA"}},{"type":"Feature","geometry":{"type":"Point","coordinates":[20,41]},"properties":{"id":3,"name":"Albania","iso2":"AL","iso3":"ALB"}},{"type":"Feature","geometry":{"type":"Point","coordinates":[3,28]},"properties":{"id":4,"name":"Algeria","iso2":"DZ","iso3":"DZA"}},{"type":"Feature","geometry":{"type":"Point","coordinates":[-170,-14.33333333]},"properties":{"id":5,"name":"American Samoa","iso2":"AS","iso3":"ASM"}},{"type":"Feature","geometry":{"type":"Point","coordinates":[1.5,42.5]},"properties":{"id":6,"name":"Andorra","iso2":"AD","iso3":"AND"}},{"type":"Feature","geometry":{"type":"Point","coordinates":[18.5,-12.5]},"properties":{"id":7,"name":"Angola","iso2":"AO","iso3":"AGO"}},{"type":"Feature","geometry":{"type":"Point","coordinates":[-63.16666666,18.25]},"properties":{"id":8,"name":"Anguilla","iso2":"AI","iso3":"AIA"}},{"type":"Feature","geometry":{"type":"Point","coordinates":[4.48,-74.65]},"properties":{"id":9,"name":"Antarctica","iso2":"AQ","iso3":"ATA"}},{"type":"Feature","geometry":{"type":"Point","coordinates":[-61.8,17.05]},"properties":{"id":10,"name":"Antigua and Barbuda","iso2":"AG","iso3":"ATG"}},{"type":"Feature","geometry":{"type":"Point","coordinates":[-64,-34]},"properties":{"id":11,"name":"Argentina","iso2":"AR","iso3":"ARG"}},{"type":"Feature","geometry":{"type":"Point","coordinates":[45,40]},"properties":{"id":12,"name":"Armenia","iso2":"AM","iso3":"ARM"}},{"type":"Feature","geometry":{"type":"Point","coordinates":[-69.96666666,12.5]},"properties":{"id":13,"name":"Aruba","iso2":"AW","iso3":"ABW"}},{"type":"Feature","geometry":{"type":"Point","coordinates":[133,-27]},"properties":{"id":14,"name":"Australia","iso2":"AU","iso3":"AUS"}},{"type":"Feature","geometry":{"type":"Point","coordinates":[13.33333333,47.33333333]},"properties":{"id":15,"name":"Austria","iso2":"AT","iso3":"AUT"}},{"type":"Feature","geometry":{"type":"Point","coordinates":[47.5,40.5]},"properties":{"id":16,"name":"Azerbaijan","iso2":"AZ","iso3":"AZE"}},{"type":"Feature","geometry":{"type":"Point","coordinates":[50.55,26]},"properties":{"id":18,"name":"Bahrain","iso2":"BH","iso3":"BHR"}},{"type":"Feature","geometry":{"type":"Point","coordinates":[90,24]},"properties":{"id":19,"name":"Bangladesh","iso2":"BD","iso3":"BGD"}},{"type":"Feature","geometry":{"type":"Point","coordinates":[-59.53333333,13.16666666]},"properties":{"id":20,"name":"Barbados","iso2":"BB","iso3":"BRB"}},{"type":"Feature","geometry":{"type":"Point","coordinates":[28,53]},"properties":{"id":21,"name":"Belarus","iso2":"BY","iso3":"BLR"}},{"type":"Feature","geometry":{"type":"Point","coordinates":[4,50.83333333]},"properties":{"id":22,"name":"Belgium","iso2":"BE","iso3":"BEL"}},{"type":"Feature","geometry":{"type":"Point","coordinates":[-88.75,17.25]},"properties":{"id":23,"name":"Belize","iso2":"BZ","iso3":"BLZ"}},{"type":"Feature","geometry":{"type":"Point","coordinates":[2.25,9.5]},"properties":{"id":24,"name":"Benin","iso2":"BJ","iso3":"BEN"}},{"type":"Feature","geometry":{"type":"Point","coordinates":[-64.75,32.33333333]},"properties":{"id":25,"name":"Bermuda","iso2":"BM","iso3":"BMU"}},{"type":"Feature","geometry":{"type":"Point","coordinates":[90.5,27.5]},"properties":{"id":26,"name":"Bhutan","iso2":"BT","iso3":"BTN"}},{"type":"Feature","geometry":{"type":"Point","coordinates":[-65,-17]},"properties":{"id":27,"name":"Bolivia","iso2":"BO","iso3":"BOL"}},{"type":"Feature","geometry":{"type":"Point","coordinates":[-68.266667,12.15]},"properties":{"id":155,"name":"Bonaire, Sint Eustatius and Saba","iso2":"BQ","iso3":"BES"}},{"type":"Feature","geometry":{"type":"Point","coordinates":[18,44]},"properties":{"id":28,"name":"Bosnia and Herzegovina","iso2":"BA","iso3":"BIH"}},{"type":"Feature","geometry":{"type":"Point","coordinates":[24,-22]},"properties":{"id":29,"name":"Botswana","iso2":"BW","iso3":"BWA"}},{"type":"Feature","geometry":{"type":"Point","coordinates":[3.4,-54.43333333]},"properties":{"id":30,"name":"Bouvet Island","iso2":"BV","iso3":"BVT"}},{"type":"Feature","geometry":{"type":"Point","coordinates":[-55,-10]},"properties":{"id":31,"name":"Brazil","iso2":"BR","iso3":"BRA"}},{"type":"Feature","geometry":{"type":"Point","coordinates":[71.5,-6]},"properties":{"id":32,"name":"British Indian Ocean Territory","iso2":"IO","iso3":"IOT"}},{"type":"Feature","geometry":{"type":"Point","coordinates":[114.66666666,4.5]},"properties":{"id":33,"name":"Brunei","iso2":"BN","iso3":"BRN"}},{"type":"Feature","geometry":{"type":"Point","coordinates":[25,43]},"properties":{"id":34,"name":"Bulgaria","iso2":"BG","iso3":"BGR"}},{"type":"Feature","geometry":{"type":"Point","coordinates":[-2,13]},"properties":{"id":35,"name":"Burkina Faso","iso2":"BF","iso3":"BFA"}},{"type":"Feature","geometry":{"type":"Point","coordinates":[30,-3.5]},"properties":{"id":36,"name":"Burundi","iso2":"BI","iso3":"BDI"}},{"type":"Feature","geometry":{"type":"Point","coordinates":[105,13]},"properties":{"id":37,"name":"Cambodia","iso2":"KH","iso3":"KHM"}},{"type":"Feature","geometry":{"type":"Point","coordinates":[12,6]},"properties":{"id":38,"name":"Cameroon","iso2":"CM","iso3":"CMR"}},{"type":"Feature","geometry":{"type":"Point","coordinates":[-95,60]},"properties":{"id":39,"name":"Canada","iso2":"CA","iso3":"CAN"}},{"type":"Feature","geometry":{"type":"Point","coordinates":[-24,16]},"properties":{"id":40,"name":"Cape Verde","iso2":"CV","iso3":"CPV"}},{"type":"Feature","geometry":{"type":"Point","coordinates":[-80.5,19.5]},"properties":{"id":41,"name":"Cayman Islands","iso2":"KY","iso3":"CYM"}},{"type":"Feature","geometry":{"type":"Point","coordinates":[21,7]},"properties":{"id":42,"name":"Central African Republic","iso2":"CF","iso3":"CAF"}},{"type":"Feature","geometry":{"type":"Point","coordinates":[19,15]},"properties":{"id":43,"name":"Chad","iso2":"TD","iso3":"TCD"}},{"type":"Feature","geometry":{"type":"Point","coordinates":[-71,-30]},"properties":{"id":44,"name":"Chile","iso2":"CL","iso3":"CHL"}},{"type":"Feature","geometry":{"type":"Point","coordinates":[105,35]},"properties":{"id":45,"name":"China","iso2":"CN","iso3":"CHN"}},{"type":"Feature","geometry":{"type":"Point","coordinates":[105.66666666,-10.5]},"properties":{"id":46,"name":"Christmas Island","iso2":"CX","iso3":"CXR"}},{"type":"Feature","geometry":{"type":"Point","coordinates":[96.83333333,-12.5]},"properties":{"id":47,"name":"Cocos (Keeling) Islands","iso2":"CC","iso3":"CCK"}},{"type":"Feature","geometry":{"type":"Point","coordinates":[-72,4]},"properties":{"id":48,"name":"Colombia","iso2":"CO","iso3":"COL"}},{"type":"Feature","geometry":{"type":"Point","coordinates":[44.25,-12.16666666]},"properties":{"id":49,"name":"Comoros","iso2":"KM","iso3":"COM"}},{"type":"Feature","geometry":{"type":"Point","coordinates":[15,-1]},"properties":{"id":50,"name":"Congo","iso2":"CG","iso3":"COG"}},{"type":"Feature","geometry":{"type":"Point","coordinates":[-159.76666666,-21.23333333]},"properties":{"id":52,"name":"Cook Islands","iso2":"CK","iso3":"COK"}},{"type":"Feature","geometry":{"type":"Point","coordinates":[-84,10]},"properties":{"id":53,"name":"Costa Rica","iso2":"CR","iso3":"CRI"}},{"type":"Feature","geometry":{"type":"Point","coordinates":[15.5,45.16666666]},"properties":{"id":55,"name":"Croatia","iso2":"HR","iso3":"HRV"}},{"type":"Feature","geometry":{"type":"Point","coordinates":[-80,21.5]},"properties":{"id":56,"name":"Cuba","iso2":"CU","iso3":"CUB"}},{"type":"Feature","geometry":{"type":"Point","coordinates":[-68.933333,12.116667]},"properties":{"id":249,"name":"Curaçao","iso2":"CW","iso3":"CUW"}},{"type":"Feature","geometry":{"type":"Point","coordinates":[33,35]},"properties":{"id":57,"name":"Cyprus","iso2":"CY","iso3":"CYP"}},{"type":"Feature","geometry":{"type":"Point","coordinates":[15.5,49.75]},"properties":{"id":58,"name":"Czech Republic","iso2":"CZ","iso3":"CZE"}},{"type":"Feature","geometry":{"type":"Point","coordinates":[25,0]},"properties":{"id":51,"name":"Democratic Republic of the Congo","iso2":"CD","iso3":"COD"}},{"type":"Feature","geometry":{"type":"Point","coordinates":[10,56]},"properties":{"id":59,"name":"Denmark","iso2":"DK","iso3":"DNK"}},{"type":"Feature","geometry":{"type":"Point","coordinates":[43,11.5]},"properties":{"id":60,"name":"Djibouti","iso2":"DJ","iso3":"DJI"}},{"type":"Feature","geometry":{"type":"Point","coordinates":[-61.33333333,15.41666666]},"properties":{"id":61,"name":"Dominica","iso2":"DM","iso3":"DMA"}},{"type":"Feature","geometry":{"type":"Point","coordinates":[-70.66666666,19]},"properties":{"id":62,"name":"Dominican Republic","iso2":"DO","iso3":"DOM"}},{"type":"Feature","geometry":{"type":"Point","coordinates":[-77.5,-2]},"properties":{"id":64,"name":"Ecuador","iso2":"EC","iso3":"ECU"}},{"type":"Feature","geometry":{"type":"Point","coordinates":[30,27]},"properties":{"id":65,"name":"Egypt","iso2":"EG","iso3":"EGY"}},{"type":"Feature","geometry":{"type":"Point","coordinates":[-88.91666666,13.83333333]},"properties":{"id":66,"name":"El Salvador","iso2":"SV","iso3":"SLV"}},{"type":"Feature","geometry":{"type":"Point","coordinates":[10,2]},"properties":{"id":67,"name":"Equatorial Guinea","iso2":"GQ","iso3":"GNQ"}},{"type":"Feature","geometry":{"type":"Point","coordinates":[39,15]},"properties":{"id":68,"name":"Eritrea","iso2":"ER","iso3":"ERI"}},{"type":"Feature","geometry":{"type":"Point","coordinates":[26,59]},"properties":{"id":69,"name":"Estonia","iso2":"EE","iso3":"EST"}},{"type":"Feature","geometry":{"type":"Point","coordinates":[31.5,-26.5]},"properties":{"id":212,"name":"Eswatini","iso2":"SZ","iso3":"SWZ"}},{"type":"Feature","geometry":{"type":"Point","coordinates":[38,8]},"properties":{"id":70,"name":"Ethiopia","iso2":"ET","iso3":"ETH"}},{"type":"Feature","geometry":{"type":"Point","coordinates":[-59,-51.75]},"properties":{"id":71,"name":"Falkland Islands","iso2":"FK","iso3":"FLK"}},{"type":"Feature","geometry":{"type":"Point","coordinates":[-7,62]},"properties":{"id":72,"name":"Faroe Islands","iso2":"FO","iso3":"FRO"}},{"type":"Feature","geometry":{"type":"Point","coordinates":[175,-18]},"properties":{"id":73,"name":"Fiji Islands","iso2":"FJ","iso3":"FJI"}},{"type":"Feature","geometry":{"type":"Point","coordinates":[26,64]},"properties":{"id":74,"name":"Finland","iso2":"FI","iso3":"FIN"}},{"type":"Feature","geometry":{"type":"Point","coordinates":[2,46]},"properties":{"id":75,"name":"France","iso2":"FR","iso3":"FRA"}},{"type":"Feature","geometry":{"type":"Point","coordinates":[-53,4]},"properties":{"id":76,"name":"French Guiana","iso2":"GF","iso3":"GUF"}},{"type":"Feature","geometry":{"type":"Point","coordinates":[-140,-15]},"properties":{"id":77,"name":"French Polynesia","iso2":"PF","iso3":"PYF"}},{"type":"Feature","geometry":{"type":"Point","coordinates":[69.167,-49.25]},"properties":{"id":78,"name":"French Southern Territories","iso2":"TF","iso3":"ATF"}},{"type":"Feature","geometry":{"type":"Point","coordinates":[11.75,-1]},"properties":{"id":79,"name":"Gabon","iso2":"GA","iso3":"GAB"}},{"type":"Feature","geometry":{"type":"Point","coordinates":[43.5,42]},"properties":{"id":81,"name":"Georgia","iso2":"GE","iso3":"GEO"}},{"type":"Feature","geometry":{"type":"Point","coordinates":[9,51]},"properties":{"id":82,"name":"Germany","iso2":"DE","iso3":"DEU"}},{"type":"Feature","geometry":{"type":"Point","coordinates":[-2,8]},"properties":{"id":83,"name":"Ghana","iso2":"GH","iso3":"GHA"}},{"type":"Feature","geometry":{"type":"Point","coordinates":[-5.35,36.13333333]},"properties":{"id":84,"name":"Gibraltar","iso2":"GI","iso3":"GIB"}},{"type":"Feature","geometry":{"type":"Point","coordinates":[22,39]},"properties":{"id":85,"name":"Greece","iso2":"GR","iso3":"GRC"}},{"type":"Feature","geometry":{"type":"Point","coordinates":[-40,72]},"properties":{"id":86,"name":"Greenland","iso2":"GL","iso3":"GRL"}},{"type":"Feature","geometry":{"type":"Point","coordinates":[-61.66666666,12.11666666]},"properties":{"id":87,"name":"Grenada","iso2":"GD","iso3":"GRD"}},{"type":"Feature","geometry":{"type":"Point","coordinates":[-61.583333,16.25]},"properties":{"id":88,"name":"Guadeloupe","iso2":"GP","iso3":"GLP"}},{"type":"Feature","geometry":{"type":"Point","coordinates":[144.78333333,13.46666666]},"properties":{"id":89,"name":"Guam","iso2":"GU","iso3":"GUM"}},{"type":"Feature","geometry":{"type":"Point","coordinates":[-90.25,15.5]},"properties":{"id":90,"name":"Guatemala","iso2":"GT","iso3":"GTM"}},{"type":"Feature","geometry":{"type":"Point","coordinates":[-2.58333333,49.46666666]},"properties":{"id":91,"name":"Guernsey","iso2":"GG","iso3":"GGY"}},{"type":"Feature","geometry":{"type":"Point","coordinates":[-10,11]},"properties":{"id":92,"name":"Guinea","iso2":"GN","iso3":"GIN"}},{"type":"Feature","geometry":{"type":"Point","coordinates":[-15,12]},"properties":{"id":93,"name":"Guinea-Bissau","iso2":"GW","iso3":"GNB"}},{"type":"Feature","geometry":{"type":"Point","coordinates":[-59,5]},"properties":{"id":94,"name":"Guyana","iso2":"GY","iso3":"GUY"}},{"type":"Feature","geometry":{"type":"Point","coordinates":[-72.41666666,19]},"properties":{"id":95,"name":"Haiti","iso2":"HT","iso3":"HTI"}},{"type":"Feature","geometry":{"type":"Point","coordinates":[72.51666666,-53.1]},"properties":{"id":96,"name":"Heard Island and McDonald Islands","iso2":"HM","iso3":"HMD"}},{"type":"Feature","geometry":{"type":"Point","coordinates":[-86.5,15]},"properties":{"id":97,"name":"Honduras","iso2":"HN","iso3":"HND"}},{"type":"Feature","geometry":{"type":"Point","coordinates":[114.16666666,22.25]},"properties":{"id":98,"name":"Hong Kong S.A.R.","iso2":"HK","iso3":"HKG"}},{"type":"Feature","geometry":{"type":"Point","coordinates":[20,47]},"properties":{"id":99,"name":"Hungary","iso2":"HU","iso3":"HUN"}},{"type":"Feature","geometry":{"type":"Point","coordinates":[-18,65]},"properties":{"id":100,"name":"Iceland","iso2":"IS","iso3":"ISL"}},{"type":"Feature","geometry":{"type":"Point","coordinates":[77,20]},"properties":{"id":101,"name":"India","iso2":"IN","iso3":"IND"}},{"type":"Feature","geometry":{"type":"Point","coordinates":[120,-5]},"properties":{"id":102,"name":"Indonesia","iso2":"ID","iso3":"IDN"}},{"type":"Feature","geometry":{"type":"Point","coordinates":[53,32]},"properties":{"id":103,"name":"Iran","iso2":"IR","iso3":"IRN"}},{"type":"Feature","geometry":{"type":"Point","coordinates":[44,33]},"properties":{"id":104,"name":"Iraq","iso2":"IQ","iso3":"IRQ"}},{"type":"Feature","geometry":{"type":"Point","coordinates":[-8,53]},"properties":{"id":105,"name":"Ireland","iso2":"IE","iso3":"IRL"}},{"type":"Feature","geometry":{"type":"Point","coordinates":[34.75,31.5]},"properties":{"id":106,"name":"Israel","iso2":"IL","iso3":"ISR"}},{"type":"Feature","geometry":{"type":"Point","coordinates":[12.83333333,42.83333333]},"properties":{"id":107,"name":"Italy","iso2":"IT","iso3":"ITA"}},{"type":"Feature","geometry":{"type":"Point","coordinates":[-5,8]},"properties":{"id":54,"name":"Ivory Coast","iso2":"CI","iso3":"CIV"}},{"type":"Feature","geometry":{"type":"Point","coordinates":[-77.5,18.25]},"properties":{"id":108,"name":"Jamaica","iso2":"JM","iso3":"JAM"}},{"type":"Feature","geometry":{"type":"Point","coordinates":[138,36]},"properties":{"id":109,"name":"Japan","iso2":"JP","iso3":"JPN"}},{"type":"Feature","geometry":{"type":"Point","coordinates":[-2.16666666,49.25]},"properties":{"id":110,"name":"Jersey","iso2":"JE","iso3":"JEY"}},{"type":"Feature","geometry":{"type":"Point","coordinates":[36,31]},"properties":{"id":111,"name":"Jordan","iso2":"JO","iso3":"JOR"}},{"type":"Feature","geometry":{"type":"Point","coordinates":[68,48]},"properties":{"id":112,"name":"Kazakhstan","iso2":"KZ","iso3":"KAZ"}},{"type":"Feature","geometry":{"type":"Point","coordinates":[38,1]},"properties":{"id":113,"name":"Kenya","iso2":"KE","iso3":"KEN"}},{"type":"Feature","geometry":{"type":"Point","coordinates":[173,1.41666666]},"properties":{"id":114,"name":"Kiribati","iso2":"KI","iso3":"KIR"}},{"type":"Feature","geometry":{"type":"Point","coordinates":[20.3403035,42.5612909]},"properties":{"id":248,"name":"Kosovo","iso2":"XK","iso3":"XKX"}},{"type":"Feature","geometry":{"type":"Point","coordinates":[45.75,29.5]},"properties":{"id":117,"name":"Kuwait","iso2":"KW","iso3":"KWT"}},{"type":"Feature","geometry":{"type":"Point","coordinates":[75,41]},"properties":{"id":118,"name":"Kyrgyzstan","iso2":"KG","iso3":"KGZ"}},{"type":"Feature","geometry":{"type":"Point","coordinates":[105,18]},"properties":{"id":119,"name":"Laos","iso2":"LA","iso3":"LAO"}},{"type":"Feature","geometry":{"type":"Point","coordinates":[25,57]},"properties":{"id":120,"name":"Latvia","iso2":"LV","iso3":"LVA"}},{"type":"Feature","geometry":{"type":"Point","coordinates":[35.83333333,33.83333333]},"properties":{"id":121,"name":"Lebanon","iso2":"LB","iso3":"LBN"}},{"type":"Feature","geometry":{"type":"Point","coordinates":[28.5,-29.5]},"properties":{"id":122,"name":"Lesotho","iso2":"LS","iso3":"LSO"}},{"type":"Feature","geometry":{"type":"Point","coordinates":[-9.5,6.5]},"properties":{"id":123,"name":"Liberia","iso2":"LR","iso3":"LBR"}},{"type":"Feature","geometry":{"type":"Point","coordinates":[17,25]},"properties":{"id":124,"name":"Libya","iso2":"LY","iso3":"LBY"}},{"type":"Feature","geometry":{"type":"Point","coordinates":[9.53333333,47.26666666]},"properties":{"id":125,"name":"Liechtenstein","iso2":"LI","iso3":"LIE"}},{"type":"Feature","geometry":{"type":"Point","coordinates":[24,56]},"properties":{"id":126,"name":"Lithuania","iso2":"LT","iso3":"LTU"}},{"type":"Feature","geometry":{"type":"Point","coordinates":[6.16666666,49.75]},"properties":{"id":127,"name":"Luxembourg","iso2":"LU","iso3":"LUX"}},{"type":"Feature","geometry":{"type":"Point","coordinates":[113.55,22.16666666]},"properties":{"id":128,"name":"Macau S.A.R.","iso2":"MO","iso3":"MAC"}},{"type":"Feature","geometry":{"type":"Point","coordinates":[47,-20]},"properties":{"id":130,"name":"Madagascar","iso2":"MG","iso3":"MDG"}},{"type":"Feature","geometry":{"type":"Point","coordinates":[34,-13.5]},"properties":{"id":131,"name":"Malawi","iso2":"MW","iso3":"MWI"}},{"type":"Feature","geometry":{"type":"Point","coordinates":[112.5,2.5]},"properties":{"id":132,"name":"Malaysia","iso2":"MY","iso3":"MYS"}},{"type":"Feature","geometry":{"type":"Point","coordinates":[73,3.25]},"properties":{"id":133,"name":"Maldives","iso2":"MV","iso3":"MDV"}},{"type":"Feature","geometry":{"type":"Point","coordinates":[-4,17]},"properties":{"id":134,"name":"Mali","iso2":"ML","iso3":"MLI"}},{"type":"Feature","geometry":{"type":"Point","coordinates":[14.58333333,35.83333333]},"properties":{"id":135,"name":"Malta","iso2":"MT","iso3":"MLT"}},{"type":"Feature","geometry":{"type":"Point","coordinates":[-4.5,54.25]},"properties":{"id":136,"name":"Man (Isle of)","iso2":"IM","iso3":"IMN"}},{"type":"Feature","geometry":{"type":"Point","coordinates":[168,9]},"properties":{"id":137,"name":"Marshall Islands","iso2":"MH","iso3":"MHL"}},{"type":"Feature","geometry":{"type":"Point","coordinates":[-61,14.666667]},"properties":{"id":138,"name":"Martinique","iso2":"MQ","iso3":"MTQ"}},{"type":"Feature","geometry":{"type":"Point","coordinates":[-12,20]},"properties":{"id":139,"name":"Mauritania","iso2":"MR","iso3":"MRT"}},{"type":"Feature","geometry":{"type":"Point","coordinates":[57.55,-20.28333333]},"properties":{"id":140,"name":"Mauritius","iso2":"MU","iso3":"MUS"}},{"type":"Feature","geometry":{"type":"Point","coordinates":[45.16666666,-12.83333333]},"properties":{"id":141,"name":"Mayotte","iso2":"YT","iso3":"MYT"}},{"type":"Feature","geometry":{"type":"Point","coordinates":[-102,23]},"properties":{"id":142,"name":"Mexico","iso2":"MX","iso3":"MEX"}},{"type":"Feature","geometry":{"type":"Point","coordinates":[158.25,6.91666666]},"properties":{"id":143,"name":"Micronesia","iso2":"FM","iso3":"FSM"}},{"type":"Feature","geometry":{"type":"Point","coordinates":[29,47]},"properties":{"id":144,"name":"Moldova","iso2":"MD","iso3":"MDA"}},{"type":"Feature","geometry":{"type":"Point","coordinates":[7.4,43.73333333]},"properties":{"id":145,"name":"Monaco","iso2":"MC","iso3":"MCO"}},{"type":"Feature","geometry":{"type":"Point","coordinates":[105,46]},"properties":{"id":146,"name":"Mongolia","iso2":"MN","iso3":"MNG"}},{"type":"Feature","geometry":{"type":"Point","coordinates":[19.3,42.5]},"properties":{"id":147,"name":"Montenegro","iso2":"ME","iso3":"MNE"}},{"type":"Feature","geometry":{"type":"Point","coordinates":[-62.2,16.75]},"properties":{"id":148,"name":"Montserrat","iso2":"MS","iso3":"MSR"}},{"type":"Feature","geometry":{"type":"Point","coordinates":[-5,32]},"properties":{"id":149,"name":"Morocco","iso2":"MA","iso3":"MAR"}},{"type":"Feature","geometry":{"type":"Point","coordinates":[35,-18.25]},"properties":{"id":150,"name":"Mozambique","iso2":"MZ","iso3":"MOZ"}},{"type":"Feature","geometry":{"type":"Point","coordinates":[98,22]},"properties":{"id":151,"name":"Myanmar","iso2":"MM","iso3":"MMR"}},{"type":"Feature","geometry":{"type":"Point","coordinates":[17,-22]},"properties":{"id":152,"name":"Namibia","iso2":"NA","iso3":"NAM"}},{"type":"Feature","geometry":{"type":"Point","coordinates":[166.91666666,-0.53333333]},"properties":{"id":153,"name":"Nauru","iso2":"NR","iso3":"NRU"}},{"type":"Feature","geometry":{"type":"Point","coordinates":[84,28]},"properties":{"id":154,"name":"Nepal","iso2":"NP","iso3":"NPL"}},{"type":"Feature","geometry":{"type":"Point","coordinates":[5.75,52.5]},"properties":{"id":156,"name":"Netherlands","iso2":"NL","iso3":"NLD"}},{"type":"Feature","geometry":{"type":"Point","coordinates":[165.5,-21.5]},"properties":{"id":157,"name":"New Caledonia","iso2":"NC","iso3":"NCL"}},{"type":"Feature","geometry":{"type":"Point","coordinates":[174,-41]},"properties":{"id":158,"name":"New Zealand","iso2":"NZ","iso3":"NZL"}},{"type":"Feature","geometry":{"type":"Point","coordinates":[-85,13]},"properties":{"id":159,"name":"Nicaragua","iso2":"NI","iso3":"NIC"}},{"type":"Feature","geometry":{"type":"Point","coordinates":[8,16]},"properties":{"id":160,"name":"Niger","iso2":"NE","iso3":"NER"}},{"type":"Feature","geometry":{"type":"Point","coordinates":[8,10]},"properties":{"id":161,"name":"Nigeria","iso2":"NG","iso3":"NGA"}},{"type":"Feature","geometry":{"type":"Point","coordinates":[-169.86666666,-19.03333333]},"properties":{"id":162,"name":"Niue","iso2":"NU","iso3":"NIU"}},{"type":"Feature","geometry":{"type":"Point","coordinates":[167.95,-29.03333333]},"properties":{"id":163,"name":"Norfolk Island","iso2":"NF","iso3":"NFK"}},{"type":"Feature","geometry":{"type":"Point","coordinates":[127,40]},"properties":{"id":115,"name":"North Korea","iso2":"KP","iso3":"PRK"}},{"type":"Feature","geometry":{"type":"Point","coordinates":[22,41.83333333]},"properties":{"id":129,"name":"North Macedonia","iso2":"MK","iso3":"MKD"}},{"type":"Feature","geometry":{"type":"Point","coordinates":[145.75,15.2]},"properties":{"id":164,"name":"Northern Mariana Islands","iso2":"MP","iso3":"MNP"}},{"type":"Feature","geometry":{"type":"Point","coordinates":[10,62]},"properties":{"id":165,"name":"Norway","iso2":"NO","iso3":"NOR"}},{"type":"Feature","geometry":{"type":"Point","coordinates":[57,21]},"properties":{"id":166,"name":"Oman","iso2":"OM","iso3":"OMN"}},{"type":"Feature","geometry":{"type":"Point","coordinates":[70,30]},"properties":{"id":167,"name":"Pakistan","iso2":"PK","iso3":"PAK"}},{"type":"Feature","geometry":{"type":"Point","coordinates":[134.5,7.5]},"properties":{"id":168,"name":"Palau","iso2":"PW","iso3":"PLW"}},{"type":"Feature","geometry":{"type":"Point","coordinates":[35.2,31.9]},"properties":{"id":169,"name":"Palestinian Territory Occupied","iso2":"PS","iso3":"PSE"}},{"type":"Feature","geometry":{"type":"Point","coordinates":[-80,9]},"properties":{"id":170,"name":"Panama","iso2":"PA","iso3":"PAN"}},{"type":"Feature","geometry":{"type":"Point","coordinates":[147,-6]},"properties":{"id":171,"name":"Papua New Guinea","iso2":"PG","iso3":"PNG"}},{"type":"Feature","geometry":{"type":"Point","coordinates":[-58,-23]},"properties":{"id":172,"name":"Paraguay","iso2":"PY","iso3":"PRY"}},{"type":"Feature","geometry":{"type":"Point","coordinates":[-76,-10]},"properties":{"id":173,"name":"Peru","iso2":"PE","iso3":"PER"}},{"type":"Feature","geometry":{"type":"Point","coordinates":[122,13]},"properties":{"id":174,"name":"Philippines","iso2":"PH","iso3":"PHL"}},{"type":"Feature","geometry":{"type":"Point","coordinates":[-130.1,-25.06666666]},"properties":{"id":175,"name":"Pitcairn Island","iso2":"PN","iso3":"PCN"}},{"type":"Feature","geometry":{"type":"Point","coordinates":[20,52]},"properties":{"id":176,"name":"Poland","iso2":"PL","iso3":"POL"}},{"type":"Feature","geometry":{"type":"Point","coordinates":[-8,39.5]},"properties":{"id":177,"name":"Portugal","iso2":"PT","iso3":"PRT"}},{"type":"Feature","geometry":{"type":"Point","coordinates":[-66.5,18.25]},"properties":{"id":178,"name":"Puerto Rico","iso2":"PR","iso3":"PRI"}},{"type":"Feature","geometry":{"type":"Point","coordinates":[51.25,25.5]},"properties":{"id":179,"name":"Qatar","iso2":"QA","iso3":"QAT"}},{"type":"Feature","geometry":{"type":"Point","coordinates":[55.5,-21.15]},"properties":{"id":180,"name":"Reunion","iso2":"RE","iso3":"REU"}},{"type":"Feature","geometry":{"type":"Point","coordinates":[25,46]},"properties":{"id":181,"name":"Romania","iso2":"RO","iso3":"ROU"}},{"type":"Feature","geometry":{"type":"Point","coordinates":[100,60]},"properties":{"id":182,"name":"Russia","iso2":"RU","iso3":"RUS"}},{"type":"Feature","geometry":{"type":"Point","coordinates":[30,-2]},"properties":{"id":183,"name":"Rwanda","iso2":"RW","iso3":"RWA"}},{"type":"Feature","geometry":{"type":"Point","coordinates":[-5.7,-15.95]},"properties":{"id":184,"name":"Saint Helena","iso2":"SH","iso3":"SHN"}},{"type":"Feature","geometry":{"type":"Point","coordinates":[-62.75,17.33333333]},"properties":{"id":185,"name":"Saint Kitts and Nevis","iso2":"KN","iso3":"KNA"}},{"type":"Feature","geometry":{"type":"Point","coordinates":[-60.96666666,13.88333333]},"properties":{"id":186,"name":"Saint Lucia","iso2":"LC","iso3":"LCA"}},{"type":"Feature","geometry":{"type":"Point","coordinates":[-56.33333333,46.83333333]},"properties":{"id":187,"name":"Saint Pierre and Miquelon","iso2":"PM","iso3":"SPM"}},{"type":"Feature","geometry":{"type":"Point","coordinates":[-61.2,13.25]},"properties":{"id":188,"name":"Saint Vincent and the Grenadines","iso2":"VC","iso3":"VCT"}},{"type":"Feature","geometry":{"type":"Point","coordinates":[-63.41666666,18.5]},"properties":{"id":189,"name":"Saint-Barthelemy","iso2":"BL","iso3":"BLM"}},{"type":"Feature","geometry":{"type":"Point","coordinates":[-63.95,18.08333333]},"properties":{"id":190,"name":"Saint-Martin (French part)","iso2":"MF","iso3":"MAF"}},{"type":"Feature","geometry":{"type":"Point","coordinates":[-172.33333333,-13.58333333]},"properties":{"id":191,"name":"Samoa","iso2":"WS","iso3":"WSM"}},{"type":"Feature","geometry":{"type":"Point","coordinates":[12.41666666,43.76666666]},"properties":{"id":192,"name":"San Marino","iso2":"SM","iso3":"SMR"}},{"type":"Feature","geometry":{"type":"Point","coordinates":[7,1]},"properties":{"id":193,"name":"Sao Tome and Principe","iso2":"ST","iso3":"STP"}},{"type":"Feature","geometry":{"type":"Point","coordinates":[45,25]},"properties":{"id":194,"name":"Saudi Arabia","iso2":"SA","iso3":"SAU"}},{"type":"Feature","geometry":{"type":"Point","coordinates":[-14,14]},"properties":{"id":195,"name":"Senegal","iso2":"SN","iso3":"SEN"}},{"type":"Feature","geometry":{"type":"Point","coordinates":[21,44]},"properties":{"id":196,"name":"Serbia","iso2":"RS","iso3":"SRB"}},{"type":"Feature","geometry":{"type":"Point","coordinates":[55.4540146,-4.6574977]},"properties":{"id":197,"name":"Seychelles","iso2":"SC","iso3":"SYC"}},{"type":"Feature","geometry":{"type":"Point","coordinates":[-11.5,8.5]},"properties":{"id":198,"name":"Sierra Leone","iso2":"SL","iso3":"SLE"}},{"type":"Feature","geometry":{"type":"Point","coordinates":[103.8,1.36666666]},"properties":{"id":199,"name":"Singapore","iso2":"SG","iso3":"SGP"}},{"type":"Feature","geometry":{"type":"Point","coordinates":[-63.05,18.033333]},"properties":{"id":250,"name":"Sint Maarten (Dutch part)","iso2":"SX","iso3":"SXM"}},{"type":"Feature","geometry":{"type":"Point","coordinates":[19.5,48.66666666]},"properties":{"id":200,"name":"Slovakia","iso2":"SK","iso3":"SVK"}},{"type":"Feature","geometry":{"type":"Point","coordinates":[14.81666666,46.11666666]},"properties":{"id":201,"name":"Slovenia","iso2":"SI","iso3":"SVN"}},{"type":"Feature","geometry":{"type":"Point","coordinates":[159,-8]},"properties":{"id":202,"name":"Solomon Islands","iso2":"SB","iso3":"SLB"}},{"type":"Feature","geometry":{"type":"Point","coordinates":[49,10]},"properties":{"id":203,"name":"Somalia","iso2":"SO","iso3":"SOM"}},{"type":"Feature","geometry":{"type":"Point","coordinates":[24,-29]},"properties":{"id":204,"name":"South Africa","iso2":"ZA","iso3":"ZAF"}},{"type":"Feature","geometry":{"type":"Point","coordinates":[-37,-54.5]},"properties":{"id":205,"name":"South Georgia","iso2":"GS","iso3":"SGS"}},{"type":"Feature","geometry":{"type":"Point","coordinates":[127.5,37]},"properties":{"id":116,"name":"South Korea","iso2":"KR","iso3":"KOR"}},{"type":"Feature","geometry":{"type":"Point","coordinates":[30,7]},"properties":{"id":206,"name":"South Sudan","iso2":"SS","iso3":"SSD"}},{"type":"Feature","geometry":{"type":"Point","coordinates":[-4,40]},"properties":{"id":207,"name":"Spain","iso2":"ES","iso3":"ESP"}},{"type":"Feature","geometry":{"type":"Point","coordinates":[81,7]},"properties":{"id":208,"name":"Sri Lanka","iso2":"LK","iso3":"LKA"}},{"type":"Feature","geometry":{"type":"Point","coordinates":[30,15]},"properties":{"id":209,"name":"Sudan","iso2":"SD","iso3":"SDN"}},{"type":"Feature","geometry":{"type":"Point","coordinates":[-56,4]},"properties":{"id":210,"name":"Suriname","iso2":"SR","iso3":"SUR"}},{"type":"Feature","geometry":{"type":"Point","coordinates":[20,78]},"properties":{"id":211,"name":"Svalbard and Jan Mayen Islands","iso2":"SJ","iso3":"SJM"}},{"type":"Feature","geometry":{"type":"Point","coordinates":[15,62]},"properties":{"id":213,"name":"Sweden","iso2":"SE","iso3":"SWE"}},{"type":"Feature","geometry":{"type":"Point","coordinates":[8,47]},"properties":{"id":214,"name":"Switzerland","iso2":"CH","iso3":"CHE"}},{"type":"Feature","geometry":{"type":"Point","coordinates":[38,35]},"properties":{"id":215,"name":"Syria","iso2":"SY","iso3":"SYR"}},{"type":"Feature","geometry":{"type":"Point","coordinates":[121,23.5]},"properties":{"id":216,"name":"Taiwan","iso2":"TW","iso3":"TWN"}},{"type":"Feature","geometry":{"type":"Point","coordinates":[71,39]},"properties":{"id":217,"name":"Tajikistan","iso2":"TJ","iso3":"TJK"}},{"type":"Feature","geometry":{"type":"Point","coordinates":[35,-6]},"properties":{"id":218,"name":"Tanzania","iso2":"TZ","iso3":"TZA"}},{"type":"Feature","geometry":{"type":"Point","coordinates":[100,15]},"properties":{"id":219,"name":"Thailand","iso2":"TH","iso3":"THA"}},{"type":"Feature","geometry":{"type":"Point","coordinates":[-76,24.25]},"properties":{"id":17,"name":"The Bahamas","iso2":"BS","iso3":"BHS"}},{"type":"Feature","geometry":{"type":"Point","coordinates":[-16.56666666,13.46666666]},"properties":{"id":80,"name":"The Gambia","iso2":"GM","iso3":"GMB"}},{"type":"Feature","geometry":{"type":"Point","coordinates":[125.91666666,-8.83333333]},"properties":{"id":63,"name":"Timor-Leste","iso2":"TL","iso3":"TLS"}},{"type":"Feature","geometry":{"type":"Point","coordinates":[1.16666666,8]},"properties":{"id":220,"name":"Togo","iso2":"TG","iso3":"TGO"}},{"type":"Feature","geometry":{"type":"Point","coordinates":[-172,-9]},"properties":{"id":221,"name":"Tokelau","iso2":"TK","iso3":"TKL"}},{"type":"Feature","geometry":{"type":"Point","coordinates":[-175,-20]},"properties":{"id":222,"name":"Tonga","iso2":"TO","iso3":"TON"}},{"type":"Feature","geometry":{"type":"Point","coordinates":[-61,11]},"properties":{"id":223,"name":"Trinidad and Tobago","iso2":"TT","iso3":"TTO"}},{"type":"Feature","geometry":{"type":"Point","coordinates":[9,34]},"properties":{"id":224,"name":"Tunisia","iso2":"TN","iso3":"TUN"}},{"type":"Feature","geometry":{"type":"Point","coordinates":[35,39]},"properties":{"id":225,"name":"Turkey","iso2":"TR","iso3":"TUR"}},{"type":"Feature","geometry":{"type":"Point","coordinates":[60,40]},"properties":{"id":226,"name":"Turkmenistan","iso2":"TM","iso3":"TKM"}},{"type":"Feature","geometry":{"type":"Point","coordinates":[-71.58333333,21.75]},"properties":{"id":227,"name":"Turks and Caicos Islands","iso2":"TC","iso3":"TCA"}},{"type":"Feature","geometry":{"type":"Point","coordinates":[178,-8]},"properties":{"id":228,"name":"Tuvalu","iso2":"TV","iso3":"TUV"}},{"type":"Feature","geometry":{"type":"Point","coordinates":[32,1]},"properties":{"id":229,"name":"Uganda","iso2":"UG","iso3":"UGA"}},{"type":"Feature","geometry":{"type":"Point","coordinates":[32,49]},"properties":{"id":230,"name":"Ukraine","iso2":"UA","iso3":"UKR"}},{"type":"Feature","geometry":{"type":"Point","coordinates":[54,24]},"properties":{"id":231,"name":"United Arab Emirates","iso2":"AE","iso3":"ARE"}},{"type":"Feature","geometry":{"type":"Point","coordinates":[-2,54]},"properties":{"id":232,"name":"United Kingdom","iso2":"GB","iso3":"GBR"}},{"type":"Feature","geometry":{"type":"Point","coordinates":[-97,38]},"properties":{"id":233,"name":"United States","iso2":"US","iso3":"USA"}},{"type":"Feature","geometry":{"type":"Point","coordinates":[0,0]},"properties":{"id":234,"name":"United States Minor Outlying Islands","iso2":"UM","iso3":"UMI"}},{"type":"Feature","geometry":{"type":"Point","coordinates":[-56,-33]},"properties":{"id":235,"name":"Uruguay","iso2":"UY","iso3":"URY"}},{"type":"Feature","geometry":{"type":"Point","coordinates":[64,41]},"properties":{"id":236,"name":"Uzbekistan","iso2":"UZ","iso3":"UZB"}},{"type":"Feature","geometry":{"type":"Point","coordinates":[167,-16]},"properties":{"id":237,"name":"Vanuatu","iso2":"VU","iso3":"VUT"}},{"type":"Feature","geometry":{"type":"Point","coordinates":[12.45,41.9]},"properties":{"id":238,"name":"Vatican City State (Holy See)","iso2":"VA","iso3":"VAT"}},{"type":"Feature","geometry":{"type":"Point","coordinates":[-66,8]},"properties":{"id":239,"name":"Venezuela","iso2":"VE","iso3":"VEN"}},{"type":"Feature","geometry":{"type":"Point","coordinates":[107.83333333,16.16666666]},"properties":{"id":240,"name":"Vietnam","iso2":"VN","iso3":"VNM"}},{"type":"Feature","geometry":{"type":"Point","coordinates":[-64.62305,18.431383]},"properties":{"id":241,"name":"Virgin Islands (British)","iso2":"VG","iso3":"VGB"}},{"type":"Feature","geometry":{"type":"Point","coordinates":[-64.93,18.34]},"properties":{"id":242,"name":"Virgin Islands (US)","iso2":"VI","iso3":"VIR"}},{"type":"Feature","geometry":{"type":"Point","coordinates":[-176.2,-13.3]},"properties":{"id":243,"name":"Wallis and Futuna Islands","iso2":"WF","iso3":"WLF"}},{"type":"Feature","geometry":{"type":"Point","coordinates":[-13,24.5]},"properties":{"id":244,"name":"Western Sahara","iso2":"EH","iso3":"ESH"}},{"type":"Feature","geometry":{"type":"Point","coordinates":[48,15]},"properties":{"id":245,"name":"Yemen","iso2":"YE","iso3":"YEM"}},{"type":"Feature","geometry":{"type":"Point","coordinates":[30,-15]},"properties":{"id":246,"name":"Zambia","iso2":"ZM","iso3":"ZMB"}},{"type":"Feature","geometry":{"type":"Point","coordinates":[30,-20]},"properties":{"id":247,"name":"Zimbabwe","iso2":"ZW","iso3":"ZWE"}}]}