{"type":"FeatureCollection","features":[{"type":"Feature","geometry":{"type":"Point","coordinates":[21.0440498,60.4135873]},"properties":{"id":5298,"name":"Brändö","iso2":"12","country_code":"AX"}},{"type":"Feature","geometry":{"type":"Point","coordinates":[19.5389379,60.2231814]},"properties":{"id":5294,"name":"Eckerö","iso2":"08","country_code":"AX"}},{"type":"Feature","geometry":{"type":"Point","coordinates":[19.9867259,60.2310519]},"properties":{"id":5289,"name":"Finström","iso2":"03","country_code":"AX"}},{"type":"Feature","geometry":{"type":"Point","coordinates":[20.4246997,60.0107325]},"properties":{"id":5295,"name":"Föglö","iso2":"09","country_code":"AX"}},{"type":"Feature","geometry":{"type":"Point","coordinates":[19.8498128,60.3740157]},"properties":{"id":5296,"name":"Geta","iso2":"10","country_code":"AX"}},{"type":"Feature","geometry":{"type":"Point","coordinates":[19.7378481,60.2196758]},"properties":{"id":5292,"name":"Hammarland","iso2":"06","country_code":"AX"}},{"type":"Feature","geometry":{"type":"Point","coordinates":[19.9489144,60.1522947]},"properties":{"id":5288,"name":"Jomala","iso2":"02","country_code":"AX"}},{"type":"Feature","geometry":{"type":"Point","coordinates":[20.9103514,59.9211709]},"properties":{"id":5301,"name":"Kökar","iso2":"15","country_code":"AX"}},{"type":"Feature","geometry":{"type":"Point","coordinates":[20.7782292,60.2587693]},"properties":{"id":5300,"name":"Kumlinge","iso2":"14","country_code":"AX"}},{"type":"Feature","geometry":{"type":"Point","coordinates":[20.0860081,60.0690169]},"properties":{"id":5290,"name":"Lemland","iso2":"04","country_code":"AX"}},{"type":"Feature","geometry":{"type":"Point","coordinates":[20.2610583,60.1168385]},"properties":{"id":5299,"name":"Lumparland","iso2":"13","country_code":"AX"}},{"type":"Feature","geometry":{"type":"Point","coordinates":[19.94126,60.102423]},"properties":{"id":5287,"name":"Mariehamn","iso2":"01","country_code":"AX"}},{"type":"Feature","geometry":{"type":"Point","coordinates":[20.0612065,60.2755756]},"properties":{"id":5291,"name":"Saltvik","iso2":"05","country_code":"AX"}},{"type":"Feature","geometry":{"type":"Point","coordinates":[20.6459821,60.1307977]},"properties":{"id":5302,"name":"Sottunga","iso2":"16","country_code":"AX"}},{"type":"Feature","geometry":{"type":"Point","coordinates":[20.1198637,60.2530332]},"properties":{"id":5293,"name":"Sund","iso2":"07","country_code":"AX"}},{"type":"Feature","geometry":{"type":"Point","coordinates":[20.3744261,60.2421692]},"properties":{"id":5297,"name":"Vårdö","iso2":"11","country_code":"AX"}}]}