{"type":"FeatureCollection","features":[{"type":"Feature","geometry":{"type":"Point","coordinates":[89.78333,22.65833]},"properties":{"id":5473,"name":"Bagerhat","iso2":"05","country_code":"BD"}},{"type":"Feature","geometry":{"type":"Point","coordinates":[92.21946,22.19534]},"properties":{"id":5474,"name":"Bandarban","iso2":"01","country_code":"BD"}},{"type":"Feature","geometry":{"type":"Point","coordinates":[90.11997,22.1533]},"properties":{"id":5475,"name":"Barguna","iso2":"02","country_code":"BD"}},{"type":"Feature","geometry":{"type":"Point","coordinates":[90.3548015,22.4934035]},"properties":{"id":807,"name":"Barisal ","iso2":"A","country_code":"BD"}},{"type":"Feature","geometry":{"type":"Point","coordinates":[90.3536,22.701]},"properties":{"id":5476,"name":"Barishal","iso2":"06","country_code":"BD"}},{"type":"Feature","geometry":{"type":"Point","coordinates":[90.6482,22.6854]},"properties":{"id":5477,"name":"Bhola","iso2":"07","country_code":"BD"}},{"type":"Feature","geometry":{"type":"Point","coordinates":[89.37764,24.84656]},"properties":{"id":5478,"name":"Bogura","iso2":"03","country_code":"BD"}},{"type":"Feature","geometry":{"type":"Point","coordinates":[91.1115,23.9609]},"properties":{"id":5479,"name":"Brahmanbaria","iso2":"04","country_code":"BD"}},{"type":"Feature","geometry":{"type":"Point","coordinates":[90.8518,23.2513]},"properties":{"id":5480,"name":"Chandpur","iso2":"09","country_code":"BD"}},{"type":"Feature","geometry":{"type":"Point","coordinates":[88.29125,24.59548]},"properties":{"id":5481,"name":"Chapai Nawabganj","iso2":"45","country_code":"BD"}},{"type":"Feature","geometry":{"type":"Point","coordinates":[91.7832,22.3569]},"properties":{"id":5482,"name":"Chattogram","iso2":"10","country_code":"BD"}},{"type":"Feature","geometry":{"type":"Point","coordinates":[91.8839938,22.6800466]},"properties":{"id":803,"name":"Chittagong ","iso2":"B","country_code":"BD"}},{"type":"Feature","geometry":{"type":"Point","coordinates":[88.8412,23.6402]},"properties":{"id":5483,"name":"Chuadanga","iso2":"12","country_code":"BD"}},{"type":"Feature","geometry":{"type":"Point","coordinates":[92.0099,21.4394]},"properties":{"id":5484,"name":"Cox's Bazar","iso2":"11","country_code":"BD"}},{"type":"Feature","geometry":{"type":"Point","coordinates":[91.1809,23.4605]},"properties":{"id":5485,"name":"Cumilla","iso2":"08","country_code":"BD"}},{"type":"Feature","geometry":{"type":"Point","coordinates":[90.4072,23.8105]},"properties":{"id":5486,"name":"Dhaka","iso2":"13","country_code":"BD"}},{"type":"Feature","geometry":{"type":"Point","coordinates":[90.2526382,23.9456166]},"properties":{"id":760,"name":"Dhaka ","iso2":"C","country_code":"BD"}},{"type":"Feature","geometry":{"type":"Point","coordinates":[88.6363,25.6277]},"properties":{"id":5487,"name":"Dinajpur","iso2":"14","country_code":"BD"}},{"type":"Feature","geometry":{"type":"Point","coordinates":[89.8406,23.6072]},"properties":{"id":5488,"name":"Faridpur","iso2":"15","country_code":"BD"}},{"type":"Feature","geometry":{"type":"Point","coordinates":[91.4039,23.0133]},"properties":{"id":5489,"name":"Feni","iso2":"16","country_code":"BD"}},{"type":"Feature","geometry":{"type":"Point","coordinates":[89.543,25.3288]},"properties":{"id":5490,"name":"Gaibandha","iso2":"19","country_code":"BD"}},{"type":"Feature","geometry":{"type":"Point","coordinates":[90.4125,24.0958]},"properties":{"id":5491,"name":"Gazipur","iso2":"18","country_code":"BD"}},{"type":"Feature","geometry":{"type":"Point","coordinates":[89.8266,23.0055]},"properties":{"id":5492,"name":"Gopalganj","iso2":"17","country_code":"BD"}},{"type":"Feature","geometry":{"type":"Point","coordinates":[91.4153,24.3744]},"properties":{"id":5493,"name":"Habiganj","iso2":"20","country_code":"BD"}},{"type":"Feature","geometry":{"type":"Point","coordinates":[89.9333,25.0833]},"properties":{"id":5494,"name":"Jamalpur","iso2":"21","country_code":"BD"}},{"type":"Feature","geometry":{"type":"Point","coordinates":[89.2121,23.1665]},"properties":{"id":5495,"name":"Jashore","iso2":"22","country_code":"BD"}},{"type":"Feature","geometry":{"type":"Point","coordinates":[90.1987,22.6402]},"properties":{"id":5496,"name":"Jhalakathi","iso2":"25","country_code":"BD"}},{"type":"Feature","geometry":{"type":"Point","coordinates":[89.1726,23.5449]},"properties":{"id":5497,"name":"Jhenaidah","iso2":"23","country_code":"BD"}},{"type":"Feature","geometry":{"type":"Point","coordinates":[89.0945,25.0936]},"properties":{"id":5498,"name":"Joypurhat","iso2":"24","country_code":"BD"}},{"type":"Feature","geometry":{"type":"Point","coordinates":[91.9766,23.1191]},"properties":{"id":5499,"name":"Khagrachhari","iso2":"29","country_code":"BD"}},{"type":"Feature","geometry":{"type":"Point","coordinates":[89.5681,22.8157]},"properties":{"id":5500,"name":"Khulna","iso2":"27","country_code":"BD"}},{"type":"Feature","geometry":{"type":"Point","coordinates":[89.2852741,22.9372087]},"properties":{"id":775,"name":"Khulna ","iso2":"D","country_code":"BD"}},{"type":"Feature","geometry":{"type":"Point","coordinates":[90.7767,24.444]},"properties":{"id":5501,"name":"Kishoreganj","iso2":"26","country_code":"BD"}},{"type":"Feature","geometry":{"type":"Point","coordinates":[89.6277,25.8055]},"properties":{"id":5502,"name":"Kurigram","iso2":"28","country_code":"BD"}},{"type":"Feature","geometry":{"type":"Point","coordinates":[89.1189,23.8907]},"properties":{"id":5503,"name":"Kushtia","iso2":"30","country_code":"BD"}},{"type":"Feature","geometry":{"type":"Point","coordinates":[90.8282,22.9449]},"properties":{"id":5504,"name":"Lakshmipur","iso2":"31","country_code":"BD"}},{"type":"Feature","geometry":{"type":"Point","coordinates":[89.4452,25.9178]},"properties":{"id":5505,"name":"Lalmonirhat","iso2":"32","country_code":"BD"}},{"type":"Feature","geometry":{"type":"Point","coordinates":[90.1877,23.17]},"properties":{"id":5506,"name":"Madaripur","iso2":"36","country_code":"BD"}},{"type":"Feature","geometry":{"type":"Point","coordinates":[89.4198,23.4871]},"properties":{"id":5507,"name":"Magura","iso2":"37","country_code":"BD"}},{"type":"Feature","geometry":{"type":"Point","coordinates":[90.0003,23.8614]},"properties":{"id":5508,"name":"Manikganj","iso2":"33","country_code":"BD"}},{"type":"Feature","geometry":{"type":"Point","coordinates":[88.6318,23.7621]},"properties":{"id":5509,"name":"Meherpur","iso2":"39","country_code":"BD"}},{"type":"Feature","geometry":{"type":"Point","coordinates":[91.7315,24.3094]},"properties":{"id":5510,"name":"Moulvibazar","iso2":"38","country_code":"BD"}},{"type":"Feature","geometry":{"type":"Point","coordinates":[90.4122,23.5518]},"properties":{"id":5511,"name":"Munshiganj","iso2":"35","country_code":"BD"}},{"type":"Feature","geometry":{"type":"Point","coordinates":[90.4072,24.7536]},"properties":{"id":5512,"name":"Mymensingh","iso2":"34","country_code":"BD"}},{"type":"Feature","geometry":{"type":"Point","coordinates":[90.4099158,24.7482129]},"properties":{"id":758,"name":"Mymensingh ","iso2":"H","country_code":"BD"}},{"type":"Feature","geometry":{"type":"Point","coordinates":[88.9254,24.8042]},"properties":{"id":5513,"name":"Naogaon","iso2":"48","country_code":"BD"}},{"type":"Feature","geometry":{"type":"Point","coordinates":[89.4998,23.1163]},"properties":{"id":5514,"name":"Narail","iso2":"43","country_code":"BD"}},{"type":"Feature","geometry":{"type":"Point","coordinates":[90.5,23.6338]},"properties":{"id":5515,"name":"Narayanganj","iso2":"40","country_code":"BD"}},{"type":"Feature","geometry":{"type":"Point","coordinates":[90.7168,23.9232]},"properties":{"id":5516,"name":"Narsingdi","iso2":"42","country_code":"BD"}},{"type":"Feature","geometry":{"type":"Point","coordinates":[89.0006,24.4205]},"properties":{"id":5517,"name":"Natore","iso2":"44","country_code":"BD"}},{"type":"Feature","geometry":{"type":"Point","coordinates":[90.7277,24.8809]},"properties":{"id":5518,"name":"Netrakona","iso2":"41","country_code":"BD"}},{"type":"Feature","geometry":{"type":"Point","coordinates":[88.856,25.9318]},"properties":{"id":5519,"name":"Nilphamari","iso2":"46","country_code":"BD"}},{"type":"Feature","geometry":{"type":"Point","coordinates":[91.0979,22.8691]},"properties":{"id":5520,"name":"Noakhali","iso2":"47","country_code":"BD"}},{"type":"Feature","geometry":{"type":"Point","coordinates":[89.2336,24.0064]},"properties":{"id":5521,"name":"Pabna","iso2":"49","country_code":"BD"}},{"type":"Feature","geometry":{"type":"Point","coordinates":[88.5539,26.3388]},"properties":{"id":5522,"name":"Panchagarh","iso2":"52","country_code":"BD"}},{"type":"Feature","geometry":{"type":"Point","coordinates":[90.3289,22.3591]},"properties":{"id":5523,"name":"Patuakhali","iso2":"51","country_code":"BD"}},{"type":"Feature","geometry":{"type":"Point","coordinates":[89.9759,22.5791]},"properties":{"id":5524,"name":"Pirojpur","iso2":"50","country_code":"BD"}},{"type":"Feature","geometry":{"type":"Point","coordinates":[89.6447,23.7574]},"properties":{"id":5525,"name":"Rajbari","iso2":"53","country_code":"BD"}},{"type":"Feature","geometry":{"type":"Point","coordinates":[88.6044,24.3744]},"properties":{"id":5526,"name":"Rajshahi","iso2":"54","country_code":"BD"}},{"type":"Feature","geometry":{"type":"Point","coordinates":[89.0376862,24.6285432]},"properties":{"id":753,"name":"Rajshahi ","iso2":"E","country_code":"BD"}},{"type":"Feature","geometry":{"type":"Point","coordinates":[92.1753,22.6532]},"properties":{"id":5527,"name":"Rangamati","iso2":"56","country_code":"BD"}},{"type":"Feature","geometry":{"type":"Point","coordinates":[89.0826381,25.6376135]},"properties":{"id":750,"name":"Rangpur ","iso2":"F","country_code":"BD"}},{"type":"Feature","geometry":{"type":"Point","coordinates":[89.2508,25.7466]},"properties":{"id":5528,"name":"Rangpur","iso2":"55","country_code":"BD"}},{"type":"Feature","geometry":{"type":"Point","coordinates":[89.0706,22.7159]},"properties":{"id":5529,"name":"Satkhira","iso2":"58","country_code":"BD"}},{"type":"Feature","geometry":{"type":"Point","coordinates":[90.4348,23.2423]},"properties":{"id":5530,"name":"Shariatpur","iso2":"62","country_code":"BD"}},{"type":"Feature","geometry":{"type":"Point","coordinates":[90.0151,25.0197]},"properties":{"id":5531,"name":"Sherpur","iso2":"57","country_code":"BD"}},{"type":"Feature","geometry":{"type":"Point","coordinates":[89.7006,24.4533]},"properties":{"id":5532,"name":"Sirajganj","iso2":"59","country_code":"BD"}},{"type":"Feature","geometry":{"type":"Point","coordinates":[91.395,25.0658]},"properties":{"id":5533,"name":"Sunamganj","iso2":"61","country_code":"BD"}},{"type":"Feature","geometry":{"type":"Point","coordinates":[91.6852476,24.7358854]},"properties":{"id":765,"name":"Sylhet ","iso2":"G","country_code":"BD"}},{"type":"Feature","geometry":{"type":"Point","coordinates":[91.8698,24.8994]},"properties":{"id":5534,"name":"Sylhet","iso2":"60","country_code":"BD"}},{"type":"Feature","geometry":{"type":"Point","coordinates":[89.9168,24.2498]},"properties":{"id":5535,"name":"Tangail","iso2":"63","country_code":"BD"}},{"type":"Feature","geometry":{"type":"Point","coordinates":[88.461,26.0322]},"properties":{"id":5536,"name":"Thakurgaon","iso2":"64","country_code":"BD"}}]}