{"type":"FeatureCollection","features":[{"type":"Feature","geometry":{"type":"Point","coordinates":[-65,-14]},"properties":{"id":3375,"name":"Beni","iso2":"B","country_code":"BO"}},{"type":"Feature","geometry":{"type":"Point","coordinates":[-64.416667,-20]},"properties":{"id":3382,"name":"Chuquisaca","iso2":"H","country_code":"BO"}},{"type":"Feature","geometry":{"type":"Point","coordinates":[-65.5010931,-17.3330142]},"properties":{"id":3381,"name":"Cochabamba","iso2":"C","country_code":"BO"}},{"type":"Feature","geometry":{"type":"Point","coordinates":[-68.333333,-15]},"properties":{"id":3380,"name":"La Paz","iso2":"L","country_code":"BO"}},{"type":"Feature","geometry":{"type":"Point","coordinates":[-67.666667,-18.666667]},"properties":{"id":3376,"name":"Oruro","iso2":"O","country_code":"BO"}},{"type":"Feature","geometry":{"type":"Point","coordinates":[-67.183333,-11.183333]},"properties":{"id":3379,"name":"Pando","iso2":"N","country_code":"BO"}},{"type":"Feature","geometry":{"type":"Point","coordinates":[-66.666667,-20.666667]},"properties":{"id":3383,"name":"Potosí","iso2":"P","country_code":"BO"}},{"type":"Feature","geometry":{"type":"Point","coordinates":[-61.5,-17.333333]},"properties":{"id":3377,"name":"Santa Cruz","iso2":"S","country_code":"BO"}},{"type":"Feature","geometry":{"type":"Point","coordinates":[-63.833333,-21.583333]},"properties":{"id":3378,"name":"Tarija","iso2":"T","country_code":"BO"}}]}