{"type":"FeatureCollection","features":[{"type":"Feature","geometry":{"type":"Point","coordinates":[20.5281149,8.698547]},"properties":{"id":1259,"name":"Bamingui-Bangoran","iso2":"BB","country_code":"CF"}},{"type":"Feature","geometry":{"type":"Point","coordinates":[18.5835913,4.3635118]},"properties":{"id":1262,"name":"Bangui","iso2":"BGF","country_code":"CF"}},{"type":"Feature","geometry":{"type":"Point","coordinates":[21.3883825,5.1283201]},"properties":{"id":1264,"name":"Basse-Kotto","iso2":"BK","country_code":"CF"}},{"type":"Feature","geometry":{"type":"Point","coordinates":[25.6508738,6.3497929]},"properties":{"id":1258,"name":"Haut-Mbomou","iso2":"HM","country_code":"CF"}},{"type":"Feature","geometry":{"type":"Point","coordinates":[22.9271411,7.3625645]},"properties":{"id":1268,"name":"Haute-Kotto","iso2":"HK","country_code":"CF"}},{"type":"Feature","geometry":{"type":"Point","coordinates":[19.2158871,5.9480074]},"properties":{"id":1263,"name":"Kémo","iso2":"KG","country_code":"CF"}},{"type":"Feature","geometry":{"type":"Point","coordinates":[17.5653592,4.1034548]},"properties":{"id":1256,"name":"Lobaye","iso2":"LB","country_code":"CF"}},{"type":"Feature","geometry":{"type":"Point","coordinates":[15.8671403,4.5662762]},"properties":{"id":1257,"name":"Mambéré-Kadéï","iso2":"HS","country_code":"CF"}},{"type":"Feature","geometry":{"type":"Point","coordinates":[23.4445705,5.5230899]},"properties":{"id":1266,"name":"Mbomou","iso2":"MB","country_code":"CF"}},{"type":"Feature","geometry":{"type":"Point","coordinates":[19.1923579,7.5048007]},"properties":{"id":1253,"name":"Nana-Grébizi","iso2":"KB","country_code":"CF"}},{"type":"Feature","geometry":{"type":"Point","coordinates":[15.3517922,5.2231625]},"properties":{"id":1260,"name":"Nana-Mambéré","iso2":"NM","country_code":"CF"}},{"type":"Feature","geometry":{"type":"Point","coordinates":[18.1717789,5.0726761]},"properties":{"id":1255,"name":"Ombella-M'Poko","iso2":"MP","country_code":"CF"}},{"type":"Feature","geometry":{"type":"Point","coordinates":[20.5447525,6.3110548]},"properties":{"id":1265,"name":"Ouaka","iso2":"UK","country_code":"CF"}},{"type":"Feature","geometry":{"type":"Point","coordinates":[17.7041361,7.1314008]},"properties":{"id":1254,"name":"Ouham","iso2":"AC","country_code":"CF"}},{"type":"Feature","geometry":{"type":"Point","coordinates":[16.1443202,6.7057282]},"properties":{"id":1267,"name":"Ouham-Pendé","iso2":"OP","country_code":"CF"}},{"type":"Feature","geometry":{"type":"Point","coordinates":[16.3246915,3.6754895]},"properties":{"id":1252,"name":"Sangha-Mbaéré","iso2":"SE","country_code":"CF"}},{"type":"Feature","geometry":{"type":"Point","coordinates":[22.376363,9.8250502]},"properties":{"id":1261,"name":"Vakaga","iso2":"VK","country_code":"CF"}}]}