{"type":"FeatureCollection","features":[{"type":"Feature","geometry":{"type":"Point","coordinates":[33.9239831,35.1352137]},"properties":{"id":749,"name":"Famagusta (Mağusa)","iso2":"04","country_code":"CY"}},{"type":"Feature","geometry":{"type":"Point","coordinates":[33.2769155,35.2951481]},"properties":{"id":744,"name":"Kyrenia (Keryneia)","iso2":"06","country_code":"CY"}},{"type":"Feature","geometry":{"type":"Point","coordinates":[33.6092097,34.8697484]},"properties":{"id":747,"name":"Larnaca (Larnaka)","iso2":"03","country_code":"CY"}},{"type":"Feature","geometry":{"type":"Point","coordinates":[33.0078384,34.6911485]},"properties":{"id":748,"name":"Limassol (Leymasun)","iso2":"02","country_code":"CY"}},{"type":"Feature","geometry":{"type":"Point","coordinates":[33.3705626,35.1565464]},"properties":{"id":745,"name":"Nicosia (Lefkoşa)","iso2":"01","country_code":"CY"}},{"type":"Feature","geometry":{"type":"Point","coordinates":[32.4214097,34.7812978]},"properties":{"id":746,"name":"Paphos (Pafos)","iso2":"05","country_code":"CY"}}]}