{"type":"FeatureCollection","features":[{"type":"Feature","geometry":{"type":"Point","coordinates":[-70.7380928,18.4552709]},"properties":{"id":4114,"name":"Azua","iso2":"02","country_code":"DO"}},{"type":"Feature","geometry":{"type":"Point","coordinates":[-71.3303393,18.5140239]},"properties":{"id":4105,"name":"Baoruco","iso2":"03","country_code":"DO"}},{"type":"Feature","geometry":{"type":"Point","coordinates":[-71.1043759,18.2139066]},"properties":{"id":4090,"name":"Barahona","iso2":"04","country_code":"DO"}},{"type":"Feature","geometry":{"type":"Point","coordinates":[-69.9,19.4]},"properties":{"id":5540,"name":"Cibao Nordeste","iso2":"33","country_code":"DO"}},{"type":"Feature","geometry":{"type":"Point","coordinates":[-71,19.6]},"properties":{"id":5541,"name":"Cibao Noroeste","iso2":"34","country_code":"DO"}},{"type":"Feature","geometry":{"type":"Point","coordinates":[-70.7,19.5]},"properties":{"id":5542,"name":"Cibao Norte","iso2":"35","country_code":"DO"}},{"type":"Feature","geometry":{"type":"Point","coordinates":[-70.5,19.2]},"properties":{"id":5543,"name":"Cibao Sur","iso2":"36","country_code":"DO"}},{"type":"Feature","geometry":{"type":"Point","coordinates":[-71.7086514,19.5499241]},"properties":{"id":4107,"name":"Dajabón","iso2":"05","country_code":"DO"}},{"type":"Feature","geometry":{"type":"Point","coordinates":[-69.9312117,18.4860575]},"properties":{"id":4095,"name":"Distrito Nacional","iso2":"01","country_code":"DO"}},{"type":"Feature","geometry":{"type":"Point","coordinates":[-70.1880055,19.2833163]},"properties":{"id":4113,"name":"Duarte","iso2":"06","country_code":"DO"}},{"type":"Feature","geometry":{"type":"Point","coordinates":[-69.040668,18.7658496]},"properties":{"id":4086,"name":"El Seibo","iso2":"08","country_code":"DO"}},{"type":"Feature","geometry":{"type":"Point","coordinates":[-71.2,18.8]},"properties":{"id":5544,"name":"El Valle","iso2":"37","country_code":"DO"}},{"type":"Feature","geometry":{"type":"Point","coordinates":[-71.68333,19.03333]},"properties":{"id":5539,"name":"Elías Piña","iso2":"07","country_code":"DO"}},{"type":"Feature","geometry":{"type":"Point","coordinates":[-71.3,18.2]},"properties":{"id":5545,"name":"Enriquillo","iso2":"38","country_code":"DO"}},{"type":"Feature","geometry":{"type":"Point","coordinates":[-70.4918803,19.5108126]},"properties":{"id":4102,"name":"Espaillat","iso2":"09","country_code":"DO"}},{"type":"Feature","geometry":{"type":"Point","coordinates":[-69.3256524,18.7089524]},"properties":{"id":4106,"name":"Hato Mayor","iso2":"30","country_code":"DO"}},{"type":"Feature","geometry":{"type":"Point","coordinates":[-70.3840578,19.3957699]},"properties":{"id":4089,"name":"Hermanas Mirabal","iso2":"19","country_code":"DO"}},{"type":"Feature","geometry":{"type":"Point","coordinates":[-69.2,18.7]},"properties":{"id":5546,"name":"Higuamo","iso2":"39","country_code":"DO"}},{"type":"Feature","geometry":{"type":"Point","coordinates":[-71.6357396,18.4155861]},"properties":{"id":4097,"name":"Independencia","iso2":"10","country_code":"DO"}},{"type":"Feature","geometry":{"type":"Point","coordinates":[-68.6053104,18.5880886]},"properties":{"id":4109,"name":"La Altagracia","iso2":"11","country_code":"DO"}},{"type":"Feature","geometry":{"type":"Point","coordinates":[-68.9661104,18.4230137]},"properties":{"id":4087,"name":"La Romana","iso2":"12","country_code":"DO"}},{"type":"Feature","geometry":{"type":"Point","coordinates":[-70.5288753,19.2211554]},"properties":{"id":4116,"name":"La Vega","iso2":"13","country_code":"DO"}},{"type":"Feature","geometry":{"type":"Point","coordinates":[-69.9990821,19.4433304]},"properties":{"id":4094,"name":"María Trinidad Sánchez","iso2":"14","country_code":"DO"}},{"type":"Feature","geometry":{"type":"Point","coordinates":[-70.4157265,18.9234801]},"properties":{"id":4099,"name":"Monseñor Nouel","iso2":"28","country_code":"DO"}},{"type":"Feature","geometry":{"type":"Point","coordinates":[-71.4448113,19.7177718]},"properties":{"id":4115,"name":"Monte Cristi","iso2":"15","country_code":"DO"}},{"type":"Feature","geometry":{"type":"Point","coordinates":[-69.7869146,18.8080878]},"properties":{"id":4111,"name":"Monte Plata","iso2":"29","country_code":"DO"}},{"type":"Feature","geometry":{"type":"Point","coordinates":[-69.9,18.5]},"properties":{"id":5547,"name":"Ozama","iso2":"40","country_code":"DO"}},{"type":"Feature","geometry":{"type":"Point","coordinates":[-71.5595247,18.0907918]},"properties":{"id":4101,"name":"Pedernales","iso2":"16","country_code":"DO"}},{"type":"Feature","geometry":{"type":"Point","coordinates":[-70.3712349,18.3309575]},"properties":{"id":4096,"name":"Peravia","iso2":"17","country_code":"DO"}},{"type":"Feature","geometry":{"type":"Point","coordinates":[-70.7208338,19.7225234]},"properties":{"id":4092,"name":"Puerto Plata","iso2":"18","country_code":"DO"}},{"type":"Feature","geometry":{"type":"Point","coordinates":[-69.3362949,19.2058371]},"properties":{"id":4103,"name":"Samaná","iso2":"20","country_code":"DO"}},{"type":"Feature","geometry":{"type":"Point","coordinates":[-70.1065849,18.4180414]},"properties":{"id":4091,"name":"San Cristóbal","iso2":"21","country_code":"DO"}},{"type":"Feature","geometry":{"type":"Point","coordinates":[-70.5041816,18.543858]},"properties":{"id":4112,"name":"San José de Ocoa","iso2":"31","country_code":"DO"}},{"type":"Feature","geometry":{"type":"Point","coordinates":[-71.2862706,18.87967]},"properties":{"id":4098,"name":"San Juan","iso2":"22","country_code":"DO"}},{"type":"Feature","geometry":{"type":"Point","coordinates":[-69.3051234,18.46266]},"properties":{"id":4110,"name":"San Pedro de Macorís","iso2":"23","country_code":"DO"}},{"type":"Feature","geometry":{"type":"Point","coordinates":[-70.1448351,19.0176147]},"properties":{"id":4088,"name":"Sánchez Ramírez","iso2":"24","country_code":"DO"}},{"type":"Feature","geometry":{"type":"Point","coordinates":[-70.9521277,19.336389]},"properties":{"id":4108,"name":"Santiago","iso2":"25","country_code":"DO"}},{"type":"Feature","geometry":{"type":"Point","coordinates":[-71.3523808,19.3690729]},"properties":{"id":4100,"name":"Santiago Rodríguez","iso2":"26","country_code":"DO"}},{"type":"Feature","geometry":{"type":"Point","coordinates":[-69.8531692,18.5638543]},"properties":{"id":4093,"name":"Santo Domingo","iso2":"32","country_code":"DO"}},{"type":"Feature","geometry":{"type":"Point","coordinates":[-70.3,18.4]},"properties":{"id":5548,"name":"Valdesia","iso2":"41","country_code":"DO"}},{"type":"Feature","geometry":{"type":"Point","coordinates":[-71.0303974,19.5955662]},"properties":{"id":4104,"name":"Valverde","iso2":"27","country_code":"DO"}},{"type":"Feature","geometry":{"type":"Point","coordinates":[-68.7,18.6]},"properties":{"id":5549,"name":"Yuma","iso2":"42","country_code":"DO"}}]}