{"type":"FeatureCollection","features":[{"type":"Feature","geometry":{"type":"Point","coordinates":[37.5000048,16.5000101]},"properties":{"id":3425,"name":"Anseba","iso2":"AN","country_code":"ER"}},{"type":"Feature","geometry":{"type":"Point","coordinates":[38.8150692,14.9099667]},"properties":{"id":3427,"name":"Debub","iso2":"DU","country_code":"ER"}},{"type":"Feature","geometry":{"type":"Point","coordinates":[37.5,15.25]},"properties":{"id":3428,"name":"Gash-Barka","iso2":"GB","country_code":"ER"}},{"type":"Feature","geometry":{"type":"Point","coordinates":[38.916667,15.333333]},"properties":{"id":3426,"name":"Maekel","iso2":"MA","country_code":"ER"}},{"type":"Feature","geometry":{"type":"Point","coordinates":[39,16]},"properties":{"id":3424,"name":"Northern Red Sea","iso2":"SK","country_code":"ER"}},{"type":"Feature","geometry":{"type":"Point","coordinates":[41.5,13.75]},"properties":{"id":3429,"name":"Southern Red Sea","iso2":"DK","country_code":"ER"}}]}