{"type":"FeatureCollection","features":[{"type":"Feature","geometry":{"type":"Point","coordinates":[151.8515538,7.4393793]},"properties":{"id":2580,"name":"Chuuk","iso2":"TRK","country_code":"FM"}},{"type":"Feature","geometry":{"type":"Point","coordinates":[162.9814877,5.3095618]},"properties":{"id":2583,"name":"Kosrae","iso2":"KSA","country_code":"FM"}},{"type":"Feature","geometry":{"type":"Point","coordinates":[158.2406138,6.8870467]},"properties":{"id":2581,"name":"Pohnpei","iso2":"PNI","country_code":"FM"}},{"type":"Feature","geometry":{"type":"Point","coordinates":[138.1651599,9.5462683]},"properties":{"id":2582,"name":"Yap","iso2":"YAP","country_code":"FM"}}]}