{"type":"FeatureCollection","features":[{"type":"Feature","geometry":{"type":"Point","coordinates":[-6.8178451,62.1988704]},"properties":{"id":5229,"name":"Eysturoy","iso2":"EY","country_code":"FO"}},{"type":"Feature","geometry":{"type":"Point","coordinates":[6.7017061,62.2805689]},"properties":{"id":5230,"name":"Northern Isles","iso2":"NO","country_code":"FO"}},{"type":"Feature","geometry":{"type":"Point","coordinates":[-6.7239899,61.8333877]},"properties":{"id":5231,"name":"Sandoy","iso2":"SA","country_code":"FO"}},{"type":"Feature","geometry":{"type":"Point","coordinates":[-7.0158828,62.1237192]},"properties":{"id":5232,"name":"Streymoy","iso2":"ST","country_code":"FO"}},{"type":"Feature","geometry":{"type":"Point","coordinates":[-6.8141866,61.5210651]},"properties":{"id":5233,"name":"Suðuroy","iso2":"SU","country_code":"FO"}},{"type":"Feature","geometry":{"type":"Point","coordinates":[-7.2345841,62.0898985]},"properties":{"id":5234,"name":"Vágar","iso2":"VA","country_code":"FO"}}]}