{"type":"FeatureCollection","features":[{"type":"Feature","geometry":{"type":"Point","coordinates":[5.2847717,46.0652385]},"properties":{"id":4967,"name":"Ain","iso2":"01","country_code":"FR"}},{"type":"Feature","geometry":{"type":"Point","coordinates":[3.606899,49.4532854]},"properties":{"id":4968,"name":"Aisne","iso2":"02","country_code":"FR"}},{"type":"Feature","geometry":{"type":"Point","coordinates":[3.1638828,46.3674641]},"properties":{"id":4969,"name":"Allier","iso2":"03","country_code":"FR"}},{"type":"Feature","geometry":{"type":"Point","coordinates":[6.1878515,44.1640832]},"properties":{"id":4970,"name":"Alpes-de-Haute-Provence","iso2":"04","country_code":"FR"}},{"type":"Feature","geometry":{"type":"Point","coordinates":[7.0202655,43.9419996]},"properties":{"id":4972,"name":"Alpes-Maritimes","iso2":"06","country_code":"FR"}},{"type":"Feature","geometry":{"type":"Point","coordinates":[7.5875021,48.0098712]},"properties":{"id":4811,"name":"Alsace","iso2":"6AE","country_code":"FR"}},{"type":"Feature","geometry":{"type":"Point","coordinates":[4.3986525,44.815194]},"properties":{"id":4973,"name":"Ardèche","iso2":"07","country_code":"FR"}},{"type":"Feature","geometry":{"type":"Point","coordinates":[4.6716005,49.6980117]},"properties":{"id":4974,"name":"Ardennes","iso2":"08","country_code":"FR"}},{"type":"Feature","geometry":{"type":"Point","coordinates":[1.4065544,42.9455368]},"properties":{"id":4975,"name":"Ariège","iso2":"09","country_code":"FR"}},{"type":"Feature","geometry":{"type":"Point","coordinates":[4.1905397,48.3201921]},"properties":{"id":4976,"name":"Aube","iso2":"10","country_code":"FR"}},{"type":"Feature","geometry":{"type":"Point","coordinates":[2.5124715,43.0542733]},"properties":{"id":4977,"name":"Aude","iso2":"11","country_code":"FR"}},{"type":"Feature","geometry":{"type":"Point","coordinates":[4.6604809,45.2968119]},"properties":{"id":4798,"name":"Auvergne-Rhône-Alpes","iso2":"ARA","country_code":"FR"}},{"type":"Feature","geometry":{"type":"Point","coordinates":[2.5065697,44.3158574]},"properties":{"id":4978,"name":"Aveyron","iso2":"12","country_code":"FR"}},{"type":"Feature","geometry":{"type":"Point","coordinates":[7.5336729,48.5991783]},"properties":{"id":5035,"name":"Bas-Rhin","iso2":"67","country_code":"FR"}},{"type":"Feature","geometry":{"type":"Point","coordinates":[5.0343236,43.5424182]},"properties":{"id":4979,"name":"Bouches-du-Rhône","iso2":"13","country_code":"FR"}},{"type":"Feature","geometry":{"type":"Point","coordinates":[4.9691044,47.118711]},"properties":{"id":4825,"name":"Bourgogne-Franche-Comté","iso2":"BFC","country_code":"FR"}},{"type":"Feature","geometry":{"type":"Point","coordinates":[-2.9202408,48.2640845]},"properties":{"id":4807,"name":"Bretagne","iso2":"BRE","country_code":"FR"}},{"type":"Feature","geometry":{"type":"Point","coordinates":[-0.2413951,49.0907648]},"properties":{"id":4981,"name":"Calvados","iso2":"14","country_code":"FR"}},{"type":"Feature","geometry":{"type":"Point","coordinates":[2.6997176,45.0497701]},"properties":{"id":4982,"name":"Cantal","iso2":"15","country_code":"FR"}},{"type":"Feature","geometry":{"type":"Point","coordinates":[1.7324062,47.5490251]},"properties":{"id":4818,"name":"Centre-Val de Loire","iso2":"CVL","country_code":"FR"}},{"type":"Feature","geometry":{"type":"Point","coordinates":[-0.7212876,45.7302267]},"properties":{"id":4983,"name":"Charente","iso2":"16","country_code":"FR"}},{"type":"Feature","geometry":{"type":"Point","coordinates":[-0.7212876,45.7302267]},"properties":{"id":4984,"name":"Charente-Maritime","iso2":"17","country_code":"FR"}},{"type":"Feature","geometry":{"type":"Point","coordinates":[2.5753334,47.0248824]},"properties":{"id":4985,"name":"Cher","iso2":"18","country_code":"FR"}},{"type":"Feature","geometry":{"type":"Point","coordinates":[-109.217835,10.3021287]},"properties":{"id":5064,"name":"Clipperton","iso2":"CP","country_code":"FR"}},{"type":"Feature","geometry":{"type":"Point","coordinates":[1.8176424,45.3429047]},"properties":{"id":4986,"name":"Corrèze","iso2":"19","country_code":"FR"}},{"type":"Feature","geometry":{"type":"Point","coordinates":[9.0684138,42.1880896]},"properties":{"id":4806,"name":"Corse","iso2":"20R","country_code":"FR"}},{"type":"Feature","geometry":{"type":"Point","coordinates":[9.0087052,41.8734083]},"properties":{"id":4996,"name":"Corse-du-Sud","iso2":"2A","country_code":"FR"}},{"type":"Feature","geometry":{"type":"Point","coordinates":[4.7481223,47.4655034]},"properties":{"id":4987,"name":"Côte-d'Or","iso2":"21","country_code":"FR"}},{"type":"Feature","geometry":{"type":"Point","coordinates":[-2.7514328,48.4614877]},"properties":{"id":4988,"name":"Côtes-d'Armor","iso2":"22","country_code":"FR"}},{"type":"Feature","geometry":{"type":"Point","coordinates":[2.048901,46.0593485]},"properties":{"id":4989,"name":"Creuse","iso2":"23","country_code":"FR"}},{"type":"Feature","geometry":{"type":"Point","coordinates":[-0.2994785,46.53914]},"properties":{"id":5047,"name":"Deux-Sèvres","iso2":"79","country_code":"FR"}},{"type":"Feature","geometry":{"type":"Point","coordinates":[0.6321258,45.1429198]},"properties":{"id":4990,"name":"Dordogne","iso2":"24","country_code":"FR"}},{"type":"Feature","geometry":{"type":"Point","coordinates":[6.3476214,46.9321774]},"properties":{"id":4991,"name":"Doubs","iso2":"25","country_code":"FR"}},{"type":"Feature","geometry":{"type":"Point","coordinates":[5.2046372,44.7295347]},"properties":{"id":4992,"name":"Drôme","iso2":"26","country_code":"FR"}},{"type":"Feature","geometry":{"type":"Point","coordinates":[2.2392918,48.5303402]},"properties":{"id":5059,"name":"Essonne","iso2":"91","country_code":"FR"}},{"type":"Feature","geometry":{"type":"Point","coordinates":[0.9651829,49.0756358]},"properties":{"id":4993,"name":"Eure","iso2":"27","country_code":"FR"}},{"type":"Feature","geometry":{"type":"Point","coordinates":[1.399882,48.4474102]},"properties":{"id":4994,"name":"Eure-et-Loir","iso2":"28","country_code":"FR"}},{"type":"Feature","geometry":{"type":"Point","coordinates":[-4.0440902,48.2451152]},"properties":{"id":4995,"name":"Finistère","iso2":"29","country_code":"FR"}},{"type":"Feature","geometry":{"type":"Point","coordinates":[-52.999998,4.0039882]},"properties":{"id":4822,"name":"French Guiana","iso2":"973","country_code":"FR"}},{"type":"Feature","geometry":{"type":"Point","coordinates":[-144.6434898,-17.0243749]},"properties":{"id":4824,"name":"French Polynesia","iso2":"PF","country_code":"FR"}},{"type":"Feature","geometry":{"type":"Point","coordinates":[69.622759,-49.237442]},"properties":{"id":5065,"name":"French Southern and Antarctic Lands","iso2":"TF","country_code":"FR"}},{"type":"Feature","geometry":{"type":"Point","coordinates":[4.297637,43.95995]},"properties":{"id":4998,"name":"Gard","iso2":"30","country_code":"FR"}},{"type":"Feature","geometry":{"type":"Point","coordinates":[0.4101019,43.6955276]},"properties":{"id":5000,"name":"Gers","iso2":"32","country_code":"FR"}},{"type":"Feature","geometry":{"type":"Point","coordinates":[-0.6051264,44.883746]},"properties":{"id":5001,"name":"Gironde","iso2":"33","country_code":"FR"}},{"type":"Feature","geometry":{"type":"Point","coordinates":[6.113035,48.4845157]},"properties":{"id":4820,"name":"Grand-Est","iso2":"GES","country_code":"FR"}},{"type":"Feature","geometry":{"type":"Point","coordinates":[-61.5686855,16.2528827]},"properties":{"id":4829,"name":"Guadeloupe","iso2":"971","country_code":"FR"}},{"type":"Feature","geometry":{"type":"Point","coordinates":[7.2315433,47.8654746]},"properties":{"id":5036,"name":"Haut-Rhin","iso2":"68","country_code":"FR"}},{"type":"Feature","geometry":{"type":"Point","coordinates":[9.1009065,42.4219698]},"properties":{"id":4997,"name":"Haute-Corse","iso2":"2B","country_code":"FR"}},{"type":"Feature","geometry":{"type":"Point","coordinates":[0.9716792,43.3054546]},"properties":{"id":4999,"name":"Haute-Garonne","iso2":"31","country_code":"FR"}},{"type":"Feature","geometry":{"type":"Point","coordinates":[3.8338261,45.0857249]},"properties":{"id":5011,"name":"Haute-Loire","iso2":"43","country_code":"FR"}},{"type":"Feature","geometry":{"type":"Point","coordinates":[5.2529108,48.1329414]},"properties":{"id":5020,"name":"Haute-Marne","iso2":"52","country_code":"FR"}},{"type":"Feature","geometry":{"type":"Point","coordinates":[6.0951141,47.6384233]},"properties":{"id":5039,"name":"Haute-Saône","iso2":"70","country_code":"FR"}},{"type":"Feature","geometry":{"type":"Point","coordinates":[6.3445321,46.0690406]},"properties":{"id":5043,"name":"Haute-Savoie","iso2":"74","country_code":"FR"}},{"type":"Feature","geometry":{"type":"Point","coordinates":[1.2031768,45.9190192]},"properties":{"id":5055,"name":"Haute-Vienne","iso2":"87","country_code":"FR"}},{"type":"Feature","geometry":{"type":"Point","coordinates":[6.3520246,44.6564666]},"properties":{"id":4971,"name":"Hautes-Alpes","iso2":"05","country_code":"FR"}},{"type":"Feature","geometry":{"type":"Point","coordinates":[0.1586661,43.1437925]},"properties":{"id":5033,"name":"Hautes-Pyrénées","iso2":"65","country_code":"FR"}},{"type":"Feature","geometry":{"type":"Point","coordinates":[2.7247515,50.1024606]},"properties":{"id":4828,"name":"Hauts-de-France","iso2":"HDF","country_code":"FR"}},{"type":"Feature","geometry":{"type":"Point","coordinates":[2.19863,48.8401859]},"properties":{"id":5060,"name":"Hauts-de-Seine","iso2":"92","country_code":"FR"}},{"type":"Feature","geometry":{"type":"Point","coordinates":[3.3553309,43.591422]},"properties":{"id":5002,"name":"Hérault","iso2":"34","country_code":"FR"}},{"type":"Feature","geometry":{"type":"Point","coordinates":[2.7537863,48.6443057]},"properties":{"id":4796,"name":"Île-de-France","iso2":"IDF","country_code":"FR"}},{"type":"Feature","geometry":{"type":"Point","coordinates":[-1.6498092,48.1727681]},"properties":{"id":5003,"name":"Ille-et-Vilaine","iso2":"35","country_code":"FR"}},{"type":"Feature","geometry":{"type":"Point","coordinates":[1.5382052,46.8121057]},"properties":{"id":5004,"name":"Indre","iso2":"36","country_code":"FR"}},{"type":"Feature","geometry":{"type":"Point","coordinates":[0.6866703,47.2232046]},"properties":{"id":5005,"name":"Indre-et-Loire","iso2":"37","country_code":"FR"}},{"type":"Feature","geometry":{"type":"Point","coordinates":[5.6343825,45.2897932]},"properties":{"id":5006,"name":"Isère","iso2":"38","country_code":"FR"}},{"type":"Feature","geometry":{"type":"Point","coordinates":[5.7832857,46.7833625]},"properties":{"id":5007,"name":"Jura","iso2":"39","country_code":"FR"}},{"type":"Feature","geometry":{"type":"Point","coordinates":[55.5364801,-21.1307379]},"properties":{"id":4823,"name":"La Réunion","iso2":"974","country_code":"FR"}},{"type":"Feature","geometry":{"type":"Point","coordinates":[-0.6433872,44.0099694]},"properties":{"id":5008,"name":"Landes","iso2":"40","country_code":"FR"}},{"type":"Feature","geometry":{"type":"Point","coordinates":[1.2971835,47.6597752]},"properties":{"id":5009,"name":"Loir-et-Cher","iso2":"41","country_code":"FR"}},{"type":"Feature","geometry":{"type":"Point","coordinates":[-0.9784391,47.6150731]},"properties":{"id":5010,"name":"Loire","iso2":"42","country_code":"FR"}},{"type":"Feature","geometry":{"type":"Point","coordinates":[-1.8727461,47.3481614]},"properties":{"id":5012,"name":"Loire-Atlantique","iso2":"44","country_code":"FR"}},{"type":"Feature","geometry":{"type":"Point","coordinates":[2.3075036,47.9138724]},"properties":{"id":5013,"name":"Loiret","iso2":"45","country_code":"FR"}},{"type":"Feature","geometry":{"type":"Point","coordinates":[1.6657742,44.6249918]},"properties":{"id":5014,"name":"Lot","iso2":"46","country_code":"FR"}},{"type":"Feature","geometry":{"type":"Point","coordinates":[0.4539158,44.3691703]},"properties":{"id":5015,"name":"Lot-et-Garonne","iso2":"47","country_code":"FR"}},{"type":"Feature","geometry":{"type":"Point","coordinates":[3.5211146,44.5425706]},"properties":{"id":5016,"name":"Lozère","iso2":"48","country_code":"FR"}},{"type":"Feature","geometry":{"type":"Point","coordinates":[-0.3909097,47.3886305]},"properties":{"id":5017,"name":"Maine-et-Loire","iso2":"49","country_code":"FR"}},{"type":"Feature","geometry":{"type":"Point","coordinates":[-1.2454952,49.0918952]},"properties":{"id":5018,"name":"Manche","iso2":"50","country_code":"FR"}},{"type":"Feature","geometry":{"type":"Point","coordinates":[4.3122436,48.961264]},"properties":{"id":5019,"name":"Marne","iso2":"51","country_code":"FR"}},{"type":"Feature","geometry":{"type":"Point","coordinates":[-61.0158269,14.6367927]},"properties":{"id":4827,"name":"Martinique","iso2":"972","country_code":"FR"}},{"type":"Feature","geometry":{"type":"Point","coordinates":[-0.6179871,48.3044218]},"properties":{"id":5021,"name":"Mayenne","iso2":"53","country_code":"FR"}},{"type":"Feature","geometry":{"type":"Point","coordinates":[45.1520755,-12.823048]},"properties":{"id":4797,"name":"Mayotte","iso2":"976","country_code":"FR"}},{"type":"Feature","geometry":{"type":"Point","coordinates":[4.8556859,45.7481616]},"properties":{"id":5038,"name":"Métropole de Lyon","iso2":"69M","country_code":"FR"}},{"type":"Feature","geometry":{"type":"Point","coordinates":[5.9870383,48.9559682]},"properties":{"id":5022,"name":"Meurthe-et-Moselle","iso2":"54","country_code":"FR"}},{"type":"Feature","geometry":{"type":"Point","coordinates":[5.4286691,49.0129685]},"properties":{"id":5023,"name":"Meuse","iso2":"55","country_code":"FR"}},{"type":"Feature","geometry":{"type":"Point","coordinates":[-2.7633493,47.8259812]},"properties":{"id":5024,"name":"Morbihan","iso2":"56","country_code":"FR"}},{"type":"Feature","geometry":{"type":"Point","coordinates":[6.5380352,49.0207259]},"properties":{"id":5025,"name":"Moselle","iso2":"57","country_code":"FR"}},{"type":"Feature","geometry":{"type":"Point","coordinates":[3.5448898,47.1196971]},"properties":{"id":5026,"name":"Nièvre","iso2":"58","country_code":"FR"}},{"type":"Feature","geometry":{"type":"Point","coordinates":[3.0883508,50.5289615]},"properties":{"id":5027,"name":"Nord","iso2":"59","country_code":"FR"}},{"type":"Feature","geometry":{"type":"Point","coordinates":[0.3138532,49.0677708]},"properties":{"id":4804,"name":"Normandie","iso2":"NOR","country_code":"FR"}},{"type":"Feature","geometry":{"type":"Point","coordinates":[0.3756199,45.4039367]},"properties":{"id":4795,"name":"Nouvelle-Aquitaine","iso2":"NAQ","country_code":"FR"}},{"type":"Feature","geometry":{"type":"Point","coordinates":[165.3,-21.25]},"properties":{"id":5538,"name":"Nouvelle-Calédonie","iso2":"NC","country_code":"FR"}},{"type":"Feature","geometry":{"type":"Point","coordinates":[2.3435684,43.6487851]},"properties":{"id":4799,"name":"Occitanie","iso2":"OCC","country_code":"FR"}},{"type":"Feature","geometry":{"type":"Point","coordinates":[2.4064878,49.4120546]},"properties":{"id":5028,"name":"Oise","iso2":"60","country_code":"FR"}},{"type":"Feature","geometry":{"type":"Point","coordinates":[0.0448794,48.575888]},"properties":{"id":5029,"name":"Orne","iso2":"61","country_code":"FR"}},{"type":"Feature","geometry":{"type":"Point","coordinates":[2.3522219,48.856614]},"properties":{"id":4816,"name":"Paris","iso2":"75C","country_code":"FR"}},{"type":"Feature","geometry":{"type":"Point","coordinates":[2.2580078,50.5144061]},"properties":{"id":5030,"name":"Pas-de-Calais","iso2":"62","country_code":"FR"}},{"type":"Feature","geometry":{"type":"Point","coordinates":[-0.8186143,47.6594864]},"properties":{"id":4802,"name":"Pays-de-la-Loire","iso2":"PDL","country_code":"FR"}},{"type":"Feature","geometry":{"type":"Point","coordinates":[6.0638506,44.0580563]},"properties":{"id":4812,"name":"Provence-Alpes-Côte-d’Azur","iso2":"PAC","country_code":"FR"}},{"type":"Feature","geometry":{"type":"Point","coordinates":[2.964407,45.7726494]},"properties":{"id":5031,"name":"Puy-de-Dôme","iso2":"63","country_code":"FR"}},{"type":"Feature","geometry":{"type":"Point","coordinates":[-0.7282474,43.1871865]},"properties":{"id":5032,"name":"Pyrénées-Atlantiques","iso2":"64","country_code":"FR"}},{"type":"Feature","geometry":{"type":"Point","coordinates":[2.506509,42.625894]},"properties":{"id":5034,"name":"Pyrénées-Orientales","iso2":"66","country_code":"FR"}},{"type":"Feature","geometry":{"type":"Point","coordinates":[4.5645336,45.8802348]},"properties":{"id":5037,"name":"Rhône","iso2":"69","country_code":"FR"}},{"type":"Feature","geometry":{"type":"Point","coordinates":[-56.2120555,46.8374544]},"properties":{"id":4821,"name":"Saint Pierre and Miquelon","iso2":"PM","country_code":"FR"}},{"type":"Feature","geometry":{"type":"Point","coordinates":[-62.8205871,17.9005134]},"properties":{"id":4794,"name":"Saint-Barthélemy","iso2":"BL","country_code":"FR"}},{"type":"Feature","geometry":{"type":"Point","coordinates":[-63.0467131,18.0814066]},"properties":{"id":4809,"name":"Saint-Martin","iso2":"MF","country_code":"FR"}},{"type":"Feature","geometry":{"type":"Point","coordinates":[4.5585548,46.6557086]},"properties":{"id":5040,"name":"Saône-et-Loire","iso2":"71","country_code":"FR"}},{"type":"Feature","geometry":{"type":"Point","coordinates":[0.2538217,48.0269287]},"properties":{"id":5041,"name":"Sarthe","iso2":"72","country_code":"FR"}},{"type":"Feature","geometry":{"type":"Point","coordinates":[6.3846604,45.4948952]},"properties":{"id":5042,"name":"Savoie","iso2":"73","country_code":"FR"}},{"type":"Feature","geometry":{"type":"Point","coordinates":[3.0418158,48.6190207]},"properties":{"id":5045,"name":"Seine-et-Marne","iso2":"77","country_code":"FR"}},{"type":"Feature","geometry":{"type":"Point","coordinates":[0.9401134,49.6632374]},"properties":{"id":5044,"name":"Seine-Maritime","iso2":"76","country_code":"FR"}},{"type":"Feature","geometry":{"type":"Point","coordinates":[2.4528635,48.9098125]},"properties":{"id":5061,"name":"Seine-Saint-Denis","iso2":"93","country_code":"FR"}},{"type":"Feature","geometry":{"type":"Point","coordinates":[2.3738855,49.9689482]},"properties":{"id":5048,"name":"Somme","iso2":"80","country_code":"FR"}},{"type":"Feature","geometry":{"type":"Point","coordinates":[2.1339648,43.7921741]},"properties":{"id":5049,"name":"Tarn","iso2":"81","country_code":"FR"}},{"type":"Feature","geometry":{"type":"Point","coordinates":[1.2050633,44.080656]},"properties":{"id":5050,"name":"Tarn-et-Garonne","iso2":"82","country_code":"FR"}},{"type":"Feature","geometry":{"type":"Point","coordinates":[6.8993012,47.629231]},"properties":{"id":5058,"name":"Territoire de Belfort","iso2":"90","country_code":"FR"}},{"type":"Feature","geometry":{"type":"Point","coordinates":[2.2098114,49.0750704]},"properties":{"id":5063,"name":"Val-d'Oise","iso2":"95","country_code":"FR"}},{"type":"Feature","geometry":{"type":"Point","coordinates":[2.4543321,48.7744893]},"properties":{"id":5062,"name":"Val-de-Marne","iso2":"94","country_code":"FR"}},{"type":"Feature","geometry":{"type":"Point","coordinates":[6.2664637,43.4173551]},"properties":{"id":5051,"name":"Var","iso2":"83","country_code":"FR"}},{"type":"Feature","geometry":{"type":"Point","coordinates":[5.1818898,43.9938643]},"properties":{"id":5052,"name":"Vaucluse","iso2":"84","country_code":"FR"}},{"type":"Feature","geometry":{"type":"Point","coordinates":[-1.2914463,46.6757732]},"properties":{"id":5053,"name":"Vendée","iso2":"85","country_code":"FR"}},{"type":"Feature","geometry":{"type":"Point","coordinates":[4.87477,45.52524]},"properties":{"id":5054,"name":"Vienne","iso2":"86","country_code":"FR"}},{"type":"Feature","geometry":{"type":"Point","coordinates":[6.3820712,48.163786]},"properties":{"id":5056,"name":"Vosges","iso2":"88","country_code":"FR"}},{"type":"Feature","geometry":{"type":"Point","coordinates":[-176.204224,-13.289402]},"properties":{"id":4810,"name":"Wallis and Futuna","iso2":"WF","country_code":"FR"}},{"type":"Feature","geometry":{"type":"Point","coordinates":[3.6450439,47.8551257]},"properties":{"id":5057,"name":"Yonne","iso2":"89","country_code":"FR"}},{"type":"Feature","geometry":{"type":"Point","coordinates":[1.8871376,48.7620373]},"properties":{"id":5046,"name":"Yvelines","iso2":"78","country_code":"FR"}}]}