{"type":"FeatureCollection","features":[{"type":"Feature","geometry":{"type":"Point","coordinates":[-59.7179022,7.7559147]},"properties":{"id":2764,"name":"Barima-Waini","iso2":"BA","country_code":"GY"}},{"type":"Feature","geometry":{"type":"Point","coordinates":[-59.849737,6.188854]},"properties":{"id":2760,"name":"Cuyuni-Mazaruni","iso2":"CU","country_code":"GY"}},{"type":"Feature","geometry":{"type":"Point","coordinates":[-58.1280676,6.4547883]},"properties":{"id":2767,"name":"Demerara-Mahaica","iso2":"DE","country_code":"GY"}},{"type":"Feature","geometry":{"type":"Point","coordinates":[-58.1383925,3.8972611]},"properties":{"id":2766,"name":"East Berbice-Corentyne","iso2":"EB","country_code":"GY"}},{"type":"Feature","geometry":{"type":"Point","coordinates":[-58.3114218,6.8777848]},"properties":{"id":2768,"name":"Essequibo Islands-West Demerara","iso2":"ES","country_code":"GY"}},{"type":"Feature","geometry":{"type":"Point","coordinates":[-57.82391,6.2766898]},"properties":{"id":2762,"name":"Mahaica-Berbice","iso2":"MA","country_code":"GY"}},{"type":"Feature","geometry":{"type":"Point","coordinates":[-58.8295641,7.2049548]},"properties":{"id":2765,"name":"Pomeroon-Supenaam","iso2":"PM","country_code":"GY"}},{"type":"Feature","geometry":{"type":"Point","coordinates":[-59.4193612,4.8622287]},"properties":{"id":2761,"name":"Potaro-Siparuni","iso2":"PT","country_code":"GY"}},{"type":"Feature","geometry":{"type":"Point","coordinates":[-58.154152,5.5612677]},"properties":{"id":2763,"name":"Upper Demerara-Berbice","iso2":"UD","country_code":"GY"}},{"type":"Feature","geometry":{"type":"Point","coordinates":[-58.9784823,2.8449628]},"properties":{"id":2769,"name":"Upper Takutu-Upper Essequibo","iso2":"UT","country_code":"GY"}}]}