{"type":"FeatureCollection","features":[{"type":"Feature","geometry":{"type":"Point","coordinates":[114.15497,22.28666]},"properties":{"id":4889,"name":"Central and Western","iso2":"HCW","country_code":"HK"}},{"type":"Feature","geometry":{"type":"Point","coordinates":[114.22414,22.28411]},"properties":{"id":4891,"name":"Eastern","iso2":"HEA","country_code":"HK"}},{"type":"Feature","geometry":{"type":"Point","coordinates":[113.94608,22.26114]},"properties":{"id":4888,"name":"Islands","iso2":"NIS","country_code":"HK"}},{"type":"Feature","geometry":{"type":"Point","coordinates":[114.19155,22.3282]},"properties":{"id":4895,"name":"Kowloon City","iso2":"KKC","country_code":"HK"}},{"type":"Feature","geometry":{"type":"Point","coordinates":[114.1229825,22.3634303]},"properties":{"id":4898,"name":"Kwai Tsing","iso2":"NKT","country_code":"HK"}},{"type":"Feature","geometry":{"type":"Point","coordinates":[114.22581,22.31326]},"properties":{"id":4897,"name":"Kwun Tong","iso2":"KKT","country_code":"HK"}},{"type":"Feature","geometry":{"type":"Point","coordinates":[114.13812,22.49471]},"properties":{"id":4900,"name":"North","iso2":"NNO","country_code":"HK"}},{"type":"Feature","geometry":{"type":"Point","coordinates":[108.3954313,21.6730519]},"properties":{"id":4887,"name":"Sai Kung","iso2":"NSK","country_code":"HK"}},{"type":"Feature","geometry":{"type":"Point","coordinates":[114.19534,22.38715]},"properties":{"id":4901,"name":"Sha Tin","iso2":"NST","country_code":"HK"}},{"type":"Feature","geometry":{"type":"Point","coordinates":[114.1698162,22.2357383]},"properties":{"id":4894,"name":"Sham Shui Po","iso2":"KSS","country_code":"HK"}},{"type":"Feature","geometry":{"type":"Point","coordinates":[114.15884,22.24725]},"properties":{"id":4892,"name":"Southern","iso2":"HSO","country_code":"HK"}},{"type":"Feature","geometry":{"type":"Point","coordinates":[114.16422,22.45085]},"properties":{"id":4885,"name":"Tai Po","iso2":"NTP","country_code":"HK"}},{"type":"Feature","geometry":{"type":"Point","coordinates":[114.12907,22.36281]},"properties":{"id":4884,"name":"Tsuen Wan","iso2":"NTW","country_code":"HK"}},{"type":"Feature","geometry":{"type":"Point","coordinates":[113.9770885,22.39163]},"properties":{"id":4899,"name":"Tuen Mun","iso2":"NTM","country_code":"HK"}},{"type":"Feature","geometry":{"type":"Point","coordinates":[114.1898216,22.264499]},"properties":{"id":4890,"name":"Wan Chai","iso2":"HWC","country_code":"HK"}},{"type":"Feature","geometry":{"type":"Point","coordinates":[114.19686,22.33353]},"properties":{"id":4896,"name":"Wong Tai Sin","iso2":"KWT","country_code":"HK"}},{"type":"Feature","geometry":{"type":"Point","coordinates":[114.1726,22.32138]},"properties":{"id":4893,"name":"Yau Tsim Mong","iso2":"KYT","country_code":"HK"}},{"type":"Feature","geometry":{"type":"Point","coordinates":[114.0958704,22.4487051]},"properties":{"id":4883,"name":"Yuen Long","iso2":"NYL","country_code":"HK"}}]}