{"type":"FeatureCollection","features":[{"type":"Feature","geometry":{"type":"Point","coordinates":[-72.4924346,19.3366225]},"properties":{"id":4123,"name":"Artibonite","iso2":"AR","country_code":"HT"}},{"type":"Feature","geometry":{"type":"Point","coordinates":[-71.9943985,18.9908235]},"properties":{"id":4125,"name":"Centre","iso2":"CE","country_code":"HT"}},{"type":"Feature","geometry":{"type":"Point","coordinates":[-74.1511463,18.5304144]},"properties":{"id":4119,"name":"Grand'Anse","iso2":"GA","country_code":"HT"}},{"type":"Feature","geometry":{"type":"Point","coordinates":[-73.3913782,18.4420426]},"properties":{"id":4118,"name":"Nippes","iso2":"NI","country_code":"HT"}},{"type":"Feature","geometry":{"type":"Point","coordinates":[-72.2699286,19.6258245]},"properties":{"id":4117,"name":"Nord","iso2":"ND","country_code":"HT"}},{"type":"Feature","geometry":{"type":"Point","coordinates":[-71.8728225,19.5178468]},"properties":{"id":4121,"name":"Nord-Est","iso2":"NE","country_code":"HT"}},{"type":"Feature","geometry":{"type":"Point","coordinates":[-73.0589966,19.8469434]},"properties":{"id":4126,"name":"Nord-Ouest","iso2":"NO","country_code":"HT"}},{"type":"Feature","geometry":{"type":"Point","coordinates":[-72.4387315,18.7668687]},"properties":{"id":4120,"name":"Ouest","iso2":"OU","country_code":"HT"}},{"type":"Feature","geometry":{"type":"Point","coordinates":[-73.8444985,18.2612839]},"properties":{"id":4122,"name":"Sud","iso2":"SD","country_code":"HT"}},{"type":"Feature","geometry":{"type":"Point","coordinates":[-72.3745698,18.2973566]},"properties":{"id":4124,"name":"Sud-Est","iso2":"SE","country_code":"HT"}}]}