{"type":"FeatureCollection","features":[{"type":"Feature","geometry":{"type":"Point","coordinates":[50.7884216,35.9413239]},"properties":{"id":3929,"name":"Alborz","iso2":"30","country_code":"IR"}},{"type":"Feature","geometry":{"type":"Point","coordinates":[47.9313001,38.4583983]},"properties":{"id":3934,"name":"Ardabil","iso2":"24","country_code":"IR"}},{"type":"Feature","geometry":{"type":"Point","coordinates":[51.3204877,28.8936645]},"properties":{"id":3932,"name":"Bushehr","iso2":"18","country_code":"IR"}},{"type":"Feature","geometry":{"type":"Point","coordinates":[50.685709,32.0163307]},"properties":{"id":3921,"name":"Chaharmahal and Bakhtiari","iso2":"14","country_code":"IR"}},{"type":"Feature","geometry":{"type":"Point","coordinates":[46.6781589,37.9160365]},"properties":{"id":3944,"name":"East Azerbaijan","iso2":"03","country_code":"IR"}},{"type":"Feature","geometry":{"type":"Point","coordinates":[53.218456,29.299051]},"properties":{"id":3939,"name":"Fars","iso2":"07","country_code":"IR"}},{"type":"Feature","geometry":{"type":"Point","coordinates":[49.6389743,37.1515627]},"properties":{"id":3920,"name":"Gilan","iso2":"01","country_code":"IR"}},{"type":"Feature","geometry":{"type":"Point","coordinates":[55.070672,37.1984436]},"properties":{"id":3933,"name":"Golestan","iso2":"27","country_code":"IR"}},{"type":"Feature","geometry":{"type":"Point","coordinates":[48.5152464,34.7992888]},"properties":{"id":4920,"name":"Hamadan","iso2":"13","country_code":"IR"}},{"type":"Feature","geometry":{"type":"Point","coordinates":[56.335807,27.7198095]},"properties":{"id":3937,"name":"Hormozgan","iso2":"22","country_code":"IR"}},{"type":"Feature","geometry":{"type":"Point","coordinates":[46.7576343,33.1545696]},"properties":{"id":3918,"name":"Ilam","iso2":"16","country_code":"IR"}},{"type":"Feature","geometry":{"type":"Point","coordinates":[52.4981635,33.1881386]},"properties":{"id":3923,"name":"Isfahan","iso2":"10","country_code":"IR"}},{"type":"Feature","geometry":{"type":"Point","coordinates":[57.301047,29.571858]},"properties":{"id":3943,"name":"Kerman","iso2":"08","country_code":"IR"}},{"type":"Feature","geometry":{"type":"Point","coordinates":[46.808727,34.486732]},"properties":{"id":3919,"name":"Kermanshah","iso2":"05","country_code":"IR"}},{"type":"Feature","geometry":{"type":"Point","coordinates":[49.0058885,31.5563051]},"properties":{"id":3917,"name":"Khuzestan","iso2":"06","country_code":"IR"}},{"type":"Feature","geometry":{"type":"Point","coordinates":[50.8661454,30.8143476]},"properties":{"id":3926,"name":"Kohgiluyeh and Boyer-Ahmad","iso2":"17","country_code":"IR"}},{"type":"Feature","geometry":{"type":"Point","coordinates":[47.0127981,35.6727813]},"properties":{"id":3935,"name":"Kurdistan","iso2":"12","country_code":"IR"}},{"type":"Feature","geometry":{"type":"Point","coordinates":[48.2443945,33.5368206]},"properties":{"id":3928,"name":"Lorestan","iso2":"15","country_code":"IR"}},{"type":"Feature","geometry":{"type":"Point","coordinates":[49.7864561,34.5302705]},"properties":{"id":3916,"name":"Markazi","iso2":"00","country_code":"IR"}},{"type":"Feature","geometry":{"type":"Point","coordinates":[51.8968597,36.3159159]},"properties":{"id":3938,"name":"Mazandaran","iso2":"02","country_code":"IR"}},{"type":"Feature","geometry":{"type":"Point","coordinates":[56.9526137,37.5378855]},"properties":{"id":3942,"name":"North Khorasan","iso2":"28","country_code":"IR"}},{"type":"Feature","geometry":{"type":"Point","coordinates":[49.8398161,36.0156291]},"properties":{"id":3941,"name":"Qazvin","iso2":"26","country_code":"IR"}},{"type":"Feature","geometry":{"type":"Point","coordinates":[50.8746035,34.6415764]},"properties":{"id":3922,"name":"Qom","iso2":"25","country_code":"IR"}},{"type":"Feature","geometry":{"type":"Point","coordinates":[59.0237291,35.4795009]},"properties":{"id":3927,"name":"Razavi Khorasan","iso2":"09","country_code":"IR"}},{"type":"Feature","geometry":{"type":"Point","coordinates":[54.6209302,35.3843145]},"properties":{"id":3940,"name":"Semnan","iso2":"20","country_code":"IR"}},{"type":"Feature","geometry":{"type":"Point","coordinates":[60.8236848,28.1292481]},"properties":{"id":3931,"name":"Sistan and Baluchestan","iso2":"11","country_code":"IR"}},{"type":"Feature","geometry":{"type":"Point","coordinates":[58.1065069,33.129577]},"properties":{"id":3930,"name":"South Khorasan","iso2":"29","country_code":"IR"}},{"type":"Feature","geometry":{"type":"Point","coordinates":[51.3896004,35.6892523]},"properties":{"id":3945,"name":"Tehran","iso2":"23","country_code":"IR"}},{"type":"Feature","geometry":{"type":"Point","coordinates":[44.3204853,38.4942731]},"properties":{"id":3924,"name":"West Azarbaijan","iso2":"04","country_code":"IR"}},{"type":"Feature","geometry":{"type":"Point","coordinates":[54.3701235,31.9052223]},"properties":{"id":3936,"name":"Yazd","iso2":"21","country_code":"IR"}},{"type":"Feature","geometry":{"type":"Point","coordinates":[48.4777616,36.515854]},"properties":{"id":3925,"name":"Zanjan","iso2":"19","country_code":"IR"}}]}