{"type":"FeatureCollection","features":[{"type":"Feature","geometry":{"type":"Point","coordinates":[36.0172739,0.71401]},"properties":{"id":181,"name":"Baringo","iso2":"01","country_code":"KE"}},{"type":"Feature","geometry":{"type":"Point","coordinates":[35.2399625,-0.7196054]},"properties":{"id":210,"name":"Bomet","iso2":"02","country_code":"KE"}},{"type":"Feature","geometry":{"type":"Point","coordinates":[34.5583766,0.5695252]},"properties":{"id":168,"name":"Bungoma","iso2":"03","country_code":"KE"}},{"type":"Feature","geometry":{"type":"Point","coordinates":[34.2647952,0.3712048]},"properties":{"id":161,"name":"Busia","iso2":"04","country_code":"KE"}},{"type":"Feature","geometry":{"type":"Point","coordinates":[35.5618083,0.7422191]},"properties":{"id":201,"name":"Elgeyo-Marakwet","iso2":"05","country_code":"KE"}},{"type":"Feature","geometry":{"type":"Point","coordinates":[37.6652884,-0.5359479]},"properties":{"id":163,"name":"Embu","iso2":"06","country_code":"KE"}},{"type":"Feature","geometry":{"type":"Point","coordinates":[39.6460988,-0.4532293]},"properties":{"id":196,"name":"Garissa","iso2":"07","country_code":"KE"}},{"type":"Feature","geometry":{"type":"Point","coordinates":[34.3187819,-0.5639601]},"properties":{"id":195,"name":"Homa Bay","iso2":"08","country_code":"KE"}},{"type":"Feature","geometry":{"type":"Point","coordinates":[38.7478954,1.0060601]},"properties":{"id":170,"name":"Isiolo","iso2":"09","country_code":"KE"}},{"type":"Feature","geometry":{"type":"Point","coordinates":[36.786255,-2.121717]},"properties":{"id":197,"name":"Kajiado","iso2":"10","country_code":"KE"}},{"type":"Feature","geometry":{"type":"Point","coordinates":[34.75,0.2833]},"properties":{"id":158,"name":"Kakamega","iso2":"11","country_code":"KE"}},{"type":"Feature","geometry":{"type":"Point","coordinates":[35.2833,-0.3666]},"properties":{"id":193,"name":"Kericho","iso2":"12","country_code":"KE"}},{"type":"Feature","geometry":{"type":"Point","coordinates":[36.8431312,-1.036395]},"properties":{"id":199,"name":"Kiambu","iso2":"13","country_code":"KE"}},{"type":"Feature","geometry":{"type":"Point","coordinates":[39.85,-3.6333]},"properties":{"id":174,"name":"Kilifi","iso2":"14","country_code":"KE"}},{"type":"Feature","geometry":{"type":"Point","coordinates":[37.3027681,-0.468878]},"properties":{"id":167,"name":"Kirinyaga","iso2":"15","country_code":"KE"}},{"type":"Feature","geometry":{"type":"Point","coordinates":[34.7677944,-0.6694119]},"properties":{"id":159,"name":"Kisii","iso2":"16","country_code":"KE"}},{"type":"Feature","geometry":{"type":"Point","coordinates":[34.7541761,-0.1029109]},"properties":{"id":171,"name":"Kisumu","iso2":"17","country_code":"KE"}},{"type":"Feature","geometry":{"type":"Point","coordinates":[38.3728116,-1.5642219]},"properties":{"id":211,"name":"Kitui","iso2":"18","country_code":"KE"}},{"type":"Feature","geometry":{"type":"Point","coordinates":[39.105095,-4.1836067]},"properties":{"id":173,"name":"Kwale","iso2":"19","country_code":"KE"}},{"type":"Feature","geometry":{"type":"Point","coordinates":[36.8257711,0.2858452]},"properties":{"id":164,"name":"Laikipia","iso2":"20","country_code":"KE"}},{"type":"Feature","geometry":{"type":"Point","coordinates":[40.7280992,-2.0645209]},"properties":{"id":166,"name":"Lamu","iso2":"21","country_code":"KE"}},{"type":"Feature","geometry":{"type":"Point","coordinates":[37.2634146,-1.5176837]},"properties":{"id":184,"name":"Machakos","iso2":"22","country_code":"KE"}},{"type":"Feature","geometry":{"type":"Point","coordinates":[37.8771715,-2.257093]},"properties":{"id":188,"name":"Makueni","iso2":"23","country_code":"KE"}},{"type":"Feature","geometry":{"type":"Point","coordinates":[40.7056153,3.2285332]},"properties":{"id":187,"name":"Mandera","iso2":"24","country_code":"KE"}},{"type":"Feature","geometry":{"type":"Point","coordinates":[37.991639,2.3380612]},"properties":{"id":194,"name":"Marsabit","iso2":"25","country_code":"KE"}},{"type":"Feature","geometry":{"type":"Point","coordinates":[37.7772624,0.2254509]},"properties":{"id":198,"name":"Meru","iso2":"26","country_code":"KE"}},{"type":"Feature","geometry":{"type":"Point","coordinates":[34.3095427,-1.0192237]},"properties":{"id":190,"name":"Migori","iso2":"27","country_code":"KE"}},{"type":"Feature","geometry":{"type":"Point","coordinates":[39.667169,-4.05052]},"properties":{"id":200,"name":"Mombasa","iso2":"28","country_code":"KE"}},{"type":"Feature","geometry":{"type":"Point","coordinates":[37.0049216,-0.8317087]},"properties":{"id":178,"name":"Murang'a","iso2":"29","country_code":"KE"}},{"type":"Feature","geometry":{"type":"Point","coordinates":[36.8219462,-1.2920659]},"properties":{"id":191,"name":"Nairobi City","iso2":"30","country_code":"KE"}},{"type":"Feature","geometry":{"type":"Point","coordinates":[36.0712048,-0.2802724]},"properties":{"id":203,"name":"Nakuru","iso2":"31","country_code":"KE"}},{"type":"Feature","geometry":{"type":"Point","coordinates":[35.1244929,0.2253932]},"properties":{"id":165,"name":"Nandi","iso2":"32","country_code":"KE"}},{"type":"Feature","geometry":{"type":"Point","coordinates":[35.8714916,-1.0886931]},"properties":{"id":175,"name":"Narok","iso2":"33","country_code":"KE"}},{"type":"Feature","geometry":{"type":"Point","coordinates":[34.934167,-0.6517907]},"properties":{"id":209,"name":"Nyamira","iso2":"34","country_code":"KE"}},{"type":"Feature","geometry":{"type":"Point","coordinates":[36.4977397,-0.3917064]},"properties":{"id":192,"name":"Nyandarua","iso2":"35","country_code":"KE"}},{"type":"Feature","geometry":{"type":"Point","coordinates":[36.9517005,-0.4192962]},"properties":{"id":180,"name":"Nyeri","iso2":"36","country_code":"KE"}},{"type":"Feature","geometry":{"type":"Point","coordinates":[36.942166,1.5394463]},"properties":{"id":207,"name":"Samburu","iso2":"37","country_code":"KE"}},{"type":"Feature","geometry":{"type":"Point","coordinates":[34.200135,-0.0604013]},"properties":{"id":186,"name":"Siaya","iso2":"38","country_code":"KE"}},{"type":"Feature","geometry":{"type":"Point","coordinates":[38.3670676,-3.4178355]},"properties":{"id":176,"name":"Taita–Taveta","iso2":"39","country_code":"KE"}},{"type":"Feature","geometry":{"type":"Point","coordinates":[39.5508374,-1.5365119]},"properties":{"id":205,"name":"Tana River","iso2":"40","country_code":"KE"}},{"type":"Feature","geometry":{"type":"Point","coordinates":[37.961405,-0.1937081]},"properties":{"id":185,"name":"Tharaka-Nithi","iso2":"41","country_code":"KE"}},{"type":"Feature","geometry":{"type":"Point","coordinates":[34.979044,1.0454582]},"properties":{"id":183,"name":"Trans Nzoia","iso2":"42","country_code":"KE"}},{"type":"Feature","geometry":{"type":"Point","coordinates":[35.5977228,2.7655657]},"properties":{"id":206,"name":"Turkana","iso2":"43","country_code":"KE"}},{"type":"Feature","geometry":{"type":"Point","coordinates":[35.3050597,0.4771938]},"properties":{"id":169,"name":"Uasin Gishu","iso2":"44","country_code":"KE"}},{"type":"Feature","geometry":{"type":"Point","coordinates":[34.7077665,0.0767553]},"properties":{"id":202,"name":"Vihiga","iso2":"45","country_code":"KE"}},{"type":"Feature","geometry":{"type":"Point","coordinates":[40.0594959,1.7504651]},"properties":{"id":182,"name":"Wajir","iso2":"46","country_code":"KE"}},{"type":"Feature","geometry":{"type":"Point","coordinates":[35.210613,1.8798608]},"properties":{"id":208,"name":"West Pokot","iso2":"47","country_code":"KE"}}]}