{"type":"FeatureCollection","features":[{"type":"Feature","geometry":{"type":"Point","coordinates":[175.2969455,-1.2394556]},"properties":{"id":1831,"name":"Gilbert","iso2":"G","country_code":"KI"}},{"type":"Feature","geometry":{"type":"Point","coordinates":[172.9311202,1.3589779]},"properties":{"id":1832,"name":"Line","iso2":"L","country_code":"KI"}},{"type":"Feature","geometry":{"type":"Point","coordinates":[-170.7117052,-3.7213444]},"properties":{"id":1830,"name":"Phoenix","iso2":"P","country_code":"KI"}}]}