{"type":"FeatureCollection","features":[{"type":"Feature","geometry":{"type":"Point","coordinates":[-62.7617837,17.3604812]},"properties":{"id":3833,"name":"Christ Church Nichola Town","iso2":"01","country_code":"KN"}},{"type":"Feature","geometry":{"type":"Point","coordinates":[-62.5796026,17.1553558]},"properties":{"id":3832,"name":"Nevis","iso2":"N","country_code":"KN"}},{"type":"Feature","geometry":{"type":"Point","coordinates":[-62.8441133,17.3725333]},"properties":{"id":3836,"name":"Saint Anne Sandy Point","iso2":"02","country_code":"KN"}},{"type":"Feature","geometry":{"type":"Point","coordinates":[-62.6424082,17.2391544]},"properties":{"id":5348,"name":"Saint George Basseterre","iso2":"03","country_code":"KN"}},{"type":"Feature","geometry":{"type":"Point","coordinates":[-62.5619811,17.1257759]},"properties":{"id":3837,"name":"Saint George Gingerland","iso2":"04","country_code":"KN"}},{"type":"Feature","geometry":{"type":"Point","coordinates":[-62.5796026,17.1769633]},"properties":{"id":3835,"name":"Saint James Windward","iso2":"05","country_code":"KN"}},{"type":"Feature","geometry":{"type":"Point","coordinates":[-62.7992132,17.3872567]},"properties":{"id":3845,"name":"Saint John Capisterre","iso2":"06","country_code":"KN"}},{"type":"Feature","geometry":{"type":"Point","coordinates":[-62.6031004,17.1155748]},"properties":{"id":3840,"name":"Saint John Figtree","iso2":"07","country_code":"KN"}},{"type":"Feature","geometry":{"type":"Point","coordinates":[-62.7446806,17.3156929]},"properties":{"id":3841,"name":"Saint Kitts","iso2":"K","country_code":"KN"}},{"type":"Feature","geometry":{"type":"Point","coordinates":[-62.7382671,17.3462071]},"properties":{"id":3844,"name":"Saint Mary Cayon","iso2":"08","country_code":"KN"}},{"type":"Feature","geometry":{"type":"Point","coordinates":[-62.835829,17.3949059]},"properties":{"id":3834,"name":"Saint Paul Capisterre","iso2":"09","country_code":"KN"}},{"type":"Feature","geometry":{"type":"Point","coordinates":[-62.6133816,17.1346297]},"properties":{"id":3838,"name":"Saint Paul Charlestown","iso2":"10","country_code":"KN"}},{"type":"Feature","geometry":{"type":"Point","coordinates":[-62.7217779,17.3255653]},"properties":{"id":3831,"name":"Saint Peter Basseterre","iso2":"11","country_code":"KN"}},{"type":"Feature","geometry":{"type":"Point","coordinates":[-62.6089753,17.1650513]},"properties":{"id":3839,"name":"Saint Thomas Lowland","iso2":"12","country_code":"KN"}},{"type":"Feature","geometry":{"type":"Point","coordinates":[-62.8088251,17.3348813]},"properties":{"id":3842,"name":"Saint Thomas Middle Island","iso2":"13","country_code":"KN"}},{"type":"Feature","geometry":{"type":"Point","coordinates":[-62.7685145,17.3145143]},"properties":{"id":3843,"name":"Trinity Palmetto Point","iso2":"15","country_code":"KN"}}]}