{"type":"FeatureCollection","features":[{"type":"Feature","geometry":{"type":"Point","coordinates":[126.539056,40.7198536]},"properties":{"id":3998,"name":"Chagang","iso2":"04","country_code":"KP"}},{"type":"Feature","geometry":{"type":"Point","coordinates":[126.55277778,37.97166667]},"properties":{"id":5719,"name":"Kaesong","iso2":"15","country_code":"KP"}},{"type":"Feature","geometry":{"type":"Point","coordinates":[127.5146547,38.8354349]},"properties":{"id":3999,"name":"Kangwon","iso2":"07","country_code":"KP"}},{"type":"Feature","geometry":{"type":"Point","coordinates":[125.40888889,38.73555556]},"properties":{"id":5718,"name":"Nampho","iso2":"14","country_code":"KP"}},{"type":"Feature","geometry":{"type":"Point","coordinates":[129.369056,41.9098723]},"properties":{"id":3995,"name":"North Hamgyong","iso2":"09","country_code":"KP"}},{"type":"Feature","geometry":{"type":"Point","coordinates":[126.2465723,38.5709632]},"properties":{"id":4004,"name":"North Hwanghae","iso2":"06","country_code":"KP"}},{"type":"Feature","geometry":{"type":"Point","coordinates":[125.2356222,40.0642847]},"properties":{"id":4002,"name":"North Pyongan","iso2":"03","country_code":"KP"}},{"type":"Feature","geometry":{"type":"Point","coordinates":[125.7473609,39.0167979]},"properties":{"id":4005,"name":"Pyongyang","iso2":"01","country_code":"KP"}},{"type":"Feature","geometry":{"type":"Point","coordinates":[130.3113296,42.2497316]},"properties":{"id":4001,"name":"Rason","iso2":"13","country_code":"KP"}},{"type":"Feature","geometry":{"type":"Point","coordinates":[128.1690346,41.0997898]},"properties":{"id":3996,"name":"Ryanggang","iso2":"10","country_code":"KP"}},{"type":"Feature","geometry":{"type":"Point","coordinates":[127.5990989,40.119918]},"properties":{"id":4000,"name":"South Hamgyong","iso2":"08","country_code":"KP"}},{"type":"Feature","geometry":{"type":"Point","coordinates":[125.476901,38.2628262]},"properties":{"id":4003,"name":"South Hwanghae","iso2":"05","country_code":"KP"}},{"type":"Feature","geometry":{"type":"Point","coordinates":[126.0647645,39.5416505]},"properties":{"id":3997,"name":"South Pyongan","iso2":"02","country_code":"KP"}}]}