{"type":"FeatureCollection","features":[{"type":"Feature","geometry":{"type":"Point","coordinates":[48.1652377,28.8538571]},"properties":{"id":977,"name":"Al Ahmadi","iso2":"AH","country_code":"KW"}},{"type":"Feature","geometry":{"type":"Point","coordinates":[48.513355,29.0926128]},"properties":{"id":976,"name":"Al Asimah","iso2":"KU","country_code":"KW"}},{"type":"Feature","geometry":{"type":"Point","coordinates":[47.9136755,29.2482539]},"properties":{"id":975,"name":"Al Farwaniyah","iso2":"FA","country_code":"KW"}},{"type":"Feature","geometry":{"type":"Point","coordinates":[47.6722054,29.3474636]},"properties":{"id":972,"name":"Al Jahra","iso2":"JA","country_code":"KW"}},{"type":"Feature","geometry":{"type":"Point","coordinates":[48.1153148,29.3236609]},"properties":{"id":973,"name":"Hawalli","iso2":"HA","country_code":"KW"}},{"type":"Feature","geometry":{"type":"Point","coordinates":[48.0827589,29.1870956]},"properties":{"id":974,"name":"Mubarak Al-Kabeer","iso2":"MU","country_code":"KW"}}]}