{"type":"FeatureCollection","features":[{"type":"Feature","geometry":{"type":"Point","coordinates":[7.415,43.72944444]},"properties":{"id":5668,"name":"Fontvieille","iso2":"FO","country_code":"MC"}},{"type":"Feature","geometry":{"type":"Point","coordinates":[7.41388889,43.73138889]},"properties":{"id":5669,"name":"Jardin Exotique","iso2":"JE","country_code":"MC"}},{"type":"Feature","geometry":{"type":"Point","coordinates":[7.4137276,43.7327465]},"properties":{"id":4917,"name":"La Colle","iso2":"CL","country_code":"MC"}},{"type":"Feature","geometry":{"type":"Point","coordinates":[7.419906,43.7350665]},"properties":{"id":4918,"name":"La Condamine","iso2":"CO","country_code":"MC"}},{"type":"Feature","geometry":{"type":"Point","coordinates":[7.4168,43.7319]},"properties":{"id":5670,"name":"La Gare","iso2":"GA","country_code":"MC"}},{"type":"Feature","geometry":{"type":"Point","coordinates":[7.4195,43.7365]},"properties":{"id":5671,"name":"La Source","iso2":"SO","country_code":"MC"}},{"type":"Feature","geometry":{"type":"Point","coordinates":[7.43333333,43.74666667]},"properties":{"id":5672,"name":"Larvotto","iso2":"LA","country_code":"MC"}},{"type":"Feature","geometry":{"type":"Point","coordinates":[7.4215,43.7345]},"properties":{"id":5673,"name":"Malbousquet","iso2":"MA","country_code":"MC"}},{"type":"Feature","geometry":{"type":"Point","coordinates":[7.42,43.7311]},"properties":{"id":5674,"name":"Monaco-Ville","iso2":"MO","country_code":"MC"}},{"type":"Feature","geometry":{"type":"Point","coordinates":[7.4153383,43.7364927]},"properties":{"id":4919,"name":"Moneghetti","iso2":"MG","country_code":"MC"}},{"type":"Feature","geometry":{"type":"Point","coordinates":[7.42722222,43.73972222]},"properties":{"id":5675,"name":"Monte-Carlo","iso2":"MC","country_code":"MC"}},{"type":"Feature","geometry":{"type":"Point","coordinates":[7.4185,43.7389]},"properties":{"id":5676,"name":"Moulins","iso2":"MU","country_code":"MC"}},{"type":"Feature","geometry":{"type":"Point","coordinates":[7.4253,43.7347]},"properties":{"id":5677,"name":"Port-Hercule","iso2":"PH","country_code":"MC"}},{"type":"Feature","geometry":{"type":"Point","coordinates":[7.4318,43.7453]},"properties":{"id":5678,"name":"Saint-Roman","iso2":"SR","country_code":"MC"}},{"type":"Feature","geometry":{"type":"Point","coordinates":[7.4208,43.7372]},"properties":{"id":5679,"name":"Sainte-Dévote","iso2":"SD","country_code":"MC"}},{"type":"Feature","geometry":{"type":"Point","coordinates":[7.4251,43.7392]},"properties":{"id":5680,"name":"Spélugues","iso2":"SP","country_code":"MC"}},{"type":"Feature","geometry":{"type":"Point","coordinates":[7.4175,43.7401]},"properties":{"id":5681,"name":"Vallon de la Rousse","iso2":"VR","country_code":"MC"}}]}