{"type":"FeatureCollection","features":[{"type":"Feature","geometry":{"type":"Point","coordinates":[19.7859556,42.7362477]},"properties":{"id":23,"name":"Andrijevica","iso2":"01","country_code":"ME"}},{"type":"Feature","geometry":{"type":"Point","coordinates":[19.0954528,42.0979745]},"properties":{"id":13,"name":"Bar","iso2":"02","country_code":"ME"}},{"type":"Feature","geometry":{"type":"Point","coordinates":[19.8728701,42.8435792]},"properties":{"id":21,"name":"Berane","iso2":"03","country_code":"ME"}},{"type":"Feature","geometry":{"type":"Point","coordinates":[19.7473559,43.0341595]},"properties":{"id":25,"name":"Bijelo Polje","iso2":"04","country_code":"ME"}},{"type":"Feature","geometry":{"type":"Point","coordinates":[18.8419505,42.2885656]},"properties":{"id":30,"name":"Budva","iso2":"05","country_code":"ME"}},{"type":"Feature","geometry":{"type":"Point","coordinates":[19.1052289,42.5524049]},"properties":{"id":14,"name":"Danilovgrad","iso2":"07","country_code":"ME"}},{"type":"Feature","geometry":{"type":"Point","coordinates":[19.8306051,42.5563455]},"properties":{"id":24,"name":"Gusinje","iso2":"22","country_code":"ME"}},{"type":"Feature","geometry":{"type":"Point","coordinates":[18.53722,42.45306]},"properties":{"id":5682,"name":"Herceg-Novi","iso2":"08","country_code":"ME"}},{"type":"Feature","geometry":{"type":"Point","coordinates":[19.5218005,42.8238387]},"properties":{"id":31,"name":"Kolašin","iso2":"09","country_code":"ME"}},{"type":"Feature","geometry":{"type":"Point","coordinates":[18.7713332,42.4249205]},"properties":{"id":26,"name":"Kotor","iso2":"10","country_code":"ME"}},{"type":"Feature","geometry":{"type":"Point","coordinates":[19.5799899,42.9624908]},"properties":{"id":22,"name":"Mojkovac","iso2":"11","country_code":"ME"}},{"type":"Feature","geometry":{"type":"Point","coordinates":[18.9488097,42.7739388]},"properties":{"id":17,"name":"Nikšić","iso2":"12","country_code":"ME"}},{"type":"Feature","geometry":{"type":"Point","coordinates":[18.8980059,42.4783057]},"properties":{"id":28,"name":"Old Royal Capital Cetinje","iso2":"06","country_code":"ME"}},{"type":"Feature","geometry":{"type":"Point","coordinates":[19.9829219,42.925657]},"properties":{"id":12,"name":"Petnjica","iso2":"23","country_code":"ME"}},{"type":"Feature","geometry":{"type":"Point","coordinates":[19.9407541,42.6001337]},"properties":{"id":19,"name":"Plav","iso2":"13","country_code":"ME"}},{"type":"Feature","geometry":{"type":"Point","coordinates":[19.3584715,43.3565611]},"properties":{"id":20,"name":"Pljevlja","iso2":"14","country_code":"ME"}},{"type":"Feature","geometry":{"type":"Point","coordinates":[18.8551484,43.1593384]},"properties":{"id":16,"name":"Plužine","iso2":"15","country_code":"ME"}},{"type":"Feature","geometry":{"type":"Point","coordinates":[19.2621081,42.4415238]},"properties":{"id":27,"name":"Podgorica","iso2":"16","country_code":"ME"}},{"type":"Feature","geometry":{"type":"Point","coordinates":[20.1670628,42.8408389]},"properties":{"id":15,"name":"Rožaje","iso2":"17","country_code":"ME"}},{"type":"Feature","geometry":{"type":"Point","coordinates":[19.0946043,42.957197]},"properties":{"id":18,"name":"Šavnik","iso2":"18","country_code":"ME"}},{"type":"Feature","geometry":{"type":"Point","coordinates":[18.6988104,42.4303762]},"properties":{"id":29,"name":"Tivat","iso2":"19","country_code":"ME"}},{"type":"Feature","geometry":{"type":"Point","coordinates":[19.4,42.36667]},"properties":{"id":5683,"name":"Tuzi","iso2":"24","country_code":"ME"}},{"type":"Feature","geometry":{"type":"Point","coordinates":[19.2055563,41.926012]},"properties":{"id":33,"name":"Ulcinj","iso2":"20","country_code":"ME"}},{"type":"Feature","geometry":{"type":"Point","coordinates":[19.1226018,43.1555152]},"properties":{"id":32,"name":"Žabljak","iso2":"21","country_code":"ME"}},{"type":"Feature","geometry":{"type":"Point","coordinates":[19.25,42.4]},"properties":{"id":5684,"name":"Zeta","iso2":"25","country_code":"ME"}}]}