{"type":"FeatureCollection","features":[{"type":"Feature","geometry":{"type":"Point","coordinates":[168.73333333,7.5]},"properties":{"id":5643,"name":"Ailinglaplap","iso2":"ALL","country_code":"MH"}},{"type":"Feature","geometry":{"type":"Point","coordinates":[169.93333333,10.31666667]},"properties":{"id":5644,"name":"Ailuk","iso2":"ALK","country_code":"MH"}},{"type":"Feature","geometry":{"type":"Point","coordinates":[171.7,7.08333333]},"properties":{"id":5645,"name":"Arno","iso2":"ARN","country_code":"MH"}},{"type":"Feature","geometry":{"type":"Point","coordinates":[171.1,8.2]},"properties":{"id":5646,"name":"Aur","iso2":"AUR","country_code":"MH"}},{"type":"Feature","geometry":{"type":"Point","coordinates":[165.4,11.6]},"properties":{"id":5647,"name":"Bikini & Kili","iso2":"KIL","country_code":"MH"}},{"type":"Feature","geometry":{"type":"Point","coordinates":[168.71666667,4.63333333]},"properties":{"id":5648,"name":"Ebon","iso2":"EBO","country_code":"MH"}},{"type":"Feature","geometry":{"type":"Point","coordinates":[162.33333333,11.5]},"properties":{"id":5649,"name":"Enewetak & Ujelang","iso2":"ENI","country_code":"MH"}},{"type":"Feature","geometry":{"type":"Point","coordinates":[168.96666667,7.75]},"properties":{"id":5650,"name":"Jabat","iso2":"JAB","country_code":"MH"}},{"type":"Feature","geometry":{"type":"Point","coordinates":[169.56666667,6]},"properties":{"id":5651,"name":"Jaluit","iso2":"JAL","country_code":"MH"}},{"type":"Feature","geometry":{"type":"Point","coordinates":[167.73333333,8.71666667]},"properties":{"id":5652,"name":"Kwajalein","iso2":"KWA","country_code":"MH"}},{"type":"Feature","geometry":{"type":"Point","coordinates":[166.2375,8.93611111]},"properties":{"id":5653,"name":"Lae","iso2":"LAE","country_code":"MH"}},{"type":"Feature","geometry":{"type":"Point","coordinates":[167.37777778,8.31305556]},"properties":{"id":5654,"name":"Lib","iso2":"LIB","country_code":"MH"}},{"type":"Feature","geometry":{"type":"Point","coordinates":[169.14345,9.88498]},"properties":{"id":5655,"name":"Likiep","iso2":"LIK","country_code":"MH"}},{"type":"Feature","geometry":{"type":"Point","coordinates":[171.3802,7.0918]},"properties":{"id":5656,"name":"Majuro","iso2":"MAJ","country_code":"MH"}},{"type":"Feature","geometry":{"type":"Point","coordinates":[171.04888889,8.75343611]},"properties":{"id":5657,"name":"Maloelap","iso2":"MAL","country_code":"MH"}},{"type":"Feature","geometry":{"type":"Point","coordinates":[170.88333333,10.28333333]},"properties":{"id":5658,"name":"Mejit","iso2":"MEJ","country_code":"MH"}},{"type":"Feature","geometry":{"type":"Point","coordinates":[171.97998056,6.12621667]},"properties":{"id":5659,"name":"Mili","iso2":"MIL","country_code":"MH"}},{"type":"Feature","geometry":{"type":"Point","coordinates":[168.11666667,5.61666667]},"properties":{"id":5660,"name":"Namdrik","iso2":"NMK","country_code":"MH"}},{"type":"Feature","geometry":{"type":"Point","coordinates":[168.17361111,7.98333333]},"properties":{"id":5661,"name":"Namu","iso2":"NMU","country_code":"MH"}},{"type":"Feature","geometry":{"type":"Point","coordinates":[167.7953224,8.230817]},"properties":{"id":2574,"name":"Ralik","iso2":"L","country_code":"MH"}},{"type":"Feature","geometry":{"type":"Point","coordinates":[170.8205547,8.615055]},"properties":{"id":2573,"name":"Ratak","iso2":"T","country_code":"MH"}},{"type":"Feature","geometry":{"type":"Point","coordinates":[166.78333333,11.31666667]},"properties":{"id":5662,"name":"Rongelap","iso2":"RON","country_code":"MH"}},{"type":"Feature","geometry":{"type":"Point","coordinates":[165.65,9.05]},"properties":{"id":5663,"name":"Ujae","iso2":"UJA","country_code":"MH"}},{"type":"Feature","geometry":{"type":"Point","coordinates":[169.78426111,11.26730556]},"properties":{"id":5664,"name":"Utrik","iso2":"UTI","country_code":"MH"}},{"type":"Feature","geometry":{"type":"Point","coordinates":[165.96666667,10.1]},"properties":{"id":5665,"name":"Wotho","iso2":"WTH","country_code":"MH"}},{"type":"Feature","geometry":{"type":"Point","coordinates":[170.01666667,9.43333333]},"properties":{"id":5666,"name":"Wotje","iso2":"WTJ","country_code":"MH"}}]}