{"type":"FeatureCollection","features":[{"type":"Feature","geometry":{"type":"Point","coordinates":[-8.000337,12.649319]},"properties":{"id":253,"name":"Bamako","iso2":"BKO","country_code":"ML"}},{"type":"Feature","geometry":{"type":"Point","coordinates":[-0.0991154,17.00244]},"properties":{"id":258,"name":"Gao","iso2":"7","country_code":"ML"}},{"type":"Feature","geometry":{"type":"Point","coordinates":[-10.2245548,13.8001844]},"properties":{"id":252,"name":"Kayes","iso2":"1","country_code":"ML"}},{"type":"Feature","geometry":{"type":"Point","coordinates":[1.4075395,18.4408358]},"properties":{"id":257,"name":"Kidal","iso2":"8","country_code":"ML"}},{"type":"Feature","geometry":{"type":"Point","coordinates":[-7.6096079,13.4820706]},"properties":{"id":250,"name":"Koulikoro","iso2":"2","country_code":"ML"}},{"type":"Feature","geometry":{"type":"Point","coordinates":[2.396174,15.9156421]},"properties":{"id":251,"name":"Ménaka","iso2":"9","country_code":"ML"}},{"type":"Feature","geometry":{"type":"Point","coordinates":[-3.6464581,14.514489]},"properties":{"id":255,"name":"Mopti","iso2":"5","country_code":"ML"}},{"type":"Feature","geometry":{"type":"Point","coordinates":[-6.0047091,14.0487607]},"properties":{"id":249,"name":"Ségou","iso2":"4","country_code":"ML"}},{"type":"Feature","geometry":{"type":"Point","coordinates":[-6.8663259,11.529684]},"properties":{"id":254,"name":"Sikasso","iso2":"3","country_code":"ML"}},{"type":"Feature","geometry":{"type":"Point","coordinates":[-3.39819,20.8582718]},"properties":{"id":256,"name":"Taoudénit","iso2":"10","country_code":"ML"}},{"type":"Feature","geometry":{"type":"Point","coordinates":[-3.0087272,16.7719091]},"properties":{"id":248,"name":"Tombouctou","iso2":"6","country_code":"ML"}}]}