{"type":"FeatureCollection","features":[{"type":"Feature","geometry":{"type":"Point","coordinates":[167.2884295,-20.972966]},"properties":{"id":5227,"name":"Loyalty Islands Province","iso2":"03","country_code":"NC"}},{"type":"Feature","geometry":{"type":"Point","coordinates":[164.1237568,-20.1472512]},"properties":{"id":5226,"name":"North Province","iso2":"02","country_code":"NC"}},{"type":"Feature","geometry":{"type":"Point","coordinates":[166.6417946,-22.2758421]},"properties":{"id":5225,"name":"South Province","iso2":"01","country_code":"NC"}}]}