{"type":"FeatureCollection","features":[{"type":"Feature","geometry":{"type":"Point","coordinates":[57.3692722,22.2259752]},"properties":{"id":3058,"name":"Ad Dakhiliyah","iso2":"DA","country_code":"OM"}},{"type":"Feature","geometry":{"type":"Point","coordinates":[56.0616295,22.6505232]},"properties":{"id":3047,"name":"Ad Dhahirah","iso2":"ZA","country_code":"OM"}},{"type":"Feature","geometry":{"type":"Point","coordinates":[56.5701198,24.2371879]},"properties":{"id":3048,"name":"Al Batinah North","iso2":"BS","country_code":"OM"}},{"type":"Feature","geometry":{"type":"Point","coordinates":[57.4737863,23.3673911]},"properties":{"id":3049,"name":"Al Batinah South","iso2":"BJ","country_code":"OM"}},{"type":"Feature","geometry":{"type":"Point","coordinates":[56.1464102,24.1614948]},"properties":{"id":3059,"name":"Al Buraimi","iso2":"BU","country_code":"OM"}},{"type":"Feature","geometry":{"type":"Point","coordinates":[56.4313671,19.7250347]},"properties":{"id":3056,"name":"Al Wusta","iso2":"WU","country_code":"OM"}},{"type":"Feature","geometry":{"type":"Point","coordinates":[58.5159072,22.2024738]},"properties":{"id":3053,"name":"Ash Sharqiyah North","iso2":"SS","country_code":"OM"}},{"type":"Feature","geometry":{"type":"Point","coordinates":[59.3078117,21.909878]},"properties":{"id":3054,"name":"Ash Sharqiyah South","iso2":"SJ","country_code":"OM"}},{"type":"Feature","geometry":{"type":"Point","coordinates":[54.2092994,18.3368829]},"properties":{"id":3057,"name":"Dhofar","iso2":"ZU","country_code":"OM"}},{"type":"Feature","geometry":{"type":"Point","coordinates":[56.3294895,26.1523215]},"properties":{"id":3052,"name":"Musandam","iso2":"MU","country_code":"OM"}},{"type":"Feature","geometry":{"type":"Point","coordinates":[58.5938134,23.6123628]},"properties":{"id":3055,"name":"Muscat","iso2":"MA","country_code":"OM"}}]}