{"type":"FeatureCollection","features":[{"type":"Feature","geometry":{"type":"Point","coordinates":[-82.2418169,9.3402964]},"properties":{"id":1393,"name":"Bocas del Toro","iso2":"1","country_code":"PA"}},{"type":"Feature","geometry":{"type":"Point","coordinates":[-79.6223869,9.0287351]},"properties":{"id":1397,"name":"Chiriquí Province","iso2":"4","country_code":"PA"}},{"type":"Feature","geometry":{"type":"Point","coordinates":[-80.4449059,8.5743137]},"properties":{"id":1387,"name":"Coclé","iso2":"2","country_code":"PA"}},{"type":"Feature","geometry":{"type":"Point","coordinates":[-80.2532526,9.2353085]},"properties":{"id":1386,"name":"Colón","iso2":"3","country_code":"PA"}},{"type":"Feature","geometry":{"type":"Point","coordinates":[-78.0172551,8.2158991]},"properties":{"id":1385,"name":"Darién","iso2":"5","country_code":"PA"}},{"type":"Feature","geometry":{"type":"Point","coordinates":[-77.592269,8.4210754]},"properties":{"id":1396,"name":"Emberá-Wounaan Comarca","iso2":"EM","country_code":"PA"}},{"type":"Feature","geometry":{"type":"Point","coordinates":[-78.4553083,9.1591409]},"properties":{"id":1388,"name":"Guna","iso2":"KY","country_code":"PA"}},{"type":"Feature","geometry":{"type":"Point","coordinates":[-80.7436313,7.854438]},"properties":{"id":1389,"name":"Herrera","iso2":"6","country_code":"PA"}},{"type":"Feature","geometry":{"type":"Point","coordinates":[-80.4290617,7.8773471]},"properties":{"id":1390,"name":"Los Santos","iso2":"7","country_code":"PA"}},{"type":"Feature","geometry":{"type":"Point","coordinates":[-82.7353,9.2444]},"properties":{"id":5686,"name":"Naso Tjër Di","iso2":"NT","country_code":"PA"}},{"type":"Feature","geometry":{"type":"Point","coordinates":[-81.7682694,8.793244]},"properties":{"id":1391,"name":"Ngöbe-Buglé Comarca","iso2":"NB","country_code":"PA"}},{"type":"Feature","geometry":{"type":"Point","coordinates":[-79.5341802,8.9714493]},"properties":{"id":1395,"name":"Panamá","iso2":"8","country_code":"PA"}},{"type":"Feature","geometry":{"type":"Point","coordinates":[-79.8755817,8.730087]},"properties":{"id":1394,"name":"Panamá Oeste","iso2":"10","country_code":"PA"}},{"type":"Feature","geometry":{"type":"Point","coordinates":[-81.0903464,8.2414131]},"properties":{"id":1392,"name":"Veraguas","iso2":"9","country_code":"PA"}}]}