{"type":"FeatureCollection","features":[{"type":"Feature","geometry":{"type":"Point","coordinates":[134.1469665,7.5651497]},"properties":{"id":4540,"name":"Aimeliik","iso2":"002","country_code":"PW"}},{"type":"Feature","geometry":{"type":"Point","coordinates":[134.5601154,7.3599342]},"properties":{"id":4528,"name":"Airai","iso2":"004","country_code":"PW"}},{"type":"Feature","geometry":{"type":"Point","coordinates":[134.1387934,6.909223]},"properties":{"id":4538,"name":"Angaur","iso2":"010","country_code":"PW"}},{"type":"Feature","geometry":{"type":"Point","coordinates":[131.1237781,3.0070658]},"properties":{"id":4529,"name":"Hatohobei","iso2":"050","country_code":"PW"}},{"type":"Feature","geometry":{"type":"Point","coordinates":[134.7189633,8.0822491]},"properties":{"id":4539,"name":"Kayangel","iso2":"100","country_code":"PW"}},{"type":"Feature","geometry":{"type":"Point","coordinates":[134.4762806,7.3337487]},"properties":{"id":4532,"name":"Koror","iso2":"150","country_code":"PW"}},{"type":"Feature","geometry":{"type":"Point","coordinates":[134.7548743,7.4726013]},"properties":{"id":4530,"name":"Melekeok","iso2":"212","country_code":"PW"}},{"type":"Feature","geometry":{"type":"Point","coordinates":[134.7328064,7.6424529]},"properties":{"id":4537,"name":"Ngaraard","iso2":"214","country_code":"PW"}},{"type":"Feature","geometry":{"type":"Point","coordinates":[134.4733014,7.8467235]},"properties":{"id":4533,"name":"Ngarchelong","iso2":"218","country_code":"PW"}},{"type":"Feature","geometry":{"type":"Point","coordinates":[134.2765486,7.726789]},"properties":{"id":4527,"name":"Ngardmau","iso2":"222","country_code":"PW"}},{"type":"Feature","geometry":{"type":"Point","coordinates":[134.1799732,7.6117591]},"properties":{"id":4531,"name":"Ngatpang","iso2":"224","country_code":"PW"}},{"type":"Feature","geometry":{"type":"Point","coordinates":[134.7114947,7.417716]},"properties":{"id":4536,"name":"Ngchesar","iso2":"226","country_code":"PW"}},{"type":"Feature","geometry":{"type":"Point","coordinates":[134.2120044,7.6590207]},"properties":{"id":4541,"name":"Ngeremlengui","iso2":"227","country_code":"PW"}},{"type":"Feature","geometry":{"type":"Point","coordinates":[134.7298202,7.5407316]},"properties":{"id":4534,"name":"Ngiwal","iso2":"228","country_code":"PW"}},{"type":"Feature","geometry":{"type":"Point","coordinates":[134.246065,7.0113797]},"properties":{"id":4526,"name":"Peleliu","iso2":"350","country_code":"PW"}},{"type":"Feature","geometry":{"type":"Point","coordinates":[132.2239117,5.3268119]},"properties":{"id":4535,"name":"Sonsorol","iso2":"370","country_code":"PW"}}]}