{"type":"FeatureCollection","features":[{"type":"Feature","geometry":{"type":"Point","coordinates":[40.1520421,44.6939006]},"properties":{"id":1852,"name":"Adygea","iso2":"AD","country_code":"RU"}},{"type":"Feature","geometry":{"type":"Point","coordinates":[86.8572186,50.7114101]},"properties":{"id":1911,"name":"Altai","iso2":"ALT","country_code":"RU"}},{"type":"Feature","geometry":{"type":"Point","coordinates":[86.8572186,50.7114101]},"properties":{"id":1876,"name":"Altai","iso2":"AL","country_code":"RU"}},{"type":"Feature","geometry":{"type":"Point","coordinates":[128.437295,52.8032368]},"properties":{"id":1858,"name":"Amur","iso2":"AMU","country_code":"RU"}},{"type":"Feature","geometry":{"type":"Point","coordinates":[40.5505769,64.5458549]},"properties":{"id":1849,"name":"Arkhangelsk","iso2":"ARK","country_code":"RU"}},{"type":"Feature","geometry":{"type":"Point","coordinates":[48.0326203,46.3498308]},"properties":{"id":1866,"name":"Astrakhan","iso2":"AST","country_code":"RU"}},{"type":"Feature","geometry":{"type":"Point","coordinates":[55.9784582,54.4747553]},"properties":{"id":1854,"name":"Bashkortostan","iso2":"BA","country_code":"RU"}},{"type":"Feature","geometry":{"type":"Point","coordinates":[37.5837615,50.7080119]},"properties":{"id":1903,"name":"Belgorod","iso2":"BEL","country_code":"RU"}},{"type":"Feature","geometry":{"type":"Point","coordinates":[34.3668288,53.2423778]},"properties":{"id":1867,"name":"Bryansk","iso2":"BRY","country_code":"RU"}},{"type":"Feature","geometry":{"type":"Point","coordinates":[109.492143,52.7182426]},"properties":{"id":1842,"name":"Buryatia","iso2":"BU","country_code":"RU"}},{"type":"Feature","geometry":{"type":"Point","coordinates":[45.7,43.4]},"properties":{"id":1893,"name":"Chechen","iso2":"CE","country_code":"RU"}},{"type":"Feature","geometry":{"type":"Point","coordinates":[61.4012726,55.1559312]},"properties":{"id":1845,"name":"Chelyabinsk","iso2":"CHE","country_code":"RU"}},{"type":"Feature","geometry":{"type":"Point","coordinates":[169.4900869,66.0006475]},"properties":{"id":1859,"name":"Chukotka","iso2":"CHU","country_code":"RU"}},{"type":"Feature","geometry":{"type":"Point","coordinates":[47.0849429,55.4259922]},"properties":{"id":1914,"name":"Chuvash","iso2":"CU","country_code":"RU"}},{"type":"Feature","geometry":{"type":"Point","coordinates":[47,43]},"properties":{"id":1850,"name":"Dagestan","iso2":"DA","country_code":"RU"}},{"type":"Feature","geometry":{"type":"Point","coordinates":[44.979682,43.1655309]},"properties":{"id":1884,"name":"Ingushetia","iso2":"IN","country_code":"RU"}},{"type":"Feature","geometry":{"type":"Point","coordinates":[104.2890222,52.2854834]},"properties":{"id":1880,"name":"Irkutsk","iso2":"IRK","country_code":"RU"}},{"type":"Feature","geometry":{"type":"Point","coordinates":[40.9812104,56.9956855]},"properties":{"id":1864,"name":"Ivanovo","iso2":"IVA","country_code":"RU"}},{"type":"Feature","geometry":{"type":"Point","coordinates":[132.2775662,48.5601613]},"properties":{"id":1835,"name":"Jewish","iso2":"YEV","country_code":"RU"}},{"type":"Feature","geometry":{"type":"Point","coordinates":[43.4204809,43.4428286]},"properties":{"id":1892,"name":"Kabardino-Balkar","iso2":"KB","country_code":"RU"}},{"type":"Feature","geometry":{"type":"Point","coordinates":[20.4522144,54.7104264]},"properties":{"id":1902,"name":"Kaliningrad","iso2":"KGD","country_code":"RU"}},{"type":"Feature","geometry":{"type":"Point","coordinates":[45.249161,46.9017116]},"properties":{"id":1883,"name":"Kalmykia","iso2":"KL","country_code":"RU"}},{"type":"Feature","geometry":{"type":"Point","coordinates":[35.5272854,54.4382773]},"properties":{"id":1844,"name":"Kaluga","iso2":"KLU","country_code":"RU"}},{"type":"Feature","geometry":{"type":"Point","coordinates":[160.0383819,57.1914882]},"properties":{"id":1865,"name":"Kamchatka","iso2":"KAM","country_code":"RU"}},{"type":"Feature","geometry":{"type":"Point","coordinates":[41.7267991,43.7368326]},"properties":{"id":1869,"name":"Karachay-Cherkess","iso2":"KC","country_code":"RU"}},{"type":"Feature","geometry":{"type":"Point","coordinates":[33.4920267,62.6194031]},"properties":{"id":1841,"name":"Karelia","iso2":"KR","country_code":"RU"}},{"type":"Feature","geometry":{"type":"Point","coordinates":[87.342861,54.5335781]},"properties":{"id":1897,"name":"Kemerovo","iso2":"KEM","country_code":"RU"}},{"type":"Feature","geometry":{"type":"Point","coordinates":[136.121524,51.6312684]},"properties":{"id":1873,"name":"Khabarovsk","iso2":"KHA","country_code":"RU"}},{"type":"Feature","geometry":{"type":"Point","coordinates":[90.0664303,53.4399379]},"properties":{"id":1877,"name":"Khakassia","iso2":"KK","country_code":"RU"}},{"type":"Feature","geometry":{"type":"Point","coordinates":[68.6418156,61.8793428]},"properties":{"id":1838,"name":"Khanty-Mansi","iso2":"KHM","country_code":"RU"}},{"type":"Feature","geometry":{"type":"Point","coordinates":[49.6666241,58.6035661]},"properties":{"id":1890,"name":"Kirov","iso2":"KIR","country_code":"RU"}},{"type":"Feature","geometry":{"type":"Point","coordinates":[54.3326073,63.9881421]},"properties":{"id":1899,"name":"Komi","iso2":"KO","country_code":"RU"}},{"type":"Feature","geometry":{"type":"Point","coordinates":[41.5889382,58.6044327]},"properties":{"id":1910,"name":"Kostroma","iso2":"KOS","country_code":"RU"}},{"type":"Feature","geometry":{"type":"Point","coordinates":[39.0261044,45.7684014]},"properties":{"id":1891,"name":"Krasnodar","iso2":"KDA","country_code":"RU"}},{"type":"Feature","geometry":{"type":"Point","coordinates":[97.0979974,63.3233807]},"properties":{"id":1840,"name":"Krasnoyarsk","iso2":"KYA","country_code":"RU"}},{"type":"Feature","geometry":{"type":"Point","coordinates":[65.3421169,55.4409357]},"properties":{"id":1915,"name":"Kurgan","iso2":"KGN","country_code":"RU"}},{"type":"Feature","geometry":{"type":"Point","coordinates":[36.1923123,51.7309249]},"properties":{"id":1855,"name":"Kursk","iso2":"KRS","country_code":"RU"}},{"type":"Feature","geometry":{"type":"Point","coordinates":[32.3925325,60.1853296]},"properties":{"id":1896,"name":"Leningrad","iso2":"LEN","country_code":"RU"}},{"type":"Feature","geometry":{"type":"Point","coordinates":[39.1122664,52.6935178]},"properties":{"id":1889,"name":"Lipetsk","iso2":"LIP","country_code":"RU"}},{"type":"Feature","geometry":{"type":"Point","coordinates":[154.014726,63.5515028]},"properties":{"id":1839,"name":"Magadan","iso2":"MAG","country_code":"RU"}},{"type":"Feature","geometry":{"type":"Point","coordinates":[47.8817512,56.5767504]},"properties":{"id":1870,"name":"Mari El","iso2":"ME","country_code":"RU"}},{"type":"Feature","geometry":{"type":"Point","coordinates":[44.4661144,54.4419829]},"properties":{"id":1898,"name":"Mordovia","iso2":"MO","country_code":"RU"}},{"type":"Feature","geometry":{"type":"Point","coordinates":[37.6063916,55.625578]},"properties":{"id":1882,"name":"Moscow","iso2":"MOS","country_code":"RU"}},{"type":"Feature","geometry":{"type":"Point","coordinates":[37.6063916,55.625578]},"properties":{"id":1901,"name":"Moscow","iso2":"MOW","country_code":"RU"}},{"type":"Feature","geometry":{"type":"Point","coordinates":[33.9999151,68.0000418]},"properties":{"id":1843,"name":"Murmansk","iso2":"MUR","country_code":"RU"}},{"type":"Feature","geometry":{"type":"Point","coordinates":[57.0626853,67.6783253]},"properties":{"id":1836,"name":"Nenets","iso2":"NEN","country_code":"RU"}},{"type":"Feature","geometry":{"type":"Point","coordinates":[43.9212981,56.2769292]},"properties":{"id":1857,"name":"Nizhny Novgorod","iso2":"NIZ","country_code":"RU"}},{"type":"Feature","geometry":{"type":"Point","coordinates":[44.2636348,42.9920711]},"properties":{"id":1853,"name":"North Ossetia-Alania","iso2":"SE","country_code":"RU"}},{"type":"Feature","geometry":{"type":"Point","coordinates":[31.2757862,58.5209862]},"properties":{"id":1834,"name":"Novgorod","iso2":"NGR","country_code":"RU"}},{"type":"Feature","geometry":{"type":"Point","coordinates":[82.9515989,54.9678144]},"properties":{"id":1888,"name":"Novosibirsk","iso2":"NVS","country_code":"RU"}},{"type":"Feature","geometry":{"type":"Point","coordinates":[73.371529,54.991375]},"properties":{"id":1846,"name":"Omsk","iso2":"OMS","country_code":"RU"}},{"type":"Feature","geometry":{"type":"Point","coordinates":[54.7276647,52.0269262]},"properties":{"id":1886,"name":"Orenburg","iso2":"ORE","country_code":"RU"}},{"type":"Feature","geometry":{"type":"Point","coordinates":[36.4251709,52.8392765]},"properties":{"id":1908,"name":"Oryol","iso2":"ORL","country_code":"RU"}},{"type":"Feature","geometry":{"type":"Point","coordinates":[44.7879181,53.1655415]},"properties":{"id":1909,"name":"Penza","iso2":"PNZ","country_code":"RU"}},{"type":"Feature","geometry":{"type":"Point","coordinates":[56.3159546,58.5951603]},"properties":{"id":1871,"name":"Perm","iso2":"PER","country_code":"RU"}},{"type":"Feature","geometry":{"type":"Point","coordinates":[134.726645,45.0819456]},"properties":{"id":1833,"name":"Primorsky","iso2":"PRI","country_code":"RU"}},{"type":"Feature","geometry":{"type":"Point","coordinates":[28.8586826,57.5358729]},"properties":{"id":1863,"name":"Pskov","iso2":"PSK","country_code":"RU"}},{"type":"Feature","geometry":{"type":"Point","coordinates":[40.7957942,47.6222451]},"properties":{"id":1837,"name":"Rostov","iso2":"ROS","country_code":"RU"}},{"type":"Feature","geometry":{"type":"Point","coordinates":[39.7425039,54.6295687]},"properties":{"id":1905,"name":"Ryazan","iso2":"RYA","country_code":"RU"}},{"type":"Feature","geometry":{"type":"Point","coordinates":[30.316229,59.938732]},"properties":{"id":1879,"name":"Saint Petersburg","iso2":"SPE","country_code":"RU"}},{"type":"Feature","geometry":{"type":"Point","coordinates":[129.642371,66.941626]},"properties":{"id":1848,"name":"Sakha","iso2":"SA","country_code":"RU"}},{"type":"Feature","geometry":{"type":"Point","coordinates":[143.0264412,50.159476]},"properties":{"id":1875,"name":"Sakhalin","iso2":"SAK","country_code":"RU"}},{"type":"Feature","geometry":{"type":"Point","coordinates":[50.1014927,53.1956255]},"properties":{"id":1862,"name":"Samara","iso2":"SAM","country_code":"RU"}},{"type":"Feature","geometry":{"type":"Point","coordinates":[46.034683,51.530018]},"properties":{"id":1887,"name":"Saratov","iso2":"SAR","country_code":"RU"}},{"type":"Feature","geometry":{"type":"Point","coordinates":[33.0192065,55.0343496]},"properties":{"id":1885,"name":"Smolensk","iso2":"SMO","country_code":"RU"}},{"type":"Feature","geometry":{"type":"Point","coordinates":[43.4406913,44.8632577]},"properties":{"id":1868,"name":"Stavropol","iso2":"STA","country_code":"RU"}},{"type":"Feature","geometry":{"type":"Point","coordinates":[60.60825,56.839104]},"properties":{"id":1894,"name":"Sverdlovsk","iso2":"SVE","country_code":"RU"}},{"type":"Feature","geometry":{"type":"Point","coordinates":[41.4523988,52.7216164]},"properties":{"id":1878,"name":"Tambov","iso2":"TAM","country_code":"RU"}},{"type":"Feature","geometry":{"type":"Point","coordinates":[50.4763591,55.448217]},"properties":{"id":1861,"name":"Tatarstan","iso2":"TA","country_code":"RU"}},{"type":"Feature","geometry":{"type":"Point","coordinates":[82.0475315,58.6124279]},"properties":{"id":1872,"name":"Tomsk","iso2":"TOM","country_code":"RU"}},{"type":"Feature","geometry":{"type":"Point","coordinates":[37.61754,54.1930321]},"properties":{"id":1895,"name":"Tula","iso2":"TUL","country_code":"RU"}},{"type":"Feature","geometry":{"type":"Point","coordinates":[93.8582593,51.4017149]},"properties":{"id":1900,"name":"Tuva","iso2":"TY","country_code":"RU"}},{"type":"Feature","geometry":{"type":"Point","coordinates":[35.1744428,57.1134475]},"properties":{"id":1860,"name":"Tver","iso2":"TVE","country_code":"RU"}},{"type":"Feature","geometry":{"type":"Point","coordinates":[65.542274,57.153534]},"properties":{"id":1907,"name":"Tyumen","iso2":"TYU","country_code":"RU"}},{"type":"Feature","geometry":{"type":"Point","coordinates":[52.6959832,57.1961165]},"properties":{"id":1913,"name":"Udmurt","iso2":"UD","country_code":"RU"}},{"type":"Feature","geometry":{"type":"Point","coordinates":[47.2324921,54.1463177]},"properties":{"id":1856,"name":"Ulyanovsk","iso2":"ULY","country_code":"RU"}},{"type":"Feature","geometry":{"type":"Point","coordinates":[40.4075203,56.1288899]},"properties":{"id":1881,"name":"Vladimir","iso2":"VLA","country_code":"RU"}},{"type":"Feature","geometry":{"type":"Point","coordinates":[44.2903582,49.6048339]},"properties":{"id":4916,"name":"Volgograd Oblast","iso2":"VGG","country_code":"RU"}},{"type":"Feature","geometry":{"type":"Point","coordinates":[39.8722391,59.2264585]},"properties":{"id":1874,"name":"Vologda","iso2":"VLG","country_code":"RU"}},{"type":"Feature","geometry":{"type":"Point","coordinates":[39.2005858,51.6605982]},"properties":{"id":1906,"name":"Voronezh","iso2":"VOR","country_code":"RU"}},{"type":"Feature","geometry":{"type":"Point","coordinates":[74.3415488,67.1471631]},"properties":{"id":1847,"name":"Yamalo-Nenets","iso2":"YAN","country_code":"RU"}},{"type":"Feature","geometry":{"type":"Point","coordinates":[39.8718634,57.6508432]},"properties":{"id":1851,"name":"Yaroslavl","iso2":"YAR","country_code":"RU"}},{"type":"Feature","geometry":{"type":"Point","coordinates":[115.956325,52.248521]},"properties":{"id":1904,"name":"Zabaykalsky","iso2":"ZAB","country_code":"RU"}}]}