{"type":"FeatureCollection","features":[{"type":"Feature","geometry":{"type":"Point","coordinates":[15.4022088,56.1240122]},"properties":{"id":1537,"name":"Blekinge","iso2":"K","country_code":"SE"}},{"type":"Feature","geometry":{"type":"Point","coordinates":[14.2150873,61.0603778]},"properties":{"id":1534,"name":"Dalarna","iso2":"W","country_code":"SE"}},{"type":"Feature","geometry":{"type":"Point","coordinates":[16.6946985,61.2603424]},"properties":{"id":1533,"name":"Gävleborg","iso2":"X","country_code":"SE"}},{"type":"Feature","geometry":{"type":"Point","coordinates":[18.4998927,57.4998732]},"properties":{"id":1546,"name":"Gotland","iso2":"I","country_code":"SE"}},{"type":"Feature","geometry":{"type":"Point","coordinates":[12.8547066,56.9608104]},"properties":{"id":1548,"name":"Halland","iso2":"N","country_code":"SE"}},{"type":"Feature","geometry":{"type":"Point","coordinates":[14.124986,63.3452222]},"properties":{"id":5117,"name":"Jämtland","iso2":"Z","country_code":"SE"}},{"type":"Feature","geometry":{"type":"Point","coordinates":[14.165719,57.7825634]},"properties":{"id":1550,"name":"Jönköping","iso2":"F","country_code":"SE"}},{"type":"Feature","geometry":{"type":"Point","coordinates":[16.333056,56.666667]},"properties":{"id":1544,"name":"Kalmar","iso2":"H","country_code":"SE"}},{"type":"Feature","geometry":{"type":"Point","coordinates":[14.411161,56.8006781]},"properties":{"id":1542,"name":"Kronoberg","iso2":"G","country_code":"SE"}},{"type":"Feature","geometry":{"type":"Point","coordinates":[22.95302,66.52825]},"properties":{"id":1538,"name":"Norrbotten","iso2":"BD","country_code":"SE"}},{"type":"Feature","geometry":{"type":"Point","coordinates":[15.2151181,59.2747287]},"properties":{"id":1539,"name":"Örebro","iso2":"T","country_code":"SE"}},{"type":"Feature","geometry":{"type":"Point","coordinates":[16.0447142,58.3650249]},"properties":{"id":1536,"name":"Östergötland","iso2":"E","country_code":"SE"}},{"type":"Feature","geometry":{"type":"Point","coordinates":[13.6337117,55.8479416]},"properties":{"id":1541,"name":"Skåne","iso2":"M","country_code":"SE"}},{"type":"Feature","geometry":{"type":"Point","coordinates":[16.7294012,58.9649214]},"properties":{"id":1540,"name":"Södermanland","iso2":"D","country_code":"SE"}},{"type":"Feature","geometry":{"type":"Point","coordinates":[18.0276973,59.3336173]},"properties":{"id":1551,"name":"Stockholm","iso2":"AB","country_code":"SE"}},{"type":"Feature","geometry":{"type":"Point","coordinates":[17.5984327,59.8661986]},"properties":{"id":1545,"name":"Uppsala","iso2":"C","country_code":"SE"}},{"type":"Feature","geometry":{"type":"Point","coordinates":[13.2947617,59.8907624]},"properties":{"id":1535,"name":"Värmland","iso2":"S","country_code":"SE"}},{"type":"Feature","geometry":{"type":"Point","coordinates":[18.5533235,64.728471]},"properties":{"id":1543,"name":"Västerbotten","iso2":"AC","country_code":"SE"}},{"type":"Feature","geometry":{"type":"Point","coordinates":[18.1013686,63.0589693]},"properties":{"id":1552,"name":"Västernorrland","iso2":"Y","country_code":"SE"}},{"type":"Feature","geometry":{"type":"Point","coordinates":[16.1846541,59.6965639]},"properties":{"id":1549,"name":"Västmanland","iso2":"U","country_code":"SE"}},{"type":"Feature","geometry":{"type":"Point","coordinates":[12.6518208,58.2158502]},"properties":{"id":1547,"name":"Västra Götaland","iso2":"O","country_code":"SE"}}]}