{"type":"FeatureCollection","features":[{"type":"Feature","geometry":{"type":"Point","coordinates":[-17.447938,14.693425]},"properties":{"id":473,"name":"Dakar","iso2":"DK","country_code":"SN"}},{"type":"Feature","geometry":{"type":"Point","coordinates":[-16.0316451,14.7844539]},"properties":{"id":480,"name":"Diourbel Region","iso2":"DB","country_code":"SN"}},{"type":"Feature","geometry":{"type":"Point","coordinates":[-16.4111425,14.3390167]},"properties":{"id":479,"name":"Fatick","iso2":"FK","country_code":"SN"}},{"type":"Feature","geometry":{"type":"Point","coordinates":[-15.5415755,14.105202]},"properties":{"id":475,"name":"Kaffrine","iso2":"KA","country_code":"SN"}},{"type":"Feature","geometry":{"type":"Point","coordinates":[-16.076391,14.138815]},"properties":{"id":483,"name":"Kaolack","iso2":"KL","country_code":"SN"}},{"type":"Feature","geometry":{"type":"Point","coordinates":[-12.1855655,12.5570752]},"properties":{"id":481,"name":"Kédougou","iso2":"KE","country_code":"SN"}},{"type":"Feature","geometry":{"type":"Point","coordinates":[-14.9400971,12.8921154]},"properties":{"id":474,"name":"Kolda","iso2":"KD","country_code":"SN"}},{"type":"Feature","geometry":{"type":"Point","coordinates":[-16.22868,15.6141768]},"properties":{"id":485,"name":"Louga","iso2":"LG","country_code":"SN"}},{"type":"Feature","geometry":{"type":"Point","coordinates":[-13.2576906,15.6600225]},"properties":{"id":476,"name":"Matam","iso2":"MT","country_code":"SN"}},{"type":"Feature","geometry":{"type":"Point","coordinates":[-16.5048686,16.0280445]},"properties":{"id":477,"name":"Saint-Louis","iso2":"SL","country_code":"SN"}},{"type":"Feature","geometry":{"type":"Point","coordinates":[-15.5562304,12.704604]},"properties":{"id":482,"name":"Sédhiou","iso2":"SE","country_code":"SN"}},{"type":"Feature","geometry":{"type":"Point","coordinates":[-13.3190328,13.8686324]},"properties":{"id":486,"name":"Tambacounda Region","iso2":"TC","country_code":"SN"}},{"type":"Feature","geometry":{"type":"Point","coordinates":[-16.8637823,14.7538661]},"properties":{"id":484,"name":"Thiès Region","iso2":"TH","country_code":"SN"}},{"type":"Feature","geometry":{"type":"Point","coordinates":[-16.2639825,12.5641479]},"properties":{"id":478,"name":"Ziguinchor","iso2":"ZG","country_code":"SN"}}]}