{"type":"FeatureCollection","features":[{"type":"Feature","geometry":{"type":"Point","coordinates":[-89.9273861,13.8634993]},"properties":{"id":4139,"name":"Ahuachapán","iso2":"AH","country_code":"SV"}},{"type":"Feature","geometry":{"type":"Point","coordinates":[-88.7383096,13.8832914]},"properties":{"id":4132,"name":"Cabañas","iso2":"CA","country_code":"SV"}},{"type":"Feature","geometry":{"type":"Point","coordinates":[-89.0932963,14.1765311]},"properties":{"id":4131,"name":"Chalatenango","iso2":"CH","country_code":"SV"}},{"type":"Feature","geometry":{"type":"Point","coordinates":[-89.0632592,13.8586903]},"properties":{"id":4137,"name":"Cuscatlán","iso2":"CU","country_code":"SV"}},{"type":"Feature","geometry":{"type":"Point","coordinates":[-89.3610819,13.7449622]},"properties":{"id":4134,"name":"La Libertad","iso2":"LI","country_code":"SV"}},{"type":"Feature","geometry":{"type":"Point","coordinates":[-88.9850622,13.4669766]},"properties":{"id":4136,"name":"La Paz","iso2":"PA","country_code":"SV"}},{"type":"Feature","geometry":{"type":"Point","coordinates":[-87.902582,13.5326318]},"properties":{"id":4138,"name":"La Unión ","iso2":"UN","country_code":"SV"}},{"type":"Feature","geometry":{"type":"Point","coordinates":[-88.0951973,13.7726176]},"properties":{"id":4130,"name":"Morazán","iso2":"MO","country_code":"SV"}},{"type":"Feature","geometry":{"type":"Point","coordinates":[-88.271737,13.4320224]},"properties":{"id":4135,"name":"San Miguel","iso2":"SM","country_code":"SV"}},{"type":"Feature","geometry":{"type":"Point","coordinates":[-89.2005546,13.735588]},"properties":{"id":4133,"name":"San Salvador","iso2":"SS","country_code":"SV"}},{"type":"Feature","geometry":{"type":"Point","coordinates":[-88.7396986,13.5274935]},"properties":{"id":4127,"name":"San Vicente","iso2":"SV","country_code":"SV"}},{"type":"Feature","geometry":{"type":"Point","coordinates":[-89.5678141,14.1145585]},"properties":{"id":4128,"name":"Santa Ana","iso2":"SA","country_code":"SV"}},{"type":"Feature","geometry":{"type":"Point","coordinates":[-89.6605842,13.7115105]},"properties":{"id":4140,"name":"Sonsonate","iso2":"SO","country_code":"SV"}},{"type":"Feature","geometry":{"type":"Point","coordinates":[-88.5398358,13.4324702]},"properties":{"id":4129,"name":"Usulután","iso2":"US","country_code":"SV"}}]}