{"type":"FeatureCollection","features":[{"type":"Feature","geometry":{"type":"Point","coordinates":[40.5793816,36.4364544]},"properties":{"id":2941,"name":"Al-Hasakah","iso2":"HA","country_code":"SY"}},{"type":"Feature","geometry":{"type":"Point","coordinates":[39.0089212,35.949678]},"properties":{"id":2944,"name":"Al-Raqqah","iso2":"RA","country_code":"SY"}},{"type":"Feature","geometry":{"type":"Point","coordinates":[37.3935,36.1517479]},"properties":{"id":2946,"name":"Aleppo","iso2":"HL","country_code":"SY"}},{"type":"Feature","geometry":{"type":"Point","coordinates":[36.8776335,32.77055]},"properties":{"id":2936,"name":"As-Suwayda","iso2":"SU","country_code":"SY"}},{"type":"Feature","geometry":{"type":"Point","coordinates":[36.3095814,33.5130695]},"properties":{"id":2939,"name":"Damascus","iso2":"DI","country_code":"SY"}},{"type":"Feature","geometry":{"type":"Point","coordinates":[36.1055602,32.8284685]},"properties":{"id":2945,"name":"Daraa","iso2":"DR","country_code":"SY"}},{"type":"Feature","geometry":{"type":"Point","coordinates":[40.2401172,35.2693236]},"properties":{"id":2937,"name":"Deir ez-Zor","iso2":"DY","country_code":"SY"}},{"type":"Feature","geometry":{"type":"Point","coordinates":[37.2704222,35.309489]},"properties":{"id":2934,"name":"Hama","iso2":"HM","country_code":"SY"}},{"type":"Feature","geometry":{"type":"Point","coordinates":[38.1502622,34.4709821]},"properties":{"id":2942,"name":"Homs","iso2":"HI","country_code":"SY"}},{"type":"Feature","geometry":{"type":"Point","coordinates":[36.5713701,35.8595974]},"properties":{"id":2940,"name":"Idlib","iso2":"ID","country_code":"SY"}},{"type":"Feature","geometry":{"type":"Point","coordinates":[35.9814691,35.5786198]},"properties":{"id":2938,"name":"Latakia","iso2":"LA","country_code":"SY"}},{"type":"Feature","geometry":{"type":"Point","coordinates":[35.9047094,33.0537759]},"properties":{"id":2943,"name":"Quneitra","iso2":"QU","country_code":"SY"}},{"type":"Feature","geometry":{"type":"Point","coordinates":[37.647632,33.4708234]},"properties":{"id":2935,"name":"Rif Dimashq","iso2":"RD","country_code":"SY"}},{"type":"Feature","geometry":{"type":"Point","coordinates":[36.0753261,34.9452553]},"properties":{"id":2947,"name":"Tartus","iso2":"TA","country_code":"SY"}}]}