{"type":"FeatureCollection","features":[{"type":"Feature","geometry":{"type":"Point","coordinates":[140.00111111,-66.66277778]},"properties":{"id":5822,"name":"Adélie Land","iso2":"01","country_code":"TF"}},{"type":"Feature","geometry":{"type":"Point","coordinates":[51.85763889,-46.4325]},"properties":{"id":5823,"name":"Crozet Islands","iso2":"02","country_code":"TF"}},{"type":"Feature","geometry":{"type":"Point","coordinates":[70.21888889,-49.35]},"properties":{"id":5824,"name":"Kerguelen Islands","iso2":"03","country_code":"TF"}},{"type":"Feature","geometry":{"type":"Point","coordinates":[77.57333333,-37.79555556]},"properties":{"id":5825,"name":"Saint-Paul and Amsterdam Islands","iso2":"04","country_code":"TF"}},{"type":"Feature","geometry":{"type":"Point","coordinates":[54.52083333,-15.89222222]},"properties":{"id":5826,"name":"Scattered Islands","iso2":"05","country_code":"TF"}}]}