{"type":"FeatureCollection","features":[{"type":"Feature","geometry":{"type":"Point","coordinates":[-56.9373451,-30.6170756]},"properties":{"id":3205,"name":"Artigas","iso2":"AR","country_code":"UY"}},{"type":"Feature","geometry":{"type":"Point","coordinates":[-55.9903797,-34.6222482]},"properties":{"id":3213,"name":"Canelones","iso2":"CA","country_code":"UY"}},{"type":"Feature","geometry":{"type":"Point","coordinates":[-54.333333,-32.333333]},"properties":{"id":3211,"name":"Cerro Largo","iso2":"CL","country_code":"UY"}},{"type":"Feature","geometry":{"type":"Point","coordinates":[-57.4993268,-34.1664516]},"properties":{"id":3208,"name":"Colonia","iso2":"CO","country_code":"UY"}},{"type":"Feature","geometry":{"type":"Point","coordinates":[-56.0833331,-33.0833329]},"properties":{"id":3209,"name":"Durazno","iso2":"DU","country_code":"UY"}},{"type":"Feature","geometry":{"type":"Point","coordinates":[-56.8393553,-33.6518845]},"properties":{"id":3203,"name":"Flores","iso2":"FS","country_code":"UY"}},{"type":"Feature","geometry":{"type":"Point","coordinates":[-55.916667,-33.833333]},"properties":{"id":3217,"name":"Florida","iso2":"FD","country_code":"UY"}},{"type":"Feature","geometry":{"type":"Point","coordinates":[-54.9992242,-33.9971964]},"properties":{"id":3215,"name":"Lavalleja","iso2":"LA","country_code":"UY"}},{"type":"Feature","geometry":{"type":"Point","coordinates":[-54.916667,-34.666667]},"properties":{"id":3206,"name":"Maldonado","iso2":"MA","country_code":"UY"}},{"type":"Feature","geometry":{"type":"Point","coordinates":[-56.1819512,-34.8652724]},"properties":{"id":3218,"name":"Montevideo","iso2":"MO","country_code":"UY"}},{"type":"Feature","geometry":{"type":"Point","coordinates":[-57.25,-32]},"properties":{"id":3212,"name":"Paysandú","iso2":"PA","country_code":"UY"}},{"type":"Feature","geometry":{"type":"Point","coordinates":[-57.387578,-32.7257419]},"properties":{"id":3210,"name":"Río Negro","iso2":"RN","country_code":"UY"}},{"type":"Feature","geometry":{"type":"Point","coordinates":[-55.25,-31.5]},"properties":{"id":3207,"name":"Rivera","iso2":"RV","country_code":"UY"}},{"type":"Feature","geometry":{"type":"Point","coordinates":[-54,-34]},"properties":{"id":3216,"name":"Rocha","iso2":"RO","country_code":"UY"}},{"type":"Feature","geometry":{"type":"Point","coordinates":[-57.9612455,-31.388028]},"properties":{"id":3220,"name":"Salto","iso2":"SA","country_code":"UY"}},{"type":"Feature","geometry":{"type":"Point","coordinates":[-56.7143155,-34.3396521]},"properties":{"id":3204,"name":"San José","iso2":"SJ","country_code":"UY"}},{"type":"Feature","geometry":{"type":"Point","coordinates":[-57.7893105,-33.4921266]},"properties":{"id":3219,"name":"Soriano","iso2":"SO","country_code":"UY"}},{"type":"Feature","geometry":{"type":"Point","coordinates":[-55.9788762,-31.7110183]},"properties":{"id":3221,"name":"Tacuarembó","iso2":"TA","country_code":"UY"}},{"type":"Feature","geometry":{"type":"Point","coordinates":[-54.25,-33]},"properties":{"id":3214,"name":"Treinta y Tres","iso2":"TT","country_code":"UY"}}]}