{"type":"FeatureCollection","features":[{"type":"Feature","geometry":{"type":"Point","coordinates":[-65.723231,3.422575]},"properties":{"id":2044,"name":"Amazonas","iso2":"Z","country_code":"VE"}},{"type":"Feature","geometry":{"type":"Point","coordinates":[-64.2168001,9.0197925]},"properties":{"id":2050,"name":"Anzoátegui","iso2":"B","country_code":"VE"}},{"type":"Feature","geometry":{"type":"Point","coordinates":[-68.8202025,7.0735781]},"properties":{"id":4856,"name":"Apure","iso2":"C","country_code":"VE"}},{"type":"Feature","geometry":{"type":"Point","coordinates":[-67.0839257,9.9897564]},"properties":{"id":2047,"name":"Aragua","iso2":"D","country_code":"VE"}},{"type":"Feature","geometry":{"type":"Point","coordinates":[-70.2274065,8.6182737]},"properties":{"id":2049,"name":"Barinas","iso2":"E","country_code":"VE"}},{"type":"Feature","geometry":{"type":"Point","coordinates":[-66.1109318,8.0018709]},"properties":{"id":2039,"name":"Bolívar","iso2":"F","country_code":"VE"}},{"type":"Feature","geometry":{"type":"Point","coordinates":[-68.0396345,10.2137258]},"properties":{"id":2040,"name":"Carabobo","iso2":"G","country_code":"VE"}},{"type":"Feature","geometry":{"type":"Point","coordinates":[-68.3590546,9.3094457]},"properties":{"id":2034,"name":"Cojedes","iso2":"H","country_code":"VE"}},{"type":"Feature","geometry":{"type":"Point","coordinates":[-61.3403273,8.9414599]},"properties":{"id":2051,"name":"Delta Amacuro","iso2":"Y","country_code":"VE"}},{"type":"Feature","geometry":{"type":"Point","coordinates":[-66.9708041,10.4749543]},"properties":{"id":4855,"name":"Distrito Capital","iso2":"A","country_code":"VE"}},{"type":"Feature","geometry":{"type":"Point","coordinates":[-69.5834205,11.273946]},"properties":{"id":2035,"name":"Falcón","iso2":"I","country_code":"VE"}},{"type":"Feature","geometry":{"type":"Point","coordinates":[-66.3821,8.8378585]},"properties":{"id":2045,"name":"Guárico","iso2":"J","country_code":"VE"}},{"type":"Feature","geometry":{"type":"Point","coordinates":[-66.9296405,10.6000384]},"properties":{"id":2055,"name":"La Guaira","iso2":"X","country_code":"VE"}},{"type":"Feature","geometry":{"type":"Point","coordinates":[-70.0163241,10.0714266]},"properties":{"id":2038,"name":"Lara","iso2":"K","country_code":"VE"}},{"type":"Feature","geometry":{"type":"Point","coordinates":[-71.3043439,8.4911705]},"properties":{"id":2053,"name":"Mérida","iso2":"L","country_code":"VE"}},{"type":"Feature","geometry":{"type":"Point","coordinates":[-66.4842121,10.323351]},"properties":{"id":2037,"name":"Miranda","iso2":"M","country_code":"VE"}},{"type":"Feature","geometry":{"type":"Point","coordinates":[-63.1589318,9.3437846]},"properties":{"id":2054,"name":"Monagas","iso2":"N","country_code":"VE"}},{"type":"Feature","geometry":{"type":"Point","coordinates":[-64.0975447,10.9645415]},"properties":{"id":2052,"name":"Nueva Esparta","iso2":"O","country_code":"VE"}},{"type":"Feature","geometry":{"type":"Point","coordinates":[-69.3915205,8.9674808]},"properties":{"id":2036,"name":"Portuguesa","iso2":"P","country_code":"VE"}},{"type":"Feature","geometry":{"type":"Point","coordinates":[-63.5649999,10.429015]},"properties":{"id":2056,"name":"Sucre","iso2":"R","country_code":"VE"}},{"type":"Feature","geometry":{"type":"Point","coordinates":[-72.0205763,8.0219748]},"properties":{"id":2048,"name":"Táchira","iso2":"S","country_code":"VE"}},{"type":"Feature","geometry":{"type":"Point","coordinates":[-70.7688907,9.4958129]},"properties":{"id":2043,"name":"Trujillo","iso2":"T","country_code":"VE"}},{"type":"Feature","geometry":{"type":"Point","coordinates":[-66.1109318,8.0018709]},"properties":{"id":2046,"name":"Venezuela","iso2":"W","country_code":"VE"}},{"type":"Feature","geometry":{"type":"Point","coordinates":[-68.7014018,10.3040312]},"properties":{"id":2041,"name":"Yaracuy","iso2":"U","country_code":"VE"}},{"type":"Feature","geometry":{"type":"Point","coordinates":[-71.8641307,10.1065099]},"properties":{"id":2042,"name":"Zulia","iso2":"V","country_code":"VE"}}]}