{"type":"FeatureCollection","features":[{"type":"Feature","geometry":{"type":"Point","coordinates":[29.0375543,-14.183507]},"properties":{"id":1986,"name":"Central","iso2":"02","country_code":"ZM"}},{"type":"Feature","geometry":{"type":"Point","coordinates":[27.8876177,-13.0214171]},"properties":{"id":1984,"name":"Copperbelt","iso2":"08","country_code":"ZM"}},{"type":"Feature","geometry":{"type":"Point","coordinates":[31.9958539,-13.6514737]},"properties":{"id":1991,"name":"Eastern","iso2":"03","country_code":"ZM"}},{"type":"Feature","geometry":{"type":"Point","coordinates":[29.1275609,-10.4680244]},"properties":{"id":1987,"name":"Luapula","iso2":"04","country_code":"ZM"}},{"type":"Feature","geometry":{"type":"Point","coordinates":[29.1653092,-15.357609]},"properties":{"id":1988,"name":"Lusaka","iso2":"09","country_code":"ZM"}},{"type":"Feature","geometry":{"type":"Point","coordinates":[31.639964,-11.1005259]},"properties":{"id":1989,"name":"Muchinga","iso2":"10","country_code":"ZM"}},{"type":"Feature","geometry":{"type":"Point","coordinates":[30.8881001,-9.4514165]},"properties":{"id":1982,"name":"Northern","iso2":"05","country_code":"ZM"}},{"type":"Feature","geometry":{"type":"Point","coordinates":[24.9042208,-13.0050258]},"properties":{"id":1985,"name":"Northwestern","iso2":"06","country_code":"ZM"}},{"type":"Feature","geometry":{"type":"Point","coordinates":[26.7374997,-16.5381715]},"properties":{"id":1990,"name":"Southern","iso2":"07","country_code":"ZM"}},{"type":"Feature","geometry":{"type":"Point","coordinates":[80.0087746,6.9016086]},"properties":{"id":1983,"name":"Western","iso2":"01","country_code":"ZM"}}]}