{"type":"FeatureCollection","features":[{"type":"Feature","geometry":{"type":"Point","coordinates":[54.43295,24.41361]},"properties":{"id":12,"name":"Abu Dhabi","state_code":"AZ","country_code":"AE"}},{"type":"Feature","geometry":{"type":"Point","coordinates":[55.76056,24.19167]},"properties":{"id":16,"name":"Al Ain City","state_code":"AZ","country_code":"AE"}},{"type":"Feature","geometry":{"type":"Point","coordinates":[53.72225,23.65745]},"properties":{"id":19,"name":"Al Dhafra","state_code":"AZ","country_code":"AE"}},{"type":"Feature","geometry":{"type":"Point","coordinates":[54.62944,24.30978]},"properties":{"id":26,"name":"Bani Yas City","state_code":"AZ","country_code":"AE"}},{"type":"Feature","geometry":{"type":"Point","coordinates":[52.5871026,23.9045342]},"properties":{"id":11,"name":"Ghayathi","state_code":"AZ","country_code":"AE"}},{"type":"Feature","geometry":{"type":"Point","coordinates":[54.605,24.42588]},"properties":{"id":34,"name":"Khalifa City","state_code":"AZ","country_code":"AE"}},{"type":"Feature","geometry":{"type":"Point","coordinates":[53.2408608,22.8697255]},"properties":{"id":17,"name":"Liwa Oasis","state_code":"AZ","country_code":"AE"}},{"type":"Feature","geometry":{"type":"Point","coordinates":[54.48267,24.35893]},"properties":{"id":41,"name":"Mussafah","state_code":"AZ","country_code":"AE"}},{"type":"Feature","geometry":{"type":"Point","coordinates":[53.7881,23.14355]},"properties":{"id":42,"name":"Muzayri‘","state_code":"AZ","country_code":"AE"}},{"type":"Feature","geometry":{"type":"Point","coordinates":[52.73056,24.11028]},"properties":{"id":25,"name":"Ruwais","state_code":"AZ","country_code":"AE"}},{"type":"Feature","geometry":{"type":"Point","coordinates":[53.70522,23.65416]},"properties":{"id":49,"name":"Zayed City","state_code":"AZ","country_code":"AE"}}]}