{"type":"FeatureCollection","features":[{"type":"Feature","geometry":{"type":"Point","coordinates":[68.70829,36.13068]},"properties":{"id":54,"name":"Baghlān","state_code":"BGL","country_code":"AF"}},{"type":"Feature","geometry":{"type":"Point","coordinates":[68.48869,35.90617]},"properties":{"id":140,"name":"Ḩukūmatī Dahanah-ye Ghōrī","state_code":"BGL","country_code":"AF"}},{"type":"Feature","geometry":{"type":"Point","coordinates":[69.13343,36.0649]},"properties":{"id":101,"name":"Nahrīn","state_code":"BGL","country_code":"AF"}},{"type":"Feature","geometry":{"type":"Point","coordinates":[68.71512,35.94458]},"properties":{"id":105,"name":"Pul-e Khumrī","state_code":"BGL","country_code":"AF"}}]}