{"type":"FeatureCollection","features":[{"type":"Feature","geometry":{"type":"Point","coordinates":[66.8972,36.75635]},"properties":{"id":55,"name":"Balkh","state_code":"BAL","country_code":"AF"}},{"type":"Feature","geometry":{"type":"Point","coordinates":[66.82069,36.98821]},"properties":{"id":65,"name":"Dowlatābād","state_code":"BAL","country_code":"AF"}},{"type":"Feature","geometry":{"type":"Point","coordinates":[67.69826,36.69736]},"properties":{"id":85,"name":"Khulm","state_code":"BAL","country_code":"AF"}},{"type":"Feature","geometry":{"type":"Point","coordinates":[66.83799,36.02634]},"properties":{"id":91,"name":"Lab-Sar","state_code":"BAL","country_code":"AF"}},{"type":"Feature","geometry":{"type":"Point","coordinates":[67.11087,36.70904]},"properties":{"id":97,"name":"Mazār-e Sharīf","state_code":"BAL","country_code":"AF"}},{"type":"Feature","geometry":{"type":"Point","coordinates":[66.78891,37.03999]},"properties":{"id":112,"name":"Qarchī Gak","state_code":"BAL","country_code":"AF"}}]}