{"type":"FeatureCollection","features":[{"type":"Feature","geometry":{"type":"Point","coordinates":[68.9492,33.96744]},"properties":{"id":56,"name":"Baraki Barak","state_code":"LOG","country_code":"AF"}},{"type":"Feature","geometry":{"type":"Point","coordinates":[69.64573,34.17355]},"properties":{"id":139,"name":"Ḩukūmatī Azrah","state_code":"LOG","country_code":"AF"}},{"type":"Feature","geometry":{"type":"Point","coordinates":[69.02274,33.99529]},"properties":{"id":106,"name":"Pul-e ‘Alam","state_code":"LOG","country_code":"AF"}}]}