{"type":"FeatureCollection","features":[{"type":"Feature","geometry":{"type":"Point","coordinates":[65.98234,35.41674]},"properties":{"id":62,"name":"Chīras","state_code":"SAR","country_code":"AF"}},{"type":"Feature","geometry":{"type":"Point","coordinates":[66.66409,35.48936]},"properties":{"id":92,"name":"Larkird","state_code":"SAR","country_code":"AF"}},{"type":"Feature","geometry":{"type":"Point","coordinates":[65.5676,35.54729]},"properties":{"id":110,"name":"Qal‘ah-ye Shahr","state_code":"SAR","country_code":"AF"}},{"type":"Feature","geometry":{"type":"Point","coordinates":[66.43694,35.84972]},"properties":{"id":117,"name":"Sang-e Chārak","state_code":"SAR","country_code":"AF"}},{"type":"Feature","geometry":{"type":"Point","coordinates":[65.93249,36.21544]},"properties":{"id":119,"name":"Sar-e Pul","state_code":"SAR","country_code":"AF"}},{"type":"Feature","geometry":{"type":"Point","coordinates":[66.06164,35.69941]},"properties":{"id":125,"name":"Tagāw-Bāy","state_code":"SAR","country_code":"AF"}},{"type":"Feature","geometry":{"type":"Point","coordinates":[66.42132,35.94831]},"properties":{"id":128,"name":"Tukzār","state_code":"SAR","country_code":"AF"}}]}