{"type":"FeatureCollection","features":[{"type":"Feature","geometry":{"type":"Point","coordinates":[19.84074,40.82492]},"properties":{"id":153,"name":"Banaj","state_code":"01","country_code":"AL"}},{"type":"Feature","geometry":{"type":"Point","coordinates":[19.94983,40.69997]},"properties":{"id":154,"name":"Bashkia Berat","state_code":"01","country_code":"AL"}},{"type":"Feature","geometry":{"type":"Point","coordinates":[19.9535,40.82489]},"properties":{"id":170,"name":"Bashkia Kuçovë","state_code":"01","country_code":"AL"}},{"type":"Feature","geometry":{"type":"Point","coordinates":[20.04535,40.58608]},"properties":{"id":180,"name":"Bashkia Poliçan","state_code":"01","country_code":"AL"}},{"type":"Feature","geometry":{"type":"Point","coordinates":[20.25477,40.56036]},"properties":{"id":186,"name":"Bashkia Skrapar","state_code":"01","country_code":"AL"}},{"type":"Feature","geometry":{"type":"Point","coordinates":[19.95222,40.70583]},"properties":{"id":191,"name":"Berat","state_code":"01","country_code":"AL"}},{"type":"Feature","geometry":{"type":"Point","coordinates":[20.22722,40.50417]},"properties":{"id":280,"name":"Çorovodë","state_code":"01","country_code":"AL"}},{"type":"Feature","geometry":{"type":"Point","coordinates":[19.91667,40.80028]},"properties":{"id":219,"name":"Kuçovë","state_code":"01","country_code":"AL"}},{"type":"Feature","geometry":{"type":"Point","coordinates":[20.09806,40.61222]},"properties":{"id":238,"name":"Poliçan","state_code":"01","country_code":"AL"}},{"type":"Feature","geometry":{"type":"Point","coordinates":[20,40.66667]},"properties":{"id":242,"name":"Rrethi i Beratit","state_code":"01","country_code":"AL"}},{"type":"Feature","geometry":{"type":"Point","coordinates":[19.91667,40.83333]},"properties":{"id":253,"name":"Rrethi i Kuçovës","state_code":"01","country_code":"AL"}},{"type":"Feature","geometry":{"type":"Point","coordinates":[20.26667,40.55]},"properties":{"id":258,"name":"Rrethi i Skraparit","state_code":"01","country_code":"AL"}},{"type":"Feature","geometry":{"type":"Point","coordinates":[20.101884,40.5407139]},"properties":{"id":157044,"name":"Skrapar","state_code":"01","country_code":"AL"}},{"type":"Feature","geometry":{"type":"Point","coordinates":[19.87778,40.76889]},"properties":{"id":273,"name":"Ura Vajgurore","state_code":"01","country_code":"AL"}}]}