{"type":"FeatureCollection","features":[{"type":"Feature","geometry":{"type":"Point","coordinates":[20.07679,42.35734]},"properties":{"id":151,"name":"Bajram Curri","state_code":"07","country_code":"AL"}},{"type":"Feature","geometry":{"type":"Point","coordinates":[20.41333,42.19694]},"properties":{"id":215,"name":"Krumë","state_code":"07","country_code":"AL"}},{"type":"Feature","geometry":{"type":"Point","coordinates":[20.42194,42.07694]},"properties":{"id":217,"name":"Kukës","state_code":"07","country_code":"AL"}},{"type":"Feature","geometry":{"type":"Point","coordinates":[20.33333,42.16667]},"properties":{"id":247,"name":"Rrethi i Hasit","state_code":"07","country_code":"AL"}},{"type":"Feature","geometry":{"type":"Point","coordinates":[20.33333,42]},"properties":{"id":251,"name":"Rrethi i Kukësit","state_code":"07","country_code":"AL"}},{"type":"Feature","geometry":{"type":"Point","coordinates":[19.7453929,42.37624]},"properties":{"id":157056,"name":"Tropojë","state_code":"07","country_code":"AL"}}]}