{"type":"FeatureCollection","features":[{"type":"Feature","geometry":{"type":"Point","coordinates":[20.16476,40.36196]},"properties":{"id":164,"name":"Bashkia Kelcyrë","state_code":"05","country_code":"AL"}},{"type":"Feature","geometry":{"type":"Point","coordinates":[20.25753,40.10754]},"properties":{"id":172,"name":"Bashkia Libohovë","state_code":"05","country_code":"AL"}},{"type":"Feature","geometry":{"type":"Point","coordinates":[19.96911,40.41524]},"properties":{"id":177,"name":"Bashkia Memaliaj","state_code":"05","country_code":"AL"}},{"type":"Feature","geometry":{"type":"Point","coordinates":[20.41091,40.23246]},"properties":{"id":183,"name":"Bashkia Përmet","state_code":"05","country_code":"AL"}},{"type":"Feature","geometry":{"type":"Point","coordinates":[19.97003,40.26736]},"properties":{"id":187,"name":"Bashkia Tepelenë","state_code":"05","country_code":"AL"}},{"type":"Feature","geometry":{"type":"Point","coordinates":[20.30529,39.98584]},"properties":{"id":158,"name":"Dropull","state_code":"05","country_code":"AL"}},{"type":"Feature","geometry":{"type":"Point","coordinates":[20.40611,40.19944]},"properties":{"id":204,"name":"Gjinkar","state_code":"05","country_code":"AL"}},{"type":"Feature","geometry":{"type":"Point","coordinates":[20.13889,40.07583]},"properties":{"id":205,"name":"Gjirokastër","state_code":"05","country_code":"AL"}},{"type":"Feature","geometry":{"type":"Point","coordinates":[20.18944,40.31306]},"properties":{"id":220,"name":"Këlcyrë","state_code":"05","country_code":"AL"}},{"type":"Feature","geometry":{"type":"Point","coordinates":[20.1475,40.04667]},"properties":{"id":221,"name":"Lazarat","state_code":"05","country_code":"AL"}},{"type":"Feature","geometry":{"type":"Point","coordinates":[20.26306,40.03111]},"properties":{"id":225,"name":"Libohovë","state_code":"05","country_code":"AL"}},{"type":"Feature","geometry":{"type":"Point","coordinates":[19.98028,40.35167]},"properties":{"id":231,"name":"Memaliaj","state_code":"05","country_code":"AL"}},{"type":"Feature","geometry":{"type":"Point","coordinates":[20.35167,40.23361]},"properties":{"id":240,"name":"Përmet","state_code":"05","country_code":"AL"}},{"type":"Feature","geometry":{"type":"Point","coordinates":[20.01917,40.29583]},"properties":{"id":270,"name":"Tepelenë","state_code":"05","country_code":"AL"}}]}