{"type":"FeatureCollection","features":[{"type":"Feature","geometry":{"type":"Point","coordinates":[45.72568,40.15886]},"properties":{"id":296,"name":"Akunk’","state_code":"GR","country_code":"AM"}},{"type":"Feature","geometry":{"type":"Point","coordinates":[45.35553,40.12231]},"properties":{"id":336,"name":"Astghadzor","state_code":"GR","country_code":"AM"}},{"type":"Feature","geometry":{"type":"Point","coordinates":[45.35498,40.59655]},"properties":{"id":364,"name":"Chambarak","state_code":"GR","country_code":"AM"}},{"type":"Feature","geometry":{"type":"Point","coordinates":[44.82295,40.57028]},"properties":{"id":371,"name":"Ddmashen","state_code":"GR","country_code":"AM"}},{"type":"Feature","geometry":{"type":"Point","coordinates":[45.2367,40.56497]},"properties":{"id":375,"name":"Drakhtik","state_code":"GR","country_code":"AM"}},{"type":"Feature","geometry":{"type":"Point","coordinates":[45.18337,40.16957]},"properties":{"id":380,"name":"Dzoragyugh","state_code":"GR","country_code":"AM"}},{"type":"Feature","geometry":{"type":"Point","coordinates":[44.86962,40.54026]},"properties":{"id":384,"name":"Gagarin","state_code":"GR","country_code":"AM"}},{"type":"Feature","geometry":{"type":"Point","coordinates":[45.11139,40.31472]},"properties":{"id":385,"name":"Gandzak","state_code":"GR","country_code":"AM"}},{"type":"Feature","geometry":{"type":"Point","coordinates":[45.12386,40.35398]},"properties":{"id":387,"name":"Gavarr","state_code":"GR","country_code":"AM"}},{"type":"Feature","geometry":{"type":"Point","coordinates":[45.67924,40.31091]},"properties":{"id":390,"name":"Geghamasar","state_code":"GR","country_code":"AM"}},{"type":"Feature","geometry":{"type":"Point","coordinates":[44.88892,40.5625]},"properties":{"id":391,"name":"Geghamavan","state_code":"GR","country_code":"AM"}},{"type":"Feature","geometry":{"type":"Point","coordinates":[45.28972,40.10444]},"properties":{"id":427,"name":"Karanlukh","state_code":"GR","country_code":"AM"}},{"type":"Feature","geometry":{"type":"Point","coordinates":[45.57785,40.17048]},"properties":{"id":429,"name":"Karchaghbyur","state_code":"GR","country_code":"AM"}},{"type":"Feature","geometry":{"type":"Point","coordinates":[45.14447,40.26947]},"properties":{"id":437,"name":"Lanjaghbyur","state_code":"GR","country_code":"AM"}},{"type":"Feature","geometry":{"type":"Point","coordinates":[45.07507,40.45569]},"properties":{"id":438,"name":"Lchap’","state_code":"GR","country_code":"AM"}},{"type":"Feature","geometry":{"type":"Point","coordinates":[44.93048,40.51947]},"properties":{"id":439,"name":"Lchashen","state_code":"GR","country_code":"AM"}},{"type":"Feature","geometry":{"type":"Point","coordinates":[45.23467,40.15933]},"properties":{"id":446,"name":"Lichk’","state_code":"GR","country_code":"AM"}},{"type":"Feature","geometry":{"type":"Point","coordinates":[45.25507,40.07637]},"properties":{"id":450,"name":"Madina","state_code":"GR","country_code":"AM"}},{"type":"Feature","geometry":{"type":"Point","coordinates":[45.25,40.08333]},"properties":{"id":457,"name":"Martuni","state_code":"GR","country_code":"AM"}},{"type":"Feature","geometry":{"type":"Point","coordinates":[45.76391,40.21948]},"properties":{"id":467,"name":"Mets Masrik","state_code":"GR","country_code":"AM"}},{"type":"Feature","geometry":{"type":"Point","coordinates":[45.27087,40.14172]},"properties":{"id":481,"name":"Nerk’in Getashen","state_code":"GR","country_code":"AM"}},{"type":"Feature","geometry":{"type":"Point","coordinates":[45.18048,40.37793]},"properties":{"id":492,"name":"Noratus","state_code":"GR","country_code":"AM"}},{"type":"Feature","geometry":{"type":"Point","coordinates":[45.13068,40.29169]},"properties":{"id":511,"name":"Sarukhan","state_code":"GR","country_code":"AM"}},{"type":"Feature","geometry":{"type":"Point","coordinates":[44.94171,40.5473]},"properties":{"id":514,"name":"Sevan","state_code":"GR","country_code":"AM"}},{"type":"Feature","geometry":{"type":"Point","coordinates":[44.96112,40.63348]},"properties":{"id":541,"name":"Tsovagyugh","state_code":"GR","country_code":"AM"}},{"type":"Feature","geometry":{"type":"Point","coordinates":[45.63286,40.18254]},"properties":{"id":542,"name":"Tsovak","state_code":"GR","country_code":"AM"}},{"type":"Feature","geometry":{"type":"Point","coordinates":[45.19096,40.1382]},"properties":{"id":543,"name":"Tsovasar","state_code":"GR","country_code":"AM"}},{"type":"Feature","geometry":{"type":"Point","coordinates":[45.05011,40.4751]},"properties":{"id":544,"name":"Tsovazard","state_code":"GR","country_code":"AM"}},{"type":"Feature","geometry":{"type":"Point","coordinates":[45.46786,40.15959]},"properties":{"id":545,"name":"Tsovinar","state_code":"GR","country_code":"AM"}},{"type":"Feature","geometry":{"type":"Point","coordinates":[45.33069,40.13611]},"properties":{"id":550,"name":"Vaghashen","state_code":"GR","country_code":"AM"}},{"type":"Feature","geometry":{"type":"Point","coordinates":[45.39769,40.57549]},"properties":{"id":552,"name":"Vahan","state_code":"GR","country_code":"AM"}},{"type":"Feature","geometry":{"type":"Point","coordinates":[45.44311,40.13348]},"properties":{"id":556,"name":"Vardenik","state_code":"GR","country_code":"AM"}},{"type":"Feature","geometry":{"type":"Point","coordinates":[45.73053,40.18329]},"properties":{"id":557,"name":"Vardenis","state_code":"GR","country_code":"AM"}},{"type":"Feature","geometry":{"type":"Point","coordinates":[44.90832,40.55548]},"properties":{"id":558,"name":"Varser","state_code":"GR","country_code":"AM"}},{"type":"Feature","geometry":{"type":"Point","coordinates":[45.25293,40.13068]},"properties":{"id":563,"name":"Verin Getashen","state_code":"GR","country_code":"AM"}},{"type":"Feature","geometry":{"type":"Point","coordinates":[45.19209,40.20428]},"properties":{"id":578,"name":"Yeranos","state_code":"GR","country_code":"AM"}}]}