{"type":"FeatureCollection","features":[{"type":"Feature","geometry":{"type":"Point","coordinates":[44.46845,41.01072]},"properties":{"id":283,"name":"Agarak","state_code":"LO","country_code":"AM"}},{"type":"Feature","geometry":{"type":"Point","coordinates":[44.75811,41.16838]},"properties":{"id":290,"name":"Akht’ala","state_code":"LO","country_code":"AM"}},{"type":"Feature","geometry":{"type":"Point","coordinates":[44.67316,41.09766]},"properties":{"id":298,"name":"Alaverdi","state_code":"LO","country_code":"AM"}},{"type":"Feature","geometry":{"type":"Point","coordinates":[44.27438,40.86039]},"properties":{"id":316,"name":"Arevashogh","state_code":"LO","country_code":"AM"}},{"type":"Feature","geometry":{"type":"Point","coordinates":[44.43978,40.86763]},"properties":{"id":353,"name":"Bazum","state_code":"LO","country_code":"AM"}},{"type":"Feature","geometry":{"type":"Point","coordinates":[44.83217,41.18118]},"properties":{"id":365,"name":"Chochkan","state_code":"LO","country_code":"AM"}},{"type":"Feature","geometry":{"type":"Point","coordinates":[44.42494,40.83674]},"properties":{"id":369,"name":"Darpas","state_code":"LO","country_code":"AM"}},{"type":"Feature","geometry":{"type":"Point","coordinates":[44.65003,40.9617]},"properties":{"id":376,"name":"Dsegh","state_code":"LO","country_code":"AM"}},{"type":"Feature","geometry":{"type":"Point","coordinates":[44.71769,40.72241]},"properties":{"id":383,"name":"Fioletovo","state_code":"LO","country_code":"AM"}},{"type":"Feature","geometry":{"type":"Point","coordinates":[44.19915,40.89255]},"properties":{"id":399,"name":"Gogaran","state_code":"LO","country_code":"AM"}},{"type":"Feature","geometry":{"type":"Point","coordinates":[44.54025,40.8046]},"properties":{"id":404,"name":"Gugark’","state_code":"LO","country_code":"AM"}},{"type":"Feature","geometry":{"type":"Point","coordinates":[44.47144,40.96715]},"properties":{"id":405,"name":"Gyulagarak","state_code":"LO","country_code":"AM"}},{"type":"Feature","geometry":{"type":"Point","coordinates":[44.18664,40.79028]},"properties":{"id":423,"name":"Jrashen","state_code":"LO","country_code":"AM"}},{"type":"Feature","geometry":{"type":"Point","coordinates":[44.27435,40.79532]},"properties":{"id":443,"name":"Lerrnants’k’","state_code":"LO","country_code":"AM"}},{"type":"Feature","geometry":{"type":"Point","coordinates":[44.39344,40.81538]},"properties":{"id":444,"name":"Lerrnapat","state_code":"LO","country_code":"AM"}},{"type":"Feature","geometry":{"type":"Point","coordinates":[44.16024,40.7882]},"properties":{"id":445,"name":"Lerrnavan","state_code":"LO","country_code":"AM"}},{"type":"Feature","geometry":{"type":"Point","coordinates":[44.77142,40.93717]},"properties":{"id":447,"name":"Lorut","state_code":"LO","country_code":"AM"}},{"type":"Feature","geometry":{"type":"Point","coordinates":[44.68474,40.73381]},"properties":{"id":453,"name":"Margahovit","state_code":"LO","country_code":"AM"}},{"type":"Feature","geometry":{"type":"Point","coordinates":[44.11108,40.83472]},"properties":{"id":468,"name":"Mets Parni","state_code":"LO","country_code":"AM"}},{"type":"Feature","geometry":{"type":"Point","coordinates":[44.22877,41.20156]},"properties":{"id":470,"name":"Metsavan","state_code":"LO","country_code":"AM"}},{"type":"Feature","geometry":{"type":"Point","coordinates":[44.33336,41.18886]},"properties":{"id":490,"name":"Norashen","state_code":"LO","country_code":"AM"}},{"type":"Feature","geometry":{"type":"Point","coordinates":[44.61341,41.05321]},"properties":{"id":496,"name":"Odzun","state_code":"LO","country_code":"AM"}},{"type":"Feature","geometry":{"type":"Point","coordinates":[44.21407,40.87043]},"properties":{"id":506,"name":"Sarahart’","state_code":"LO","country_code":"AM"}},{"type":"Feature","geometry":{"type":"Point","coordinates":[44.2222,40.77487]},"properties":{"id":507,"name":"Saramej","state_code":"LO","country_code":"AM"}},{"type":"Feature","geometry":{"type":"Point","coordinates":[44.54596,40.77482]},"properties":{"id":517,"name":"Shahumyan","state_code":"LO","country_code":"AM"}},{"type":"Feature","geometry":{"type":"Point","coordinates":[44.15278,40.86056]},"properties":{"id":523,"name":"Shirakamut","state_code":"LO","country_code":"AM"}},{"type":"Feature","geometry":{"type":"Point","coordinates":[44.84043,41.14693]},"properties":{"id":524,"name":"Shnogh","state_code":"LO","country_code":"AM"}},{"type":"Feature","geometry":{"type":"Point","coordinates":[44.26731,40.83221]},"properties":{"id":529,"name":"Spitak","state_code":"LO","country_code":"AM"}},{"type":"Feature","geometry":{"type":"Point","coordinates":[44.38531,41.00995]},"properties":{"id":530,"name":"Step’anavan","state_code":"LO","country_code":"AM"}},{"type":"Feature","geometry":{"type":"Point","coordinates":[44.28462,41.12072]},"properties":{"id":534,"name":"Tashir","state_code":"LO","country_code":"AM"}},{"type":"Feature","geometry":{"type":"Point","coordinates":[44.10144,40.79849]},"properties":{"id":536,"name":"Tsaghkaber","state_code":"LO","country_code":"AM"}},{"type":"Feature","geometry":{"type":"Point","coordinates":[44.39628,41.06778]},"properties":{"id":547,"name":"Urrut","state_code":"LO","country_code":"AM"}},{"type":"Feature","geometry":{"type":"Point","coordinates":[44.60873,40.90698]},"properties":{"id":551,"name":"Vahagni","state_code":"LO","country_code":"AM"}},{"type":"Feature","geometry":{"type":"Point","coordinates":[44.4939,40.80456]},"properties":{"id":553,"name":"Vanadzor","state_code":"LO","country_code":"AM"}},{"type":"Feature","geometry":{"type":"Point","coordinates":[44.50889,40.97083]},"properties":{"id":554,"name":"Vardablur","state_code":"LO","country_code":"AM"}},{"type":"Feature","geometry":{"type":"Point","coordinates":[44.63155,40.90302]},"properties":{"id":576,"name":"Yeghegnut","state_code":"LO","country_code":"AM"}}]}