{"type":"FeatureCollection","features":[{"type":"Feature","geometry":{"type":"Point","coordinates":[44.87631,41.16351]},"properties":{"id":312,"name":"Archis","state_code":"TV","country_code":"AM"}},{"type":"Feature","geometry":{"type":"Point","coordinates":[45.47033,40.83947]},"properties":{"id":331,"name":"Artsvaberd","state_code":"TV","country_code":"AM"}},{"type":"Feature","geometry":{"type":"Point","coordinates":[45.25033,40.97951]},"properties":{"id":339,"name":"Aygehovit","state_code":"TV","country_code":"AM"}},{"type":"Feature","geometry":{"type":"Point","coordinates":[45.18551,40.98204]},"properties":{"id":345,"name":"Azatamut","state_code":"TV","country_code":"AM"}},{"type":"Feature","geometry":{"type":"Point","coordinates":[44.81737,41.24358]},"properties":{"id":348,"name":"Bagratashen","state_code":"TV","country_code":"AM"}},{"type":"Feature","geometry":{"type":"Point","coordinates":[45.38901,40.88135]},"properties":{"id":354,"name":"Berd","state_code":"TV","country_code":"AM"}},{"type":"Feature","geometry":{"type":"Point","coordinates":[44.99967,41.20503]},"properties":{"id":355,"name":"Berdavan","state_code":"TV","country_code":"AM"}},{"type":"Feature","geometry":{"type":"Point","coordinates":[44.8501,40.7417]},"properties":{"id":372,"name":"Dilijan","state_code":"TV","country_code":"AM"}},{"type":"Feature","geometry":{"type":"Point","coordinates":[44.96847,40.77614]},"properties":{"id":407,"name":"Haghartsin","state_code":"TV","country_code":"AM"}},{"type":"Feature","geometry":{"type":"Point","coordinates":[45.14851,40.87877]},"properties":{"id":418,"name":"Ijevan","state_code":"TV","country_code":"AM"}},{"type":"Feature","geometry":{"type":"Point","coordinates":[45.1821,40.93668]},"properties":{"id":431,"name":"Khasht’arrak","state_code":"TV","country_code":"AM"}},{"type":"Feature","geometry":{"type":"Point","coordinates":[45.48838,40.90534]},"properties":{"id":471,"name":"Mosesgegh","state_code":"TV","country_code":"AM"}},{"type":"Feature","geometry":{"type":"Point","coordinates":[45.34179,40.86695]},"properties":{"id":480,"name":"Navur","state_code":"TV","country_code":"AM"}},{"type":"Feature","geometry":{"type":"Point","coordinates":[44.99917,41.17244]},"properties":{"id":494,"name":"Noyemberyan","state_code":"TV","country_code":"AM"}},{"type":"Feature","geometry":{"type":"Point","coordinates":[45.36696,40.98248]},"properties":{"id":498,"name":"Parravak’ar","state_code":"TV","country_code":"AM"}},{"type":"Feature","geometry":{"type":"Point","coordinates":[45.14486,41.03531]},"properties":{"id":510,"name":"Sarigyugh","state_code":"TV","country_code":"AM"}},{"type":"Feature","geometry":{"type":"Point","coordinates":[45.06381,41.12081]},"properties":{"id":569,"name":"Voskevan","state_code":"TV","country_code":"AM"}}]}