{"type":"FeatureCollection","features":[{"type":"Feature","geometry":{"type":"Point","coordinates":[13.4776,-12.5766]},"properties":{"id":153653,"name":"Baía Farta","state_code":"BGU","country_code":"AO"}},{"type":"Feature","geometry":{"type":"Point","coordinates":[13.5959,-12.9046]},"properties":{"id":153654,"name":"Balombo","state_code":"BGU","country_code":"AO"}},{"type":"Feature","geometry":{"type":"Point","coordinates":[13.40547,-12.57626]},"properties":{"id":590,"name":"Benguela","state_code":"BGU","country_code":"AO"}},{"type":"Feature","geometry":{"type":"Point","coordinates":[13.4042,-12.5303]},"properties":{"id":153656,"name":"Bocoio","state_code":"BGU","country_code":"AO"}},{"type":"Feature","geometry":{"type":"Point","coordinates":[14.4194,-12.6133]},"properties":{"id":153659,"name":"Caimbambo","state_code":"BGU","country_code":"AO"}},{"type":"Feature","geometry":{"type":"Point","coordinates":[13.54677,-12.43002]},"properties":{"id":597,"name":"Catumbela","state_code":"BGU","country_code":"AO"}},{"type":"Feature","geometry":{"type":"Point","coordinates":[13.7975,-12.7888]},"properties":{"id":153655,"name":"Chongoroi","state_code":"BGU","country_code":"AO"}},{"type":"Feature","geometry":{"type":"Point","coordinates":[14.4267,-12.5885]},"properties":{"id":153658,"name":"Cubal","state_code":"BGU","country_code":"AO"}},{"type":"Feature","geometry":{"type":"Point","coordinates":[14.4233,-12.6825]},"properties":{"id":153657,"name":"Ganda","state_code":"BGU","country_code":"AO"}},{"type":"Feature","geometry":{"type":"Point","coordinates":[13.53601,-12.3644]},"properties":{"id":613,"name":"Lobito","state_code":"BGU","country_code":"AO"}},{"type":"Feature","geometry":{"type":"Point","coordinates":[13.8448,-11.2061]},"properties":{"id":153660,"name":"Sumbe","state_code":"BGU","country_code":"AO"}}]}