{"type":"FeatureCollection","features":[{"type":"Feature","geometry":{"type":"Point","coordinates":[-68.52556,-31.43722]},"properties":{"id":644,"name":"Albardón","state_code":"J","country_code":"AR"}},{"type":"Feature","geometry":{"type":"Point","coordinates":[-69.4208,-31.33394]},"properties":{"id":714,"name":"Calingasta","state_code":"J","country_code":"AR"}},{"type":"Feature","geometry":{"type":"Point","coordinates":[-68.28105,-31.65179]},"properties":{"id":741,"name":"Caucete","state_code":"J","country_code":"AR"}},{"type":"Feature","geometry":{"type":"Point","coordinates":[-68.53333,-31.48333]},"properties":{"id":762,"name":"Chimbas","state_code":"J","country_code":"AR"}},{"type":"Feature","geometry":{"type":"Point","coordinates":[-68.41667,-31.28333]},"properties":{"id":821,"name":"Departamento de Albardón","state_code":"J","country_code":"AR"}},{"type":"Feature","geometry":{"type":"Point","coordinates":[-68.13333,-31.2]},"properties":{"id":827,"name":"Departamento de Angaco","state_code":"J","country_code":"AR"}},{"type":"Feature","geometry":{"type":"Point","coordinates":[-69.75,-31.5]},"properties":{"id":844,"name":"Departamento de Calingasta","state_code":"J","country_code":"AR"}},{"type":"Feature","geometry":{"type":"Point","coordinates":[-68.53333,-31.53333]},"properties":{"id":851,"name":"Departamento de Capital","state_code":"J","country_code":"AR"}},{"type":"Feature","geometry":{"type":"Point","coordinates":[-67.66667,-31.45]},"properties":{"id":856,"name":"Departamento de Caucete","state_code":"J","country_code":"AR"}},{"type":"Feature","geometry":{"type":"Point","coordinates":[-68.52691,-31.48738]},"properties":{"id":859,"name":"Departamento de Chimbas","state_code":"J","country_code":"AR"}},{"type":"Feature","geometry":{"type":"Point","coordinates":[-69.58333,-29.33333]},"properties":{"id":907,"name":"Departamento de Iglesia","state_code":"J","country_code":"AR"}},{"type":"Feature","geometry":{"type":"Point","coordinates":[-68.5,-30.5]},"properties":{"id":915,"name":"Departamento de Jáchal","state_code":"J","country_code":"AR"}},{"type":"Feature","geometry":{"type":"Point","coordinates":[-68.38925,-31.65072]},"properties":{"id":952,"name":"Departamento de Nueve de Julio","state_code":"J","country_code":"AR"}},{"type":"Feature","geometry":{"type":"Point","coordinates":[-68.46667,-31.7]},"properties":{"id":964,"name":"Departamento de Rawson","state_code":"J","country_code":"AR"}},{"type":"Feature","geometry":{"type":"Point","coordinates":[-68.65219,-31.5645]},"properties":{"id":966,"name":"Departamento de Rivadavia","state_code":"J","country_code":"AR"}},{"type":"Feature","geometry":{"type":"Point","coordinates":[-68.25,-31.5]},"properties":{"id":998,"name":"Departamento de San Martín","state_code":"J","country_code":"AR"}},{"type":"Feature","geometry":{"type":"Point","coordinates":[-68.46667,-31.53333]},"properties":{"id":1005,"name":"Departamento de Santa Lucía","state_code":"J","country_code":"AR"}},{"type":"Feature","geometry":{"type":"Point","coordinates":[-68.66667,-32]},"properties":{"id":1013,"name":"Departamento de Sarmiento","state_code":"J","country_code":"AR"}},{"type":"Feature","geometry":{"type":"Point","coordinates":[-68.91667,-31]},"properties":{"id":1028,"name":"Departamento de Ullúm","state_code":"J","country_code":"AR"}},{"type":"Feature","geometry":{"type":"Point","coordinates":[-68.89938,-31.6826]},"properties":{"id":1036,"name":"Departamento de Zonda","state_code":"J","country_code":"AR"}},{"type":"Feature","geometry":{"type":"Point","coordinates":[-68.39023,-31.66914]},"properties":{"id":1302,"name":"Nueve de Julio","state_code":"J","country_code":"AR"}},{"type":"Feature","geometry":{"type":"Point","coordinates":[-68.58333,-31.68333]},"properties":{"id":1339,"name":"Pocito","state_code":"J","country_code":"AR"}},{"type":"Feature","geometry":{"type":"Point","coordinates":[-67.46821,-30.63353]},"properties":{"id":1407,"name":"San Agustín de Valle Fértil","state_code":"J","country_code":"AR"}},{"type":"Feature","geometry":{"type":"Point","coordinates":[-68.74693,-30.24057]},"properties":{"id":1431,"name":"San José de Jáchal","state_code":"J","country_code":"AR"}},{"type":"Feature","geometry":{"type":"Point","coordinates":[-68.53639,-31.5375]},"properties":{"id":1433,"name":"San Juan","state_code":"J","country_code":"AR"}},{"type":"Feature","geometry":{"type":"Point","coordinates":[-68.50065,-31.42957]},"properties":{"id":1441,"name":"San Martín","state_code":"J","country_code":"AR"}},{"type":"Feature","geometry":{"type":"Point","coordinates":[-68.49503,-31.53987]},"properties":{"id":1460,"name":"Santa Lucía","state_code":"J","country_code":"AR"}},{"type":"Feature","geometry":{"type":"Point","coordinates":[-68.73333,-31.55]},"properties":{"id":1540,"name":"Villa Basilio Nievas","state_code":"J","country_code":"AR"}},{"type":"Feature","geometry":{"type":"Point","coordinates":[-68.53838,-31.4933]},"properties":{"id":1572,"name":"Villa Paula de Sarmiento","state_code":"J","country_code":"AR"}}]}