{"type":"FeatureCollection","features":[{"type":"Feature","geometry":{"type":"Point","coordinates":[-61.60222,-32.78215]},"properties":{"id":670,"name":"Armstrong","state_code":"S","country_code":"AR"}},{"type":"Feature","geometry":{"type":"Point","coordinates":[-60.50863,-33.15489]},"properties":{"id":673,"name":"Arroyo Seco","state_code":"S","country_code":"AR"}},{"type":"Feature","geometry":{"type":"Point","coordinates":[-61.72862,-30.23281]},"properties":{"id":675,"name":"Arrufó","state_code":"S","country_code":"AR"}},{"type":"Feature","geometry":{"type":"Point","coordinates":[-59.65834,-29.11761]},"properties":{"id":676,"name":"Avellaneda","state_code":"S","country_code":"AR"}},{"type":"Feature","geometry":{"type":"Point","coordinates":[-61.41092,-31.28182]},"properties":{"id":689,"name":"Bella Italia","state_code":"S","country_code":"AR"}},{"type":"Feature","geometry":{"type":"Point","coordinates":[-60.28697,-29.88767]},"properties":{"id":710,"name":"Calchaquí","state_code":"S","country_code":"AR"}},{"type":"Feature","geometry":{"type":"Point","coordinates":[-61.39493,-32.81636]},"properties":{"id":743,"name":"Cañada de Gómez","state_code":"S","country_code":"AR"}},{"type":"Feature","geometry":{"type":"Point","coordinates":[-60.71852,-32.82262]},"properties":{"id":729,"name":"Capitán Bermúdez","state_code":"S","country_code":"AR"}},{"type":"Feature","geometry":{"type":"Point","coordinates":[-61.15331,-32.85679]},"properties":{"id":732,"name":"Carcarañá","state_code":"S","country_code":"AR"}},{"type":"Feature","geometry":{"type":"Point","coordinates":[-61.16806,-33.04417]},"properties":{"id":736,"name":"Casilda","state_code":"S","country_code":"AR"}},{"type":"Feature","geometry":{"type":"Point","coordinates":[-61.94504,-29.881]},"properties":{"id":747,"name":"Ceres","state_code":"S","country_code":"AR"}},{"type":"Feature","geometry":{"type":"Point","coordinates":[-62.03831,-33.32524]},"properties":{"id":758,"name":"Chañar Ladeado","state_code":"S","country_code":"AR"}},{"type":"Feature","geometry":{"type":"Point","coordinates":[-60.91983,-31.97263]},"properties":{"id":796,"name":"Coronda","state_code":"S","country_code":"AR"}},{"type":"Feature","geometry":{"type":"Point","coordinates":[-61.75,-32.5]},"properties":{"id":835,"name":"Departamento de Belgrano","state_code":"S","country_code":"AR"}},{"type":"Feature","geometry":{"type":"Point","coordinates":[-61.66667,-33.25]},"properties":{"id":853,"name":"Departamento de Caseros","state_code":"S","country_code":"AR"}},{"type":"Feature","geometry":{"type":"Point","coordinates":[-61.66667,-31.16667]},"properties":{"id":854,"name":"Departamento de Castellanos","state_code":"S","country_code":"AR"}},{"type":"Feature","geometry":{"type":"Point","coordinates":[-60.91667,-33.5]},"properties":{"id":869,"name":"Departamento de Constitución","state_code":"S","country_code":"AR"}},{"type":"Feature","geometry":{"type":"Point","coordinates":[-60.66667,-31.5]},"properties":{"id":916,"name":"Departamento de La Capital","state_code":"S","country_code":"AR"}},{"type":"Feature","geometry":{"type":"Point","coordinates":[-61.33333,-28.83333]},"properties":{"id":951,"name":"Departamento de Nueve de Julio","state_code":"S","country_code":"AR"}},{"type":"Feature","geometry":{"type":"Point","coordinates":[-61.33333,-30.33333]},"properties":{"id":985,"name":"Departamento de San Cristóbal","state_code":"S","country_code":"AR"}},{"type":"Feature","geometry":{"type":"Point","coordinates":[-59.91667,-30.33333]},"properties":{"id":988,"name":"Departamento de San Javier","state_code":"S","country_code":"AR"}},{"type":"Feature","geometry":{"type":"Point","coordinates":[-60.5,-30.66667]},"properties":{"id":992,"name":"Departamento de San Justo","state_code":"S","country_code":"AR"}},{"type":"Feature","geometry":{"type":"Point","coordinates":[-61,-33]},"properties":{"id":993,"name":"Departamento de San Lorenzo","state_code":"S","country_code":"AR"}},{"type":"Feature","geometry":{"type":"Point","coordinates":[-61.83333,-32]},"properties":{"id":1000,"name":"Departamento de San Martín","state_code":"S","country_code":"AR"}},{"type":"Feature","geometry":{"type":"Point","coordinates":[-60.5,-29]},"properties":{"id":1033,"name":"Departamento de Vera","state_code":"S","country_code":"AR"}},{"type":"Feature","geometry":{"type":"Point","coordinates":[-61.7014,-32.2008]},"properties":{"id":1062,"name":"El Trébol","state_code":"S","country_code":"AR"}},{"type":"Feature","geometry":{"type":"Point","coordinates":[-60.93173,-31.4488]},"properties":{"id":1069,"name":"Esperanza","state_code":"S","country_code":"AR"}},{"type":"Feature","geometry":{"type":"Point","coordinates":[-61.4832,-33.45937]},"properties":{"id":1079,"name":"Firmat","state_code":"S","country_code":"AR"}},{"type":"Feature","geometry":{"type":"Point","coordinates":[-60.72819,-32.79122]},"properties":{"id":1084,"name":"Fray Luis A. Beltrán","state_code":"S","country_code":"AR"}},{"type":"Feature","geometry":{"type":"Point","coordinates":[-60.80995,-32.91568]},"properties":{"id":1086,"name":"Funes","state_code":"S","country_code":"AR"}},{"type":"Feature","geometry":{"type":"Point","coordinates":[-61.22103,-32.02927]},"properties":{"id":1131,"name":"Gálvez","state_code":"S","country_code":"AR"}},{"type":"Feature","geometry":{"type":"Point","coordinates":[-61.18663,-28.02219]},"properties":{"id":1093,"name":"Gato Colorado","state_code":"S","country_code":"AR"}},{"type":"Feature","geometry":{"type":"Point","coordinates":[-60.64045,-33.03016]},"properties":{"id":1117,"name":"Gobernador Gálvez","state_code":"S","country_code":"AR"}},{"type":"Feature","geometry":{"type":"Point","coordinates":[-60.71754,-32.85683]},"properties":{"id":1124,"name":"Granadero Baigorria","state_code":"S","country_code":"AR"}},{"type":"Feature","geometry":{"type":"Point","coordinates":[-60.0883,-31.09834]},"properties":{"id":1133,"name":"Helvecia","state_code":"S","country_code":"AR"}},{"type":"Feature","geometry":{"type":"Point","coordinates":[-61.8408,-30.00447]},"properties":{"id":1140,"name":"Hersilia","state_code":"S","country_code":"AR"}},{"type":"Feature","geometry":{"type":"Point","coordinates":[-61.33333,-32.63333]},"properties":{"id":1158,"name":"Iriondo Department","state_code":"S","country_code":"AR"}},{"type":"Feature","geometry":{"type":"Point","coordinates":[-60.65894,-31.30391]},"properties":{"id":1210,"name":"Laguna Paiva","state_code":"S","country_code":"AR"}},{"type":"Feature","geometry":{"type":"Point","coordinates":[-61.51637,-32.68478]},"properties":{"id":1227,"name":"Las Parejas","state_code":"S","country_code":"AR"}},{"type":"Feature","geometry":{"type":"Point","coordinates":[-61.58041,-32.47661]},"properties":{"id":1230,"name":"Las Rosas","state_code":"S","country_code":"AR"}},{"type":"Feature","geometry":{"type":"Point","coordinates":[-59.25795,-28.3529]},"properties":{"id":1231,"name":"Las Toscas","state_code":"S","country_code":"AR"}},{"type":"Feature","geometry":{"type":"Point","coordinates":[-59.73634,-29.36847]},"properties":{"id":1252,"name":"Los Laureles","state_code":"S","country_code":"AR"}},{"type":"Feature","geometry":{"type":"Point","coordinates":[-59.96957,-29.34636]},"properties":{"id":1265,"name":"Malabrigo","state_code":"S","country_code":"AR"}},{"type":"Feature","geometry":{"type":"Point","coordinates":[-61.45459,-33.65847]},"properties":{"id":1276,"name":"Melincué","state_code":"S","country_code":"AR"}},{"type":"Feature","geometry":{"type":"Point","coordinates":[-60.76791,-32.99835]},"properties":{"id":1366,"name":"Pérez","state_code":"S","country_code":"AR"}},{"type":"Feature","geometry":{"type":"Point","coordinates":[-61.4867,-31.25033]},"properties":{"id":1372,"name":"Rafaela","state_code":"S","country_code":"AR"}},{"type":"Feature","geometry":{"type":"Point","coordinates":[-59.65,-29.15]},"properties":{"id":1376,"name":"Reconquista","state_code":"S","country_code":"AR"}},{"type":"Feature","geometry":{"type":"Point","coordinates":[-60.73299,-31.49076]},"properties":{"id":1377,"name":"Recreo","state_code":"S","country_code":"AR"}},{"type":"Feature","geometry":{"type":"Point","coordinates":[-60.90681,-32.89846]},"properties":{"id":1383,"name":"Roldán","state_code":"S","country_code":"AR"}},{"type":"Feature","geometry":{"type":"Point","coordinates":[-60.63932,-32.94682]},"properties":{"id":1384,"name":"Rosario","state_code":"S","country_code":"AR"}},{"type":"Feature","geometry":{"type":"Point","coordinates":[-62.71262,-34.26827]},"properties":{"id":1386,"name":"Rufino","state_code":"S","country_code":"AR"}},{"type":"Feature","geometry":{"type":"Point","coordinates":[-61.09192,-31.72864]},"properties":{"id":1417,"name":"San Carlos Centro","state_code":"S","country_code":"AR"}},{"type":"Feature","geometry":{"type":"Point","coordinates":[-61.23724,-30.31053]},"properties":{"id":1420,"name":"San Cristóbal","state_code":"S","country_code":"AR"}},{"type":"Feature","geometry":{"type":"Point","coordinates":[-59.9317,-30.57781]},"properties":{"id":1427,"name":"San Javier","state_code":"S","country_code":"AR"}},{"type":"Feature","geometry":{"type":"Point","coordinates":[-61.85984,-31.89618]},"properties":{"id":1428,"name":"San Jorge","state_code":"S","country_code":"AR"}},{"type":"Feature","geometry":{"type":"Point","coordinates":[-60.59189,-30.78913]},"properties":{"id":1436,"name":"San Justo","state_code":"S","country_code":"AR"}},{"type":"Feature","geometry":{"type":"Point","coordinates":[-60.70868,-31.64881]},"properties":{"id":1458,"name":"Santa Fe","state_code":"S","country_code":"AR"}},{"type":"Feature","geometry":{"type":"Point","coordinates":[-60.7653,-31.66274]},"properties":{"id":1475,"name":"Santo Tomé","state_code":"S","country_code":"AR"}},{"type":"Feature","geometry":{"type":"Point","coordinates":[-61.82887,-31.76762]},"properties":{"id":1478,"name":"Sastre","state_code":"S","country_code":"AR"}},{"type":"Feature","geometry":{"type":"Point","coordinates":[-61.56148,-30.94404]},"properties":{"id":1490,"name":"Sunchales","state_code":"S","country_code":"AR"}},{"type":"Feature","geometry":{"type":"Point","coordinates":[-59.26,-28.41265]},"properties":{"id":1494,"name":"Tacuarendí","state_code":"S","country_code":"AR"}},{"type":"Feature","geometry":{"type":"Point","coordinates":[-61.76917,-29.23202]},"properties":{"id":1509,"name":"Tostado","state_code":"S","country_code":"AR"}},{"type":"Feature","geometry":{"type":"Point","coordinates":[-61.16852,-32.5844]},"properties":{"id":1510,"name":"Totoras","state_code":"S","country_code":"AR"}},{"type":"Feature","geometry":{"type":"Point","coordinates":[-61.96885,-33.74556]},"properties":{"id":1529,"name":"Venado Tuerto","state_code":"S","country_code":"AR"}},{"type":"Feature","geometry":{"type":"Point","coordinates":[-60.21261,-29.4593]},"properties":{"id":1530,"name":"Vera","state_code":"S","country_code":"AR"}},{"type":"Feature","geometry":{"type":"Point","coordinates":[-61.60757,-34.00565]},"properties":{"id":1545,"name":"Villa Cañás","state_code":"S","country_code":"AR"}},{"type":"Feature","geometry":{"type":"Point","coordinates":[-60.3297,-33.22778]},"properties":{"id":1547,"name":"Villa Constitución","state_code":"S","country_code":"AR"}},{"type":"Feature","geometry":{"type":"Point","coordinates":[-61.05515,-33.31129]},"properties":{"id":1566,"name":"Villa Mugueta","state_code":"S","country_code":"AR"}},{"type":"Feature","geometry":{"type":"Point","coordinates":[-59.35515,-28.48752]},"properties":{"id":1568,"name":"Villa Ocampo","state_code":"S","country_code":"AR"}},{"type":"Feature","geometry":{"type":"Point","coordinates":[-61.87597,-30.21329]},"properties":{"id":1577,"name":"Villa Trinidad","state_code":"S","country_code":"AR"}}]}