{"type":"FeatureCollection","features":[{"type":"Feature","geometry":{"type":"Point","coordinates":[-56.55043,-29.09683]},"properties":{"id":658,"name":"Alvear","state_code":"W","country_code":"AR"}},{"type":"Feature","geometry":{"type":"Point","coordinates":[-57.5346,-27.55067]},"properties":{"id":696,"name":"Berón de Astrada","state_code":"W","country_code":"AR"}},{"type":"Feature","geometry":{"type":"Point","coordinates":[-57.42974,-29.81708]},"properties":{"id":698,"name":"Bonpland","state_code":"W","country_code":"AR"}},{"type":"Feature","geometry":{"type":"Point","coordinates":[-58.57277,-28.95489]},"properties":{"id":756,"name":"Chavarría","state_code":"W","country_code":"AR"}},{"type":"Feature","geometry":{"type":"Point","coordinates":[-57.88777,-28.39175]},"properties":{"id":789,"name":"Concepción","state_code":"W","country_code":"AR"}},{"type":"Feature","geometry":{"type":"Point","coordinates":[-58.8344,-27.46784]},"properties":{"id":803,"name":"Corrientes","state_code":"W","country_code":"AR"}},{"type":"Feature","geometry":{"type":"Point","coordinates":[-59.00476,-28.83646]},"properties":{"id":810,"name":"Cruz de los Milagros","state_code":"W","country_code":"AR"}},{"type":"Feature","geometry":{"type":"Point","coordinates":[-58.0546,-29.79171]},"properties":{"id":813,"name":"Curuzú Cuatiá","state_code":"W","country_code":"AR"}},{"type":"Feature","geometry":{"type":"Point","coordinates":[-58.83333,-28.5]},"properties":{"id":836,"name":"Departamento de Bella Vista","state_code":"W","country_code":"AR"}},{"type":"Feature","geometry":{"type":"Point","coordinates":[-57.66667,-27.5]},"properties":{"id":838,"name":"Departamento de Berón de Astrada","state_code":"W","country_code":"AR"}},{"type":"Feature","geometry":{"type":"Point","coordinates":[-58.75,-27.5]},"properties":{"id":847,"name":"Departamento de Capital","state_code":"W","country_code":"AR"}},{"type":"Feature","geometry":{"type":"Point","coordinates":[-58,-28.33333]},"properties":{"id":866,"name":"Departamento de Concepción","state_code":"W","country_code":"AR"}},{"type":"Feature","geometry":{"type":"Point","coordinates":[-58.5,-29.5]},"properties":{"id":872,"name":"Departamento de Curuzú Cuatiá","state_code":"W","country_code":"AR"}},{"type":"Feature","geometry":{"type":"Point","coordinates":[-58.66667,-27.83333]},"properties":{"id":879,"name":"Departamento de Empedrado","state_code":"W","country_code":"AR"}},{"type":"Feature","geometry":{"type":"Point","coordinates":[-59.33333,-30]},"properties":{"id":881,"name":"Departamento de Esquina","state_code":"W","country_code":"AR"}},{"type":"Feature","geometry":{"type":"Point","coordinates":[-56.5,-28.83333]},"properties":{"id":888,"name":"Departamento de General Alvear","state_code":"W","country_code":"AR"}},{"type":"Feature","geometry":{"type":"Point","coordinates":[-57.83333,-27.75]},"properties":{"id":895,"name":"Departamento de General Paz","state_code":"W","country_code":"AR"}},{"type":"Feature","geometry":{"type":"Point","coordinates":[-59.5,-29.5]},"properties":{"id":899,"name":"Departamento de Goya","state_code":"W","country_code":"AR"}},{"type":"Feature","geometry":{"type":"Point","coordinates":[-58,-27.33333]},"properties":{"id":912,"name":"Departamento de Itatí","state_code":"W","country_code":"AR"}},{"type":"Feature","geometry":{"type":"Point","coordinates":[-56.86604,-27.90085]},"properties":{"id":913,"name":"Departamento de Ituzaingó","state_code":"W","country_code":"AR"}},{"type":"Feature","geometry":{"type":"Point","coordinates":[-58.91667,-29]},"properties":{"id":925,"name":"Departamento de Lavalle","state_code":"W","country_code":"AR"}},{"type":"Feature","geometry":{"type":"Point","coordinates":[-58.25,-28]},"properties":{"id":940,"name":"Departamento de Mburucuyá","state_code":"W","country_code":"AR"}},{"type":"Feature","geometry":{"type":"Point","coordinates":[-57.83333,-29]},"properties":{"id":941,"name":"Departamento de Mercedes","state_code":"W","country_code":"AR"}},{"type":"Feature","geometry":{"type":"Point","coordinates":[-57.83333,-30.25]},"properties":{"id":945,"name":"Departamento de Monte Caseros","state_code":"W","country_code":"AR"}},{"type":"Feature","geometry":{"type":"Point","coordinates":[-57.25,-29.66667]},"properties":{"id":957,"name":"Departamento de Paso de los Libres","state_code":"W","country_code":"AR"}},{"type":"Feature","geometry":{"type":"Point","coordinates":[-58.75,-28.25]},"properties":{"id":980,"name":"Departamento de Saladas","state_code":"W","country_code":"AR"}},{"type":"Feature","geometry":{"type":"Point","coordinates":[-58.5,-27.33333]},"properties":{"id":984,"name":"Departamento de San Cosme","state_code":"W","country_code":"AR"}},{"type":"Feature","geometry":{"type":"Point","coordinates":[-58.25,-27.5]},"properties":{"id":995,"name":"Departamento de San Luis del Palmar","state_code":"W","country_code":"AR"}},{"type":"Feature","geometry":{"type":"Point","coordinates":[-56.91667,-28.83333]},"properties":{"id":996,"name":"Departamento de San Martín","state_code":"W","country_code":"AR"}},{"type":"Feature","geometry":{"type":"Point","coordinates":[-57.5,-27.91667]},"properties":{"id":1001,"name":"Departamento de San Miguel","state_code":"W","country_code":"AR"}},{"type":"Feature","geometry":{"type":"Point","coordinates":[-58.75,-28.66667]},"properties":{"id":1004,"name":"Departamento de San Roque","state_code":"W","country_code":"AR"}},{"type":"Feature","geometry":{"type":"Point","coordinates":[-56.25,-28.25]},"properties":{"id":1009,"name":"Departamento de Santo Tomé","state_code":"W","country_code":"AR"}},{"type":"Feature","geometry":{"type":"Point","coordinates":[-58.66667,-30]},"properties":{"id":1014,"name":"Departamento de Sauce","state_code":"W","country_code":"AR"}},{"type":"Feature","geometry":{"type":"Point","coordinates":[-58.80584,-27.95178]},"properties":{"id":1068,"name":"Empedrado","state_code":"W","country_code":"AR"}},{"type":"Feature","geometry":{"type":"Point","coordinates":[-59.5289,-30.01476]},"properties":{"id":1071,"name":"Esquina","state_code":"W","country_code":"AR"}},{"type":"Feature","geometry":{"type":"Point","coordinates":[-58.33772,-29.10226]},"properties":{"id":1077,"name":"Felipe Yofré","state_code":"W","country_code":"AR"}},{"type":"Feature","geometry":{"type":"Point","coordinates":[-55.65406,-28.17208]},"properties":{"id":1089,"name":"Garruchos","state_code":"W","country_code":"AR"}},{"type":"Feature","geometry":{"type":"Point","coordinates":[-58.93594,-28.91161]},"properties":{"id":1118,"name":"Gobernador Juan E. Martínez","state_code":"W","country_code":"AR"}},{"type":"Feature","geometry":{"type":"Point","coordinates":[-56.03333,-28.05]},"properties":{"id":1121,"name":"Gobernador Virasora","state_code":"W","country_code":"AR"}},{"type":"Feature","geometry":{"type":"Point","coordinates":[-59.26343,-29.13995]},"properties":{"id":1123,"name":"Goya","state_code":"W","country_code":"AR"}},{"type":"Feature","geometry":{"type":"Point","coordinates":[-58.25557,-27.56516]},"properties":{"id":1134,"name":"Herlitzka","state_code":"W","country_code":"AR"}},{"type":"Feature","geometry":{"type":"Point","coordinates":[-57.33758,-27.42573]},"properties":{"id":1163,"name":"Itá Ibaté","state_code":"W","country_code":"AR"}},{"type":"Feature","geometry":{"type":"Point","coordinates":[-58.24458,-27.27043]},"properties":{"id":1161,"name":"Itatí","state_code":"W","country_code":"AR"}},{"type":"Feature","geometry":{"type":"Point","coordinates":[-56.68231,-27.58162]},"properties":{"id":1162,"name":"Ituzaingó","state_code":"W","country_code":"AR"}},{"type":"Feature","geometry":{"type":"Point","coordinates":[-57.85612,-30.41873]},"properties":{"id":1171,"name":"Juan Pujol","state_code":"W","country_code":"AR"}},{"type":"Feature","geometry":{"type":"Point","coordinates":[-56.64326,-29.17443]},"properties":{"id":1184,"name":"La Cruz","state_code":"W","country_code":"AR"}},{"type":"Feature","geometry":{"type":"Point","coordinates":[-57.8202,-30.043]},"properties":{"id":1235,"name":"Libertad","state_code":"W","country_code":"AR"}},{"type":"Feature","geometry":{"type":"Point","coordinates":[-57.9185,-27.73501]},"properties":{"id":1237,"name":"Lomas de Vallejos","state_code":"W","country_code":"AR"}},{"type":"Feature","geometry":{"type":"Point","coordinates":[-57.27531,-27.76834]},"properties":{"id":1242,"name":"Loreto","state_code":"W","country_code":"AR"}},{"type":"Feature","geometry":{"type":"Point","coordinates":[-58.19436,-29.37667]},"properties":{"id":1271,"name":"Mariano I. Loza","state_code":"W","country_code":"AR"}},{"type":"Feature","geometry":{"type":"Point","coordinates":[-58.22835,-28.04532]},"properties":{"id":1275,"name":"Mburucuyá","state_code":"W","country_code":"AR"}},{"type":"Feature","geometry":{"type":"Point","coordinates":[-58.07519,-29.18416]},"properties":{"id":1279,"name":"Mercedes","state_code":"W","country_code":"AR"}},{"type":"Feature","geometry":{"type":"Point","coordinates":[-57.96344,-30.61891]},"properties":{"id":1284,"name":"Mocoretá","state_code":"W","country_code":"AR"}},{"type":"Feature","geometry":{"type":"Point","coordinates":[-57.63626,-30.25359]},"properties":{"id":1287,"name":"Monte Caseros","state_code":"W","country_code":"AR"}},{"type":"Feature","geometry":{"type":"Point","coordinates":[-57.62073,-27.75072]},"properties":{"id":1301,"name":"Nuestra Señora del Rosario de Caa Catí","state_code":"W","country_code":"AR"}},{"type":"Feature","geometry":{"type":"Point","coordinates":[-58.8265,-28.84051]},"properties":{"id":1303,"name":"Nueve de Julio","state_code":"W","country_code":"AR"}},{"type":"Feature","geometry":{"type":"Point","coordinates":[-57.90057,-27.94195]},"properties":{"id":1311,"name":"Palmar Grande","state_code":"W","country_code":"AR"}},{"type":"Feature","geometry":{"type":"Point","coordinates":[-58.57197,-27.31676]},"properties":{"id":1323,"name":"Paso de la Patria","state_code":"W","country_code":"AR"}},{"type":"Feature","geometry":{"type":"Point","coordinates":[-57.08771,-29.71251]},"properties":{"id":1324,"name":"Paso de los Libres","state_code":"W","country_code":"AR"}},{"type":"Feature","geometry":{"type":"Point","coordinates":[-58.65583,-28.75097]},"properties":{"id":1325,"name":"Pedro R. Fernández","state_code":"W","country_code":"AR"}},{"type":"Feature","geometry":{"type":"Point","coordinates":[-58.61059,-29.34132]},"properties":{"id":1327,"name":"Perugorría","state_code":"W","country_code":"AR"}},{"type":"Feature","geometry":{"type":"Point","coordinates":[-59.38981,-30.22087]},"properties":{"id":1349,"name":"Pueblo Libertador","state_code":"W","country_code":"AR"}},{"type":"Feature","geometry":{"type":"Point","coordinates":[-58.74497,-27.58191]},"properties":{"id":1382,"name":"Riachuelo","state_code":"W","country_code":"AR"}},{"type":"Feature","geometry":{"type":"Point","coordinates":[-58.62591,-28.25384]},"properties":{"id":1399,"name":"Saladas","state_code":"W","country_code":"AR"}},{"type":"Feature","geometry":{"type":"Point","coordinates":[-55.89731,-27.74586]},"properties":{"id":1416,"name":"San Carlos","state_code":"W","country_code":"AR"}},{"type":"Feature","geometry":{"type":"Point","coordinates":[-58.51214,-27.37123]},"properties":{"id":1419,"name":"San Cosme","state_code":"W","country_code":"AR"}},{"type":"Feature","geometry":{"type":"Point","coordinates":[-58.76733,-28.13306]},"properties":{"id":1437,"name":"San Lorenzo","state_code":"W","country_code":"AR"}},{"type":"Feature","geometry":{"type":"Point","coordinates":[-58.55454,-27.5079]},"properties":{"id":1439,"name":"San Luis del Palmar","state_code":"W","country_code":"AR"}},{"type":"Feature","geometry":{"type":"Point","coordinates":[-57.58964,-27.99585]},"properties":{"id":1443,"name":"San Miguel","state_code":"W","country_code":"AR"}},{"type":"Feature","geometry":{"type":"Point","coordinates":[-59.10287,-28.98746]},"properties":{"id":1461,"name":"Santa Lucía","state_code":"W","country_code":"AR"}},{"type":"Feature","geometry":{"type":"Point","coordinates":[-58.11891,-28.26318]},"properties":{"id":1466,"name":"Santa Rosa","state_code":"W","country_code":"AR"}},{"type":"Feature","geometry":{"type":"Point","coordinates":[-56.04077,-28.54939]},"properties":{"id":1476,"name":"Santo Tomé","state_code":"W","country_code":"AR"}},{"type":"Feature","geometry":{"type":"Point","coordinates":[-56.81841,-29.46914]},"properties":{"id":1594,"name":"Yapeyú","state_code":"W","country_code":"AR"}},{"type":"Feature","geometry":{"type":"Point","coordinates":[-58.90846,-29.01913]},"properties":{"id":1595,"name":"Yataity Calle","state_code":"W","country_code":"AR"}}]}