{"type":"FeatureCollection","features":[{"type":"Feature","geometry":{"type":"Point","coordinates":[-72.21382,-51.5839]},"properties":{"id":637,"name":"28 de Noviembre","state_code":"Z","country_code":"AR"}},{"type":"Feature","geometry":{"type":"Point","coordinates":[-67.52814,-46.43929]},"properties":{"id":711,"name":"Caleta Olivia","state_code":"Z","country_code":"AR"}},{"type":"Feature","geometry":{"type":"Point","coordinates":[-68.91467,-49.98513]},"properties":{"id":786,"name":"Comandante Luis Piedra Buena","state_code":"Z","country_code":"AR"}},{"type":"Feature","geometry":{"type":"Point","coordinates":[-67.83333,-47.33333]},"properties":{"id":874,"name":"Departamento de Deseado","state_code":"Z","country_code":"AR"}},{"type":"Feature","geometry":{"type":"Point","coordinates":[-70.33333,-51.33333]},"properties":{"id":906,"name":"Departamento de Güer Aike","state_code":"Z","country_code":"AR"}},{"type":"Feature","geometry":{"type":"Point","coordinates":[-72,-49.75]},"properties":{"id":922,"name":"Departamento de Lago Argentino","state_code":"Z","country_code":"AR"}},{"type":"Feature","geometry":{"type":"Point","coordinates":[-68.5,-48.75]},"properties":{"id":935,"name":"Departamento de Magallanes","state_code":"Z","country_code":"AR"}},{"type":"Feature","geometry":{"type":"Point","coordinates":[-71,-48.25]},"properties":{"id":972,"name":"Departamento de Río Chico","state_code":"Z","country_code":"AR"}},{"type":"Feature","geometry":{"type":"Point","coordinates":[-72.27682,-50.34075]},"properties":{"id":1051,"name":"El Calafate","state_code":"Z","country_code":"AR"}},{"type":"Feature","geometry":{"type":"Point","coordinates":[-70.24741,-48.75057]},"properties":{"id":1116,"name":"Gobernador Gregores","state_code":"Z","country_code":"AR"}},{"type":"Feature","geometry":{"type":"Point","coordinates":[-68.93593,-46.54186]},"properties":{"id":1220,"name":"Las Heras","state_code":"Z","country_code":"AR"}},{"type":"Feature","geometry":{"type":"Point","coordinates":[-71.63086,-46.54972]},"properties":{"id":1244,"name":"Los Antiguos","state_code":"Z","country_code":"AR"}},{"type":"Feature","geometry":{"type":"Point","coordinates":[-70.92975,-46.58995]},"properties":{"id":1326,"name":"Perito Moreno","state_code":"Z","country_code":"AR"}},{"type":"Feature","geometry":{"type":"Point","coordinates":[-67.95731,-46.7949]},"properties":{"id":1329,"name":"Pico Truncado","state_code":"Z","country_code":"AR"}},{"type":"Feature","geometry":{"type":"Point","coordinates":[-65.89382,-47.75034]},"properties":{"id":1352,"name":"Puerto Deseado","state_code":"Z","country_code":"AR"}},{"type":"Feature","geometry":{"type":"Point","coordinates":[-68.52321,-50.0191]},"properties":{"id":1362,"name":"Puerto Santa Cruz","state_code":"Z","country_code":"AR"}},{"type":"Feature","geometry":{"type":"Point","coordinates":[-69.21813,-51.62261]},"properties":{"id":1391,"name":"Río Gallegos","state_code":"Z","country_code":"AR"}},{"type":"Feature","geometry":{"type":"Point","coordinates":[-72.33673,-51.53587]},"properties":{"id":1397,"name":"Río Turbio","state_code":"Z","country_code":"AR"}},{"type":"Feature","geometry":{"type":"Point","coordinates":[-67.72743,-49.30554]},"properties":{"id":1434,"name":"San Julián","state_code":"Z","country_code":"AR"}},{"type":"Feature","geometry":{"type":"Point","coordinates":[-72.3508,-51.57321]},"properties":{"id":1593,"name":"Yacimiento Río Turbio","state_code":"Z","country_code":"AR"}}]}