{"type":"FeatureCollection","features":[{"type":"Feature","geometry":{"type":"Point","coordinates":[14.42625,48.25903]},"properties":{"id":1605,"name":"Abwinden","state_code":"4","country_code":"AT"}},{"type":"Feature","geometry":{"type":"Point","coordinates":[14.21742,47.99245]},"properties":{"id":1609,"name":"Adlwang","state_code":"4","country_code":"AT"}},{"type":"Feature","geometry":{"type":"Point","coordinates":[14.12777,48.58229]},"properties":{"id":1612,"name":"Afiesl","state_code":"4","country_code":"AT"}},{"type":"Feature","geometry":{"type":"Point","coordinates":[14.17408,48.52382]},"properties":{"id":1615,"name":"Ahorn","state_code":"4","country_code":"AT"}},{"type":"Feature","geometry":{"type":"Point","coordinates":[13.79158,48.10944]},"properties":{"id":1617,"name":"Aichkirchen","state_code":"4","country_code":"AT"}},{"type":"Feature","geometry":{"type":"Point","coordinates":[13.97109,48.64578]},"properties":{"id":1619,"name":"Aigen im Mühlkreis","state_code":"4","country_code":"AT"}},{"type":"Feature","geometry":{"type":"Point","coordinates":[13.74175,48.1868]},"properties":{"id":1621,"name":"Aistersheim","state_code":"4","country_code":"AT"}},{"type":"Feature","geometry":{"type":"Point","coordinates":[14.41441,48.40607]},"properties":{"id":1622,"name":"Alberndorf in der Riedmark","state_code":"4","country_code":"AT"}},{"type":"Feature","geometry":{"type":"Point","coordinates":[14.10748,48.28753]},"properties":{"id":1626,"name":"Alkoven","state_code":"4","country_code":"AT"}},{"type":"Feature","geometry":{"type":"Point","coordinates":[14.65061,48.30215]},"properties":{"id":1630,"name":"Allerheiligen im Mühlkreis","state_code":"4","country_code":"AT"}},{"type":"Feature","geometry":{"type":"Point","coordinates":[14.17022,48.15246]},"properties":{"id":1632,"name":"Allhaming","state_code":"4","country_code":"AT"}},{"type":"Feature","geometry":{"type":"Point","coordinates":[14.35029,48.37284]},"properties":{"id":1637,"name":"Altenberg bei Linz","state_code":"4","country_code":"AT"}},{"type":"Feature","geometry":{"type":"Point","coordinates":[13.9698,48.48555]},"properties":{"id":1640,"name":"Altenfelden","state_code":"4","country_code":"AT"}},{"type":"Feature","geometry":{"type":"Point","coordinates":[13.23406,48.25154]},"properties":{"id":1645,"name":"Altheim","state_code":"4","country_code":"AT"}},{"type":"Feature","geometry":{"type":"Point","coordinates":[14.25845,48.36001]},"properties":{"id":1648,"name":"Altlichtenberg","state_code":"4","country_code":"AT"}},{"type":"Feature","geometry":{"type":"Point","coordinates":[13.76415,47.90219]},"properties":{"id":1651,"name":"Altmünster","state_code":"4","country_code":"AT"}},{"type":"Feature","geometry":{"type":"Point","coordinates":[13.56667,48.08333]},"properties":{"id":1654,"name":"Ampflwang","state_code":"4","country_code":"AT"}},{"type":"Feature","geometry":{"type":"Point","coordinates":[13.57412,48.3713]},"properties":{"id":1660,"name":"Andorf","state_code":"4","country_code":"AT"}},{"type":"Feature","geometry":{"type":"Point","coordinates":[14.29004,48.20969]},"properties":{"id":1670,"name":"Ansfelden","state_code":"4","country_code":"AT"}},{"type":"Feature","geometry":{"type":"Point","coordinates":[13.99487,48.52513]},"properties":{"id":1680,"name":"Arnreit","state_code":"4","country_code":"AT"}},{"type":"Feature","geometry":{"type":"Point","coordinates":[14.02044,48.36458]},"properties":{"id":1685,"name":"Aschach an der Donau","state_code":"4","country_code":"AT"}},{"type":"Feature","geometry":{"type":"Point","coordinates":[14.33544,48.01312]},"properties":{"id":1686,"name":"Aschach an der Steyr","state_code":"4","country_code":"AT"}},{"type":"Feature","geometry":{"type":"Point","coordinates":[14.41784,48.21941]},"properties":{"id":1693,"name":"Asten","state_code":"4","country_code":"AT"}},{"type":"Feature","geometry":{"type":"Point","coordinates":[13.53953,47.91646]},"properties":{"id":1695,"name":"Attersee","state_code":"4","country_code":"AT"}},{"type":"Feature","geometry":{"type":"Point","coordinates":[13.71667,48.01667]},"properties":{"id":1696,"name":"Attnang","state_code":"4","country_code":"AT"}},{"type":"Feature","geometry":{"type":"Point","coordinates":[13.71667,48.00833]},"properties":{"id":1697,"name":"Attnang-Puchheim","state_code":"4","country_code":"AT"}},{"type":"Feature","geometry":{"type":"Point","coordinates":[13.70347,48.08364]},"properties":{"id":1698,"name":"Atzbach","state_code":"4","country_code":"AT"}},{"type":"Feature","geometry":{"type":"Point","coordinates":[13.86936,48.53959]},"properties":{"id":1700,"name":"Atzesberg","state_code":"4","country_code":"AT"}},{"type":"Feature","geometry":{"type":"Point","coordinates":[14.11248,48.1802]},"properties":{"id":1704,"name":"Au an der Traun","state_code":"4","country_code":"AT"}},{"type":"Feature","geometry":{"type":"Point","coordinates":[14.27931,48.2181]},"properties":{"id":1705,"name":"Audorf","state_code":"4","country_code":"AT"}},{"type":"Feature","geometry":{"type":"Point","coordinates":[13.67291,47.95182]},"properties":{"id":1710,"name":"Aurach am Hongar","state_code":"4","country_code":"AT"}},{"type":"Feature","geometry":{"type":"Point","coordinates":[13.45533,48.24834]},"properties":{"id":1711,"name":"Aurolzmünster","state_code":"4","country_code":"AT"}},{"type":"Feature","geometry":{"type":"Point","coordinates":[13.79436,48.13104]},"properties":{"id":1715,"name":"Bachmanning","state_code":"4","country_code":"AT"}},{"type":"Feature","geometry":{"type":"Point","coordinates":[13.61609,47.64252]},"properties":{"id":1724,"name":"Bad Goisern","state_code":"4","country_code":"AT"}},{"type":"Feature","geometry":{"type":"Point","coordinates":[14.20773,48.03832]},"properties":{"id":1725,"name":"Bad Hall","state_code":"4","country_code":"AT"}},{"type":"Feature","geometry":{"type":"Point","coordinates":[13.61893,47.71109]},"properties":{"id":1728,"name":"Bad Ischl","state_code":"4","country_code":"AT"}},{"type":"Feature","geometry":{"type":"Point","coordinates":[14.80648,48.26737]},"properties":{"id":1729,"name":"Bad Kreuzen","state_code":"4","country_code":"AT"}},{"type":"Feature","geometry":{"type":"Point","coordinates":[14.29459,48.52047]},"properties":{"id":1730,"name":"Bad Leonfelden","state_code":"4","country_code":"AT"}},{"type":"Feature","geometry":{"type":"Point","coordinates":[13.91925,48.22999]},"properties":{"id":1735,"name":"Bad Schallerbach","state_code":"4","country_code":"AT"}},{"type":"Feature","geometry":{"type":"Point","coordinates":[14.66945,48.34906]},"properties":{"id":1741,"name":"Bad Zell","state_code":"4","country_code":"AT"}},{"type":"Feature","geometry":{"type":"Point","coordinates":[14.24778,48.29278]},"properties":{"id":1754,"name":"Berg","state_code":"4","country_code":"AT"}},{"type":"Feature","geometry":{"type":"Point","coordinates":[14.11153,48.16752]},"properties":{"id":1756,"name":"Bergern","state_code":"4","country_code":"AT"}},{"type":"Feature","geometry":{"type":"Point","coordinates":[14.23141,48.28182]},"properties":{"id":1757,"name":"Bergham","state_code":"4","country_code":"AT"}},{"type":"Feature","geometry":{"type":"Point","coordinates":[14.00834,48.16042]},"properties":{"id":1760,"name":"Bernardin","state_code":"4","country_code":"AT"}},{"type":"Feature","geometry":{"type":"Point","coordinates":[13.99504,48.1451]},"properties":{"id":1792,"name":"Brandln","state_code":"4","country_code":"AT"}},{"type":"Feature","geometry":{"type":"Point","coordinates":[13.04343,48.25628]},"properties":{"id":1794,"name":"Braunau am Inn","state_code":"4","country_code":"AT"}},{"type":"Feature","geometry":{"type":"Point","coordinates":[13.03583,48.24606]},"properties":{"id":1793,"name":"Braunau Neustadt","state_code":"4","country_code":"AT"}},{"type":"Feature","geometry":{"type":"Point","coordinates":[14.02242,48.22427]},"properties":{"id":1819,"name":"Buchkirchen","state_code":"4","country_code":"AT"}},{"type":"Feature","geometry":{"type":"Point","coordinates":[14.2957,48.5199]},"properties":{"id":1822,"name":"Burgfried","state_code":"4","country_code":"AT"}},{"type":"Feature","geometry":{"type":"Point","coordinates":[13.77027,48.02145]},"properties":{"id":1835,"name":"Desselbrunn","state_code":"4","country_code":"AT"}},{"type":"Feature","geometry":{"type":"Point","coordinates":[14.05705,48.17676]},"properties":{"id":1845,"name":"Dickerldorf","state_code":"4","country_code":"AT"}},{"type":"Feature","geometry":{"type":"Point","coordinates":[13.43546,48.29216]},"properties":{"id":1849,"name":"Diesseits","state_code":"4","country_code":"AT"}},{"type":"Feature","geometry":{"type":"Point","coordinates":[14.41647,48.09018]},"properties":{"id":1850,"name":"Dietach","state_code":"4","country_code":"AT"}},{"type":"Feature","geometry":{"type":"Point","coordinates":[14.42874,48.08364]},"properties":{"id":1851,"name":"Dietachdorf","state_code":"4","country_code":"AT"}},{"type":"Feature","geometry":{"type":"Point","coordinates":[14.25416,48.24811]},"properties":{"id":1860,"name":"Doppl","state_code":"4","country_code":"AT"}},{"type":"Feature","geometry":{"type":"Point","coordinates":[13.65472,48.01245]},"properties":{"id":1873,"name":"Dörfl","state_code":"4","country_code":"AT"}},{"type":"Feature","geometry":{"type":"Point","coordinates":[13.64459,47.9971]},"properties":{"id":1876,"name":"Dürnau","state_code":"4","country_code":"AT"}},{"type":"Feature","geometry":{"type":"Point","coordinates":[13.779,47.80716]},"properties":{"id":1885,"name":"Ebensee","state_code":"4","country_code":"AT"}},{"type":"Feature","geometry":{"type":"Point","coordinates":[13.56194,48.15504]},"properties":{"id":1891,"name":"Eberschwang","state_code":"4","country_code":"AT"}},{"type":"Feature","geometry":{"type":"Point","coordinates":[13.98319,48.04392]},"properties":{"id":1893,"name":"Eberstalzell","state_code":"4","country_code":"AT"}},{"type":"Feature","geometry":{"type":"Point","coordinates":[13.88333,48.11667]},"properties":{"id":1905,"name":"Edt bei Lambach","state_code":"4","country_code":"AT"}},{"type":"Feature","geometry":{"type":"Point","coordinates":[14.02233,48.30866]},"properties":{"id":1906,"name":"Eferding","state_code":"4","country_code":"AT"}},{"type":"Feature","geometry":{"type":"Point","coordinates":[14.23313,48.39439]},"properties":{"id":1921,"name":"Eidenberg","state_code":"4","country_code":"AT"}},{"type":"Feature","geometry":{"type":"Point","coordinates":[14.44204,48.34507]},"properties":{"id":1939,"name":"Engerwitzdorf","state_code":"4","country_code":"AT"}},{"type":"Feature","geometry":{"type":"Point","coordinates":[14.47612,48.21346]},"properties":{"id":1940,"name":"Enns","state_code":"4","country_code":"AT"}},{"type":"Feature","geometry":{"type":"Point","coordinates":[14.05134,48.34524]},"properties":{"id":1974,"name":"Feldkirchen an der Donau","state_code":"4","country_code":"AT"}},{"type":"Feature","geometry":{"type":"Point","coordinates":[14.42771,48.22301]},"properties":{"id":1992,"name":"Fisching","state_code":"4","country_code":"AT"}},{"type":"Feature","geometry":{"type":"Point","coordinates":[13.42941,48.02277]},"properties":{"id":2006,"name":"Fornach","state_code":"4","country_code":"AT"}},{"type":"Feature","geometry":{"type":"Point","coordinates":[13.49065,48.06844]},"properties":{"id":2008,"name":"Frankenburg","state_code":"4","country_code":"AT"}},{"type":"Feature","geometry":{"type":"Point","coordinates":[13.41667,47.98333]},"properties":{"id":2010,"name":"Frankenmarkt","state_code":"4","country_code":"AT"}},{"type":"Feature","geometry":{"type":"Point","coordinates":[14.2951,48.2257]},"properties":{"id":2019,"name":"Freindorf","state_code":"4","country_code":"AT"}},{"type":"Feature","geometry":{"type":"Point","coordinates":[14.50453,48.51103]},"properties":{"id":2020,"name":"Freistadt","state_code":"4","country_code":"AT"}},{"type":"Feature","geometry":{"type":"Point","coordinates":[14.72477,47.89511]},"properties":{"id":2042,"name":"Gaflenz","state_code":"4","country_code":"AT"}},{"type":"Feature","geometry":{"type":"Point","coordinates":[14.41604,48.35363]},"properties":{"id":2048,"name":"Gallneukirchen","state_code":"4","country_code":"AT"}},{"type":"Feature","geometry":{"type":"Point","coordinates":[13.80981,48.20992]},"properties":{"id":2049,"name":"Gallspach","state_code":"4","country_code":"AT"}},{"type":"Feature","geometry":{"type":"Point","coordinates":[13.5543,47.98877]},"properties":{"id":2054,"name":"Gampern","state_code":"4","country_code":"AT"}},{"type":"Feature","geometry":{"type":"Point","coordinates":[14.40747,48.0224]},"properties":{"id":2059,"name":"Garsten","state_code":"4","country_code":"AT"}},{"type":"Feature","geometry":{"type":"Point","coordinates":[13.73643,48.14324]},"properties":{"id":2062,"name":"Gaspoltshofen","state_code":"4","country_code":"AT"}},{"type":"Feature","geometry":{"type":"Point","coordinates":[14.26935,48.28085]},"properties":{"id":2066,"name":"Gaumberg","state_code":"4","country_code":"AT"}},{"type":"Feature","geometry":{"type":"Point","coordinates":[13.6336,48.15338]},"properties":{"id":2068,"name":"Geboltskirchen","state_code":"4","country_code":"AT"}},{"type":"Feature","geometry":{"type":"Point","coordinates":[13.79933,47.91839]},"properties":{"id":2092,"name":"Gmunden","state_code":"4","country_code":"AT"}},{"type":"Feature","geometry":{"type":"Point","coordinates":[14.10112,48.32664]},"properties":{"id":2102,"name":"Goldwörth","state_code":"4","country_code":"AT"}},{"type":"Feature","geometry":{"type":"Point","coordinates":[13.53447,47.58417]},"properties":{"id":2105,"name":"Gosau","state_code":"4","country_code":"AT"}},{"type":"Feature","geometry":{"type":"Point","coordinates":[14.19185,48.38028]},"properties":{"id":2117,"name":"Gramastetten","state_code":"4","country_code":"AT"}},{"type":"Feature","geometry":{"type":"Point","coordinates":[14.85884,48.22862]},"properties":{"id":2125,"name":"Grein","state_code":"4","country_code":"AT"}},{"type":"Feature","geometry":{"type":"Point","coordinates":[13.83333,48.23333]},"properties":{"id":2134,"name":"Grieskirchen","state_code":"4","country_code":"AT"}},{"type":"Feature","geometry":{"type":"Point","coordinates":[14.55,47.88333]},"properties":{"id":2143,"name":"Grossraming","state_code":"4","country_code":"AT"}},{"type":"Feature","geometry":{"type":"Point","coordinates":[13.95573,47.85493]},"properties":{"id":2167,"name":"Grünau im Almtal","state_code":"4","country_code":"AT"}},{"type":"Feature","geometry":{"type":"Point","coordinates":[14.26472,47.97234]},"properties":{"id":2169,"name":"Grünburg","state_code":"4","country_code":"AT"}},{"type":"Feature","geometry":{"type":"Point","coordinates":[13.84569,47.93515]},"properties":{"id":2171,"name":"Gschwandt","state_code":"4","country_code":"AT"}},{"type":"Feature","geometry":{"type":"Point","coordinates":[13.95,48.13333]},"properties":{"id":2175,"name":"Gunskirchen","state_code":"4","country_code":"AT"}},{"type":"Feature","geometry":{"type":"Point","coordinates":[14.61285,48.41724]},"properties":{"id":2179,"name":"Gutau","state_code":"4","country_code":"AT"}},{"type":"Feature","geometry":{"type":"Point","coordinates":[14.26875,48.27063]},"properties":{"id":2199,"name":"Haag","state_code":"4","country_code":"AT"}},{"type":"Feature","geometry":{"type":"Point","coordinates":[13.64373,48.18423]},"properties":{"id":2201,"name":"Haag am Hausruck","state_code":"4","country_code":"AT"}},{"type":"Feature","geometry":{"type":"Point","coordinates":[14.51689,48.36788]},"properties":{"id":2208,"name":"Hagenberg im Mühlkreis","state_code":"4","country_code":"AT"}},{"type":"Feature","geometry":{"type":"Point","coordinates":[14.34411,48.44429]},"properties":{"id":2210,"name":"Haibach im Mühlkreis","state_code":"4","country_code":"AT"}},{"type":"Feature","geometry":{"type":"Point","coordinates":[14.25107,48.20477]},"properties":{"id":2211,"name":"Haid","state_code":"4","country_code":"AT"}},{"type":"Feature","geometry":{"type":"Point","coordinates":[13.56906,47.7179]},"properties":{"id":2212,"name":"Haiden","state_code":"4","country_code":"AT"}},{"type":"Feature","geometry":{"type":"Point","coordinates":[14.05297,48.17267]},"properties":{"id":2214,"name":"Haidl","state_code":"4","country_code":"AT"}},{"type":"Feature","geometry":{"type":"Point","coordinates":[13.00751,48.13356]},"properties":{"id":2227,"name":"Handenberg","state_code":"4","country_code":"AT"}},{"type":"Feature","geometry":{"type":"Point","coordinates":[14.25691,48.26526]},"properties":{"id":2234,"name":"Hart","state_code":"4","country_code":"AT"}},{"type":"Feature","geometry":{"type":"Point","coordinates":[14.11426,48.28079]},"properties":{"id":2239,"name":"Hartheim","state_code":"4","country_code":"AT"}},{"type":"Feature","geometry":{"type":"Point","coordinates":[14.00422,48.36349]},"properties":{"id":2240,"name":"Hartkirchen","state_code":"4","country_code":"AT"}},{"type":"Feature","geometry":{"type":"Point","coordinates":[13.05614,48.25308]},"properties":{"id":2243,"name":"Haselbach","state_code":"4","country_code":"AT"}},{"type":"Feature","geometry":{"type":"Point","coordinates":[14.03984,48.5757]},"properties":{"id":2244,"name":"Haslach an der Mühl","state_code":"4","country_code":"AT"}},{"type":"Feature","geometry":{"type":"Point","coordinates":[14.3,48.43333]},"properties":{"id":2267,"name":"Hellmonsödt","state_code":"4","country_code":"AT"}},{"type":"Feature","geometry":{"type":"Point","coordinates":[14.1128,48.43011]},"properties":{"id":2276,"name":"Herzogsdorf","state_code":"4","country_code":"AT"}},{"type":"Feature","geometry":{"type":"Point","coordinates":[12.87735,48.13001]},"properties":{"id":2297,"name":"Hochburg-Ach","state_code":"4","country_code":"AT"}},{"type":"Feature","geometry":{"type":"Point","coordinates":[14.03838,48.16139]},"properties":{"id":2300,"name":"Hochpoint","state_code":"4","country_code":"AT"}},{"type":"Feature","geometry":{"type":"Point","coordinates":[13.31667,47.86667]},"properties":{"id":2303,"name":"Hof","state_code":"4","country_code":"AT"}},{"type":"Feature","geometry":{"type":"Point","coordinates":[14.37776,48.14312]},"properties":{"id":2309,"name":"Hofkirchen im Traunkreis","state_code":"4","country_code":"AT"}},{"type":"Feature","geometry":{"type":"Point","coordinates":[14.09683,48.22296]},"properties":{"id":2327,"name":"Holzhausen","state_code":"4","country_code":"AT"}},{"type":"Feature","geometry":{"type":"Point","coordinates":[14.17786,48.22627]},"properties":{"id":2343,"name":"Hörsching","state_code":"4","country_code":"AT"}},{"type":"Feature","geometry":{"type":"Point","coordinates":[13.4,47.83333]},"properties":{"id":2358,"name":"Innerschwand","state_code":"4","country_code":"AT"}},{"type":"Feature","geometry":{"type":"Point","coordinates":[14.08104,47.92808]},"properties":{"id":2363,"name":"Inzersdorf im Kremstal","state_code":"4","country_code":"AT"}},{"type":"Feature","geometry":{"type":"Point","coordinates":[13.60914,47.70618]},"properties":{"id":2392,"name":"Kaltenbach","state_code":"4","country_code":"AT"}},{"type":"Feature","geometry":{"type":"Point","coordinates":[14.47432,48.31791]},"properties":{"id":2410,"name":"Katsdorf","state_code":"4","country_code":"AT"}},{"type":"Feature","geometry":{"type":"Point","coordinates":[14.19391,48.1115]},"properties":{"id":2415,"name":"Kematen an der Krems","state_code":"4","country_code":"AT"}},{"type":"Feature","geometry":{"type":"Point","coordinates":[13.93805,48.4444]},"properties":{"id":2432,"name":"Kirchberg ob der Donau","state_code":"4","country_code":"AT"}},{"type":"Feature","geometry":{"type":"Point","coordinates":[14.12228,47.90558]},"properties":{"id":2434,"name":"Kirchdorf an der Krems","state_code":"4","country_code":"AT"}},{"type":"Feature","geometry":{"type":"Point","coordinates":[14.27656,48.41149]},"properties":{"id":2438,"name":"Kirchschlag bei Linz","state_code":"4","country_code":"AT"}},{"type":"Feature","geometry":{"type":"Point","coordinates":[13.88131,48.69544]},"properties":{"id":2445,"name":"Klaffer am Hochficht","state_code":"4","country_code":"AT"}},{"type":"Feature","geometry":{"type":"Point","coordinates":[14.83824,48.40453]},"properties":{"id":2511,"name":"Königswiesen","state_code":"4","country_code":"AT"}},{"type":"Feature","geometry":{"type":"Point","coordinates":[13.65841,48.43991]},"properties":{"id":2474,"name":"Kopfing im Innkreis","state_code":"4","country_code":"AT"}},{"type":"Feature","geometry":{"type":"Point","coordinates":[14.26249,48.20031]},"properties":{"id":2485,"name":"Kremsdorf","state_code":"4","country_code":"AT"}},{"type":"Feature","geometry":{"type":"Point","coordinates":[14.12919,48.0529]},"properties":{"id":2486,"name":"Kremsmünster","state_code":"4","country_code":"AT"}},{"type":"Feature","geometry":{"type":"Point","coordinates":[14.46307,48.14324]},"properties":{"id":2492,"name":"Kronstorf","state_code":"4","country_code":"AT"}},{"type":"Feature","geometry":{"type":"Point","coordinates":[13.05418,48.2611]},"properties":{"id":2518,"name":"Laab","state_code":"4","country_code":"AT"}},{"type":"Feature","geometry":{"type":"Point","coordinates":[14.00637,48.17192]},"properties":{"id":2520,"name":"Laahen","state_code":"4","country_code":"AT"}},{"type":"Feature","geometry":{"type":"Point","coordinates":[13.82166,47.98188]},"properties":{"id":2521,"name":"Laakirchen","state_code":"4","country_code":"AT"}},{"type":"Feature","geometry":{"type":"Point","coordinates":[13.87453,48.09276]},"properties":{"id":2528,"name":"Lambach","state_code":"4","country_code":"AT"}},{"type":"Feature","geometry":{"type":"Point","coordinates":[14.47655,48.252]},"properties":{"id":2542,"name":"Langenstein","state_code":"4","country_code":"AT"}},{"type":"Feature","geometry":{"type":"Point","coordinates":[14.24772,48.24297]},"properties":{"id":2545,"name":"Langholzfeld","state_code":"4","country_code":"AT"}},{"type":"Feature","geometry":{"type":"Point","coordinates":[14.45,47.95]},"properties":{"id":2554,"name":"Laussa","state_code":"4","country_code":"AT"}},{"type":"Feature","geometry":{"type":"Point","coordinates":[13.89513,48.49517]},"properties":{"id":2571,"name":"Lembach im Mühlkreis","state_code":"4","country_code":"AT"}},{"type":"Feature","geometry":{"type":"Point","coordinates":[13.60846,47.97326]},"properties":{"id":2577,"name":"Lenzing","state_code":"4","country_code":"AT"}},{"type":"Feature","geometry":{"type":"Point","coordinates":[14.2533,48.27965]},"properties":{"id":2582,"name":"Leonding","state_code":"4","country_code":"AT"}},{"type":"Feature","geometry":{"type":"Point","coordinates":[14.23124,47.89666]},"properties":{"id":2583,"name":"Leonstein","state_code":"4","country_code":"AT"}},{"type":"Feature","geometry":{"type":"Point","coordinates":[14,48.15]},"properties":{"id":2591,"name":"Lichtenegg","state_code":"4","country_code":"AT"}},{"type":"Feature","geometry":{"type":"Point","coordinates":[14.28611,48.30639]},"properties":{"id":2603,"name":"Linz","state_code":"4","country_code":"AT"}},{"type":"Feature","geometry":{"type":"Point","coordinates":[14.28333,48.3]},"properties":{"id":2604,"name":"Linz Stadt","state_code":"4","country_code":"AT"}},{"type":"Feature","geometry":{"type":"Point","coordinates":[14.43672,47.92428]},"properties":{"id":2616,"name":"Losenstein","state_code":"4","country_code":"AT"}},{"type":"Feature","geometry":{"type":"Point","coordinates":[14.41303,48.27462]},"properties":{"id":2619,"name":"Luftenberg an der Donau","state_code":"4","country_code":"AT"}},{"type":"Feature","geometry":{"type":"Point","coordinates":[13.66682,48.08851]},"properties":{"id":2632,"name":"Manning","state_code":"4","country_code":"AT"}},{"type":"Feature","geometry":{"type":"Point","coordinates":[14.11394,48.19275]},"properties":{"id":2637,"name":"Marchtrenk","state_code":"4","country_code":"AT"}},{"type":"Feature","geometry":{"type":"Point","coordinates":[14.6,47.93333]},"properties":{"id":2645,"name":"Maria Neustift","state_code":"4","country_code":"AT"}},{"type":"Feature","geometry":{"type":"Point","coordinates":[13.21981,48.1382]},"properties":{"id":2648,"name":"Maria Schmolln","state_code":"4","country_code":"AT"}},{"type":"Feature","geometry":{"type":"Point","coordinates":[13.15081,48.10732]},"properties":{"id":2670,"name":"Mattighofen","state_code":"4","country_code":"AT"}},{"type":"Feature","geometry":{"type":"Point","coordinates":[13.13338,48.19173]},"properties":{"id":2676,"name":"Mauerkirchen","state_code":"4","country_code":"AT"}},{"type":"Feature","geometry":{"type":"Point","coordinates":[13.79582,48.18017]},"properties":{"id":2684,"name":"Meggenhofen","state_code":"4","country_code":"AT"}},{"type":"Feature","geometry":{"type":"Point","coordinates":[13.43525,48.20809]},"properties":{"id":2685,"name":"Mehrnbach","state_code":"4","country_code":"AT"}},{"type":"Feature","geometry":{"type":"Point","coordinates":[13.83144,48.28788]},"properties":{"id":2695,"name":"Michaelnbach","state_code":"4","country_code":"AT"}},{"type":"Feature","geometry":{"type":"Point","coordinates":[14.13357,47.87764]},"properties":{"id":2697,"name":"Micheldorf in Oberösterreich","state_code":"4","country_code":"AT"}},{"type":"Feature","geometry":{"type":"Point","coordinates":[14.69593,48.18795]},"properties":{"id":2713,"name":"Mitterkirchen im Machland","state_code":"4","country_code":"AT"}},{"type":"Feature","geometry":{"type":"Point","coordinates":[14.36505,48.33868]},"properties":{"id":2720,"name":"Mittertreffling","state_code":"4","country_code":"AT"}},{"type":"Feature","geometry":{"type":"Point","coordinates":[14.25819,47.88723]},"properties":{"id":2723,"name":"Molln","state_code":"4","country_code":"AT"}},{"type":"Feature","geometry":{"type":"Point","coordinates":[13.34908,47.85648]},"properties":{"id":2724,"name":"Mondsee","state_code":"4","country_code":"AT"}},{"type":"Feature","geometry":{"type":"Point","coordinates":[12.98902,48.04492]},"properties":{"id":2727,"name":"Moosdorf","state_code":"4","country_code":"AT"}},{"type":"Feature","geometry":{"type":"Point","coordinates":[13.95049,47.89689]},"properties":{"id":2754,"name":"Mühldorf","state_code":"4","country_code":"AT"}},{"type":"Feature","geometry":{"type":"Point","coordinates":[13.18162,48.07039]},"properties":{"id":2733,"name":"Munderfing","state_code":"4","country_code":"AT"}},{"type":"Feature","geometry":{"type":"Point","coordinates":[14.71009,48.26737]},"properties":{"id":2763,"name":"Münzbach","state_code":"4","country_code":"AT"}},{"type":"Feature","geometry":{"type":"Point","coordinates":[13.56667,48.48333]},"properties":{"id":2764,"name":"Münzkirchen","state_code":"4","country_code":"AT"}},{"type":"Feature","geometry":{"type":"Point","coordinates":[14.60838,48.22553]},"properties":{"id":2768,"name":"Naarn im Machlande","state_code":"4","country_code":"AT"}},{"type":"Feature","geometry":{"type":"Point","coordinates":[13.74965,48.3973]},"properties":{"id":2772,"name":"Natternbach","state_code":"4","country_code":"AT"}},{"type":"Feature","geometry":{"type":"Point","coordinates":[13.84629,48.62854]},"properties":{"id":2775,"name":"Nebelberg","state_code":"4","country_code":"AT"}},{"type":"Feature","geometry":{"type":"Point","coordinates":[14.19301,48.21901]},"properties":{"id":2785,"name":"Neubau","state_code":"4","country_code":"AT"}},{"type":"Feature","geometry":{"type":"Point","coordinates":[13.04172,48.24565]},"properties":{"id":2791,"name":"Neue Heimat","state_code":"4","country_code":"AT"}},{"type":"Feature","geometry":{"type":"Point","coordinates":[14.22764,48.13866]},"properties":{"id":2796,"name":"Neuhofen an der Krems","state_code":"4","country_code":"AT"}},{"type":"Feature","geometry":{"type":"Point","coordinates":[13.71111,47.87502]},"properties":{"id":2798,"name":"Neukirchen","state_code":"4","country_code":"AT"}},{"type":"Feature","geometry":{"type":"Point","coordinates":[13.78158,48.40584]},"properties":{"id":2800,"name":"Neukirchen am Walde","state_code":"4","country_code":"AT"}},{"type":"Feature","geometry":{"type":"Point","coordinates":[13.5376,48.04053]},"properties":{"id":2801,"name":"Neukirchen an der Vöckla","state_code":"4","country_code":"AT"}},{"type":"Feature","geometry":{"type":"Point","coordinates":[13.81667,48.1]},"properties":{"id":2802,"name":"Neukirchen bei Lambach","state_code":"4","country_code":"AT"}},{"type":"Feature","geometry":{"type":"Point","coordinates":[13.72836,48.2728]},"properties":{"id":2806,"name":"Neumarkt im Hausruckkreis","state_code":"4","country_code":"AT"}},{"type":"Feature","geometry":{"type":"Point","coordinates":[14.48444,48.42818]},"properties":{"id":2807,"name":"Neumarkt im Mühlkreis","state_code":"4","country_code":"AT"}},{"type":"Feature","geometry":{"type":"Point","coordinates":[14.33333,48.05]},"properties":{"id":2818,"name":"Neuzeug","state_code":"4","country_code":"AT"}},{"type":"Feature","geometry":{"type":"Point","coordinates":[14.33965,48.16093]},"properties":{"id":2827,"name":"Niederneukirchen","state_code":"4","country_code":"AT"}},{"type":"Feature","geometry":{"type":"Point","coordinates":[13.72956,48.01398]},"properties":{"id":2830,"name":"Niederstraß","state_code":"4","country_code":"AT"}},{"type":"Feature","geometry":{"type":"Point","coordinates":[13.7687,48.09901]},"properties":{"id":2831,"name":"Niederthalheim","state_code":"4","country_code":"AT"}},{"type":"Feature","geometry":{"type":"Point","coordinates":[14.24609,48.1666]},"properties":{"id":2840,"name":"Nöstlbach","state_code":"4","country_code":"AT"}},{"type":"Feature","geometry":{"type":"Point","coordinates":[14.01495,48.17593]},"properties":{"id":2852,"name":"Oberhaid","state_code":"4","country_code":"AT"}},{"type":"Feature","geometry":{"type":"Point","coordinates":[14.05,48.18333]},"properties":{"id":2853,"name":"Oberhart","state_code":"4","country_code":"AT"}},{"type":"Feature","geometry":{"type":"Point","coordinates":[13.3,47.95]},"properties":{"id":2855,"name":"Oberhofen am Irrsee","state_code":"4","country_code":"AT"}},{"type":"Feature","geometry":{"type":"Point","coordinates":[13.33427,48.32133]},"properties":{"id":2862,"name":"Obernberg am Inn","state_code":"4","country_code":"AT"}},{"type":"Feature","geometry":{"type":"Point","coordinates":[13.75677,48.05559]},"properties":{"id":2865,"name":"Oberndorf bei Schwanenstadt","state_code":"4","country_code":"AT"}},{"type":"Feature","geometry":{"type":"Point","coordinates":[14.22275,48.46404]},"properties":{"id":2868,"name":"Oberneukirchen","state_code":"4","country_code":"AT"}},{"type":"Feature","geometry":{"type":"Point","coordinates":[13.43333,47.86667]},"properties":{"id":2883,"name":"Oberwang","state_code":"4","country_code":"AT"}},{"type":"Feature","geometry":{"type":"Point","coordinates":[14.21013,48.21335]},"properties":{"id":2890,"name":"Oedt","state_code":"4","country_code":"AT"}},{"type":"Feature","geometry":{"type":"Point","coordinates":[13.94586,48.60284]},"properties":{"id":2892,"name":"Oepping","state_code":"4","country_code":"AT"}},{"type":"Feature","geometry":{"type":"Point","coordinates":[13.83333,48.15]},"properties":{"id":2895,"name":"Offenhausen","state_code":"4","country_code":"AT"}},{"type":"Feature","geometry":{"type":"Point","coordinates":[13.79145,47.96073]},"properties":{"id":2897,"name":"Ohlsdorf","state_code":"4","country_code":"AT"}},{"type":"Feature","geometry":{"type":"Point","coordinates":[13.43362,48.31654]},"properties":{"id":2902,"name":"Ort im Innkreis","state_code":"4","country_code":"AT"}},{"type":"Feature","geometry":{"type":"Point","coordinates":[12.82937,48.04636]},"properties":{"id":2907,"name":"Ostermiething","state_code":"4","country_code":"AT"}},{"type":"Feature","geometry":{"type":"Point","coordinates":[14.38471,48.46632]},"properties":{"id":2911,"name":"Ottenschlag im Mühlkreis","state_code":"4","country_code":"AT"}},{"type":"Feature","geometry":{"type":"Point","coordinates":[14.17425,48.33246]},"properties":{"id":2912,"name":"Ottensheim","state_code":"4","country_code":"AT"}},{"type":"Feature","geometry":{"type":"Point","coordinates":[13.65841,48.09568]},"properties":{"id":2915,"name":"Ottnang am Hausruck","state_code":"4","country_code":"AT"}},{"type":"Feature","geometry":{"type":"Point","coordinates":[14.81747,48.32367]},"properties":{"id":2916,"name":"Pabneukirchen","state_code":"4","country_code":"AT"}},{"type":"Feature","geometry":{"type":"Point","coordinates":[13.12712,48.01542]},"properties":{"id":2920,"name":"Palting","state_code":"4","country_code":"AT"}},{"type":"Feature","geometry":{"type":"Point","coordinates":[14.20369,48.25931]},"properties":{"id":2926,"name":"Pasching","state_code":"4","country_code":"AT"}},{"type":"Feature","geometry":{"type":"Point","coordinates":[13.48443,48.15521]},"properties":{"id":2930,"name":"Pattigham","state_code":"4","country_code":"AT"}},{"type":"Feature","geometry":{"type":"Point","coordinates":[13.85,48.13333]},"properties":{"id":2934,"name":"Pennewang","state_code":"4","country_code":"AT"}},{"type":"Feature","geometry":{"type":"Point","coordinates":[14.63333,48.25]},"properties":{"id":2938,"name":"Perg","state_code":"4","country_code":"AT"}},{"type":"Feature","geometry":{"type":"Point","coordinates":[13.083,48.00692]},"properties":{"id":2946,"name":"Perwang am Grabensee","state_code":"4","country_code":"AT"}},{"type":"Feature","geometry":{"type":"Point","coordinates":[14.01692,47.96016]},"properties":{"id":2948,"name":"Pettenbach","state_code":"4","country_code":"AT"}},{"type":"Feature","geometry":{"type":"Point","coordinates":[13.77205,48.3453]},"properties":{"id":2952,"name":"Peuerbach","state_code":"4","country_code":"AT"}},{"type":"Feature","geometry":{"type":"Point","coordinates":[13.47507,48.018]},"properties":{"id":2954,"name":"Pfaffing","state_code":"4","country_code":"AT"}},{"type":"Feature","geometry":{"type":"Point","coordinates":[14.19914,48.03046]},"properties":{"id":2956,"name":"Pfarrkirchen bei Bad Hall","state_code":"4","country_code":"AT"}},{"type":"Feature","geometry":{"type":"Point","coordinates":[13.89882,48.18515]},"properties":{"id":2964,"name":"Pichl bei Wels","state_code":"4","country_code":"AT"}},{"type":"Feature","geometry":{"type":"Point","coordinates":[14.75575,48.34815]},"properties":{"id":2966,"name":"Pierbach","state_code":"4","country_code":"AT"}},{"type":"Feature","geometry":{"type":"Point","coordinates":[13.77068,47.9298]},"properties":{"id":2973,"name":"Pinsdorf","state_code":"4","country_code":"AT"}},{"type":"Feature","geometry":{"type":"Point","coordinates":[13.72484,48.07361]},"properties":{"id":2981,"name":"Pitzenberg","state_code":"4","country_code":"AT"}},{"type":"Feature","geometry":{"type":"Point","coordinates":[14.33802,48.32099]},"properties":{"id":2984,"name":"Plesching","state_code":"4","country_code":"AT"}},{"type":"Feature","geometry":{"type":"Point","coordinates":[13.08924,48.11203]},"properties":{"id":2990,"name":"Politischer Bezirk Braunau am Inn","state_code":"4","country_code":"AT"}},{"type":"Feature","geometry":{"type":"Point","coordinates":[13.98453,48.32168]},"properties":{"id":2996,"name":"Politischer Bezirk Eferding","state_code":"4","country_code":"AT"}},{"type":"Feature","geometry":{"type":"Point","coordinates":[14.64844,48.47006]},"properties":{"id":2999,"name":"Politischer Bezirk Freistadt","state_code":"4","country_code":"AT"}},{"type":"Feature","geometry":{"type":"Point","coordinates":[13.75,47.75]},"properties":{"id":3000,"name":"Politischer Bezirk Gmunden","state_code":"4","country_code":"AT"}},{"type":"Feature","geometry":{"type":"Point","coordinates":[13.8,48.26667]},"properties":{"id":3003,"name":"Politischer Bezirk Grieskirchen","state_code":"4","country_code":"AT"}},{"type":"Feature","geometry":{"type":"Point","coordinates":[14.21346,47.84346]},"properties":{"id":3014,"name":"Politischer Bezirk Kirchdorf an der Krems","state_code":"4","country_code":"AT"}},{"type":"Feature","geometry":{"type":"Point","coordinates":[14.3,48.16667]},"properties":{"id":3026,"name":"Politischer Bezirk Linz-Land","state_code":"4","country_code":"AT"}},{"type":"Feature","geometry":{"type":"Point","coordinates":[14.71796,48.25724]},"properties":{"id":3037,"name":"Politischer Bezirk Perg","state_code":"4","country_code":"AT"}},{"type":"Feature","geometry":{"type":"Point","coordinates":[13.46667,48.23333]},"properties":{"id":3039,"name":"Politischer Bezirk Ried im Innkreis","state_code":"4","country_code":"AT"}},{"type":"Feature","geometry":{"type":"Point","coordinates":[13.96926,48.55739]},"properties":{"id":3040,"name":"Politischer Bezirk Rohrbach","state_code":"4","country_code":"AT"}},{"type":"Feature","geometry":{"type":"Point","coordinates":[13.6,48.43333]},"properties":{"id":3047,"name":"Politischer Bezirk Schärding","state_code":"4","country_code":"AT"}},{"type":"Feature","geometry":{"type":"Point","coordinates":[14.46667,47.9]},"properties":{"id":3049,"name":"Politischer Bezirk Steyr-Land","state_code":"4","country_code":"AT"}},{"type":"Feature","geometry":{"type":"Point","coordinates":[14.27451,48.42512]},"properties":{"id":3053,"name":"Politischer Bezirk Urfahr-Umgebung","state_code":"4","country_code":"AT"}},{"type":"Feature","geometry":{"type":"Point","coordinates":[13.65772,48.00313]},"properties":{"id":3056,"name":"Politischer Bezirk Vöcklabruck","state_code":"4","country_code":"AT"}},{"type":"Feature","geometry":{"type":"Point","coordinates":[13.77059,48.28325]},"properties":{"id":3110,"name":"Pötting","state_code":"4","country_code":"AT"}},{"type":"Feature","geometry":{"type":"Point","coordinates":[13.60579,48.23536]},"properties":{"id":3073,"name":"Pram","state_code":"4","country_code":"AT"}},{"type":"Feature","geometry":{"type":"Point","coordinates":[13.90449,48.31711]},"properties":{"id":3074,"name":"Prambachkirchen","state_code":"4","country_code":"AT"}},{"type":"Feature","geometry":{"type":"Point","coordinates":[13.48752,48.14295]},"properties":{"id":3075,"name":"Pramet","state_code":"4","country_code":"AT"}},{"type":"Feature","geometry":{"type":"Point","coordinates":[14.53217,48.35488]},"properties":{"id":3077,"name":"Pregarten","state_code":"4","country_code":"AT"}},{"type":"Feature","geometry":{"type":"Point","coordinates":[14.23614,48.31214]},"properties":{"id":3091,"name":"Puchenau","state_code":"4","country_code":"AT"}},{"type":"Feature","geometry":{"type":"Point","coordinates":[13.71667,48]},"properties":{"id":3093,"name":"Puchheim","state_code":"4","country_code":"AT"}},{"type":"Feature","geometry":{"type":"Point","coordinates":[13.57198,48.04478]},"properties":{"id":3094,"name":"Puchlkirchen am Trattberg","state_code":"4","country_code":"AT"}},{"type":"Feature","geometry":{"type":"Point","coordinates":[14.18824,48.18886]},"properties":{"id":3095,"name":"Pucking","state_code":"4","country_code":"AT"}},{"type":"Feature","geometry":{"type":"Point","coordinates":[13.72252,48.03488]},"properties":{"id":3112,"name":"Pühret","state_code":"4","country_code":"AT"}},{"type":"Feature","geometry":{"type":"Point","coordinates":[13.64691,48.35243]},"properties":{"id":3113,"name":"Raab","state_code":"4","country_code":"AT"}},{"type":"Feature","geometry":{"type":"Point","coordinates":[14.40273,48.23759]},"properties":{"id":3126,"name":"Raffelstetten","state_code":"4","country_code":"AT"}},{"type":"Feature","geometry":{"type":"Point","coordinates":[14.47449,48.55758]},"properties":{"id":3131,"name":"Rainbach im Mühlkreis","state_code":"4","country_code":"AT"}},{"type":"Feature","geometry":{"type":"Point","coordinates":[13.01571,48.23308]},"properties":{"id":3142,"name":"Ranshofen","state_code":"4","country_code":"AT"}},{"type":"Feature","geometry":{"type":"Point","coordinates":[13.46894,48.08138]},"properties":{"id":3158,"name":"Redleiten","state_code":"4","country_code":"AT"}},{"type":"Feature","geometry":{"type":"Point","coordinates":[13.74738,48.02443]},"properties":{"id":3159,"name":"Redlham","state_code":"4","country_code":"AT"}},{"type":"Feature","geometry":{"type":"Point","coordinates":[13.68811,47.99078]},"properties":{"id":3160,"name":"Regau","state_code":"4","country_code":"AT"}},{"type":"Feature","geometry":{"type":"Point","coordinates":[14.34875,48.45704]},"properties":{"id":3163,"name":"Reichenau im Mühlkreis","state_code":"4","country_code":"AT"}},{"type":"Feature","geometry":{"type":"Point","coordinates":[14.38471,48.54286]},"properties":{"id":3166,"name":"Reichenthal","state_code":"4","country_code":"AT"}},{"type":"Feature","geometry":{"type":"Point","coordinates":[14.45,47.88333]},"properties":{"id":3167,"name":"Reichraming","state_code":"4","country_code":"AT"}},{"type":"Feature","geometry":{"type":"Point","coordinates":[13.62914,47.70364]},"properties":{"id":3174,"name":"Reiterndorf","state_code":"4","country_code":"AT"}},{"type":"Feature","geometry":{"type":"Point","coordinates":[13.48855,48.21123]},"properties":{"id":3185,"name":"Ried im Innkreis","state_code":"4","country_code":"AT"}},{"type":"Feature","geometry":{"type":"Point","coordinates":[14.07452,48.02581]},"properties":{"id":3187,"name":"Ried im Traunkreis","state_code":"4","country_code":"AT"}},{"type":"Feature","geometry":{"type":"Point","coordinates":[14.52796,48.27114]},"properties":{"id":3189,"name":"Ried in der Riedmark","state_code":"4","country_code":"AT"}},{"type":"Feature","geometry":{"type":"Point","coordinates":[14.19306,48.06864]},"properties":{"id":3200,"name":"Rohr im Kremstal","state_code":"4","country_code":"AT"}},{"type":"Feature","geometry":{"type":"Point","coordinates":[13.98834,48.57275]},"properties":{"id":3205,"name":"Rohrbach-Berg","state_code":"4","country_code":"AT"}},{"type":"Feature","geometry":{"type":"Point","coordinates":[13.82166,48.02432]},"properties":{"id":3208,"name":"Roitham","state_code":"4","country_code":"AT"}},{"type":"Feature","geometry":{"type":"Point","coordinates":[14.21674,48.27839]},"properties":{"id":3217,"name":"Rufling","state_code":"4","country_code":"AT"}},{"type":"Feature","geometry":{"type":"Point","coordinates":[13.78982,48.04326]},"properties":{"id":3228,"name":"Rüstorf","state_code":"4","country_code":"AT"}},{"type":"Feature","geometry":{"type":"Point","coordinates":[13.71883,48.06076]},"properties":{"id":3222,"name":"Rutzenham","state_code":"4","country_code":"AT"}},{"type":"Feature","geometry":{"type":"Point","coordinates":[14.1667,48.18091]},"properties":{"id":3236,"name":"Sammersdorf","state_code":"4","country_code":"AT"}},{"type":"Feature","geometry":{"type":"Point","coordinates":[13.73737,48.47929]},"properties":{"id":3237,"name":"Sankt Aegidi","state_code":"4","country_code":"AT"}},{"type":"Feature","geometry":{"type":"Point","coordinates":[14.25485,48.22439]},"properties":{"id":3248,"name":"Sankt Dionysen","state_code":"4","country_code":"AT"}},{"type":"Feature","geometry":{"type":"Point","coordinates":[14.37836,48.20568]},"properties":{"id":3249,"name":"Sankt Florian","state_code":"4","country_code":"AT"}},{"type":"Feature","geometry":{"type":"Point","coordinates":[13.00811,48.1256]},"properties":{"id":3252,"name":"Sankt Georgen am Fillmannsbach","state_code":"4","country_code":"AT"}},{"type":"Feature","geometry":{"type":"Point","coordinates":[14.44951,48.27183]},"properties":{"id":3255,"name":"Sankt Georgen an der Gusen","state_code":"4","country_code":"AT"}},{"type":"Feature","geometry":{"type":"Point","coordinates":[13.3332,48.29193]},"properties":{"id":3258,"name":"Sankt Georgen bei Obernberg am Inn","state_code":"4","country_code":"AT"}},{"type":"Feature","geometry":{"type":"Point","coordinates":[13.48306,47.93595]},"properties":{"id":3259,"name":"Sankt Georgen im Attergau","state_code":"4","country_code":"AT"}},{"type":"Feature","geometry":{"type":"Point","coordinates":[14.13185,48.3802]},"properties":{"id":3263,"name":"Sankt Gotthard im Mühlkreis","state_code":"4","country_code":"AT"}},{"type":"Feature","geometry":{"type":"Point","coordinates":[13.34839,47.8324]},"properties":{"id":3283,"name":"Sankt Lorenz","state_code":"4","country_code":"AT"}},{"type":"Feature","geometry":{"type":"Point","coordinates":[14.27759,48.14805]},"properties":{"id":3299,"name":"Sankt Marien","state_code":"4","country_code":"AT"}},{"type":"Feature","geometry":{"type":"Point","coordinates":[14.26781,48.23091]},"properties":{"id":3302,"name":"Sankt Martin","state_code":"4","country_code":"AT"}},{"type":"Feature","geometry":{"type":"Point","coordinates":[14.03821,48.41553]},"properties":{"id":3307,"name":"Sankt Martin im Mühlkreis","state_code":"4","country_code":"AT"}},{"type":"Feature","geometry":{"type":"Point","coordinates":[14.58333,48.5]},"properties":{"id":3315,"name":"Sankt Oswald bei Freistadt","state_code":"4","country_code":"AT"}},{"type":"Feature","geometry":{"type":"Point","coordinates":[13.09613,48.25268]},"properties":{"id":3322,"name":"Sankt Peter am Hart","state_code":"4","country_code":"AT"}},{"type":"Feature","geometry":{"type":"Point","coordinates":[14.43685,48.02116]},"properties":{"id":3340,"name":"Sankt Ulrich bei Steyr","state_code":"4","country_code":"AT"}},{"type":"Feature","geometry":{"type":"Point","coordinates":[13.44666,47.73932]},"properties":{"id":3347,"name":"Sankt Wolfgang im Salzkammergut","state_code":"4","country_code":"AT"}},{"type":"Feature","geometry":{"type":"Point","coordinates":[13.90491,48.54525]},"properties":{"id":3348,"name":"Sarleinsbach","state_code":"4","country_code":"AT"}},{"type":"Feature","geometry":{"type":"Point","coordinates":[14.05478,48.07372]},"properties":{"id":3350,"name":"Sattledt","state_code":"4","country_code":"AT"}},{"type":"Feature","geometry":{"type":"Point","coordinates":[14.06667,48.16667]},"properties":{"id":3354,"name":"Schafwiesen","state_code":"4","country_code":"AT"}},{"type":"Feature","geometry":{"type":"Point","coordinates":[13.15716,48.11924]},"properties":{"id":3355,"name":"Schalchen","state_code":"4","country_code":"AT"}},{"type":"Feature","geometry":{"type":"Point","coordinates":[13.67188,47.99825]},"properties":{"id":3356,"name":"Schalchham","state_code":"4","country_code":"AT"}},{"type":"Feature","geometry":{"type":"Point","coordinates":[13.49791,48.52058]},"properties":{"id":3358,"name":"Schardenberg","state_code":"4","country_code":"AT"}},{"type":"Feature","geometry":{"type":"Point","coordinates":[13.43722,48.45294]},"properties":{"id":3413,"name":"Schärding","state_code":"4","country_code":"AT"}},{"type":"Feature","geometry":{"type":"Point","coordinates":[13.43946,48.45195]},"properties":{"id":3414,"name":"Schärding Vorstadt","state_code":"4","country_code":"AT"}},{"type":"Feature","geometry":{"type":"Point","coordinates":[13.96135,47.90426]},"properties":{"id":3361,"name":"Scharnstein","state_code":"4","country_code":"AT"}},{"type":"Feature","geometry":{"type":"Point","coordinates":[14.36188,48.50273]},"properties":{"id":3368,"name":"Schenkenfelden","state_code":"4","country_code":"AT"}},{"type":"Feature","geometry":{"type":"Point","coordinates":[13.46314,48.14564]},"properties":{"id":3370,"name":"Schildorn","state_code":"4","country_code":"AT"}},{"type":"Feature","geometry":{"type":"Point","coordinates":[13.78904,48.07177]},"properties":{"id":3373,"name":"Schlatt","state_code":"4","country_code":"AT"}},{"type":"Feature","geometry":{"type":"Point","coordinates":[14.12018,47.93636]},"properties":{"id":3377,"name":"Schlierbach","state_code":"4","country_code":"AT"}},{"type":"Feature","geometry":{"type":"Point","coordinates":[13.87161,48.21861]},"properties":{"id":3380,"name":"Schlüsslberg","state_code":"4","country_code":"AT"}},{"type":"Feature","geometry":{"type":"Point","coordinates":[13.6588,48.00167]},"properties":{"id":3419,"name":"Schöndorf","state_code":"4","country_code":"AT"}},{"type":"Feature","geometry":{"type":"Point","coordinates":[14.16103,48.29838]},"properties":{"id":3420,"name":"Schönering","state_code":"4","country_code":"AT"}},{"type":"Feature","geometry":{"type":"Point","coordinates":[13.60408,47.94544]},"properties":{"id":3423,"name":"Schörfling","state_code":"4","country_code":"AT"}},{"type":"Feature","geometry":{"type":"Point","coordinates":[13.77505,48.05537]},"properties":{"id":3394,"name":"Schwanenstadt","state_code":"4","country_code":"AT"}},{"type":"Feature","geometry":{"type":"Point","coordinates":[14.42247,48.34033]},"properties":{"id":3407,"name":"Schweinbach","state_code":"4","country_code":"AT"}},{"type":"Feature","geometry":{"type":"Point","coordinates":[14.58474,48.2734]},"properties":{"id":3410,"name":"Schwertberg","state_code":"4","country_code":"AT"}},{"type":"Feature","geometry":{"type":"Point","coordinates":[13.58382,47.95246]},"properties":{"id":3434,"name":"Seewalchen","state_code":"4","country_code":"AT"}},{"type":"Feature","geometry":{"type":"Point","coordinates":[14.30935,48.04343]},"properties":{"id":3454,"name":"Sierning","state_code":"4","country_code":"AT"}},{"type":"Feature","geometry":{"type":"Point","coordinates":[14.31167,48.4608]},"properties":{"id":3469,"name":"Sonnberg im Mühlkreis","state_code":"4","country_code":"AT"}},{"type":"Feature","geometry":{"type":"Point","coordinates":[14.34014,47.66487]},"properties":{"id":3477,"name":"Spital am Pyhrn","state_code":"4","country_code":"AT"}},{"type":"Feature","geometry":{"type":"Point","coordinates":[13.85213,48.08255]},"properties":{"id":3489,"name":"Stadl-Hausruck","state_code":"4","country_code":"AT"}},{"type":"Feature","geometry":{"type":"Point","coordinates":[13.86667,48.08333]},"properties":{"id":3490,"name":"Stadl-Paura","state_code":"4","country_code":"AT"}},{"type":"Feature","geometry":{"type":"Point","coordinates":[13.8614,48.07963]},"properties":{"id":3491,"name":"Stadl-Traun","state_code":"4","country_code":"AT"}},{"type":"Feature","geometry":{"type":"Point","coordinates":[13.54613,47.83087]},"properties":{"id":3515,"name":"Steinbach am Attersee","state_code":"4","country_code":"AT"}},{"type":"Feature","geometry":{"type":"Point","coordinates":[13.95796,48.07911]},"properties":{"id":3518,"name":"Steinerkirchen an der Traun","state_code":"4","country_code":"AT"}},{"type":"Feature","geometry":{"type":"Point","coordinates":[13.6326,47.71254]},"properties":{"id":3520,"name":"Steinfeld","state_code":"4","country_code":"AT"}},{"type":"Feature","geometry":{"type":"Point","coordinates":[14.0189,48.11614]},"properties":{"id":3521,"name":"Steinhaus","state_code":"4","country_code":"AT"}},{"type":"Feature","geometry":{"type":"Point","coordinates":[14.42127,48.04274]},"properties":{"id":3527,"name":"Steyr","state_code":"4","country_code":"AT"}},{"type":"Feature","geometry":{"type":"Point","coordinates":[14.41667,48.03333]},"properties":{"id":3528,"name":"Steyr Stadt","state_code":"4","country_code":"AT"}},{"type":"Feature","geometry":{"type":"Point","coordinates":[14.36995,48.28513]},"properties":{"id":3529,"name":"Steyregg","state_code":"4","country_code":"AT"}},{"type":"Feature","geometry":{"type":"Point","coordinates":[14.14524,48.28348]},"properties":{"id":3543,"name":"Strassham","state_code":"4","country_code":"AT"}},{"type":"Feature","geometry":{"type":"Point","coordinates":[13.57318,48.26468]},"properties":{"id":3569,"name":"Taiskirchen im Innkreis","state_code":"4","country_code":"AT"}},{"type":"Feature","geometry":{"type":"Point","coordinates":[13.74767,48.24731]},"properties":{"id":3574,"name":"Taufkirchen an der Trattnach","state_code":"4","country_code":"AT"}},{"type":"Feature","geometry":{"type":"Point","coordinates":[14.3587,47.94518]},"properties":{"id":3583,"name":"Ternberg","state_code":"4","country_code":"AT"}},{"type":"Feature","geometry":{"type":"Point","coordinates":[14.03333,48.15]},"properties":{"id":3588,"name":"Thalheim bei Wels","state_code":"4","country_code":"AT"}},{"type":"Feature","geometry":{"type":"Point","coordinates":[13.30591,47.87385]},"properties":{"id":3599,"name":"Tiefgraben","state_code":"4","country_code":"AT"}},{"type":"Feature","geometry":{"type":"Point","coordinates":[13.6076,48.00394]},"properties":{"id":3603,"name":"Timelkam","state_code":"4","country_code":"AT"}},{"type":"Feature","geometry":{"type":"Point","coordinates":[14.62237,48.33314]},"properties":{"id":3607,"name":"Tragwein","state_code":"4","country_code":"AT"}},{"type":"Feature","geometry":{"type":"Point","coordinates":[14.23459,48.22656]},"properties":{"id":3613,"name":"Traun","state_code":"4","country_code":"AT"}},{"type":"Feature","geometry":{"type":"Point","coordinates":[13.78939,47.84462]},"properties":{"id":3614,"name":"Traunkirchen","state_code":"4","country_code":"AT"}},{"type":"Feature","geometry":{"type":"Point","coordinates":[14.49977,48.24842]},"properties":{"id":3640,"name":"Ufer","state_code":"4","country_code":"AT"}},{"type":"Feature","geometry":{"type":"Point","coordinates":[13.91049,48.67498]},"properties":{"id":3641,"name":"Ulrichsberg","state_code":"4","country_code":"AT"}},{"type":"Feature","geometry":{"type":"Point","coordinates":[13.61472,48.04756]},"properties":{"id":3644,"name":"Ungenach","state_code":"4","country_code":"AT"}},{"type":"Feature","geometry":{"type":"Point","coordinates":[14.041,48.168]},"properties":{"id":3650,"name":"Untereisenfeld","state_code":"4","country_code":"AT"}},{"type":"Feature","geometry":{"type":"Point","coordinates":[14.57525,48.29216]},"properties":{"id":3653,"name":"Unterjosefstal","state_code":"4","country_code":"AT"}},{"type":"Feature","geometry":{"type":"Point","coordinates":[13.1218,48.15887]},"properties":{"id":3668,"name":"Uttendorf","state_code":"4","country_code":"AT"}},{"type":"Feature","geometry":{"type":"Point","coordinates":[13.46091,48.27622]},"properties":{"id":3670,"name":"Utzenaich","state_code":"4","country_code":"AT"}},{"type":"Feature","geometry":{"type":"Point","coordinates":[13.96345,47.91531]},"properties":{"id":3677,"name":"Viechtwang","state_code":"4","country_code":"AT"}},{"type":"Feature","geometry":{"type":"Point","coordinates":[13.65652,48.00279]},"properties":{"id":3703,"name":"Vöcklabruck","state_code":"4","country_code":"AT"}},{"type":"Feature","geometry":{"type":"Point","coordinates":[13.48383,48.0025]},"properties":{"id":3704,"name":"Vöcklamarkt","state_code":"4","country_code":"AT"}},{"type":"Feature","geometry":{"type":"Point","coordinates":[13.92122,48.00388]},"properties":{"id":3699,"name":"Vorchdorf","state_code":"4","country_code":"AT"}},{"type":"Feature","geometry":{"type":"Point","coordinates":[13.67163,48.00503]},"properties":{"id":3714,"name":"Wagrain","state_code":"4","country_code":"AT"}},{"type":"Feature","geometry":{"type":"Point","coordinates":[14.22996,48.23828]},"properties":{"id":3715,"name":"Wagram","state_code":"4","country_code":"AT"}},{"type":"Feature","geometry":{"type":"Point","coordinates":[13.85754,48.33018]},"properties":{"id":3722,"name":"Waizenkirchen","state_code":"4","country_code":"AT"}},{"type":"Feature","geometry":{"type":"Point","coordinates":[14.1576,48.35209]},"properties":{"id":3730,"name":"Walding","state_code":"4","country_code":"AT"}},{"type":"Feature","geometry":{"type":"Point","coordinates":[13.82174,48.44059]},"properties":{"id":3731,"name":"Waldkirchen am Wesen","state_code":"4","country_code":"AT"}},{"type":"Feature","geometry":{"type":"Point","coordinates":[14.25879,47.99854]},"properties":{"id":3733,"name":"Waldneukirchen","state_code":"4","country_code":"AT"}},{"type":"Feature","geometry":{"type":"Point","coordinates":[13.42701,48.13562]},"properties":{"id":3735,"name":"Waldzell","state_code":"4","country_code":"AT"}},{"type":"Feature","geometry":{"type":"Point","coordinates":[13.9462,48.23296]},"properties":{"id":3736,"name":"Wallern an der Trattnach","state_code":"4","country_code":"AT"}},{"type":"Feature","geometry":{"type":"Point","coordinates":[14.11863,47.98909]},"properties":{"id":3746,"name":"Wartberg an der Krems","state_code":"4","country_code":"AT"}},{"type":"Feature","geometry":{"type":"Point","coordinates":[14.50796,48.34792]},"properties":{"id":3747,"name":"Wartberg ob der Aist","state_code":"4","country_code":"AT"}},{"type":"Feature","geometry":{"type":"Point","coordinates":[13.7,48.18333]},"properties":{"id":3755,"name":"Weibern","state_code":"4","country_code":"AT"}},{"type":"Feature","geometry":{"type":"Point","coordinates":[13.37165,48.27725]},"properties":{"id":3763,"name":"Weilbach","state_code":"4","country_code":"AT"}},{"type":"Feature","geometry":{"type":"Point","coordinates":[13.41843,47.94964]},"properties":{"id":3782,"name":"Weißenkirchen im Attergau","state_code":"4","country_code":"AT"}},{"type":"Feature","geometry":{"type":"Point","coordinates":[14.12395,48.16202]},"properties":{"id":3773,"name":"Weisskirchen an der Traun","state_code":"4","country_code":"AT"}},{"type":"Feature","geometry":{"type":"Point","coordinates":[14.72546,48.4773]},"properties":{"id":3778,"name":"Weitersfelden","state_code":"4","country_code":"AT"}},{"type":"Feature","geometry":{"type":"Point","coordinates":[14.03333,48.16667]},"properties":{"id":3785,"name":"Wels","state_code":"4","country_code":"AT"}},{"type":"Feature","geometry":{"type":"Point","coordinates":[14.02164,48.16082]},"properties":{"id":3786,"name":"Wels Stadt","state_code":"4","country_code":"AT"}},{"type":"Feature","geometry":{"type":"Point","coordinates":[13.96637,48.1166]},"properties":{"id":3787,"name":"Wels-Land","state_code":"4","country_code":"AT"}},{"type":"Feature","geometry":{"type":"Point","coordinates":[13.66622,48.23182]},"properties":{"id":3788,"name":"Wendling","state_code":"4","country_code":"AT"}},{"type":"Feature","geometry":{"type":"Point","coordinates":[13.17801,48.23508]},"properties":{"id":3789,"name":"Weng im Innkreis","state_code":"4","country_code":"AT"}},{"type":"Feature","geometry":{"type":"Point","coordinates":[13.461,48.50802]},"properties":{"id":3797,"name":"Wernstein am Inn","state_code":"4","country_code":"AT"}},{"type":"Feature","geometry":{"type":"Point","coordinates":[14.66409,47.85717]},"properties":{"id":3801,"name":"Weyer","state_code":"4","country_code":"AT"}},{"type":"Feature","geometry":{"type":"Point","coordinates":[13.57193,47.90294]},"properties":{"id":3802,"name":"Weyregg","state_code":"4","country_code":"AT"}},{"type":"Feature","geometry":{"type":"Point","coordinates":[13.98333,48.16667]},"properties":{"id":3822,"name":"Wimpassing","state_code":"4","country_code":"AT"}},{"type":"Feature","geometry":{"type":"Point","coordinates":[13.9,48.06667]},"properties":{"id":3825,"name":"Wimsbach","state_code":"4","country_code":"AT"}},{"type":"Feature","geometry":{"type":"Point","coordinates":[14.56186,48.58774]},"properties":{"id":3827,"name":"Windhaag bei Freistadt","state_code":"4","country_code":"AT"}},{"type":"Feature","geometry":{"type":"Point","coordinates":[14.68091,48.28582]},"properties":{"id":3828,"name":"Windhaag bei Perg","state_code":"4","country_code":"AT"}},{"type":"Feature","geometry":{"type":"Point","coordinates":[14.32755,47.72223]},"properties":{"id":3831,"name":"Windischgarsten","state_code":"4","country_code":"AT"}},{"type":"Feature","geometry":{"type":"Point","coordinates":[13.3792,48.2225]},"properties":{"id":3836,"name":"Wippenham","state_code":"4","country_code":"AT"}},{"type":"Feature","geometry":{"type":"Point","coordinates":[13.99753,48.16488]},"properties":{"id":3837,"name":"Wispl","state_code":"4","country_code":"AT"}},{"type":"Feature","geometry":{"type":"Point","coordinates":[14.37201,48.08278]},"properties":{"id":3839,"name":"Wolfern","state_code":"4","country_code":"AT"}},{"type":"Feature","geometry":{"type":"Point","coordinates":[13.67274,48.10669]},"properties":{"id":3844,"name":"Wolfsegg am Hausruck","state_code":"4","country_code":"AT"}},{"type":"Feature","geometry":{"type":"Point","coordinates":[13.31667,47.9]},"properties":{"id":3872,"name":"Zell am Moos","state_code":"4","country_code":"AT"}},{"type":"Feature","geometry":{"type":"Point","coordinates":[13.59936,48.08009]},"properties":{"id":3873,"name":"Zell am Pettenfirst","state_code":"4","country_code":"AT"}},{"type":"Feature","geometry":{"type":"Point","coordinates":[13.62923,48.31625]},"properties":{"id":3876,"name":"Zell an der Pram","state_code":"4","country_code":"AT"}},{"type":"Feature","geometry":{"type":"Point","coordinates":[14.27133,48.46552]},"properties":{"id":3893,"name":"Zwettl an der Rodl","state_code":"4","country_code":"AT"}}]}