{"type":"FeatureCollection","features":[{"type":"Feature","geometry":{"type":"Point","coordinates":[16.46002,48.2333]},"properties":{"id":1856,"name":"Donaustadt","state_code":"9","country_code":"AT"}},{"type":"Feature","geometry":{"type":"Point","coordinates":[16.38233,48.16116]},"properties":{"id":1963,"name":"Favoriten","state_code":"9","country_code":"AT"}},{"type":"Feature","geometry":{"type":"Point","coordinates":[16.4,48.25]},"properties":{"id":2002,"name":"Floridsdorf","state_code":"9","country_code":"AT"}},{"type":"Feature","geometry":{"type":"Point","coordinates":[16.26667,48.23333]},"properties":{"id":2272,"name":"Hernals","state_code":"9","country_code":"AT"}},{"type":"Feature","geometry":{"type":"Point","coordinates":[16.2965,48.18623]},"properties":{"id":2280,"name":"Hietzing","state_code":"9","country_code":"AT"}},{"type":"Feature","geometry":{"type":"Point","coordinates":[16.37135,48.20906]},"properties":{"id":2356,"name":"Innere Stadt","state_code":"9","country_code":"AT"}},{"type":"Feature","geometry":{"type":"Point","coordinates":[16.33333,48.16667]},"properties":{"id":2686,"name":"Meidling","state_code":"9","country_code":"AT"}},{"type":"Feature","geometry":{"type":"Point","coordinates":[16.3,48.21667]},"properties":{"id":2909,"name":"Ottakring","state_code":"9","country_code":"AT"}},{"type":"Feature","geometry":{"type":"Point","coordinates":[16.43333,48.18333]},"properties":{"id":3461,"name":"Simmering","state_code":"9","country_code":"AT"}},{"type":"Feature","geometry":{"type":"Point","coordinates":[16.37208,48.20849]},"properties":{"id":3681,"name":"Vienna","state_code":"9","country_code":"AT"}}]}