{"type":"FeatureCollection","features":[{"type":"Feature","geometry":{"type":"Point","coordinates":[-70.01912,12.5705]},"properties":{"id":160400,"name":"Alto Vista","state_code":"09","country_code":"AW"}},{"type":"Feature","geometry":{"type":"Point","coordinates":[-70.00843,12.55134]},"properties":{"id":160398,"name":"Moco","state_code":"09","country_code":"AW"}},{"type":"Feature","geometry":{"type":"Point","coordinates":[-70.03198,12.56596]},"properties":{"id":160395,"name":"Noord","state_code":"09","country_code":"AW"}},{"type":"Feature","geometry":{"type":"Point","coordinates":[-70.02703,12.52398]},"properties":{"id":160396,"name":"Oranjestad","state_code":"09","country_code":"AW"}},{"type":"Feature","geometry":{"type":"Point","coordinates":[-70.03887,12.56847]},"properties":{"id":160399,"name":"Palm Beach","state_code":"09","country_code":"AW"}},{"type":"Feature","geometry":{"type":"Point","coordinates":[-70.00688,12.5351]},"properties":{"id":160397,"name":"Paradera","state_code":"09","country_code":"AW"}},{"type":"Feature","geometry":{"type":"Point","coordinates":[-69.96233,12.46497]},"properties":{"id":160394,"name":"Pos Chiquito","state_code":"09","country_code":"AW"}},{"type":"Feature","geometry":{"type":"Point","coordinates":[-69.90713,12.43624]},"properties":{"id":160401,"name":"San Nicolas","state_code":"09","country_code":"AW"}},{"type":"Feature","geometry":{"type":"Point","coordinates":[-69.98094,12.50953]},"properties":{"id":160404,"name":"Santa Cruz","state_code":"09","country_code":"AW"}},{"type":"Feature","geometry":{"type":"Point","coordinates":[-69.93811,12.45026]},"properties":{"id":160405,"name":"Savaneta","state_code":"09","country_code":"AW"}},{"type":"Feature","geometry":{"type":"Point","coordinates":[-70.02004,12.53914]},"properties":{"id":160402,"name":"Tanki Leendert","state_code":"09","country_code":"AW"}},{"type":"Feature","geometry":{"type":"Point","coordinates":[-70.03816,12.55837]},"properties":{"id":160403,"name":"Washington","state_code":"09","country_code":"AW"}}]}