{"type":"FeatureCollection","features":[{"type":"Feature","geometry":{"type":"Point","coordinates":[20.24023,60.21234]},"properties":{"id":160431,"name":"Bomarsund","state_code":"02","country_code":"AX"}},{"type":"Feature","geometry":{"type":"Point","coordinates":[19.93333,60.26667]},"properties":{"id":160427,"name":"Finström","state_code":"02","country_code":"AX"}},{"type":"Feature","geometry":{"type":"Point","coordinates":[19.9881,60.22995]},"properties":{"id":160432,"name":"Godby","state_code":"02","country_code":"AX"}},{"type":"Feature","geometry":{"type":"Point","coordinates":[19.75,60.21667]},"properties":{"id":160428,"name":"Hammarland","state_code":"02","country_code":"AX"}},{"type":"Feature","geometry":{"type":"Point","coordinates":[19.951,60.14902]},"properties":{"id":160429,"name":"Jomala","state_code":"02","country_code":"AX"}},{"type":"Feature","geometry":{"type":"Point","coordinates":[20.08472,60.07178]},"properties":{"id":160433,"name":"Lemland","state_code":"02","country_code":"AX"}},{"type":"Feature","geometry":{"type":"Point","coordinates":[20.05,60.28333]},"properties":{"id":160434,"name":"Saltvik","state_code":"02","country_code":"AX"}},{"type":"Feature","geometry":{"type":"Point","coordinates":[20.11667,60.25]},"properties":{"id":160435,"name":"Sund","state_code":"02","country_code":"AX"}},{"type":"Feature","geometry":{"type":"Point","coordinates":[19.95,60.33333]},"properties":{"id":160430,"name":"Tjudö","state_code":"02","country_code":"AX"}},{"type":"Feature","geometry":{"type":"Point","coordinates":[19.93341,60.16689]},"properties":{"id":160426,"name":"Yomala","state_code":"02","country_code":"AX"}},{"type":"Feature","geometry":{"type":"Point","coordinates":[20.01667,60.16667]},"properties":{"id":160436,"name":"Ytterby","state_code":"02","country_code":"AX"}}]}