{"type":"FeatureCollection","features":[{"type":"Feature","geometry":{"type":"Point","coordinates":[49.98361,40.42639]},"properties":{"id":8042,"name":"Amirdzhan","state_code":"BA","country_code":"AZ"}},{"type":"Feature","geometry":{"type":"Point","coordinates":[49.8045,40.34024]},"properties":{"id":8051,"name":"Badamdar","state_code":"BA","country_code":"AZ"}},{"type":"Feature","geometry":{"type":"Point","coordinates":[49.96693,40.41894]},"properties":{"id":8053,"name":"Bakıxanov","state_code":"BA","country_code":"AZ"}},{"type":"Feature","geometry":{"type":"Point","coordinates":[49.89201,40.37767]},"properties":{"id":8052,"name":"Baku","state_code":"BA","country_code":"AZ"}},{"type":"Feature","geometry":{"type":"Point","coordinates":[49.91893,40.46344]},"properties":{"id":8054,"name":"Balakhani","state_code":"BA","country_code":"AZ"}},{"type":"Feature","geometry":{"type":"Point","coordinates":[49.80566,40.4444]},"properties":{"id":8060,"name":"Bilajari","state_code":"BA","country_code":"AZ"}},{"type":"Feature","geometry":{"type":"Point","coordinates":[50.04002,40.56441]},"properties":{"id":8061,"name":"Bilajer","state_code":"BA","country_code":"AZ"}},{"type":"Feature","geometry":{"type":"Point","coordinates":[49.82783,40.46602]},"properties":{"id":8062,"name":"Binagadi","state_code":"BA","country_code":"AZ"}},{"type":"Feature","geometry":{"type":"Point","coordinates":[50.08686,40.45076]},"properties":{"id":8063,"name":"Biny Selo","state_code":"BA","country_code":"AZ"}},{"type":"Feature","geometry":{"type":"Point","coordinates":[50.11438,40.51903]},"properties":{"id":8066,"name":"Buzovna","state_code":"BA","country_code":"AZ"}},{"type":"Feature","geometry":{"type":"Point","coordinates":[50.08528,40.37444]},"properties":{"id":8093,"name":"Hövsan","state_code":"BA","country_code":"AZ"}},{"type":"Feature","geometry":{"type":"Point","coordinates":[49.76904,40.41293]},"properties":{"id":8100,"name":"Khodzhi-Gasan","state_code":"BA","country_code":"AZ"}},{"type":"Feature","geometry":{"type":"Point","coordinates":[49.6236,40.30446]},"properties":{"id":8104,"name":"Korgöz","state_code":"BA","country_code":"AZ"}},{"type":"Feature","geometry":{"type":"Point","coordinates":[49.73376,40.3256]},"properties":{"id":8111,"name":"Lökbatan","state_code":"BA","country_code":"AZ"}},{"type":"Feature","geometry":{"type":"Point","coordinates":[50.14292,40.49182]},"properties":{"id":8113,"name":"Mardakan","state_code":"BA","country_code":"AZ"}},{"type":"Feature","geometry":{"type":"Point","coordinates":[50.00616,40.52983]},"properties":{"id":8116,"name":"Maştağa","state_code":"BA","country_code":"AZ"}},{"type":"Feature","geometry":{"type":"Point","coordinates":[50.00556,40.55611]},"properties":{"id":8121,"name":"Nardaran","state_code":"BA","country_code":"AZ"}},{"type":"Feature","geometry":{"type":"Point","coordinates":[49.91926,40.4097]},"properties":{"id":8123,"name":"Nizami Rayonu","state_code":"BA","country_code":"AZ"}},{"type":"Feature","geometry":{"type":"Point","coordinates":[50.32476,40.47013]},"properties":{"id":8131,"name":"Pirallahı","state_code":"BA","country_code":"AZ"}},{"type":"Feature","geometry":{"type":"Point","coordinates":[49.66028,40.29667]},"properties":{"id":8134,"name":"Puta","state_code":"BA","country_code":"AZ"}},{"type":"Feature","geometry":{"type":"Point","coordinates":[50.16759,40.44256]},"properties":{"id":8136,"name":"Qala","state_code":"BA","country_code":"AZ"}},{"type":"Feature","geometry":{"type":"Point","coordinates":[49.97361,40.39667]},"properties":{"id":8142,"name":"Qaraçuxur","state_code":"BA","country_code":"AZ"}},{"type":"Feature","geometry":{"type":"Point","coordinates":[49.41205,40.08238]},"properties":{"id":8149,"name":"Qobustan","state_code":"BA","country_code":"AZ"}},{"type":"Feature","geometry":{"type":"Point","coordinates":[49.98056,40.44222]},"properties":{"id":8159,"name":"Ramana","state_code":"BA","country_code":"AZ"}},{"type":"Feature","geometry":{"type":"Point","coordinates":[49.94806,40.4425]},"properties":{"id":8162,"name":"Sabunçu","state_code":"BA","country_code":"AZ"}},{"type":"Feature","geometry":{"type":"Point","coordinates":[49.46394,40.16991]},"properties":{"id":8168,"name":"Sanqaçal","state_code":"BA","country_code":"AZ"}},{"type":"Feature","geometry":{"type":"Point","coordinates":[50.22075,40.3646]},"properties":{"id":8184,"name":"Türkan","state_code":"BA","country_code":"AZ"}},{"type":"Feature","geometry":{"type":"Point","coordinates":[50.03598,40.43026]},"properties":{"id":8197,"name":"Yeni Suraxanı","state_code":"BA","country_code":"AZ"}},{"type":"Feature","geometry":{"type":"Point","coordinates":[49.94174,40.47746]},"properties":{"id":8201,"name":"Zabrat","state_code":"BA","country_code":"AZ"}},{"type":"Feature","geometry":{"type":"Point","coordinates":[50.29198,40.36613]},"properties":{"id":8205,"name":"Zyrya","state_code":"BA","country_code":"AZ"}}]}