{"type":"FeatureCollection","features":[{"type":"Feature","geometry":{"type":"Point","coordinates":[46.31365,40.78674]},"properties":{"id":8140,"name":"Qarayeri","state_code":"SMX","country_code":"AZ"}},{"type":"Feature","geometry":{"type":"Point","coordinates":[46.37889,40.93972]},"properties":{"id":8156,"name":"Qırmızı Samux","state_code":"SMX","country_code":"AZ"}},{"type":"Feature","geometry":{"type":"Point","coordinates":[46.40868,40.76485]},"properties":{"id":8166,"name":"Samux","state_code":"SMX","country_code":"AZ"}}]}