{"type":"FeatureCollection","features":[{"type":"Feature","geometry":{"type":"Point","coordinates":[18.52648,44.40596]},"properties":{"id":8217,"name":"Banovići","state_code":"BIH","country_code":"BA"}},{"type":"Feature","geometry":{"type":"Point","coordinates":[18.48069,44.54065]},"properties":{"id":8218,"name":"Barice","state_code":"BIH","country_code":"BA"}},{"type":"Feature","geometry":{"type":"Point","coordinates":[15.87083,44.81694]},"properties":{"id":8219,"name":"Bihać","state_code":"BIH","country_code":"BA"}},{"type":"Feature","geometry":{"type":"Point","coordinates":[17.95078,43.60871]},"properties":{"id":8220,"name":"Bijela","state_code":"BIH","country_code":"BA"}},{"type":"Feature","geometry":{"type":"Point","coordinates":[16.92676,43.78265]},"properties":{"id":8222,"name":"Bila","state_code":"BIH","country_code":"BA"}},{"type":"Feature","geometry":{"type":"Point","coordinates":[17.88815,43.25892]},"properties":{"id":8224,"name":"Blagaj","state_code":"BIH","country_code":"BA"}},{"type":"Feature","geometry":{"type":"Point","coordinates":[16.15139,44.8825]},"properties":{"id":8226,"name":"Bosanska Krupa","state_code":"BIH","country_code":"BA"}},{"type":"Feature","geometry":{"type":"Point","coordinates":[16.36897,44.55537]},"properties":{"id":8227,"name":"Bosanski Petrovac","state_code":"BIH","country_code":"BA"}},{"type":"Feature","geometry":{"type":"Point","coordinates":[16.36389,44.17944]},"properties":{"id":8228,"name":"Bosansko Grahovo","state_code":"BIH","country_code":"BA"}},{"type":"Feature","geometry":{"type":"Point","coordinates":[18.26063,44.01862]},"properties":{"id":8229,"name":"Breza","state_code":"BIH","country_code":"BA"}},{"type":"Feature","geometry":{"type":"Point","coordinates":[17.45083,44.05722]},"properties":{"id":8234,"name":"Bugojno","state_code":"BIH","country_code":"BA"}},{"type":"Feature","geometry":{"type":"Point","coordinates":[17.8783,44.09769]},"properties":{"id":8235,"name":"Busovača","state_code":"BIH","country_code":"BA"}},{"type":"Feature","geometry":{"type":"Point","coordinates":[16.03254,45.05361]},"properties":{"id":8236,"name":"Bužim","state_code":"BIH","country_code":"BA"}},{"type":"Feature","geometry":{"type":"Point","coordinates":[17.68444,43.12139]},"properties":{"id":8431,"name":"Čapljina","state_code":"BIH","country_code":"BA"}},{"type":"Feature","geometry":{"type":"Point","coordinates":[15.94306,44.96694]},"properties":{"id":8237,"name":"Cazin","state_code":"BIH","country_code":"BA"}},{"type":"Feature","geometry":{"type":"Point","coordinates":[18.81474,44.72524]},"properties":{"id":8433,"name":"Čelić","state_code":"BIH","country_code":"BA"}},{"type":"Feature","geometry":{"type":"Point","coordinates":[17.78045,43.35401]},"properties":{"id":8238,"name":"Cim","state_code":"BIH","country_code":"BA"}},{"type":"Feature","geometry":{"type":"Point","coordinates":[17.70083,43.22861]},"properties":{"id":8435,"name":"Čitluk","state_code":"BIH","country_code":"BA"}},{"type":"Feature","geometry":{"type":"Point","coordinates":[15.87194,45.00694]},"properties":{"id":8429,"name":"Ćoralići","state_code":"BIH","country_code":"BA"}},{"type":"Feature","geometry":{"type":"Point","coordinates":[17.86452,43.13156]},"properties":{"id":8239,"name":"Crnići","state_code":"BIH","country_code":"BA"}},{"type":"Feature","geometry":{"type":"Point","coordinates":[17.32678,44.36682]},"properties":{"id":8241,"name":"Divičani","state_code":"BIH","country_code":"BA"}},{"type":"Feature","geometry":{"type":"Point","coordinates":[18.11958,44.05008]},"properties":{"id":8243,"name":"Dobrinje","state_code":"BIH","country_code":"BA"}},{"type":"Feature","geometry":{"type":"Point","coordinates":[18.58612,45.0611]},"properties":{"id":8245,"name":"Domaljevac","state_code":"BIH","country_code":"BA"}},{"type":"Feature","geometry":{"type":"Point","coordinates":[18.41023,45.07559]},"properties":{"id":8246,"name":"Donja Dubica","state_code":"BIH","country_code":"BA"}},{"type":"Feature","geometry":{"type":"Point","coordinates":[18.66996,45.04327]},"properties":{"id":8247,"name":"Donja Mahala","state_code":"BIH","country_code":"BA"}},{"type":"Feature","geometry":{"type":"Point","coordinates":[18.40477,44.80235]},"properties":{"id":8248,"name":"Donja Međiđa","state_code":"BIH","country_code":"BA"}},{"type":"Feature","geometry":{"type":"Point","coordinates":[17.4,44.14361]},"properties":{"id":8249,"name":"Donji Vakuf","state_code":"BIH","country_code":"BA"}},{"type":"Feature","geometry":{"type":"Point","coordinates":[17.2812,43.52891]},"properties":{"id":8250,"name":"Drežnica","state_code":"BIH","country_code":"BA"}},{"type":"Feature","geometry":{"type":"Point","coordinates":[17.32536,43.35454]},"properties":{"id":8251,"name":"Drinovci","state_code":"BIH","country_code":"BA"}},{"type":"Feature","geometry":{"type":"Point","coordinates":[16.38083,44.37389]},"properties":{"id":8252,"name":"Drvar","state_code":"BIH","country_code":"BA"}},{"type":"Feature","geometry":{"type":"Point","coordinates":[18.69709,44.4806]},"properties":{"id":8253,"name":"Dubrave Donje","state_code":"BIH","country_code":"BA"}},{"type":"Feature","geometry":{"type":"Point","coordinates":[18.72685,44.47229]},"properties":{"id":8254,"name":"Dubrave Gornje","state_code":"BIH","country_code":"BA"}},{"type":"Feature","geometry":{"type":"Point","coordinates":[18.11883,44.44131]},"properties":{"id":8255,"name":"Dubravica","state_code":"BIH","country_code":"BA"}},{"type":"Feature","geometry":{"type":"Point","coordinates":[17.90288,43.95952]},"properties":{"id":8257,"name":"Fojnica","state_code":"BIH","country_code":"BA"}},{"type":"Feature","geometry":{"type":"Point","coordinates":[16.84861,44.04583]},"properties":{"id":8260,"name":"Glamoč","state_code":"BIH","country_code":"BA"}},{"type":"Feature","geometry":{"type":"Point","coordinates":[18.44684,44.62058]},"properties":{"id":8261,"name":"Gnojnica","state_code":"BIH","country_code":"BA"}},{"type":"Feature","geometry":{"type":"Point","coordinates":[18.97564,43.66795]},"properties":{"id":8262,"name":"Goražde","state_code":"BIH","country_code":"BA"}},{"type":"Feature","geometry":{"type":"Point","coordinates":[17.285,43.41833]},"properties":{"id":8263,"name":"Gorica","state_code":"BIH","country_code":"BA"}},{"type":"Feature","geometry":{"type":"Point","coordinates":[18.24564,44.03758]},"properties":{"id":8264,"name":"Gornja Breza","state_code":"BIH","country_code":"BA"}},{"type":"Feature","geometry":{"type":"Point","coordinates":[15.95487,45.01091]},"properties":{"id":8265,"name":"Gornja Koprivna","state_code":"BIH","country_code":"BA"}},{"type":"Feature","geometry":{"type":"Point","coordinates":[18.76159,44.55659]},"properties":{"id":8266,"name":"Gornja Tuzla","state_code":"BIH","country_code":"BA"}},{"type":"Feature","geometry":{"type":"Point","coordinates":[18.15477,44.01911]},"properties":{"id":8267,"name":"Gornje Moštre","state_code":"BIH","country_code":"BA"}},{"type":"Feature","geometry":{"type":"Point","coordinates":[18.61667,44.42921]},"properties":{"id":8268,"name":"Gornje Živinice","state_code":"BIH","country_code":"BA"}},{"type":"Feature","geometry":{"type":"Point","coordinates":[17.58833,43.93806]},"properties":{"id":8269,"name":"Gornji Vakuf","state_code":"BIH","country_code":"BA"}},{"type":"Feature","geometry":{"type":"Point","coordinates":[18.17029,44.41124]},"properties":{"id":8270,"name":"Gostovići","state_code":"BIH","country_code":"BA"}},{"type":"Feature","geometry":{"type":"Point","coordinates":[18.28333,43.73333]},"properties":{"id":8273,"name":"Gračanica","state_code":"BIH","country_code":"BA"}},{"type":"Feature","geometry":{"type":"Point","coordinates":[18.42764,44.87851]},"properties":{"id":8271,"name":"Gradačac","state_code":"BIH","country_code":"BA"}},{"type":"Feature","geometry":{"type":"Point","coordinates":[18.05504,43.96668]},"properties":{"id":8274,"name":"Gromiljak","state_code":"BIH","country_code":"BA"}},{"type":"Feature","geometry":{"type":"Point","coordinates":[17.41449,43.37208]},"properties":{"id":8275,"name":"Grude","state_code":"BIH","country_code":"BA"}},{"type":"Feature","geometry":{"type":"Point","coordinates":[18.20667,43.82222]},"properties":{"id":8276,"name":"Hadžići","state_code":"BIH","country_code":"BA"}},{"type":"Feature","geometry":{"type":"Point","coordinates":[17.8125,43.45722]},"properties":{"id":8277,"name":"Hercegovačko-Neretvanski Kanton","state_code":"BIH","country_code":"BA"}},{"type":"Feature","geometry":{"type":"Point","coordinates":[18.37751,43.89341]},"properties":{"id":8279,"name":"Hotonj","state_code":"BIH","country_code":"BA"}},{"type":"Feature","geometry":{"type":"Point","coordinates":[17.76848,43.34765]},"properties":{"id":8281,"name":"Ilići","state_code":"BIH","country_code":"BA"}},{"type":"Feature","geometry":{"type":"Point","coordinates":[18.27128,43.95128]},"properties":{"id":8280,"name":"Ilijaš","state_code":"BIH","country_code":"BA"}},{"type":"Feature","geometry":{"type":"Point","coordinates":[15.78256,44.87485]},"properties":{"id":8283,"name":"Izačić","state_code":"BIH","country_code":"BA"}},{"type":"Feature","geometry":{"type":"Point","coordinates":[17.76167,43.66028]},"properties":{"id":8284,"name":"Jablanica","state_code":"BIH","country_code":"BA"}},{"type":"Feature","geometry":{"type":"Point","coordinates":[17.27059,44.34203]},"properties":{"id":8285,"name":"Jajce","state_code":"BIH","country_code":"BA"}},{"type":"Feature","geometry":{"type":"Point","coordinates":[17.95897,44.654]},"properties":{"id":8287,"name":"Jelah","state_code":"BIH","country_code":"BA"}},{"type":"Feature","geometry":{"type":"Point","coordinates":[16.09447,44.98172]},"properties":{"id":8288,"name":"Jezerski","state_code":"BIH","country_code":"BA"}},{"type":"Feature","geometry":{"type":"Point","coordinates":[17.93894,44.06433]},"properties":{"id":8293,"name":"Kačuni","state_code":"BIH","country_code":"BA"}},{"type":"Feature","geometry":{"type":"Point","coordinates":[18.12292,44.13311]},"properties":{"id":8289,"name":"Kakanj","state_code":"BIH","country_code":"BA"}},{"type":"Feature","geometry":{"type":"Point","coordinates":[18.24222,43.84333]},"properties":{"id":8291,"name":"Kanton Sarajevo","state_code":"BIH","country_code":"BA"}},{"type":"Feature","geometry":{"type":"Point","coordinates":[18.01775,44.57065]},"properties":{"id":8292,"name":"Karadaglije","state_code":"BIH","country_code":"BA"}},{"type":"Feature","geometry":{"type":"Point","coordinates":[18.56982,44.48904]},"properties":{"id":8294,"name":"Kiseljak","state_code":"BIH","country_code":"BA"}},{"type":"Feature","geometry":{"type":"Point","coordinates":[18.69274,44.22669]},"properties":{"id":8295,"name":"Kladanj","state_code":"BIH","country_code":"BA"}},{"type":"Feature","geometry":{"type":"Point","coordinates":[16.77682,44.53251]},"properties":{"id":8296,"name":"Ključ","state_code":"BIH","country_code":"BA"}},{"type":"Feature","geometry":{"type":"Point","coordinates":[18.38864,43.88188]},"properties":{"id":8299,"name":"Kobilja Glava","state_code":"BIH","country_code":"BA"}},{"type":"Feature","geometry":{"type":"Point","coordinates":[17.48552,43.39005]},"properties":{"id":8306,"name":"Kočerin","state_code":"BIH","country_code":"BA"}},{"type":"Feature","geometry":{"type":"Point","coordinates":[17.96082,43.65126]},"properties":{"id":8300,"name":"Konjic","state_code":"BIH","country_code":"BA"}},{"type":"Feature","geometry":{"type":"Point","coordinates":[18.20521,44.44874]},"properties":{"id":8304,"name":"Kovači","state_code":"BIH","country_code":"BA"}},{"type":"Feature","geometry":{"type":"Point","coordinates":[18.07644,44.49497]},"properties":{"id":8310,"name":"Liješnica","state_code":"BIH","country_code":"BA"}},{"type":"Feature","geometry":{"type":"Point","coordinates":[17.00746,43.82695]},"properties":{"id":8311,"name":"Livno","state_code":"BIH","country_code":"BA"}},{"type":"Feature","geometry":{"type":"Point","coordinates":[17.545,43.19694]},"properties":{"id":8313,"name":"Ljubuški","state_code":"BIH","country_code":"BA"}},{"type":"Feature","geometry":{"type":"Point","coordinates":[17.85665,44.20466]},"properties":{"id":8314,"name":"Lokvine","state_code":"BIH","country_code":"BA"}},{"type":"Feature","geometry":{"type":"Point","coordinates":[18.52618,44.54245]},"properties":{"id":8316,"name":"Lukavac","state_code":"BIH","country_code":"BA"}},{"type":"Feature","geometry":{"type":"Point","coordinates":[18.16887,44.76452]},"properties":{"id":8317,"name":"Lukavica","state_code":"BIH","country_code":"BA"}},{"type":"Feature","geometry":{"type":"Point","coordinates":[18.10003,44.54771]},"properties":{"id":8318,"name":"Maglaj","state_code":"BIH","country_code":"BA"}},{"type":"Feature","geometry":{"type":"Point","coordinates":[18.25528,44.01194]},"properties":{"id":8320,"name":"Mahala","state_code":"BIH","country_code":"BA"}},{"type":"Feature","geometry":{"type":"Point","coordinates":[15.85217,45.13443]},"properties":{"id":8321,"name":"Mala Kladuša","state_code":"BIH","country_code":"BA"}},{"type":"Feature","geometry":{"type":"Point","coordinates":[18.27335,44.73824]},"properties":{"id":8322,"name":"Malešići","state_code":"BIH","country_code":"BA"}},{"type":"Feature","geometry":{"type":"Point","coordinates":[18.46603,44.86646]},"properties":{"id":8327,"name":"Mionica","state_code":"BIH","country_code":"BA"}},{"type":"Feature","geometry":{"type":"Point","coordinates":[17.80806,43.34333]},"properties":{"id":8329,"name":"Mostar","state_code":"BIH","country_code":"BA"}},{"type":"Feature","geometry":{"type":"Point","coordinates":[18.56458,44.59234]},"properties":{"id":8330,"name":"Mramor","state_code":"BIH","country_code":"BA"}},{"type":"Feature","geometry":{"type":"Point","coordinates":[17.61556,42.92333]},"properties":{"id":8332,"name":"Neum","state_code":"BIH","country_code":"BA"}},{"type":"Feature","geometry":{"type":"Point","coordinates":[18.02624,44.51031]},"properties":{"id":8336,"name":"Novi Šeher","state_code":"BIH","country_code":"BA"}},{"type":"Feature","geometry":{"type":"Point","coordinates":[17.65816,44.17133]},"properties":{"id":8335,"name":"Novi Travnik","state_code":"BIH","country_code":"BA"}},{"type":"Feature","geometry":{"type":"Point","coordinates":[18.32107,45.02461]},"properties":{"id":8338,"name":"Odžak","state_code":"BIH","country_code":"BA"}},{"type":"Feature","geometry":{"type":"Point","coordinates":[18.58065,44.1277]},"properties":{"id":8339,"name":"Olovo","state_code":"BIH","country_code":"BA"}},{"type":"Feature","geometry":{"type":"Point","coordinates":[17.95757,44.69831]},"properties":{"id":8340,"name":"Omanjska","state_code":"BIH","country_code":"BA"}},{"type":"Feature","geometry":{"type":"Point","coordinates":[18.36951,44.65345]},"properties":{"id":8344,"name":"Orahovica Donja","state_code":"BIH","country_code":"BA"}},{"type":"Feature","geometry":{"type":"Point","coordinates":[16.07443,44.63039]},"properties":{"id":8345,"name":"Orašac","state_code":"BIH","country_code":"BA"}},{"type":"Feature","geometry":{"type":"Point","coordinates":[18.69334,45.03366]},"properties":{"id":8346,"name":"Orašje","state_code":"BIH","country_code":"BA"}},{"type":"Feature","geometry":{"type":"Point","coordinates":[16.86329,43.77414]},"properties":{"id":8347,"name":"Orguz","state_code":"BIH","country_code":"BA"}},{"type":"Feature","geometry":{"type":"Point","coordinates":[15.94045,44.90866]},"properties":{"id":8348,"name":"Ostrožac","state_code":"BIH","country_code":"BA"}},{"type":"Feature","geometry":{"type":"Point","coordinates":[16.17917,44.96]},"properties":{"id":8349,"name":"Otoka","state_code":"BIH","country_code":"BA"}},{"type":"Feature","geometry":{"type":"Point","coordinates":[17.5275,43.97583]},"properties":{"id":8351,"name":"Pajić Polje","state_code":"BIH","country_code":"BA"}},{"type":"Feature","geometry":{"type":"Point","coordinates":[18.16049,43.78882]},"properties":{"id":8353,"name":"Pazarić","state_code":"BIH","country_code":"BA"}},{"type":"Feature","geometry":{"type":"Point","coordinates":[16.7825,44.63139]},"properties":{"id":8356,"name":"Peći","state_code":"BIH","country_code":"BA"}},{"type":"Feature","geometry":{"type":"Point","coordinates":[15.89694,45.05444]},"properties":{"id":8357,"name":"Pećigrad","state_code":"BIH","country_code":"BA"}},{"type":"Feature","geometry":{"type":"Point","coordinates":[15.82304,44.98568]},"properties":{"id":8359,"name":"Pjanići","state_code":"BIH","country_code":"BA"}},{"type":"Feature","geometry":{"type":"Point","coordinates":[16.99887,43.72295]},"properties":{"id":8361,"name":"Podhum","state_code":"BIH","country_code":"BA"}},{"type":"Feature","geometry":{"type":"Point","coordinates":[15.87361,45.17417]},"properties":{"id":8362,"name":"Podzvizd","state_code":"BIH","country_code":"BA"}},{"type":"Feature","geometry":{"type":"Point","coordinates":[18.07452,43.88014]},"properties":{"id":8363,"name":"Polje","state_code":"BIH","country_code":"BA"}},{"type":"Feature","geometry":{"type":"Point","coordinates":[17.97216,43.63299]},"properties":{"id":8364,"name":"Polje-Bijela","state_code":"BIH","country_code":"BA"}},{"type":"Feature","geometry":{"type":"Point","coordinates":[17.87855,43.40953]},"properties":{"id":8366,"name":"Potoci","state_code":"BIH","country_code":"BA"}},{"type":"Feature","geometry":{"type":"Point","coordinates":[17.60917,43.82222]},"properties":{"id":8370,"name":"Prozor","state_code":"BIH","country_code":"BA"}},{"type":"Feature","geometry":{"type":"Point","coordinates":[18.47865,44.54562]},"properties":{"id":8371,"name":"Puračić","state_code":"BIH","country_code":"BA"}},{"type":"Feature","geometry":{"type":"Point","coordinates":[17.54056,43.22302]},"properties":{"id":8372,"name":"Radišići","state_code":"BIH","country_code":"BA"}},{"type":"Feature","geometry":{"type":"Point","coordinates":[17.8029,43.31453]},"properties":{"id":8373,"name":"Rodoč","state_code":"BIH","country_code":"BA"}},{"type":"Feature","geometry":{"type":"Point","coordinates":[17.50273,43.83154]},"properties":{"id":8376,"name":"Rumboci","state_code":"BIH","country_code":"BA"}},{"type":"Feature","geometry":{"type":"Point","coordinates":[16.64062,44.61354]},"properties":{"id":8377,"name":"Sanica","state_code":"BIH","country_code":"BA"}},{"type":"Feature","geometry":{"type":"Point","coordinates":[16.667,44.7667]},"properties":{"id":8378,"name":"Sanski Most","state_code":"BIH","country_code":"BA"}},{"type":"Feature","geometry":{"type":"Point","coordinates":[18.99818,44.5038]},"properties":{"id":8379,"name":"Sapna","state_code":"BIH","country_code":"BA"}},{"type":"Feature","geometry":{"type":"Point","coordinates":[18.35644,43.84864]},"properties":{"id":8380,"name":"Sarajevo","state_code":"BIH","country_code":"BA"}},{"type":"Feature","geometry":{"type":"Point","coordinates":[18.5637,44.46674]},"properties":{"id":8438,"name":"Šerići","state_code":"BIH","country_code":"BA"}},{"type":"Feature","geometry":{"type":"Point","coordinates":[17.59416,43.3829]},"properties":{"id":8440,"name":"Široki Brijeg","state_code":"BIH","country_code":"BA"}},{"type":"Feature","geometry":{"type":"Point","coordinates":[15.91444,45.03139]},"properties":{"id":8381,"name":"Skokovi","state_code":"BIH","country_code":"BA"}},{"type":"Feature","geometry":{"type":"Point","coordinates":[18.42575,44.72897]},"properties":{"id":8382,"name":"Sladna","state_code":"BIH","country_code":"BA"}},{"type":"Feature","geometry":{"type":"Point","coordinates":[18.69322,44.56226]},"properties":{"id":8384,"name":"Solina","state_code":"BIH","country_code":"BA"}},{"type":"Feature","geometry":{"type":"Point","coordinates":[18.48834,44.70819]},"properties":{"id":8387,"name":"Srebrenik","state_code":"BIH","country_code":"BA"}},{"type":"Feature","geometry":{"type":"Point","coordinates":[16.02224,44.9363]},"properties":{"id":8390,"name":"Stijena","state_code":"BIH","country_code":"BA"}},{"type":"Feature","geometry":{"type":"Point","coordinates":[18.25783,44.71634]},"properties":{"id":8391,"name":"Stjepan-Polje","state_code":"BIH","country_code":"BA"}},{"type":"Feature","geometry":{"type":"Point","coordinates":[17.95995,43.084]},"properties":{"id":8392,"name":"Stolac","state_code":"BIH","country_code":"BA"}},{"type":"Feature","geometry":{"type":"Point","coordinates":[15.77806,45.06389]},"properties":{"id":8441,"name":"Šturlić","state_code":"BIH","country_code":"BA"}},{"type":"Feature","geometry":{"type":"Point","coordinates":[15.85818,45.09743]},"properties":{"id":8442,"name":"Šumatac","state_code":"BIH","country_code":"BA"}},{"type":"Feature","geometry":{"type":"Point","coordinates":[17.72,43.11333]},"properties":{"id":8394,"name":"Tasovčići","state_code":"BIH","country_code":"BA"}},{"type":"Feature","geometry":{"type":"Point","coordinates":[17.98552,44.61191]},"properties":{"id":8396,"name":"Tešanj","state_code":"BIH","country_code":"BA"}},{"type":"Feature","geometry":{"type":"Point","coordinates":[18.01109,44.67228]},"properties":{"id":8397,"name":"Tešanjka","state_code":"BIH","country_code":"BA"}},{"type":"Feature","geometry":{"type":"Point","coordinates":[15.93083,45.08833]},"properties":{"id":8398,"name":"Todorovo","state_code":"BIH","country_code":"BA"}},{"type":"Feature","geometry":{"type":"Point","coordinates":[18.78523,44.50133]},"properties":{"id":8399,"name":"Tojšići","state_code":"BIH","country_code":"BA"}},{"type":"Feature","geometry":{"type":"Point","coordinates":[17.22515,43.71849]},"properties":{"id":8400,"name":"Tomislavgrad","state_code":"BIH","country_code":"BA"}},{"type":"Feature","geometry":{"type":"Point","coordinates":[17.66583,44.22637]},"properties":{"id":8401,"name":"Travnik","state_code":"BIH","country_code":"BA"}},{"type":"Feature","geometry":{"type":"Point","coordinates":[15.78489,44.97597]},"properties":{"id":8404,"name":"Tržačka Raštela","state_code":"BIH","country_code":"BA"}},{"type":"Feature","geometry":{"type":"Point","coordinates":[17.57499,44.24352]},"properties":{"id":8405,"name":"Turbe","state_code":"BIH","country_code":"BA"}},{"type":"Feature","geometry":{"type":"Point","coordinates":[18.66709,44.53842]},"properties":{"id":8406,"name":"Tuzla","state_code":"BIH","country_code":"BA"}},{"type":"Feature","geometry":{"type":"Point","coordinates":[18.79106,43.58338]},"properties":{"id":8408,"name":"Ustikolina","state_code":"BIH","country_code":"BA"}},{"type":"Feature","geometry":{"type":"Point","coordinates":[18.32833,44.16444]},"properties":{"id":8409,"name":"Vareš","state_code":"BIH","country_code":"BA"}},{"type":"Feature","geometry":{"type":"Point","coordinates":[16.01906,45.08936]},"properties":{"id":8410,"name":"Varoška Rijeka","state_code":"BIH","country_code":"BA"}},{"type":"Feature","geometry":{"type":"Point","coordinates":[16.73349,44.55618]},"properties":{"id":8411,"name":"Velagići","state_code":"BIH","country_code":"BA"}},{"type":"Feature","geometry":{"type":"Point","coordinates":[15.80579,45.18497]},"properties":{"id":8412,"name":"Velika Kladuša","state_code":"BIH","country_code":"BA"}},{"type":"Feature","geometry":{"type":"Point","coordinates":[17.02833,43.77139]},"properties":{"id":8414,"name":"Vidoši","state_code":"BIH","country_code":"BA"}},{"type":"Feature","geometry":{"type":"Point","coordinates":[18.17806,43.98889]},"properties":{"id":8415,"name":"Visoko","state_code":"BIH","country_code":"BA"}},{"type":"Feature","geometry":{"type":"Point","coordinates":[17.79009,44.15424]},"properties":{"id":8416,"name":"Vitez","state_code":"BIH","country_code":"BA"}},{"type":"Feature","geometry":{"type":"Point","coordinates":[17.48389,43.2375]},"properties":{"id":8417,"name":"Vitina","state_code":"BIH","country_code":"BA"}},{"type":"Feature","geometry":{"type":"Point","coordinates":[18.34438,43.90225]},"properties":{"id":8420,"name":"Vogošća","state_code":"BIH","country_code":"BA"}},{"type":"Feature","geometry":{"type":"Point","coordinates":[17.65861,43.87873]},"properties":{"id":8421,"name":"Voljevac","state_code":"BIH","country_code":"BA"}},{"type":"Feature","geometry":{"type":"Point","coordinates":[15.95444,45.16369]},"properties":{"id":8422,"name":"Vrnograč","state_code":"BIH","country_code":"BA"}},{"type":"Feature","geometry":{"type":"Point","coordinates":[18.74941,44.46209]},"properties":{"id":8423,"name":"Vukovije Donje","state_code":"BIH","country_code":"BA"}},{"type":"Feature","geometry":{"type":"Point","coordinates":[16.94224,43.79224]},"properties":{"id":8424,"name":"Zabrišće","state_code":"BIH","country_code":"BA"}},{"type":"Feature","geometry":{"type":"Point","coordinates":[18.14972,44.44583]},"properties":{"id":8425,"name":"Zavidovići","state_code":"BIH","country_code":"BA"}},{"type":"Feature","geometry":{"type":"Point","coordinates":[16.01728,45.14593]},"properties":{"id":8426,"name":"Zborište","state_code":"BIH","country_code":"BA"}},{"type":"Feature","geometry":{"type":"Point","coordinates":[17.94103,44.39875]},"properties":{"id":8443,"name":"Željezno Polje","state_code":"BIH","country_code":"BA"}},{"type":"Feature","geometry":{"type":"Point","coordinates":[17.90397,44.20169]},"properties":{"id":8427,"name":"Zenica","state_code":"BIH","country_code":"BA"}},{"type":"Feature","geometry":{"type":"Point","coordinates":[18.03778,44.42667]},"properties":{"id":8444,"name":"Žepče","state_code":"BIH","country_code":"BA"}},{"type":"Feature","geometry":{"type":"Point","coordinates":[18.64978,44.44929]},"properties":{"id":8445,"name":"Živinice","state_code":"BIH","country_code":"BA"}}]}