{"type":"FeatureCollection","features":[{"type":"Feature","geometry":{"type":"Point","coordinates":[-0.55056,11.8]},"properties":{"id":9174,"name":"Garango","state_code":"04","country_code":"BF"}},{"type":"Feature","geometry":{"type":"Point","coordinates":[-0.35103,12.17864]},"properties":{"id":9187,"name":"Koupéla","state_code":"04","country_code":"BF"}},{"type":"Feature","geometry":{"type":"Point","coordinates":[-0.3,12.2]},"properties":{"id":9188,"name":"Kouritenga","state_code":"04","country_code":"BF"}},{"type":"Feature","geometry":{"type":"Point","coordinates":[0.05886,11.50202]},"properties":{"id":9195,"name":"Ouargaye","state_code":"04","country_code":"BF"}},{"type":"Feature","geometry":{"type":"Point","coordinates":[-0.41667,11.5]},"properties":{"id":9211,"name":"Province du Boulgou","state_code":"04","country_code":"BF"}},{"type":"Feature","geometry":{"type":"Point","coordinates":[0.16667,11.41667]},"properties":{"id":9217,"name":"Province du Koulpélogo","state_code":"04","country_code":"BF"}},{"type":"Feature","geometry":{"type":"Point","coordinates":[-0.36972,11.78]},"properties":{"id":9242,"name":"Tenkodogo","state_code":"04","country_code":"BF"}}]}