{"type":"FeatureCollection","features":[{"type":"Feature","geometry":{"type":"Point","coordinates":[-1.62554,14.0994]},"properties":{"id":9170,"name":"Djibo","state_code":"12","country_code":"BF"}},{"type":"Feature","geometry":{"type":"Point","coordinates":[-0.0345,14.0354]},"properties":{"id":9171,"name":"Dori","state_code":"12","country_code":"BF"}},{"type":"Feature","geometry":{"type":"Point","coordinates":[-0.23468,14.4429]},"properties":{"id":9177,"name":"Gorom-Gorom","state_code":"12","country_code":"BF"}},{"type":"Feature","geometry":{"type":"Point","coordinates":[-0.33333,14.66667]},"properties":{"id":9207,"name":"Province de l’Oudalan","state_code":"12","country_code":"BF"}},{"type":"Feature","geometry":{"type":"Point","coordinates":[0.012,13.964]},"properties":{"id":9231,"name":"Province du Séno","state_code":"12","country_code":"BF"}},{"type":"Feature","geometry":{"type":"Point","coordinates":[-1.25,14.33333]},"properties":{"id":9229,"name":"Province du Soum","state_code":"12","country_code":"BF"}},{"type":"Feature","geometry":{"type":"Point","coordinates":[0.58333,13.41667]},"properties":{"id":9233,"name":"Province du Yagha","state_code":"12","country_code":"BF"}}]}