{"type":"FeatureCollection","features":[{"type":"Feature","geometry":{"type":"Point","coordinates":[23.48851,41.8383]},"properties":{"id":9265,"name":"Bansko","state_code":"01","country_code":"BG"}},{"type":"Feature","geometry":{"type":"Point","coordinates":[23.5725,41.95694]},"properties":{"id":9270,"name":"Belitsa","state_code":"01","country_code":"BG"}},{"type":"Feature","geometry":{"type":"Point","coordinates":[23.1,42.01667]},"properties":{"id":9275,"name":"Blagoevgrad","state_code":"01","country_code":"BG"}},{"type":"Feature","geometry":{"type":"Point","coordinates":[23.81667,41.6]},"properties":{"id":9329,"name":"Garmen","state_code":"01","country_code":"BG"}},{"type":"Feature","geometry":{"type":"Point","coordinates":[23.73333,41.56667]},"properties":{"id":9335,"name":"Gotse Delchev","state_code":"01","country_code":"BG"}},{"type":"Feature","geometry":{"type":"Point","coordinates":[23.86861,41.52222]},"properties":{"id":9341,"name":"Hadzhidimovo","state_code":"01","country_code":"BG"}},{"type":"Feature","geometry":{"type":"Point","coordinates":[23.10669,41.36385]},"properties":{"id":9368,"name":"Kolarovo","state_code":"01","country_code":"BG"}},{"type":"Feature","geometry":{"type":"Point","coordinates":[23.15,41.73333]},"properties":{"id":9374,"name":"Kresna","state_code":"01","country_code":"BG"}},{"type":"Feature","geometry":{"type":"Point","coordinates":[23.6,41.8]},"properties":{"id":9422,"name":"Obshtina Bansko","state_code":"01","country_code":"BG"}},{"type":"Feature","geometry":{"type":"Point","coordinates":[23.58333,42.01667]},"properties":{"id":9425,"name":"Obshtina Belitsa","state_code":"01","country_code":"BG"}},{"type":"Feature","geometry":{"type":"Point","coordinates":[23.16667,42.01667]},"properties":{"id":9429,"name":"Obshtina Blagoevgrad","state_code":"01","country_code":"BG"}},{"type":"Feature","geometry":{"type":"Point","coordinates":[23.85,41.7]},"properties":{"id":9476,"name":"Obshtina Garmen","state_code":"01","country_code":"BG"}},{"type":"Feature","geometry":{"type":"Point","coordinates":[23.68333,41.63333]},"properties":{"id":9482,"name":"Obshtina Gotse Delchev","state_code":"01","country_code":"BG"}},{"type":"Feature","geometry":{"type":"Point","coordinates":[23.23333,41.76667]},"properties":{"id":9511,"name":"Obshtina Kresna","state_code":"01","country_code":"BG"}},{"type":"Feature","geometry":{"type":"Point","coordinates":[23.16667,41.45]},"properties":{"id":9555,"name":"Obshtina Petrich","state_code":"01","country_code":"BG"}},{"type":"Feature","geometry":{"type":"Point","coordinates":[23.46667,41.95]},"properties":{"id":9571,"name":"Obshtina Razlog","state_code":"01","country_code":"BG"}},{"type":"Feature","geometry":{"type":"Point","coordinates":[23.45,41.56667]},"properties":{"id":9582,"name":"Obshtina Sandanski","state_code":"01","country_code":"BG"}},{"type":"Feature","geometry":{"type":"Point","coordinates":[24.00781,41.59848]},"properties":{"id":9584,"name":"Obshtina Satovcha","state_code":"01","country_code":"BG"}},{"type":"Feature","geometry":{"type":"Point","coordinates":[23.16667,41.88333]},"properties":{"id":9589,"name":"Obshtina Simitli","state_code":"01","country_code":"BG"}},{"type":"Feature","geometry":{"type":"Point","coordinates":[23.2,41.63333]},"properties":{"id":9603,"name":"Obshtina Strumyani","state_code":"01","country_code":"BG"}},{"type":"Feature","geometry":{"type":"Point","coordinates":[23.7,42.08333]},"properties":{"id":9633,"name":"Obshtina Yakoruda","state_code":"01","country_code":"BG"}},{"type":"Feature","geometry":{"type":"Point","coordinates":[23.20702,41.39846]},"properties":{"id":9653,"name":"Petrich","state_code":"01","country_code":"BG"}},{"type":"Feature","geometry":{"type":"Point","coordinates":[23.46714,41.8863]},"properties":{"id":9670,"name":"Razlog","state_code":"01","country_code":"BG"}},{"type":"Feature","geometry":{"type":"Point","coordinates":[23.28333,41.56667]},"properties":{"id":9681,"name":"Sandanski","state_code":"01","country_code":"BG"}},{"type":"Feature","geometry":{"type":"Point","coordinates":[23.98333,41.61667]},"properties":{"id":9686,"name":"Satovcha","state_code":"01","country_code":"BG"}},{"type":"Feature","geometry":{"type":"Point","coordinates":[23.11667,41.88333]},"properties":{"id":9694,"name":"Simitli","state_code":"01","country_code":"BG"}},{"type":"Feature","geometry":{"type":"Point","coordinates":[23.18333,41.8]},"properties":{"id":9705,"name":"Stara Kresna","state_code":"01","country_code":"BG"}},{"type":"Feature","geometry":{"type":"Point","coordinates":[23.2021914,41.6384659]},"properties":{"id":9711,"name":"Strumyani","state_code":"01","country_code":"BG"}},{"type":"Feature","geometry":{"type":"Point","coordinates":[23.68417,42.02528]},"properties":{"id":9745,"name":"Yakoruda","state_code":"01","country_code":"BG"}}]}