{"type":"FeatureCollection","features":[{"type":"Feature","geometry":{"type":"Point","coordinates":[23.7354316,43.446358]},"properties":{"id":9280,"name":"Borovan","state_code":"06","country_code":"BG"}},{"type":"Feature","geometry":{"type":"Point","coordinates":[23.93333,43.46667]},"properties":{"id":9295,"name":"Byala Slatina","state_code":"06","country_code":"BG"}},{"type":"Feature","geometry":{"type":"Point","coordinates":[23.66135,43.60193]},"properties":{"id":9344,"name":"Hayredin","state_code":"06","country_code":"BG"}},{"type":"Feature","geometry":{"type":"Point","coordinates":[23.72058,43.77864]},"properties":{"id":9373,"name":"Kozloduy","state_code":"06","country_code":"BG"}},{"type":"Feature","geometry":{"type":"Point","coordinates":[23.48444,43.37444]},"properties":{"id":9376,"name":"Krivodol","state_code":"06","country_code":"BG"}},{"type":"Feature","geometry":{"type":"Point","coordinates":[23.7,43.15]},"properties":{"id":9400,"name":"Mezdra","state_code":"06","country_code":"BG"}},{"type":"Feature","geometry":{"type":"Point","coordinates":[23.85371,43.68623]},"properties":{"id":9403,"name":"Mizia","state_code":"06","country_code":"BG"}},{"type":"Feature","geometry":{"type":"Point","coordinates":[23.75,43.43333]},"properties":{"id":9434,"name":"Obshtina Borovan","state_code":"06","country_code":"BG"}},{"type":"Feature","geometry":{"type":"Point","coordinates":[23.66667,43.58333]},"properties":{"id":9488,"name":"Obshtina Hayredin","state_code":"06","country_code":"BG"}},{"type":"Feature","geometry":{"type":"Point","coordinates":[23.73333,43.71667]},"properties":{"id":9510,"name":"Obshtina Kozloduy","state_code":"06","country_code":"BG"}},{"type":"Feature","geometry":{"type":"Point","coordinates":[23.48333,43.38333]},"properties":{"id":9513,"name":"Obshtina Krivodol","state_code":"06","country_code":"BG"}},{"type":"Feature","geometry":{"type":"Point","coordinates":[23.73333,43.13333]},"properties":{"id":9531,"name":"Obshtina Mezdra","state_code":"06","country_code":"BG"}},{"type":"Feature","geometry":{"type":"Point","coordinates":[23.85,43.63333]},"properties":{"id":9534,"name":"Obshtina Mizia","state_code":"06","country_code":"BG"}},{"type":"Feature","geometry":{"type":"Point","coordinates":[23.98643,43.69038]},"properties":{"id":9546,"name":"Obshtina Oryahovo","state_code":"06","country_code":"BG"}},{"type":"Feature","geometry":{"type":"Point","coordinates":[23.91667,43.15]},"properties":{"id":9574,"name":"Obshtina Roman","state_code":"06","country_code":"BG"}},{"type":"Feature","geometry":{"type":"Point","coordinates":[23.6,43.28333]},"properties":{"id":9631,"name":"Obshtina Vratsa","state_code":"06","country_code":"BG"}},{"type":"Feature","geometry":{"type":"Point","coordinates":[23.96052,43.73618]},"properties":{"id":9643,"name":"Oryahovo","state_code":"06","country_code":"BG"}},{"type":"Feature","geometry":{"type":"Point","coordinates":[23.9254908,43.1463767]},"properties":{"id":9672,"name":"Roman","state_code":"06","country_code":"BG"}},{"type":"Feature","geometry":{"type":"Point","coordinates":[23.5625,43.21]},"properties":{"id":9742,"name":"Vratsa","state_code":"06","country_code":"BG"}}]}