{"type":"FeatureCollection","features":[{"type":"Feature","geometry":{"type":"Point","coordinates":[27.82105,43.25615]},"properties":{"id":9252,"name":"Aksakovo","state_code":"03","country_code":"BG"}},{"type":"Feature","geometry":{"type":"Point","coordinates":[27.88823,43.18067]},"properties":{"id":9260,"name":"Asparuhovo","state_code":"03","country_code":"BG"}},{"type":"Feature","geometry":{"type":"Point","coordinates":[28.41189,43.40296]},"properties":{"id":9263,"name":"Balgarevo","state_code":"03","country_code":"BG"}},{"type":"Feature","geometry":{"type":"Point","coordinates":[27.70429,43.1896]},"properties":{"id":9272,"name":"Beloslav","state_code":"03","country_code":"BG"}},{"type":"Feature","geometry":{"type":"Point","coordinates":[27.88865,42.87426]},"properties":{"id":9293,"name":"Byala","state_code":"03","country_code":"BG"}},{"type":"Feature","geometry":{"type":"Point","coordinates":[27.3460079,43.0526157]},"properties":{"id":9304,"name":"Dalgopol","state_code":"03","country_code":"BG"}},{"type":"Feature","geometry":{"type":"Point","coordinates":[27.56944,43.22222]},"properties":{"id":9307,"name":"Devnya","state_code":"03","country_code":"BG"}},{"type":"Feature","geometry":{"type":"Point","coordinates":[27.71596,42.99296]},"properties":{"id":9313,"name":"Dolni Chiflik","state_code":"03","country_code":"BG"}},{"type":"Feature","geometry":{"type":"Point","coordinates":[27.31667,43.08333]},"properties":{"id":9364,"name":"Kiten","state_code":"03","country_code":"BG"}},{"type":"Feature","geometry":{"type":"Point","coordinates":[27.85,43.31667]},"properties":{"id":9412,"name":"Obshtina Aksakovo","state_code":"03","country_code":"BG"}},{"type":"Feature","geometry":{"type":"Point","coordinates":[27.71667,43.1]},"properties":{"id":9418,"name":"Obshtina Avren","state_code":"03","country_code":"BG"}},{"type":"Feature","geometry":{"type":"Point","coordinates":[27.73333,43.2]},"properties":{"id":9427,"name":"Obshtina Beloslav","state_code":"03","country_code":"BG"}},{"type":"Feature","geometry":{"type":"Point","coordinates":[27.81667,42.88333]},"properties":{"id":9444,"name":"Obshtina Byala","state_code":"03","country_code":"BG"}},{"type":"Feature","geometry":{"type":"Point","coordinates":[27.35,43.05]},"properties":{"id":9452,"name":"Obshtina Dalgopol","state_code":"03","country_code":"BG"}},{"type":"Feature","geometry":{"type":"Point","coordinates":[27.60052,43.22056]},"properties":{"id":9454,"name":"Obshtina Devnya","state_code":"03","country_code":"BG"}},{"type":"Feature","geometry":{"type":"Point","coordinates":[27.68333,42.96667]},"properties":{"id":9461,"name":"Obshtina Dolni Chiflik","state_code":"03","country_code":"BG"}},{"type":"Feature","geometry":{"type":"Point","coordinates":[27.4,43.18333]},"properties":{"id":9565,"name":"Obshtina Provadia","state_code":"03","country_code":"BG"}},{"type":"Feature","geometry":{"type":"Point","coordinates":[27.65,43.33333]},"properties":{"id":9606,"name":"Obshtina Suvorovo","state_code":"03","country_code":"BG"}},{"type":"Feature","geometry":{"type":"Point","coordinates":[27.5,43.45]},"properties":{"id":9623,"name":"Obshtina Valchidol","state_code":"03","country_code":"BG"}},{"type":"Feature","geometry":{"type":"Point","coordinates":[27.91667,43.21667]},"properties":{"id":9624,"name":"Obshtina Varna","state_code":"03","country_code":"BG"}},{"type":"Feature","geometry":{"type":"Point","coordinates":[27.43333,43.31667]},"properties":{"id":9629,"name":"Obshtina Vetrino","state_code":"03","country_code":"BG"}},{"type":"Feature","geometry":{"type":"Point","coordinates":[27.43333,43.18333]},"properties":{"id":9663,"name":"Provadia","state_code":"03","country_code":"BG"}},{"type":"Feature","geometry":{"type":"Point","coordinates":[27.59908,43.33058]},"properties":{"id":9714,"name":"Suvorovo","state_code":"03","country_code":"BG"}},{"type":"Feature","geometry":{"type":"Point","coordinates":[27.55,43.4]},"properties":{"id":9734,"name":"Valchidol","state_code":"03","country_code":"BG"}},{"type":"Feature","geometry":{"type":"Point","coordinates":[27.9166653,43.2073873]},"properties":{"id":9735,"name":"Varna","state_code":"03","country_code":"BG"}},{"type":"Feature","geometry":{"type":"Point","coordinates":[27.3861108,43.3410065]},"properties":{"id":9740,"name":"Vetrino","state_code":"03","country_code":"BG"}},{"type":"Feature","geometry":{"type":"Point","coordinates":[28.0418,43.285]},"properties":{"id":9751,"name":"Zlatni Pyasatsi","state_code":"03","country_code":"BG"}}]}