{"type":"FeatureCollection","features":[{"type":"Feature","geometry":{"type":"Point","coordinates":[24.91759,42.84142]},"properties":{"id":9256,"name":"Apriltsi","state_code":"11","country_code":"BG"}},{"type":"Feature","geometry":{"type":"Point","coordinates":[25.07333,43.31167]},"properties":{"id":9385,"name":"Letnitsa","state_code":"11","country_code":"BG"}},{"type":"Feature","geometry":{"type":"Point","coordinates":[24.71667,43.13333]},"properties":{"id":9388,"name":"Lovech","state_code":"11","country_code":"BG"}},{"type":"Feature","geometry":{"type":"Point","coordinates":[24.16667,43.2]},"properties":{"id":9390,"name":"Lukovit","state_code":"11","country_code":"BG"}},{"type":"Feature","geometry":{"type":"Point","coordinates":[24.8,43.16667]},"properties":{"id":9523,"name":"Obshtina Lovech","state_code":"11","country_code":"BG"}},{"type":"Feature","geometry":{"type":"Point","coordinates":[24.26667,42.91667]},"properties":{"id":9612,"name":"Obshtina Teteven","state_code":"11","country_code":"BG"}},{"type":"Feature","geometry":{"type":"Point","coordinates":[24.41667,43.1]},"properties":{"id":9621,"name":"Obshtina Ugarchin","state_code":"11","country_code":"BG"}},{"type":"Feature","geometry":{"type":"Point","coordinates":[24.2651138,42.9178262]},"properties":{"id":9721,"name":"Teteven","state_code":"11","country_code":"BG"}},{"type":"Feature","geometry":{"type":"Point","coordinates":[24.71589,42.89427]},"properties":{"id":9725,"name":"Troyan","state_code":"11","country_code":"BG"}},{"type":"Feature","geometry":{"type":"Point","coordinates":[24.4209919,43.0960171]},"properties":{"id":9732,"name":"Ugarchin","state_code":"11","country_code":"BG"}},{"type":"Feature","geometry":{"type":"Point","coordinates":[24.11278,43.03139]},"properties":{"id":9743,"name":"Yablanitsa","state_code":"11","country_code":"BG"}}]}