{"type":"FeatureCollection","features":[{"type":"Feature","geometry":{"type":"Point","coordinates":[23.00146,42.15296]},"properties":{"id":9276,"name":"Boboshevo","state_code":"10","country_code":"BG"}},{"type":"Feature","geometry":{"type":"Point","coordinates":[23.00324,42.36256]},"properties":{"id":9277,"name":"Bobov Dol","state_code":"10","country_code":"BG"}},{"type":"Feature","geometry":{"type":"Point","coordinates":[23.11667,42.26667]},"properties":{"id":9321,"name":"Dupnitsa","state_code":"10","country_code":"BG"}},{"type":"Feature","geometry":{"type":"Point","coordinates":[23.0571,42.08439]},"properties":{"id":9367,"name":"Kocherinovo","state_code":"10","country_code":"BG"}},{"type":"Feature","geometry":{"type":"Point","coordinates":[22.69111,42.28389]},"properties":{"id":9381,"name":"Kyustendil","state_code":"10","country_code":"BG"}},{"type":"Feature","geometry":{"type":"Point","coordinates":[22.85175,42.25551]},"properties":{"id":9407,"name":"Nevestino","state_code":"10","country_code":"BG"}},{"type":"Feature","geometry":{"type":"Point","coordinates":[23.02731,42.18333]},"properties":{"id":9430,"name":"Obshtina Boboshevo","state_code":"10","country_code":"BG"}},{"type":"Feature","geometry":{"type":"Point","coordinates":[22.98333,42.31667]},"properties":{"id":9431,"name":"Obshtina Bobov Dol","state_code":"10","country_code":"BG"}},{"type":"Feature","geometry":{"type":"Point","coordinates":[23.15,42.28333]},"properties":{"id":9467,"name":"Obshtina Dupnitsa","state_code":"10","country_code":"BG"}},{"type":"Feature","geometry":{"type":"Point","coordinates":[23.02942,42.09909]},"properties":{"id":9504,"name":"Obshtina Kocherinovo","state_code":"10","country_code":"BG"}},{"type":"Feature","geometry":{"type":"Point","coordinates":[22.68333,42.28333]},"properties":{"id":9518,"name":"Obshtina Kyustendil","state_code":"10","country_code":"BG"}},{"type":"Feature","geometry":{"type":"Point","coordinates":[22.83333,42.16667]},"properties":{"id":9539,"name":"Obshtina Nevestino","state_code":"10","country_code":"BG"}},{"type":"Feature","geometry":{"type":"Point","coordinates":[23.31667,42.15]},"properties":{"id":9572,"name":"Obshtina Rila","state_code":"10","country_code":"BG"}},{"type":"Feature","geometry":{"type":"Point","coordinates":[23.31667,42.28333]},"properties":{"id":9583,"name":"Obshtina Sapareva Banya","state_code":"10","country_code":"BG"}},{"type":"Feature","geometry":{"type":"Point","coordinates":[22.6,42.55]},"properties":{"id":9614,"name":"Obshtina Treklyano","state_code":"10","country_code":"BG"}},{"type":"Feature","geometry":{"type":"Point","coordinates":[23.13333,42.13333]},"properties":{"id":9671,"name":"Rila","state_code":"10","country_code":"BG"}},{"type":"Feature","geometry":{"type":"Point","coordinates":[23.26667,42.28333]},"properties":{"id":9682,"name":"Sapareva Banya","state_code":"10","country_code":"BG"}}]}