{"type":"FeatureCollection","features":[{"type":"Feature","geometry":{"type":"Point","coordinates":[25.80992,43.50086]},"properties":{"id":9281,"name":"Borovo","state_code":"18","country_code":"BG"}},{"type":"Feature","geometry":{"type":"Point","coordinates":[25.87486,43.59258]},"properties":{"id":9322,"name":"Dve Mogili","state_code":"18","country_code":"BG"}},{"type":"Feature","geometry":{"type":"Point","coordinates":[25.95565,43.68568]},"properties":{"id":9349,"name":"Ivanovo","state_code":"18","country_code":"BG"}},{"type":"Feature","geometry":{"type":"Point","coordinates":[25.8,43.6]},"properties":{"id":9435,"name":"Obshtina Borovo","state_code":"18","country_code":"BG"}},{"type":"Feature","geometry":{"type":"Point","coordinates":[25.83333,43.41667]},"properties":{"id":9443,"name":"Obshtina Byala","state_code":"18","country_code":"BG"}},{"type":"Feature","geometry":{"type":"Point","coordinates":[25.96667,43.51667]},"properties":{"id":9468,"name":"Obshtina Dve Mogili","state_code":"18","country_code":"BG"}},{"type":"Feature","geometry":{"type":"Point","coordinates":[25.98333,43.7]},"properties":{"id":9492,"name":"Obshtina Ivanovo","state_code":"18","country_code":"BG"}},{"type":"Feature","geometry":{"type":"Point","coordinates":[26.08333,43.85]},"properties":{"id":9576,"name":"Obshtina Ruse","state_code":"18","country_code":"BG"}},{"type":"Feature","geometry":{"type":"Point","coordinates":[26.3,43.96667]},"properties":{"id":9593,"name":"Obshtina Slivo Pole","state_code":"18","country_code":"BG"}},{"type":"Feature","geometry":{"type":"Point","coordinates":[25.61667,43.58333]},"properties":{"id":9617,"name":"Obshtina Tsenovo","state_code":"18","country_code":"BG"}},{"type":"Feature","geometry":{"type":"Point","coordinates":[26.33333,43.71667]},"properties":{"id":9628,"name":"Obshtina Vetovo","state_code":"18","country_code":"BG"}},{"type":"Feature","geometry":{"type":"Point","coordinates":[25.9534,43.84872]},"properties":{"id":9675,"name":"Ruse","state_code":"18","country_code":"BG"}},{"type":"Feature","geometry":{"type":"Point","coordinates":[26.36667,43.65]},"properties":{"id":9687,"name":"Senovo","state_code":"18","country_code":"BG"}},{"type":"Feature","geometry":{"type":"Point","coordinates":[26.20464,43.94248]},"properties":{"id":9699,"name":"Slivo Pole","state_code":"18","country_code":"BG"}},{"type":"Feature","geometry":{"type":"Point","coordinates":[25.65764,43.53588]},"properties":{"id":9729,"name":"Tsenovo","state_code":"18","country_code":"BG"}},{"type":"Feature","geometry":{"type":"Point","coordinates":[26.26667,43.7]},"properties":{"id":9739,"name":"Vetovo","state_code":"18","country_code":"BG"}}]}