{"type":"FeatureCollection","features":[{"type":"Feature","geometry":{"type":"Point","coordinates":[1.88198,6.40764]},"properties":{"id":9790,"name":"Comé","state_code":"CO","country_code":"BJ"}},{"type":"Feature","geometry":{"type":"Point","coordinates":[2.18333,7.75]},"properties":{"id":9793,"name":"Dassa-Zoumé","state_code":"CO","country_code":"BJ"}},{"type":"Feature","geometry":{"type":"Point","coordinates":[1.97558,7.92807]},"properties":{"id":9811,"name":"Savalou","state_code":"CO","country_code":"BJ"}},{"type":"Feature","geometry":{"type":"Point","coordinates":[2.4866,8.03424]},"properties":{"id":9812,"name":"Savé","state_code":"CO","country_code":"BJ"}}]}