{"type":"FeatureCollection","features":[{"type":"Feature","geometry":{"type":"Point","coordinates":[-65.18068,-18.20408]},"properties":{"id":9827,"name":"Aiquile","state_code":"C","country_code":"BO"}},{"type":"Feature","geometry":{"type":"Point","coordinates":[-65.76883,-17.56854]},"properties":{"id":9829,"name":"Arani","state_code":"C","country_code":"BO"}},{"type":"Feature","geometry":{"type":"Point","coordinates":[-66.53333,-17.96667]},"properties":{"id":9836,"name":"Bolivar","state_code":"C","country_code":"BO"}},{"type":"Feature","geometry":{"type":"Point","coordinates":[-66.26082,-17.71113]},"properties":{"id":9841,"name":"Capinota","state_code":"C","country_code":"BO"}},{"type":"Feature","geometry":{"type":"Point","coordinates":[-65.1533,-16.99417]},"properties":{"id":9845,"name":"Chimoré","state_code":"C","country_code":"BO"}},{"type":"Feature","geometry":{"type":"Point","coordinates":[-65.93253,-17.58777]},"properties":{"id":9847,"name":"Cliza","state_code":"C","country_code":"BO"}},{"type":"Feature","geometry":{"type":"Point","coordinates":[-66.1568,-17.3895]},"properties":{"id":9849,"name":"Cochabamba","state_code":"C","country_code":"BO"}},{"type":"Feature","geometry":{"type":"Point","coordinates":[-66.71667,-17.31667]},"properties":{"id":9850,"name":"Colchani","state_code":"C","country_code":"BO"}},{"type":"Feature","geometry":{"type":"Point","coordinates":[-65.86667,-17.35]},"properties":{"id":9852,"name":"Colomi","state_code":"C","country_code":"BO"}},{"type":"Feature","geometry":{"type":"Point","coordinates":[-66.81804,-17.08389]},"properties":{"id":9871,"name":"Independencia","state_code":"C","country_code":"BO"}},{"type":"Feature","geometry":{"type":"Point","coordinates":[-66.26667,-17.71667]},"properties":{"id":9872,"name":"Irpa Irpa","state_code":"C","country_code":"BO"}},{"type":"Feature","geometry":{"type":"Point","coordinates":[-65.34016,-17.94101]},"properties":{"id":9886,"name":"Mizque","state_code":"C","country_code":"BO"}},{"type":"Feature","geometry":{"type":"Point","coordinates":[-65.5,-17.5]},"properties":{"id":9902,"name":"Provincia Arani","state_code":"C","country_code":"BO"}},{"type":"Feature","geometry":{"type":"Point","coordinates":[-66.66667,-17.75]},"properties":{"id":9905,"name":"Provincia Arque","state_code":"C","country_code":"BO"}},{"type":"Feature","geometry":{"type":"Point","coordinates":[-66.58333,-16.5]},"properties":{"id":9908,"name":"Provincia Ayopaya","state_code":"C","country_code":"BO"}},{"type":"Feature","geometry":{"type":"Point","coordinates":[-65,-18.33333]},"properties":{"id":9913,"name":"Provincia Campero","state_code":"C","country_code":"BO"}},{"type":"Feature","geometry":{"type":"Point","coordinates":[-66.16667,-17.83333]},"properties":{"id":9914,"name":"Provincia Capinota","state_code":"C","country_code":"BO"}},{"type":"Feature","geometry":{"type":"Point","coordinates":[-65,-17.5]},"properties":{"id":9916,"name":"Provincia Carrasco","state_code":"C","country_code":"BO"}},{"type":"Feature","geometry":{"type":"Point","coordinates":[-66.16667,-17.33333]},"properties":{"id":9918,"name":"Provincia Cercado","state_code":"C","country_code":"BO"}},{"type":"Feature","geometry":{"type":"Point","coordinates":[-65.5,-16.5]},"properties":{"id":9921,"name":"Provincia Chaparé","state_code":"C","country_code":"BO"}},{"type":"Feature","geometry":{"type":"Point","coordinates":[-66,-17.66667]},"properties":{"id":9927,"name":"Provincia Esteban Arce","state_code":"C","country_code":"BO"}},{"type":"Feature","geometry":{"type":"Point","coordinates":[-65.91667,-17.58333]},"properties":{"id":9933,"name":"Provincia Germán Jordán","state_code":"C","country_code":"BO"}},{"type":"Feature","geometry":{"type":"Point","coordinates":[-65.3944,-17.90655]},"properties":{"id":9954,"name":"Provincia Mizque","state_code":"C","country_code":"BO"}},{"type":"Feature","geometry":{"type":"Point","coordinates":[-65.91667,-17.5]},"properties":{"id":9971,"name":"Provincia Punata","state_code":"C","country_code":"BO"}},{"type":"Feature","geometry":{"type":"Point","coordinates":[-66.5,-17.5]},"properties":{"id":9973,"name":"Provincia Quillacollo","state_code":"C","country_code":"BO"}},{"type":"Feature","geometry":{"type":"Point","coordinates":[-66.61965,-17.51146]},"properties":{"id":9986,"name":"Provincia Tapacarí","state_code":"C","country_code":"BO"}},{"type":"Feature","geometry":{"type":"Point","coordinates":[-65.83472,-17.54234]},"properties":{"id":10002,"name":"Punata","state_code":"C","country_code":"BO"}},{"type":"Feature","geometry":{"type":"Point","coordinates":[-66.27838,-17.39228]},"properties":{"id":10003,"name":"Quillacollo","state_code":"C","country_code":"BO"}},{"type":"Feature","geometry":{"type":"Point","coordinates":[-66.03825,-17.39799]},"properties":{"id":10009,"name":"Sacaba","state_code":"C","country_code":"BO"}},{"type":"Feature","geometry":{"type":"Point","coordinates":[-66.38333,-17.45]},"properties":{"id":10029,"name":"Sipe Sipe","state_code":"C","country_code":"BO"}},{"type":"Feature","geometry":{"type":"Point","coordinates":[-66.02135,-17.60898]},"properties":{"id":10034,"name":"Tarata","state_code":"C","country_code":"BO"}},{"type":"Feature","geometry":{"type":"Point","coordinates":[-66.21579,-17.33801]},"properties":{"id":10037,"name":"Tiquipaya","state_code":"C","country_code":"BO"}},{"type":"Feature","geometry":{"type":"Point","coordinates":[-65.91667,-17.33333]},"properties":{"id":10038,"name":"Tiraque","state_code":"C","country_code":"BO"}},{"type":"Feature","geometry":{"type":"Point","coordinates":[-65.1932,-17.72662]},"properties":{"id":10039,"name":"Totora","state_code":"C","country_code":"BO"}}]}