{"type":"FeatureCollection","features":[{"type":"Feature","geometry":{"type":"Point","coordinates":[-68.76918,-11.02671]},"properties":{"id":9848,"name":"Cobija","state_code":"N","country_code":"BO"}},{"type":"Feature","geometry":{"type":"Point","coordinates":[-66.5,-10.5]},"properties":{"id":9899,"name":"Provincia Abuná","state_code":"N","country_code":"BO"}},{"type":"Feature","geometry":{"type":"Point","coordinates":[-65.88333,-10.33333]},"properties":{"id":9931,"name":"Provincia General Federico Román","state_code":"N","country_code":"BO"}},{"type":"Feature","geometry":{"type":"Point","coordinates":[-67,-11.58333]},"properties":{"id":9948,"name":"Provincia Madre de Dios","state_code":"N","country_code":"BO"}},{"type":"Feature","geometry":{"type":"Point","coordinates":[-67.5,-11.33333]},"properties":{"id":9952,"name":"Provincia Manuripi","state_code":"N","country_code":"BO"}},{"type":"Feature","geometry":{"type":"Point","coordinates":[-68.5,-11.33333]},"properties":{"id":9960,"name":"Provincia Nicolás Suárez","state_code":"N","country_code":"BO"}}]}