{"type":"FeatureCollection","features":[{"type":"Feature","geometry":{"type":"Point","coordinates":[-63.38026,-18.88279]},"properties":{"id":9825,"name":"Abapó","state_code":"S","country_code":"BO"}},{"type":"Feature","geometry":{"type":"Point","coordinates":[-63.18855,-15.89299]},"properties":{"id":9830,"name":"Ascención de Guarayos","state_code":"S","country_code":"BO"}},{"type":"Feature","geometry":{"type":"Point","coordinates":[-63.08333,-15.7]},"properties":{"id":9831,"name":"Ascensión","state_code":"S","country_code":"BO"}},{"type":"Feature","geometry":{"type":"Point","coordinates":[-63.28147,-20.43227]},"properties":{"id":9837,"name":"Boyuibe","state_code":"S","country_code":"BO"}},{"type":"Feature","geometry":{"type":"Point","coordinates":[-63.67126,-17.4583]},"properties":{"id":9838,"name":"Buena Vista","state_code":"S","country_code":"BO"}},{"type":"Feature","geometry":{"type":"Point","coordinates":[-63.51833,-20.03849]},"properties":{"id":9840,"name":"Camiri","state_code":"S","country_code":"BO"}},{"type":"Feature","geometry":{"type":"Point","coordinates":[-63.19864,-19.79151]},"properties":{"id":9844,"name":"Charagua","state_code":"S","country_code":"BO"}},{"type":"Feature","geometry":{"type":"Point","coordinates":[-64.53163,-17.91537]},"properties":{"id":9855,"name":"Comarapa","state_code":"S","country_code":"BO"}},{"type":"Feature","geometry":{"type":"Point","coordinates":[-60.9,-16.43333]},"properties":{"id":9856,"name":"Concepción","state_code":"S","country_code":"BO"}},{"type":"Feature","geometry":{"type":"Point","coordinates":[-63.05,-17.81667]},"properties":{"id":9859,"name":"Cotoca","state_code":"S","country_code":"BO"}},{"type":"Feature","geometry":{"type":"Point","coordinates":[-63.19087,-17.77317]},"properties":{"id":9864,"name":"German Busch","state_code":"S","country_code":"BO"}},{"type":"Feature","geometry":{"type":"Point","coordinates":[-63.2428,-15.82132]},"properties":{"id":9866,"name":"Guarayos","state_code":"S","country_code":"BO"}},{"type":"Feature","geometry":{"type":"Point","coordinates":[-63.42821,-18.05514]},"properties":{"id":9873,"name":"Jorochito","state_code":"S","country_code":"BO"}},{"type":"Feature","geometry":{"type":"Point","coordinates":[-63.21667,-17.55]},"properties":{"id":9875,"name":"La Bélgica","state_code":"S","country_code":"BO"}},{"type":"Feature","geometry":{"type":"Point","coordinates":[-63.40523,-18.03104]},"properties":{"id":9878,"name":"Limoncito","state_code":"S","country_code":"BO"}},{"type":"Feature","geometry":{"type":"Point","coordinates":[-63.43333,-17.73333]},"properties":{"id":9881,"name":"Los Negros","state_code":"S","country_code":"BO"}},{"type":"Feature","geometry":{"type":"Point","coordinates":[-63.95965,-18.11919]},"properties":{"id":9883,"name":"Mairana","state_code":"S","country_code":"BO"}},{"type":"Feature","geometry":{"type":"Point","coordinates":[-63.231,-17.11876]},"properties":{"id":9885,"name":"Mineros","state_code":"S","country_code":"BO"}},{"type":"Feature","geometry":{"type":"Point","coordinates":[-63.2505,-17.33866]},"properties":{"id":9888,"name":"Montero","state_code":"S","country_code":"BO"}},{"type":"Feature","geometry":{"type":"Point","coordinates":[-62.81667,-17.23333]},"properties":{"id":9890,"name":"Okinawa Número Uno","state_code":"S","country_code":"BO"}},{"type":"Feature","geometry":{"type":"Point","coordinates":[-62.75,-17.65]},"properties":{"id":9893,"name":"Pailón","state_code":"S","country_code":"BO"}},{"type":"Feature","geometry":{"type":"Point","coordinates":[-62.96667,-17.88333]},"properties":{"id":9895,"name":"Paurito","state_code":"S","country_code":"BO"}},{"type":"Feature","geometry":{"type":"Point","coordinates":[-63.39282,-17.35168]},"properties":{"id":9897,"name":"Portachuelo","state_code":"S","country_code":"BO"}},{"type":"Feature","geometry":{"type":"Point","coordinates":[-63.25,-17.75]},"properties":{"id":9901,"name":"Provincia Andrés Ibáñez","state_code":"S","country_code":"BO"}},{"type":"Feature","geometry":{"type":"Point","coordinates":[-58.5,-17.5]},"properties":{"id":9997,"name":"Provincia Ángel Sandoval","state_code":"S","country_code":"BO"}},{"type":"Feature","geometry":{"type":"Point","coordinates":[-60,-18]},"properties":{"id":9924,"name":"Provincia Chiquitos","state_code":"S","country_code":"BO"}},{"type":"Feature","geometry":{"type":"Point","coordinates":[-61.5,-19]},"properties":{"id":9925,"name":"Provincia Cordillera","state_code":"S","country_code":"BO"}},{"type":"Feature","geometry":{"type":"Point","coordinates":[-63.91667,-18]},"properties":{"id":9928,"name":"Provincia Florida","state_code":"S","country_code":"BO"}},{"type":"Feature","geometry":{"type":"Point","coordinates":[-64,-17]},"properties":{"id":9937,"name":"Provincia Ichilo","state_code":"S","country_code":"BO"}},{"type":"Feature","geometry":{"type":"Point","coordinates":[-64.41667,-17.83333]},"properties":{"id":9951,"name":"Provincia Manuel María Caballero","state_code":"S","country_code":"BO"}},{"type":"Feature","geometry":{"type":"Point","coordinates":[-62.5,-15.91667]},"properties":{"id":9998,"name":"Provincia Ñuflo de Chávez","state_code":"S","country_code":"BO"}},{"type":"Feature","geometry":{"type":"Point","coordinates":[-63.5,-16.5]},"properties":{"id":9979,"name":"Provincia Santiesteban","state_code":"S","country_code":"BO"}},{"type":"Feature","geometry":{"type":"Point","coordinates":[-63.91667,-16.83333]},"properties":{"id":9980,"name":"Provincia Sara","state_code":"S","country_code":"BO"}},{"type":"Feature","geometry":{"type":"Point","coordinates":[-64.16667,-18.5]},"properties":{"id":9991,"name":"Provincia Vallegrande","state_code":"S","country_code":"BO"}},{"type":"Feature","geometry":{"type":"Point","coordinates":[-61,-15.5]},"properties":{"id":9992,"name":"Provincia Velasco","state_code":"S","country_code":"BO"}},{"type":"Feature","geometry":{"type":"Point","coordinates":[-63,-17.33333]},"properties":{"id":9993,"name":"Provincia Warnes","state_code":"S","country_code":"BO"}},{"type":"Feature","geometry":{"type":"Point","coordinates":[-57.76667,-17.78333]},"properties":{"id":9999,"name":"Puerto Quijarro","state_code":"S","country_code":"BO"}},{"type":"Feature","geometry":{"type":"Point","coordinates":[-62.8,-17.65]},"properties":{"id":10001,"name":"Puesto de Pailas","state_code":"S","country_code":"BO"}},{"type":"Feature","geometry":{"type":"Point","coordinates":[-59.76142,-18.33473]},"properties":{"id":10007,"name":"Roboré","state_code":"S","country_code":"BO"}},{"type":"Feature","geometry":{"type":"Point","coordinates":[-63.87552,-18.18005]},"properties":{"id":10010,"name":"Samaipata","state_code":"S","country_code":"BO"}},{"type":"Feature","geometry":{"type":"Point","coordinates":[-63.75,-17.4]},"properties":{"id":10012,"name":"San Carlos","state_code":"S","country_code":"BO"}},{"type":"Feature","geometry":{"type":"Point","coordinates":[-60.95,-16.36667]},"properties":{"id":10013,"name":"San Ignacio de Velasco","state_code":"S","country_code":"BO"}},{"type":"Feature","geometry":{"type":"Point","coordinates":[-63.7,-17.48333]},"properties":{"id":10014,"name":"San Juan del Surutú","state_code":"S","country_code":"BO"}},{"type":"Feature","geometry":{"type":"Point","coordinates":[-62.86667,-17.78333]},"properties":{"id":10015,"name":"San Julian","state_code":"S","country_code":"BO"}},{"type":"Feature","geometry":{"type":"Point","coordinates":[-58.4,-16.36667]},"properties":{"id":10016,"name":"San Matías","state_code":"S","country_code":"BO"}},{"type":"Feature","geometry":{"type":"Point","coordinates":[-59.81667,-18.28333]},"properties":{"id":10018,"name":"San Pedro","state_code":"S","country_code":"BO"}},{"type":"Feature","geometry":{"type":"Point","coordinates":[-63.18117,-17.78629]},"properties":{"id":10023,"name":"Santa Cruz de la Sierra","state_code":"S","country_code":"BO"}},{"type":"Feature","geometry":{"type":"Point","coordinates":[-63.35,-17.96667]},"properties":{"id":10024,"name":"Santa Rita","state_code":"S","country_code":"BO"}},{"type":"Feature","geometry":{"type":"Point","coordinates":[-63.59514,-17.10916]},"properties":{"id":10026,"name":"Santa Rosa del Sara","state_code":"S","country_code":"BO"}},{"type":"Feature","geometry":{"type":"Point","coordinates":[-63.38118,-17.98674]},"properties":{"id":10027,"name":"Santiago del Torno","state_code":"S","country_code":"BO"}},{"type":"Feature","geometry":{"type":"Point","coordinates":[-62.94661,-15.39286]},"properties":{"id":10043,"name":"Urubichá","state_code":"S","country_code":"BO"}},{"type":"Feature","geometry":{"type":"Point","coordinates":[-64.10609,-18.48923]},"properties":{"id":10045,"name":"Vallegrande","state_code":"S","country_code":"BO"}},{"type":"Feature","geometry":{"type":"Point","coordinates":[-63.83333,-17.4]},"properties":{"id":10046,"name":"Villa Yapacaní","state_code":"S","country_code":"BO"}},{"type":"Feature","geometry":{"type":"Point","coordinates":[-63.16778,-17.5163]},"properties":{"id":10050,"name":"Warnes","state_code":"S","country_code":"BO"}}]}