{"type":"FeatureCollection","features":[{"type":"Feature","geometry":{"type":"Point","coordinates":[-50.84374,1.85706]},"properties":{"id":10204,"name":"Amapá","state_code":"AP","country_code":"BR"}},{"type":"Feature","geometry":{"type":"Point","coordinates":[-51.45285,2.36098]},"properties":{"id":10933,"name":"Calçoene","state_code":"AP","country_code":"BR"}},{"type":"Feature","geometry":{"type":"Point","coordinates":[-50.52041,0.99713]},"properties":{"id":11541,"name":"Cutias","state_code":"AP","country_code":"BR"}},{"type":"Feature","geometry":{"type":"Point","coordinates":[-51.35442,0.91012]},"properties":{"id":11812,"name":"Ferreira Gomes","state_code":"AP","country_code":"BR"}},{"type":"Feature","geometry":{"type":"Point","coordinates":[-50.67833,0.57732]},"properties":{"id":12462,"name":"Itaubal","state_code":"AP","country_code":"BR"}},{"type":"Feature","geometry":{"type":"Point","coordinates":[-53.22949,0.93828]},"properties":{"id":12798,"name":"Laranjal do Jari","state_code":"AP","country_code":"BR"}},{"type":"Feature","geometry":{"type":"Point","coordinates":[-51.06639,0.03889]},"properties":{"id":12887,"name":"Macapá","state_code":"AP","country_code":"BR"}},{"type":"Feature","geometry":{"type":"Point","coordinates":[-51.28944,-0.115]},"properties":{"id":13088,"name":"Mazagão","state_code":"AP","country_code":"BR"}},{"type":"Feature","geometry":{"type":"Point","coordinates":[-52.16963,2.70795]},"properties":{"id":13492,"name":"Oiapoque","state_code":"AP","country_code":"BR"}},{"type":"Feature","geometry":{"type":"Point","coordinates":[-52.40118,1.14843]},"properties":{"id":13751,"name":"Pedra Branca do Amapari","state_code":"AP","country_code":"BR"}},{"type":"Feature","geometry":{"type":"Point","coordinates":[-51.71181,0.56553]},"properties":{"id":14008,"name":"Porto Grande","state_code":"AP","country_code":"BR"}},{"type":"Feature","geometry":{"type":"Point","coordinates":[-51.2449,1.67076]},"properties":{"id":14058,"name":"Pracuúba","state_code":"AP","country_code":"BR"}},{"type":"Feature","geometry":{"type":"Point","coordinates":[-51.18167,-0.05833]},"properties":{"id":14568,"name":"Santana","state_code":"AP","country_code":"BR"}},{"type":"Feature","geometry":{"type":"Point","coordinates":[-52.28195,1.65803]},"properties":{"id":14739,"name":"Serra do Navio","state_code":"AP","country_code":"BR"}},{"type":"Feature","geometry":{"type":"Point","coordinates":[-51.10973,1.263]},"properties":{"id":15255,"name":"Tartarugalzinho","state_code":"AP","country_code":"BR"}},{"type":"Feature","geometry":{"type":"Point","coordinates":[-52.03443,-0.95653]},"properties":{"id":15602,"name":"Vitória do Jari","state_code":"AP","country_code":"BR"}}]}