{"type":"FeatureCollection","features":[{"type":"Feature","geometry":{"type":"Point","coordinates":[-40.91283,-8.31552]},"properties":{"id":10074,"name":"Acauã","state_code":"PI","country_code":"BR"}},{"type":"Feature","geometry":{"type":"Point","coordinates":[-42.67458,-5.74819]},"properties":{"id":10092,"name":"Agricolândia","state_code":"PI","country_code":"BR"}},{"type":"Feature","geometry":{"type":"Point","coordinates":[-42.63611,-5.89222]},"properties":{"id":15651,"name":"Água Branca","state_code":"PI","country_code":"BR"}},{"type":"Feature","geometry":{"type":"Point","coordinates":[-40.91814,-6.98016]},"properties":{"id":10112,"name":"Alagoinha do Piauí","state_code":"PI","country_code":"BR"}},{"type":"Feature","geometry":{"type":"Point","coordinates":[-40.82488,-7.16226]},"properties":{"id":10125,"name":"Alegrete do Piauí","state_code":"PI","country_code":"BR"}},{"type":"Feature","geometry":{"type":"Point","coordinates":[-42.06612,-5.40788]},"properties":{"id":10173,"name":"Alto Longá","state_code":"PI","country_code":"BR"}},{"type":"Feature","geometry":{"type":"Point","coordinates":[-42.46,-5.03806]},"properties":{"id":10186,"name":"Altos","state_code":"PI","country_code":"BR"}},{"type":"Feature","geometry":{"type":"Point","coordinates":[-43.83237,-8.38553]},"properties":{"id":10198,"name":"Alvorada do Gurguéia","state_code":"PI","country_code":"BR"}},{"type":"Feature","geometry":{"type":"Point","coordinates":[-42.78806,-6.3702]},"properties":{"id":10209,"name":"Amarante","state_code":"PI","country_code":"BR"}},{"type":"Feature","geometry":{"type":"Point","coordinates":[-42.72022,-6.09884]},"properties":{"id":10254,"name":"Angical do Piauí","state_code":"PI","country_code":"BR"}},{"type":"Feature","geometry":{"type":"Point","coordinates":[-43.05238,-9.24779]},"properties":{"id":10283,"name":"Anísio de Abreu","state_code":"PI","country_code":"BR"}},{"type":"Feature","geometry":{"type":"Point","coordinates":[-44.25307,-7.12211]},"properties":{"id":10271,"name":"Antônio Almeida","state_code":"PI","country_code":"BR"}},{"type":"Feature","geometry":{"type":"Point","coordinates":[-41.86926,-6.20348]},"properties":{"id":10404,"name":"Aroazes","state_code":"PI","country_code":"BR"}},{"type":"Feature","geometry":{"type":"Point","coordinates":[-41.56,-7.27]},"properties":{"id":10406,"name":"Aroeiras do Itaim","state_code":"PI","country_code":"BR"}},{"type":"Feature","geometry":{"type":"Point","coordinates":[-42.49393,-6.62721]},"properties":{"id":10407,"name":"Arraial","state_code":"PI","country_code":"BR"}},{"type":"Feature","geometry":{"type":"Point","coordinates":[-40.94796,-5.85575]},"properties":{"id":10431,"name":"Assunção do Piauí","state_code":"PI","country_code":"BR"}},{"type":"Feature","geometry":{"type":"Point","coordinates":[-43.89286,-10.11463]},"properties":{"id":10459,"name":"Avelino Lopes","state_code":"PI","country_code":"BR"}},{"type":"Feature","geometry":{"type":"Point","coordinates":[-45.12583,-8.69171]},"properties":{"id":10477,"name":"Baixa Grande do Ribeiro","state_code":"PI","country_code":"BR"}},{"type":"Feature","geometry":{"type":"Point","coordinates":[-42.11504,-6.54095]},"properties":{"id":10522,"name":"Barra d'Alcântara","state_code":"PI","country_code":"BR"}},{"type":"Feature","geometry":{"type":"Point","coordinates":[-42.29444,-4.24444]},"properties":{"id":10549,"name":"Barras","state_code":"PI","country_code":"BR"}},{"type":"Feature","geometry":{"type":"Point","coordinates":[-45.69329,-9.99042]},"properties":{"id":10552,"name":"Barreiras do Piauí","state_code":"PI","country_code":"BR"}},{"type":"Feature","geometry":{"type":"Point","coordinates":[-42.45878,-5.85063]},"properties":{"id":10562,"name":"Barro Duro","state_code":"PI","country_code":"BR"}},{"type":"Feature","geometry":{"type":"Point","coordinates":[-42.10645,-3.99736]},"properties":{"id":10582,"name":"Batalha","state_code":"PI","country_code":"BR"}},{"type":"Feature","geometry":{"type":"Point","coordinates":[-41.90091,-7.91606]},"properties":{"id":10600,"name":"Bela Vista do Piauí","state_code":"PI","country_code":"BR"}},{"type":"Feature","geometry":{"type":"Point","coordinates":[-40.98873,-7.40657]},"properties":{"id":10620,"name":"Belém do Piauí","state_code":"PI","country_code":"BR"}},{"type":"Feature","geometry":{"type":"Point","coordinates":[-42.36667,-5.45]},"properties":{"id":10622,"name":"Beneditinos","state_code":"PI","country_code":"BR"}},{"type":"Feature","geometry":{"type":"Point","coordinates":[-43.79588,-7.75477]},"properties":{"id":10639,"name":"Bertolínia","state_code":"PI","country_code":"BR"}},{"type":"Feature","geometry":{"type":"Point","coordinates":[-40.85924,-8.0643]},"properties":{"id":10644,"name":"Betânia do Piauí","state_code":"PI","country_code":"BR"}},{"type":"Feature","geometry":{"type":"Point","coordinates":[-42.14109,-4.35576]},"properties":{"id":10662,"name":"Boa Hora","state_code":"PI","country_code":"BR"}},{"type":"Feature","geometry":{"type":"Point","coordinates":[-41.32746,-6.89508]},"properties":{"id":10679,"name":"Bocaina","state_code":"PI","country_code":"BR"}},{"type":"Feature","geometry":{"type":"Point","coordinates":[-44.35861,-9.07444]},"properties":{"id":10698,"name":"Bom Jesus","state_code":"PI","country_code":"BR"}},{"type":"Feature","geometry":{"type":"Point","coordinates":[-41.64572,-3.23751]},"properties":{"id":10720,"name":"Bom Princípio do Piauí","state_code":"PI","country_code":"BR"}},{"type":"Feature","geometry":{"type":"Point","coordinates":[-42.88253,-9.16462]},"properties":{"id":10732,"name":"Bonfim do Piauí","state_code":"PI","country_code":"BR"}},{"type":"Feature","geometry":{"type":"Point","coordinates":[-42.13601,-4.5665]},"properties":{"id":10745,"name":"Boqueirão do Piauí","state_code":"PI","country_code":"BR"}},{"type":"Feature","geometry":{"type":"Point","coordinates":[-41.58774,-4.13325]},"properties":{"id":10769,"name":"Brasileira","state_code":"PI","country_code":"BR"}},{"type":"Feature","geometry":{"type":"Point","coordinates":[-42.78801,-8.26858]},"properties":{"id":10796,"name":"Brejo do Piauí","state_code":"PI","country_code":"BR"}},{"type":"Feature","geometry":{"type":"Point","coordinates":[-41.86694,-3.175]},"properties":{"id":10828,"name":"Buriti dos Lopes","state_code":"PI","country_code":"BR"}},{"type":"Feature","geometry":{"type":"Point","coordinates":[-41.25078,-5.20888]},"properties":{"id":10829,"name":"Buriti dos Montes","state_code":"PI","country_code":"BR"}},{"type":"Feature","geometry":{"type":"Point","coordinates":[-42.2306,-4.43347]},"properties":{"id":10849,"name":"Cabeceiras do Piauí","state_code":"PI","country_code":"BR"}},{"type":"Feature","geometry":{"type":"Point","coordinates":[-42.39243,-6.78182]},"properties":{"id":10916,"name":"Cajazeiras do Piauí","state_code":"PI","country_code":"BR"}},{"type":"Feature","geometry":{"type":"Point","coordinates":[-41.35439,-2.98747]},"properties":{"id":10920,"name":"Cajueiro da Praia","state_code":"PI","country_code":"BR"}},{"type":"Feature","geometry":{"type":"Point","coordinates":[-40.58774,-7.34361]},"properties":{"id":10928,"name":"Caldeirão Grande do Piauí","state_code":"PI","country_code":"BR"}},{"type":"Feature","geometry":{"type":"Point","coordinates":[-41.87938,-7.67905]},"properties":{"id":10971,"name":"Campinas do Piauí","state_code":"PI","country_code":"BR"}},{"type":"Feature","geometry":{"type":"Point","coordinates":[-41.79184,-8.31452]},"properties":{"id":10980,"name":"Campo Alegre do Fidalgo","state_code":"PI","country_code":"BR"}},{"type":"Feature","geometry":{"type":"Point","coordinates":[-41.04511,-7.2207]},"properties":{"id":10991,"name":"Campo Grande do Piauí","state_code":"PI","country_code":"BR"}},{"type":"Feature","geometry":{"type":"Point","coordinates":[-42.60317,-3.85518]},"properties":{"id":10993,"name":"Campo Largo do Piauí","state_code":"PI","country_code":"BR"}},{"type":"Feature","geometry":{"type":"Point","coordinates":[-42.16861,-4.82778]},"properties":{"id":10997,"name":"Campo Maior","state_code":"PI","country_code":"BR"}},{"type":"Feature","geometry":{"type":"Point","coordinates":[-43.6863,-7.50756]},"properties":{"id":11028,"name":"Canavieira","state_code":"PI","country_code":"BR"}},{"type":"Feature","geometry":{"type":"Point","coordinates":[-42.94444,-8.11]},"properties":{"id":11056,"name":"Canto do Buriti","state_code":"PI","country_code":"BR"}},{"type":"Feature","geometry":{"type":"Point","coordinates":[-41.88512,-4.47203]},"properties":{"id":11086,"name":"Capitão de Campos","state_code":"PI","country_code":"BR"}},{"type":"Feature","geometry":{"type":"Point","coordinates":[-41.90126,-8.52938]},"properties":{"id":11083,"name":"Capitão Gervásio Oliveira","state_code":"PI","country_code":"BR"}},{"type":"Feature","geometry":{"type":"Point","coordinates":[-43.27078,-9.34943]},"properties":{"id":11101,"name":"Caracol","state_code":"PI","country_code":"BR"}},{"type":"Feature","geometry":{"type":"Point","coordinates":[-41.84588,-3.53699]},"properties":{"id":11119,"name":"Caraúbas do Piauí","state_code":"PI","country_code":"BR"}},{"type":"Feature","geometry":{"type":"Point","coordinates":[-40.89597,-7.70139]},"properties":{"id":11130,"name":"Caridade do Piauí","state_code":"PI","country_code":"BR"}},{"type":"Feature","geometry":{"type":"Point","coordinates":[-41.55735,-5.2158]},"properties":{"id":11188,"name":"Castelo do Piauí","state_code":"PI","country_code":"BR"}},{"type":"Feature","geometry":{"type":"Point","coordinates":[-41.88771,-3.40863]},"properties":{"id":11220,"name":"Caxingó","state_code":"PI","country_code":"BR"}},{"type":"Feature","geometry":{"type":"Point","coordinates":[-41.54594,-3.43751]},"properties":{"id":11306,"name":"Cocal","state_code":"PI","country_code":"BR"}},{"type":"Feature","geometry":{"type":"Point","coordinates":[-41.99568,-4.64857]},"properties":{"id":11307,"name":"Cocal de Telha","state_code":"PI","country_code":"BR"}},{"type":"Feature","geometry":{"type":"Point","coordinates":[-41.45183,-3.57383]},"properties":{"id":11309,"name":"Cocal dos Alves","state_code":"PI","country_code":"BR"}},{"type":"Feature","geometry":{"type":"Point","coordinates":[-42.26583,-5.11661]},"properties":{"id":11318,"name":"Coivaras","state_code":"PI","country_code":"BR"}},{"type":"Feature","geometry":{"type":"Point","coordinates":[-43.77459,-8.14465]},"properties":{"id":11337,"name":"Colônia do Gurguéia","state_code":"PI","country_code":"BR"}},{"type":"Feature","geometry":{"type":"Point","coordinates":[-42.21262,-7.22638]},"properties":{"id":11338,"name":"Colônia do Piauí","state_code":"PI","country_code":"BR"}},{"type":"Feature","geometry":{"type":"Point","coordinates":[-41.57544,-7.98695]},"properties":{"id":11355,"name":"Conceição do Canindé","state_code":"PI","country_code":"BR"}},{"type":"Feature","geometry":{"type":"Point","coordinates":[-42.27241,-9.07216]},"properties":{"id":11421,"name":"Coronel José Dias","state_code":"PI","country_code":"BR"}},{"type":"Feature","geometry":{"type":"Point","coordinates":[-45.04691,-10.47219]},"properties":{"id":11434,"name":"Corrente","state_code":"PI","country_code":"BR"}},{"type":"Feature","geometry":{"type":"Point","coordinates":[-45.11052,-10.82007]},"properties":{"id":11473,"name":"Cristalândia do Piauí","state_code":"PI","country_code":"BR"}},{"type":"Feature","geometry":{"type":"Point","coordinates":[-44.04806,-8.69043]},"properties":{"id":11477,"name":"Cristino Castro","state_code":"PI","country_code":"BR"}},{"type":"Feature","geometry":{"type":"Point","coordinates":[-44.38994,-9.86209]},"properties":{"id":11522,"name":"Curimatá","state_code":"PI","country_code":"BR"}},{"type":"Feature","geometry":{"type":"Point","coordinates":[-44.86466,-8.73985]},"properties":{"id":11527,"name":"Currais","state_code":"PI","country_code":"BR"}},{"type":"Feature","geometry":{"type":"Point","coordinates":[-40.76427,-7.88978]},"properties":{"id":11529,"name":"Curral Novo do Piauí","state_code":"PI","country_code":"BR"}},{"type":"Feature","geometry":{"type":"Point","coordinates":[-42.86082,-5.58488]},"properties":{"id":11534,"name":"Curralinhos","state_code":"PI","country_code":"BR"}},{"type":"Feature","geometry":{"type":"Point","coordinates":[-42.67639,-5.35833]},"properties":{"id":11571,"name":"Demerval Lobão","state_code":"PI","country_code":"BR"}},{"type":"Feature","geometry":{"type":"Point","coordinates":[-42.43422,-9.3323]},"properties":{"id":11598,"name":"Dirceu Arcoverde","state_code":"PI","country_code":"BR"}},{"type":"Feature","geometry":{"type":"Point","coordinates":[-41.71629,-6.95806]},"properties":{"id":11627,"name":"Dom Expedito Lopes","state_code":"PI","country_code":"BR"}},{"type":"Feature","geometry":{"type":"Point","coordinates":[-41.72,-8.8848]},"properties":{"id":11629,"name":"Dom Inocêncio","state_code":"PI","country_code":"BR"}},{"type":"Feature","geometry":{"type":"Point","coordinates":[-41.34833,-4.19141]},"properties":{"id":11638,"name":"Domingos Mourão","state_code":"PI","country_code":"BR"}},{"type":"Feature","geometry":{"type":"Point","coordinates":[-42.16607,-6.19359]},"properties":{"id":11681,"name":"Elesbão Veloso","state_code":"PI","country_code":"BR"}},{"type":"Feature","geometry":{"type":"Point","coordinates":[-43.77769,-7.90155]},"properties":{"id":11683,"name":"Eliseu Martins","state_code":"PI","country_code":"BR"}},{"type":"Feature","geometry":{"type":"Point","coordinates":[-42.17102,-3.84898]},"properties":{"id":11729,"name":"Esperantina","state_code":"PI","country_code":"BR"}},{"type":"Feature","geometry":{"type":"Point","coordinates":[-42.78927,-9.52033]},"properties":{"id":11780,"name":"Fartura do Piauí","state_code":"PI","country_code":"BR"}},{"type":"Feature","geometry":{"type":"Point","coordinates":[-42.84551,-7.64121]},"properties":{"id":11833,"name":"Flores do Piauí","state_code":"PI","country_code":"BR"}},{"type":"Feature","geometry":{"type":"Point","coordinates":[-41.84428,-7.47628]},"properties":{"id":11838,"name":"Floresta do Piauí","state_code":"PI","country_code":"BR"}},{"type":"Feature","geometry":{"type":"Point","coordinates":[-43.0225,-6.76694]},"properties":{"id":11841,"name":"Floriano","state_code":"PI","country_code":"BR"}},{"type":"Feature","geometry":{"type":"Point","coordinates":[-42.24638,-6.41032]},"properties":{"id":11875,"name":"Francinópolis","state_code":"PI","country_code":"BR"}},{"type":"Feature","geometry":{"type":"Point","coordinates":[-42.69202,-6.6913]},"properties":{"id":11877,"name":"Francisco Ayres","state_code":"PI","country_code":"BR"}},{"type":"Feature","geometry":{"type":"Point","coordinates":[-40.77056,-7.35845]},"properties":{"id":11882,"name":"Francisco Macedo","state_code":"PI","country_code":"BR"}},{"type":"Feature","geometry":{"type":"Point","coordinates":[-41.145,-7.10293]},"properties":{"id":11884,"name":"Francisco Santos","state_code":"PI","country_code":"BR"}},{"type":"Feature","geometry":{"type":"Point","coordinates":[-40.56213,-7.0125]},"properties":{"id":11900,"name":"Fronteiras","state_code":"PI","country_code":"BR"}},{"type":"Feature","geometry":{"type":"Point","coordinates":[-41.38802,-7.16595]},"properties":{"id":11933,"name":"Geminiano","state_code":"PI","country_code":"BR"}},{"type":"Feature","geometry":{"type":"Point","coordinates":[-45.52017,-9.72737]},"properties":{"id":11944,"name":"Gilbués","state_code":"PI","country_code":"BR"}},{"type":"Feature","geometry":{"type":"Point","coordinates":[-43.77762,-6.82297]},"properties":{"id":12013,"name":"Guadalupe","state_code":"PI","country_code":"BR"}},{"type":"Feature","geometry":{"type":"Point","coordinates":[-43.58188,-9.2887]},"properties":{"id":12066,"name":"Guaribas","state_code":"PI","country_code":"BR"}},{"type":"Feature","geometry":{"type":"Point","coordinates":[-42.46773,-6.03293]},"properties":{"id":12108,"name":"Hugo Napoleão","state_code":"PI","country_code":"BR"}},{"type":"Feature","geometry":{"type":"Point","coordinates":[-41.82881,-2.84022]},"properties":{"id":12208,"name":"Ilha Grande","state_code":"PI","country_code":"BR"}},{"type":"Feature","geometry":{"type":"Point","coordinates":[-41.68135,-6.66187]},"properties":{"id":12252,"name":"Inhuma","state_code":"PI","country_code":"BR"}},{"type":"Feature","geometry":{"type":"Point","coordinates":[-41.74687,-6.84634]},"properties":{"id":12278,"name":"Ipiranga do Piauí","state_code":"PI","country_code":"BR"}},{"type":"Feature","geometry":{"type":"Point","coordinates":[-40.45,-7.03333]},"properties":{"id":12292,"name":"Ipueiras","state_code":"PI","country_code":"BR"}},{"type":"Feature","geometry":{"type":"Point","coordinates":[-41.64289,-7.54521]},"properties":{"id":12322,"name":"Isaías Coelho","state_code":"PI","country_code":"BR"}},{"type":"Feature","geometry":{"type":"Point","coordinates":[-41.54165,-7.45524]},"properties":{"id":12358,"name":"Itainópolis","state_code":"PI","country_code":"BR"}},{"type":"Feature","geometry":{"type":"Point","coordinates":[-43.02556,-7.60333]},"properties":{"id":12463,"name":"Itaueira","state_code":"PI","country_code":"BR"}},{"type":"Feature","geometry":{"type":"Point","coordinates":[-41.17396,-7.96488]},"properties":{"id":12528,"name":"Jacobina do Piauí","state_code":"PI","country_code":"BR"}},{"type":"Feature","geometry":{"type":"Point","coordinates":[-41.22016,-7.45645]},"properties":{"id":12551,"name":"Jaicós","state_code":"PI","country_code":"BR"}},{"type":"Feature","geometry":{"type":"Point","coordinates":[-42.47763,-6.15734]},"properties":{"id":12590,"name":"Jardim do Mulato","state_code":"PI","country_code":"BR"}},{"type":"Feature","geometry":{"type":"Point","coordinates":[-41.89545,-4.80296]},"properties":{"id":12604,"name":"Jatobá do Piauí","state_code":"PI","country_code":"BR"}},{"type":"Feature","geometry":{"type":"Point","coordinates":[-43.54675,-7.09885]},"properties":{"id":12623,"name":"Jerumenha","state_code":"PI","country_code":"BR"}},{"type":"Feature","geometry":{"type":"Point","coordinates":[-42.41513,-8.54315]},"properties":{"id":12658,"name":"João Costa","state_code":"PI","country_code":"BR"}},{"type":"Feature","geometry":{"type":"Point","coordinates":[-42.0775,-3.53692]},"properties":{"id":12639,"name":"Joaquim Pires","state_code":"PI","country_code":"BR"}},{"type":"Feature","geometry":{"type":"Point","coordinates":[-42.43579,-3.54211]},"properties":{"id":12644,"name":"Joca Marques","state_code":"PI","country_code":"BR"}},{"type":"Feature","geometry":{"type":"Point","coordinates":[-42.61373,-4.72992]},"properties":{"id":12655,"name":"José de Freitas","state_code":"PI","country_code":"BR"}},{"type":"Feature","geometry":{"type":"Point","coordinates":[-41.52841,-5.02486]},"properties":{"id":12675,"name":"Juazeiro do Piauí","state_code":"PI","country_code":"BR"}},{"type":"Feature","geometry":{"type":"Point","coordinates":[-44.19178,-10.5158]},"properties":{"id":12717,"name":"Júlio Borges","state_code":"PI","country_code":"BR"}},{"type":"Feature","geometry":{"type":"Point","coordinates":[-43.15301,-9.29862]},"properties":{"id":12696,"name":"Jurema","state_code":"PI","country_code":"BR"}},{"type":"Feature","geometry":{"type":"Point","coordinates":[-42.56555,-4.4951]},"properties":{"id":12734,"name":"Lagoa Alegre","state_code":"PI","country_code":"BR"}},{"type":"Feature","geometry":{"type":"Point","coordinates":[-41.59168,-4.35468]},"properties":{"id":12755,"name":"Lagoa de São Francisco","state_code":"PI","country_code":"BR"}},{"type":"Feature","geometry":{"type":"Point","coordinates":[-41.54813,-8.73535]},"properties":{"id":12757,"name":"Lagoa do Barro do Piauí","state_code":"PI","country_code":"BR"}},{"type":"Feature","geometry":{"type":"Point","coordinates":[-42.54814,-5.47513]},"properties":{"id":12762,"name":"Lagoa do Piauí","state_code":"PI","country_code":"BR"}},{"type":"Feature","geometry":{"type":"Point","coordinates":[-41.42058,-6.51918]},"properties":{"id":12763,"name":"Lagoa do Sítio","state_code":"PI","country_code":"BR"}},{"type":"Feature","geometry":{"type":"Point","coordinates":[-42.62796,-5.80702]},"properties":{"id":12769,"name":"Lagoinha do Piauí","state_code":"PI","country_code":"BR"}},{"type":"Feature","geometry":{"type":"Point","coordinates":[-43.86456,-7.23268]},"properties":{"id":12791,"name":"Landri Sales","state_code":"PI","country_code":"BR"}},{"type":"Feature","geometry":{"type":"Point","coordinates":[-41.51665,-3.03117]},"properties":{"id":12879,"name":"Luís Correia","state_code":"PI","country_code":"BR"}},{"type":"Feature","geometry":{"type":"Point","coordinates":[-42.36456,-3.60743]},"properties":{"id":12875,"name":"Luzilândia","state_code":"PI","country_code":"BR"}},{"type":"Feature","geometry":{"type":"Point","coordinates":[-42.51114,-3.54658]},"properties":{"id":12906,"name":"Madeiro","state_code":"PI","country_code":"BR"}},{"type":"Feature","geometry":{"type":"Point","coordinates":[-43.8336,-8.16469]},"properties":{"id":12952,"name":"Manoel Emídio","state_code":"PI","country_code":"BR"}},{"type":"Feature","geometry":{"type":"Point","coordinates":[-40.74945,-7.40891]},"properties":{"id":12996,"name":"Marcolândia","state_code":"PI","country_code":"BR"}},{"type":"Feature","geometry":{"type":"Point","coordinates":[-43.91664,-7.05412]},"properties":{"id":12997,"name":"Marcos Parente","state_code":"PI","country_code":"BR"}},{"type":"Feature","geometry":{"type":"Point","coordinates":[-41.01755,-7.53879]},"properties":{"id":13042,"name":"Massapê do Piauí","state_code":"PI","country_code":"BR"}},{"type":"Feature","geometry":{"type":"Point","coordinates":[-42.60695,-3.68774]},"properties":{"id":13058,"name":"Matias Olímpio","state_code":"PI","country_code":"BR"}},{"type":"Feature","geometry":{"type":"Point","coordinates":[-42.77263,-4.1579]},"properties":{"id":13109,"name":"Miguel Alves","state_code":"PI","country_code":"BR"}},{"type":"Feature","geometry":{"type":"Point","coordinates":[-42.68942,-5.72867]},"properties":{"id":13111,"name":"Miguel Leão","state_code":"PI","country_code":"BR"}},{"type":"Feature","geometry":{"type":"Point","coordinates":[-41.59457,-4.74021]},"properties":{"id":13118,"name":"Milton Brandão","state_code":"PI","country_code":"BR"}},{"type":"Feature","geometry":{"type":"Point","coordinates":[-42.54879,-5.64162]},"properties":{"id":13177,"name":"Monsenhor Gil","state_code":"PI","country_code":"BR"}},{"type":"Feature","geometry":{"type":"Point","coordinates":[-41.03155,-6.94982]},"properties":{"id":13178,"name":"Monsenhor Hipólito","state_code":"PI","country_code":"BR"}},{"type":"Feature","geometry":{"type":"Point","coordinates":[-44.98266,-9.74213]},"properties":{"id":13191,"name":"Monte Alegre do Piauí","state_code":"PI","country_code":"BR"}},{"type":"Feature","geometry":{"type":"Point","coordinates":[-43.90657,-9.87713]},"properties":{"id":13241,"name":"Morro Cabeça no Tempo","state_code":"PI","country_code":"BR"}},{"type":"Feature","geometry":{"type":"Point","coordinates":[-42.22185,-3.68694]},"properties":{"id":13249,"name":"Morro do Chapéu do Piauí","state_code":"PI","country_code":"BR"}},{"type":"Feature","geometry":{"type":"Point","coordinates":[-42.00218,-3.36504]},"properties":{"id":13281,"name":"Murici dos Portelas","state_code":"PI","country_code":"BR"}},{"type":"Feature","geometry":{"type":"Point","coordinates":[-42.73216,-7.03279]},"properties":{"id":13314,"name":"Nazaré do Piauí","state_code":"PI","country_code":"BR"}},{"type":"Feature","geometry":{"type":"Point","coordinates":[-42.8684,-5.44546]},"properties":{"id":13315,"name":"Nazária","state_code":"PI","country_code":"BR"}},{"type":"Feature","geometry":{"type":"Point","coordinates":[-42.19017,-4.63841]},"properties":{"id":13341,"name":"Nossa Senhora de Nazaré","state_code":"PI","country_code":"BR"}},{"type":"Feature","geometry":{"type":"Point","coordinates":[-42.60651,-4.05765]},"properties":{"id":13344,"name":"Nossa Senhora dos Remédios","state_code":"PI","country_code":"BR"}},{"type":"Feature","geometry":{"type":"Point","coordinates":[-42.01361,-8.11204]},"properties":{"id":13433,"name":"Nova Santa Rita","state_code":"PI","country_code":"BR"}},{"type":"Feature","geometry":{"type":"Point","coordinates":[-41.98555,-6.55034]},"properties":{"id":13473,"name":"Novo Oriente do Piauí","state_code":"PI","country_code":"BR"}},{"type":"Feature","geometry":{"type":"Point","coordinates":[-41.96256,-5.32848]},"properties":{"id":13477,"name":"Novo Santo Antônio","state_code":"PI","country_code":"BR"}},{"type":"Feature","geometry":{"type":"Point","coordinates":[-42.17529,-6.90686]},"properties":{"id":13490,"name":"Oeiras","state_code":"PI","country_code":"BR"}},{"type":"Feature","geometry":{"type":"Point","coordinates":[-42.53937,-5.84854]},"properties":{"id":13499,"name":"Olho d'Água do Piauí","state_code":"PI","country_code":"BR"}},{"type":"Feature","geometry":{"type":"Point","coordinates":[-40.93416,-7.36533]},"properties":{"id":13563,"name":"Padre Marcos","state_code":"PI","country_code":"BR"}},{"type":"Feature","geometry":{"type":"Point","coordinates":[-42.35087,-7.77461]},"properties":{"id":13565,"name":"Paes Landim","state_code":"PI","country_code":"BR"}},{"type":"Feature","geometry":{"type":"Point","coordinates":[-42.86625,-8.05364]},"properties":{"id":13574,"name":"Pajeú do Piauí","state_code":"PI","country_code":"BR"}},{"type":"Feature","geometry":{"type":"Point","coordinates":[-44.43642,-8.51549]},"properties":{"id":13593,"name":"Palmeira do Piauí","state_code":"PI","country_code":"BR"}},{"type":"Feature","geometry":{"type":"Point","coordinates":[-43.02434,-5.78548]},"properties":{"id":13595,"name":"Palmeirais","state_code":"PI","country_code":"BR"}},{"type":"Feature","geometry":{"type":"Point","coordinates":[-41.64719,-7.10746]},"properties":{"id":13622,"name":"Paquetá","state_code":"PI","country_code":"BR"}},{"type":"Feature","geometry":{"type":"Point","coordinates":[-44.56012,-10.12155]},"properties":{"id":13678,"name":"Parnaguá","state_code":"PI","country_code":"BR"}},{"type":"Feature","geometry":{"type":"Point","coordinates":[-41.73536,-2.92278]},"properties":{"id":13682,"name":"Parnaíba","state_code":"PI","country_code":"BR"}},{"type":"Feature","geometry":{"type":"Point","coordinates":[-42.40584,-5.82734]},"properties":{"id":13694,"name":"Passagem Franca do Piauí","state_code":"PI","country_code":"BR"}},{"type":"Feature","geometry":{"type":"Point","coordinates":[-41.29464,-7.60918]},"properties":{"id":13708,"name":"Patos do Piauí","state_code":"PI","country_code":"BR"}},{"type":"Feature","geometry":{"type":"Point","coordinates":[-42.45473,-5.24511]},"properties":{"id":13715,"name":"Pau D'arco do Piauí","state_code":"PI","country_code":"BR"}},{"type":"Feature","geometry":{"type":"Point","coordinates":[-41.22746,-8.22526]},"properties":{"id":13728,"name":"Paulistana","state_code":"PI","country_code":"BR"}},{"type":"Feature","geometry":{"type":"Point","coordinates":[-43.19694,-7.88646]},"properties":{"id":13740,"name":"Pavussu","state_code":"PI","country_code":"BR"}},{"type":"Feature","geometry":{"type":"Point","coordinates":[-41.39962,-4.49028]},"properties":{"id":13777,"name":"Pedro II","state_code":"PI","country_code":"BR"}},{"type":"Feature","geometry":{"type":"Point","coordinates":[-42.23542,-8.11766]},"properties":{"id":13778,"name":"Pedro Laurentino","state_code":"PI","country_code":"BR"}},{"type":"Feature","geometry":{"type":"Point","coordinates":[-41.51271,-7.10697]},"properties":{"id":13829,"name":"Picos","state_code":"PI","country_code":"BR"}},{"type":"Feature","geometry":{"type":"Point","coordinates":[-41.41917,-6.24528]},"properties":{"id":13846,"name":"Pimenteiras","state_code":"PI","country_code":"BR"}},{"type":"Feature","geometry":{"type":"Point","coordinates":[-40.59717,-6.86982]},"properties":{"id":13878,"name":"Pio IX","state_code":"PI","country_code":"BR"}},{"type":"Feature","geometry":{"type":"Point","coordinates":[-41.74153,-3.86656]},"properties":{"id":13887,"name":"Piracuruca","state_code":"PI","country_code":"BR"}},{"type":"Feature","geometry":{"type":"Point","coordinates":[-41.78819,-4.39488]},"properties":{"id":13917,"name":"Piripiri","state_code":"PI","country_code":"BR"}},{"type":"Feature","geometry":{"type":"Point","coordinates":[-42.68879,-3.94558]},"properties":{"id":13992,"name":"Porto","state_code":"PI","country_code":"BR"}},{"type":"Feature","geometry":{"type":"Point","coordinates":[-44.07411,-6.95931]},"properties":{"id":13996,"name":"Porto Alegre do Piauí","state_code":"PI","country_code":"BR"}},{"type":"Feature","geometry":{"type":"Point","coordinates":[-42.15331,-5.71099]},"properties":{"id":14070,"name":"Prata do Piauí","state_code":"PI","country_code":"BR"}},{"type":"Feature","geometry":{"type":"Point","coordinates":[-41.24753,-8.53997]},"properties":{"id":14138,"name":"Queimada Nova","state_code":"PI","country_code":"BR"}},{"type":"Feature","geometry":{"type":"Point","coordinates":[-44.53802,-9.58205]},"properties":{"id":14186,"name":"Redenção do Gurguéia","state_code":"PI","country_code":"BR"}},{"type":"Feature","geometry":{"type":"Point","coordinates":[-42.48165,-6.27844]},"properties":{"id":14188,"name":"Regeneração","state_code":"PI","country_code":"BR"}},{"type":"Feature","geometry":{"type":"Point","coordinates":[-44.67899,-9.8366]},"properties":{"id":14210,"name":"Riacho Frio","state_code":"PI","country_code":"BR"}},{"type":"Feature","geometry":{"type":"Point","coordinates":[-42.57609,-8.09706]},"properties":{"id":14233,"name":"Ribeira do Piauí","state_code":"PI","country_code":"BR"}},{"type":"Feature","geometry":{"type":"Point","coordinates":[-45.47197,-8.08721]},"properties":{"id":14235,"name":"Ribeiro Gonçalves","state_code":"PI","country_code":"BR"}},{"type":"Feature","geometry":{"type":"Point","coordinates":[-43.14551,-7.86062]},"properties":{"id":14278,"name":"Rio Grande do Piauí","state_code":"PI","country_code":"BR"}},{"type":"Feature","geometry":{"type":"Point","coordinates":[-41.7638,-7.2649]},"properties":{"id":14454,"name":"Santa Cruz do Piauí","state_code":"PI","country_code":"BR"}},{"type":"Feature","geometry":{"type":"Point","coordinates":[-41.95795,-5.83227]},"properties":{"id":14458,"name":"Santa Cruz dos Milagres","state_code":"PI","country_code":"BR"}},{"type":"Feature","geometry":{"type":"Point","coordinates":[-45.66715,-8.89582]},"properties":{"id":14461,"name":"Santa Filomena","state_code":"PI","country_code":"BR"}},{"type":"Feature","geometry":{"type":"Point","coordinates":[-44.27778,-8.97437]},"properties":{"id":14488,"name":"Santa Luz","state_code":"PI","country_code":"BR"}},{"type":"Feature","geometry":{"type":"Point","coordinates":[-42.24627,-6.82877]},"properties":{"id":14546,"name":"Santa Rosa do Piauí","state_code":"PI","country_code":"BR"}},{"type":"Feature","geometry":{"type":"Point","coordinates":[-41.46185,-6.95247]},"properties":{"id":14591,"name":"Santana do Piauí","state_code":"PI","country_code":"BR"}},{"type":"Feature","geometry":{"type":"Point","coordinates":[-41.18103,-6.87642]},"properties":{"id":14618,"name":"Santo Antônio de Lisboa","state_code":"PI","country_code":"BR"}},{"type":"Feature","geometry":{"type":"Point","coordinates":[-42.70083,-6.05399]},"properties":{"id":14643,"name":"Santo Antônio dos Milagres","state_code":"PI","country_code":"BR"}},{"type":"Feature","geometry":{"type":"Point","coordinates":[-41.91794,-7.46906]},"properties":{"id":14651,"name":"Santo Inácio do Piauí","state_code":"PI","country_code":"BR"}},{"type":"Feature","geometry":{"type":"Point","coordinates":[-42.97568,-8.9738]},"properties":{"id":14849,"name":"São Braz do Piauí","state_code":"PI","country_code":"BR"}},{"type":"Feature","geometry":{"type":"Point","coordinates":[-42.1083,-5.88422]},"properties":{"id":14904,"name":"São Félix do Piauí","state_code":"PI","country_code":"BR"}},{"type":"Feature","geometry":{"type":"Point","coordinates":[-41.48056,-8.12334]},"properties":{"id":14884,"name":"São Francisco de Assis do Piauí","state_code":"PI","country_code":"BR"}},{"type":"Feature","geometry":{"type":"Point","coordinates":[-42.55086,-7.16899]},"properties":{"id":14897,"name":"São Francisco do Piauí","state_code":"PI","country_code":"BR"}},{"type":"Feature","geometry":{"type":"Point","coordinates":[-45.42387,-10.0763]},"properties":{"id":14920,"name":"São Gonçalo do Gurguéia","state_code":"PI","country_code":"BR"}},{"type":"Feature","geometry":{"type":"Point","coordinates":[-42.6702,-6.02033]},"properties":{"id":14922,"name":"São Gonçalo do Piauí","state_code":"PI","country_code":"BR"}},{"type":"Feature","geometry":{"type":"Point","coordinates":[-41.38226,-6.72756]},"properties":{"id":15008,"name":"São João da Canabrava","state_code":"PI","country_code":"BR"}},{"type":"Feature","geometry":{"type":"Point","coordinates":[-41.21552,-4.09363]},"properties":{"id":15009,"name":"São João da Fronteira","state_code":"PI","country_code":"BR"}},{"type":"Feature","geometry":{"type":"Point","coordinates":[-41.85793,-5.44173]},"properties":{"id":15015,"name":"São João da Serra","state_code":"PI","country_code":"BR"}},{"type":"Feature","geometry":{"type":"Point","coordinates":[-41.92917,-6.94733]},"properties":{"id":15017,"name":"São João da Varjota","state_code":"PI","country_code":"BR"}},{"type":"Feature","geometry":{"type":"Point","coordinates":[-42.46973,-3.80325]},"properties":{"id":15025,"name":"São João do Arraial","state_code":"PI","country_code":"BR"}},{"type":"Feature","geometry":{"type":"Point","coordinates":[-42.34005,-8.27575]},"properties":{"id":15040,"name":"São João do Piauí","state_code":"PI","country_code":"BR"}},{"type":"Feature","geometry":{"type":"Point","coordinates":[-41.90119,-3.74297]},"properties":{"id":14968,"name":"São José do Divino","state_code":"PI","country_code":"BR"}},{"type":"Feature","geometry":{"type":"Point","coordinates":[-42.49355,-7.49544]},"properties":{"id":14980,"name":"São José do Peixe","state_code":"PI","country_code":"BR"}},{"type":"Feature","geometry":{"type":"Point","coordinates":[-41.51702,-6.84096]},"properties":{"id":14981,"name":"São José do Piauí","state_code":"PI","country_code":"BR"}},{"type":"Feature","geometry":{"type":"Point","coordinates":[-40.79725,-7.05987]},"properties":{"id":15050,"name":"São Julião","state_code":"PI","country_code":"BR"}},{"type":"Feature","geometry":{"type":"Point","coordinates":[-42.40297,-9.13336]},"properties":{"id":15056,"name":"São Lourenço do Piauí","state_code":"PI","country_code":"BR"}},{"type":"Feature","geometry":{"type":"Point","coordinates":[-41.2765,-6.77801]},"properties":{"id":15059,"name":"São Luis do Piauí","state_code":"PI","country_code":"BR"}},{"type":"Feature","geometry":{"type":"Point","coordinates":[-42.27077,-5.81791]},"properties":{"id":15080,"name":"São Miguel da Baixa Grande","state_code":"PI","country_code":"BR"}},{"type":"Feature","geometry":{"type":"Point","coordinates":[-42.38796,-7.59935]},"properties":{"id":15088,"name":"São Miguel do Fidalgo","state_code":"PI","country_code":"BR"}},{"type":"Feature","geometry":{"type":"Point","coordinates":[-41.61634,-5.70486]},"properties":{"id":15095,"name":"São Miguel do Tapuio","state_code":"PI","country_code":"BR"}},{"type":"Feature","geometry":{"type":"Point","coordinates":[-42.77168,-5.82135]},"properties":{"id":15119,"name":"São Pedro do Piauí","state_code":"PI","country_code":"BR"}},{"type":"Feature","geometry":{"type":"Point","coordinates":[-42.60836,-9.0522]},"properties":{"id":15126,"name":"São Raimundo Nonato","state_code":"PI","country_code":"BR"}},{"type":"Feature","geometry":{"type":"Point","coordinates":[-44.83609,-10.59755]},"properties":{"id":14683,"name":"Sebastião Barros","state_code":"PI","country_code":"BR"}},{"type":"Feature","geometry":{"type":"Point","coordinates":[-44.02545,-7.51324]},"properties":{"id":14685,"name":"Sebastião Leal","state_code":"PI","country_code":"BR"}},{"type":"Feature","geometry":{"type":"Point","coordinates":[-41.78459,-4.79886]},"properties":{"id":14774,"name":"Sigefredo Pacheco","state_code":"PI","country_code":"BR"}},{"type":"Feature","geometry":{"type":"Point","coordinates":[-40.81778,-7.59889]},"properties":{"id":14788,"name":"Simões","state_code":"PI","country_code":"BR"}},{"type":"Feature","geometry":{"type":"Point","coordinates":[-41.91028,-7.85389]},"properties":{"id":14785,"name":"Simplício Mendes","state_code":"PI","country_code":"BR"}},{"type":"Feature","geometry":{"type":"Point","coordinates":[-42.50745,-7.8982]},"properties":{"id":14801,"name":"Socorro do Piauí","state_code":"PI","country_code":"BR"}},{"type":"Feature","geometry":{"type":"Point","coordinates":[-41.39182,-7.00335]},"properties":{"id":14827,"name":"Sussuapara","state_code":"PI","country_code":"BR"}},{"type":"Feature","geometry":{"type":"Point","coordinates":[-43.09084,-8.40278]},"properties":{"id":15213,"name":"Tamboril do Piauí","state_code":"PI","country_code":"BR"}},{"type":"Feature","geometry":{"type":"Point","coordinates":[-42.1831,-6.69614]},"properties":{"id":15222,"name":"Tanque do Piauí","state_code":"PI","country_code":"BR"}},{"type":"Feature","geometry":{"type":"Point","coordinates":[-42.7407,-5.10252]},"properties":{"id":15284,"name":"Teresina","state_code":"PI","country_code":"BR"}},{"type":"Feature","geometry":{"type":"Point","coordinates":[-42.86468,-4.59646]},"properties":{"id":15456,"name":"União","state_code":"PI","country_code":"BR"}},{"type":"Feature","geometry":{"type":"Point","coordinates":[-44.58334,-7.34206]},"properties":{"id":15487,"name":"Uruçuí","state_code":"PI","country_code":"BR"}},{"type":"Feature","geometry":{"type":"Point","coordinates":[-41.81385,-6.2787]},"properties":{"id":15501,"name":"Valença do Piauí","state_code":"PI","country_code":"BR"}},{"type":"Feature","geometry":{"type":"Point","coordinates":[-42.95158,-9.34411]},"properties":{"id":15616,"name":"Várzea Branca","state_code":"PI","country_code":"BR"}},{"type":"Feature","geometry":{"type":"Point","coordinates":[-42.17729,-6.56374]},"properties":{"id":15617,"name":"Várzea Grande","state_code":"PI","country_code":"BR"}},{"type":"Feature","geometry":{"type":"Point","coordinates":[-41.50596,-7.5548]},"properties":{"id":15537,"name":"Vera Mendes","state_code":"PI","country_code":"BR"}},{"type":"Feature","geometry":{"type":"Point","coordinates":[-40.93621,-7.18671]},"properties":{"id":15571,"name":"Vila Nova do Piauí","state_code":"PI","country_code":"BR"}},{"type":"Feature","geometry":{"type":"Point","coordinates":[-41.8373,-7.29532]},"properties":{"id":15625,"name":"Wall Ferraz","state_code":"PI","country_code":"BR"}}]}