{"type":"FeatureCollection","features":[{"type":"Feature","geometry":{"type":"Point","coordinates":[-37.661,-7.46957]},"properties":{"id":15653,"name":"Água Branca","state_code":"PB","country_code":"BR"}},{"type":"Feature","geometry":{"type":"Point","coordinates":[-38.24255,-7.0762]},"properties":{"id":10100,"name":"Aguiar","state_code":"PB","country_code":"BR"}},{"type":"Feature","geometry":{"type":"Point","coordinates":[-35.59525,-7.07831]},"properties":{"id":10108,"name":"Alagoa Grande","state_code":"PB","country_code":"BR"}},{"type":"Feature","geometry":{"type":"Point","coordinates":[-35.75397,-7.04733]},"properties":{"id":10109,"name":"Alagoa Nova","state_code":"PB","country_code":"BR"}},{"type":"Feature","geometry":{"type":"Point","coordinates":[-35.51465,-6.96256]},"properties":{"id":10110,"name":"Alagoinha","state_code":"PB","country_code":"BR"}},{"type":"Feature","geometry":{"type":"Point","coordinates":[-36.06604,-7.69816]},"properties":{"id":10116,"name":"Alcantil","state_code":"PB","country_code":"BR"}},{"type":"Feature","geometry":{"type":"Point","coordinates":[-35.97724,-6.86987]},"properties":{"id":10135,"name":"Algodão de Jandaíra","state_code":"PB","country_code":"BR"}},{"type":"Feature","geometry":{"type":"Point","coordinates":[-34.92835,-7.35043]},"properties":{"id":10136,"name":"Alhandra","state_code":"PB","country_code":"BR"}},{"type":"Feature","geometry":{"type":"Point","coordinates":[-37.03372,-7.55889]},"properties":{"id":10219,"name":"Amparo","state_code":"PB","country_code":"BR"}},{"type":"Feature","geometry":{"type":"Point","coordinates":[-38.07182,-6.80925]},"properties":{"id":10284,"name":"Aparecida","state_code":"PB","country_code":"BR"}},{"type":"Feature","geometry":{"type":"Point","coordinates":[-35.36047,-6.85419]},"properties":{"id":10366,"name":"Araçagi","state_code":"PB","country_code":"BR"}},{"type":"Feature","geometry":{"type":"Point","coordinates":[-35.75833,-6.82833]},"properties":{"id":10347,"name":"Arara","state_code":"PB","country_code":"BR"}},{"type":"Feature","geometry":{"type":"Point","coordinates":[-35.74167,-6.55833]},"properties":{"id":10357,"name":"Araruna","state_code":"PB","country_code":"BR"}},{"type":"Feature","geometry":{"type":"Point","coordinates":[-35.66927,-6.94723]},"properties":{"id":10383,"name":"Areia","state_code":"PB","country_code":"BR"}},{"type":"Feature","geometry":{"type":"Point","coordinates":[-36.97177,-7.11328]},"properties":{"id":10386,"name":"Areia de Baraúnas","state_code":"PB","country_code":"BR"}},{"type":"Feature","geometry":{"type":"Point","coordinates":[-35.92622,-7.04397]},"properties":{"id":10387,"name":"Areial","state_code":"PB","country_code":"BR"}},{"type":"Feature","geometry":{"type":"Point","coordinates":[-35.69927,-7.52057]},"properties":{"id":10405,"name":"Aroeiras","state_code":"PB","country_code":"BR"}},{"type":"Feature","geometry":{"type":"Point","coordinates":[-36.69894,-7.07371]},"properties":{"id":10430,"name":"Assunção","state_code":"PB","country_code":"BR"}},{"type":"Feature","geometry":{"type":"Point","coordinates":[-34.97272,-6.66287]},"properties":{"id":10589,"name":"Baía da Traição","state_code":"PB","country_code":"BR"}},{"type":"Feature","geometry":{"type":"Point","coordinates":[-35.63333,-6.75]},"properties":{"id":10496,"name":"Bananeiras","state_code":"PB","country_code":"BR"}},{"type":"Feature","geometry":{"type":"Point","coordinates":[-36.26964,-6.61853]},"properties":{"id":10505,"name":"Baraúna","state_code":"PB","country_code":"BR"}},{"type":"Feature","geometry":{"type":"Point","coordinates":[-36.00175,-6.79042]},"properties":{"id":10525,"name":"Barra de Santa Rosa","state_code":"PB","country_code":"BR"}},{"type":"Feature","geometry":{"type":"Point","coordinates":[-35.98824,-7.59054]},"properties":{"id":10526,"name":"Barra de Santana","state_code":"PB","country_code":"BR"}},{"type":"Feature","geometry":{"type":"Point","coordinates":[-36.25481,-7.7164]},"properties":{"id":10530,"name":"Barra de São Miguel","state_code":"PB","country_code":"BR"}},{"type":"Feature","geometry":{"type":"Point","coordinates":[-34.91725,-7.12136]},"properties":{"id":10587,"name":"Bayeux","state_code":"PB","country_code":"BR"}},{"type":"Feature","geometry":{"type":"Point","coordinates":[-35.53333,-6.69167]},"properties":{"id":10614,"name":"Belém","state_code":"PB","country_code":"BR"}},{"type":"Feature","geometry":{"type":"Point","coordinates":[-37.53583,-6.18861]},"properties":{"id":10619,"name":"Belém do Brejo do Cruz","state_code":"PB","country_code":"BR"}},{"type":"Feature","geometry":{"type":"Point","coordinates":[-38.56998,-6.47656]},"properties":{"id":10634,"name":"Bernardino Batista","state_code":"PB","country_code":"BR"}},{"type":"Feature","geometry":{"type":"Point","coordinates":[-38.17678,-7.45676]},"properties":{"id":10664,"name":"Boa Ventura","state_code":"PB","country_code":"BR"}},{"type":"Feature","geometry":{"type":"Point","coordinates":[-36.15741,-7.26995]},"properties":{"id":10667,"name":"Boa Vista","state_code":"PB","country_code":"BR"}},{"type":"Feature","geometry":{"type":"Point","coordinates":[-38.62549,-6.81845]},"properties":{"id":10700,"name":"Bom Jesus","state_code":"PB","country_code":"BR"}},{"type":"Feature","geometry":{"type":"Point","coordinates":[-37.9577,-6.47349]},"properties":{"id":10725,"name":"Bom Sucesso","state_code":"PB","country_code":"BR"}},{"type":"Feature","geometry":{"type":"Point","coordinates":[-38.47977,-7.2894]},"properties":{"id":10741,"name":"Bonito de Santa Fé","state_code":"PB","country_code":"BR"}},{"type":"Feature","geometry":{"type":"Point","coordinates":[-36.13422,-7.48237]},"properties":{"id":10743,"name":"Boqueirão","state_code":"PB","country_code":"BR"}},{"type":"Feature","geometry":{"type":"Point","coordinates":[-35.62094,-6.79913]},"properties":{"id":10751,"name":"Borborema","state_code":"PB","country_code":"BR"}},{"type":"Feature","geometry":{"type":"Point","coordinates":[-37.49716,-6.32578]},"properties":{"id":10795,"name":"Brejo do Cruz","state_code":"PB","country_code":"BR"}},{"type":"Feature","geometry":{"type":"Point","coordinates":[-37.8607,-6.39546]},"properties":{"id":10797,"name":"Brejo dos Santos","state_code":"PB","country_code":"BR"}},{"type":"Feature","geometry":{"type":"Point","coordinates":[-34.90833,-7.51556]},"properties":{"id":10842,"name":"Caaporã","state_code":"PB","country_code":"BR"}},{"type":"Feature","geometry":{"type":"Point","coordinates":[-36.33351,-7.50856]},"properties":{"id":10845,"name":"Cabaceiras","state_code":"PB","country_code":"BR"}},{"type":"Feature","geometry":{"type":"Point","coordinates":[-34.83389,-6.98111]},"properties":{"id":10850,"name":"Cabedelo","state_code":"PB","country_code":"BR"}},{"type":"Feature","geometry":{"type":"Point","coordinates":[-38.69902,-6.94486]},"properties":{"id":10874,"name":"Cachoeira dos Índios","state_code":"PB","country_code":"BR"}},{"type":"Feature","geometry":{"type":"Point","coordinates":[-37.1537,-7.13451]},"properties":{"id":10880,"name":"Cacimba de Areia","state_code":"PB","country_code":"BR"}},{"type":"Feature","geometry":{"type":"Point","coordinates":[-35.79,-6.64167]},"properties":{"id":10881,"name":"Cacimba de Dentro","state_code":"PB","country_code":"BR"}},{"type":"Feature","geometry":{"type":"Point","coordinates":[-37.09984,-7.2318]},"properties":{"id":10882,"name":"Cacimbas","state_code":"PB","country_code":"BR"}},{"type":"Feature","geometry":{"type":"Point","coordinates":[-35.39497,-6.59631]},"properties":{"id":10907,"name":"Caiçara","state_code":"PB","country_code":"BR"}},{"type":"Feature","geometry":{"type":"Point","coordinates":[-38.55528,-6.89028]},"properties":{"id":10915,"name":"Cajazeiras","state_code":"PB","country_code":"BR"}},{"type":"Feature","geometry":{"type":"Point","coordinates":[-37.81454,-6.94633]},"properties":{"id":10917,"name":"Cajazeirinhas","state_code":"PB","country_code":"BR"}},{"type":"Feature","geometry":{"type":"Point","coordinates":[-35.3487,-7.15105]},"properties":{"id":10924,"name":"Caldas Brandão","state_code":"PB","country_code":"BR"}},{"type":"Feature","geometry":{"type":"Point","coordinates":[-36.74211,-7.92695]},"properties":{"id":10936,"name":"Camalaú","state_code":"PB","country_code":"BR"}},{"type":"Feature","geometry":{"type":"Point","coordinates":[-35.88111,-7.23056]},"properties":{"id":10962,"name":"Campina Grande","state_code":"PB","country_code":"BR"}},{"type":"Feature","geometry":{"type":"Point","coordinates":[-35.183,-6.8915]},"properties":{"id":11073,"name":"Capim","state_code":"PB","country_code":"BR"}},{"type":"Feature","geometry":{"type":"Point","coordinates":[-36.50278,-7.79092]},"properties":{"id":11118,"name":"Caraúbas","state_code":"PB","country_code":"BR"}},{"type":"Feature","geometry":{"type":"Point","coordinates":[-38.32951,-7.02919]},"properties":{"id":11164,"name":"Carrapateira","state_code":"PB","country_code":"BR"}},{"type":"Feature","geometry":{"type":"Point","coordinates":[-35.81676,-6.7813]},"properties":{"id":11182,"name":"Casserengue","state_code":"PB","country_code":"BR"}},{"type":"Feature","geometry":{"type":"Point","coordinates":[-37.59654,-7.13699]},"properties":{"id":11203,"name":"Catingueira","state_code":"PB","country_code":"BR"}},{"type":"Feature","geometry":{"type":"Point","coordinates":[-37.74667,-6.34389]},"properties":{"id":11205,"name":"Catolé do Rocha","state_code":"PB","country_code":"BR"}},{"type":"Feature","geometry":{"type":"Point","coordinates":[-36.04194,-7.41991]},"properties":{"id":11211,"name":"Caturité","state_code":"PB","country_code":"BR"}},{"type":"Feature","geometry":{"type":"Point","coordinates":[-38.51375,-7.49917]},"properties":{"id":11344,"name":"Conceição","state_code":"PB","country_code":"BR"}},{"type":"Feature","geometry":{"type":"Point","coordinates":[-37.61864,-6.85244]},"properties":{"id":11370,"name":"Condado","state_code":"PB","country_code":"BR"}},{"type":"Feature","geometry":{"type":"Point","coordinates":[-34.9075,-7.25972]},"properties":{"id":11371,"name":"Conde","state_code":"PB","country_code":"BR"}},{"type":"Feature","geometry":{"type":"Point","coordinates":[-36.63487,-7.79578]},"properties":{"id":11377,"name":"Congo","state_code":"PB","country_code":"BR"}},{"type":"Feature","geometry":{"type":"Point","coordinates":[-37.94583,-7.01444]},"properties":{"id":11406,"name":"Coremas","state_code":"PB","country_code":"BR"}},{"type":"Feature","geometry":{"type":"Point","coordinates":[-36.61824,-7.66749]},"properties":{"id":11459,"name":"Coxixola","state_code":"PB","country_code":"BR"}},{"type":"Feature","geometry":{"type":"Point","coordinates":[-35.08639,-7.14]},"properties":{"id":11492,"name":"Cruz do Espírito Santo","state_code":"PB","country_code":"BR"}},{"type":"Feature","geometry":{"type":"Point","coordinates":[-36.33415,-6.86116]},"properties":{"id":11505,"name":"Cubati","state_code":"PB","country_code":"BR"}},{"type":"Feature","geometry":{"type":"Point","coordinates":[-36.15361,-6.48361]},"properties":{"id":11509,"name":"Cuité","state_code":"PB","country_code":"BR"}},{"type":"Feature","geometry":{"type":"Point","coordinates":[-35.26042,-6.89788]},"properties":{"id":11510,"name":"Cuité de Mamanguape","state_code":"PB","country_code":"BR"}},{"type":"Feature","geometry":{"type":"Point","coordinates":[-35.53423,-6.90639]},"properties":{"id":11508,"name":"Cuitegi","state_code":"PB","country_code":"BR"}},{"type":"Feature","geometry":{"type":"Point","coordinates":[-35.28596,-6.72359]},"properties":{"id":11531,"name":"Curral de Cima","state_code":"PB","country_code":"BR"}},{"type":"Feature","geometry":{"type":"Point","coordinates":[-38.19847,-7.55796]},"properties":{"id":11530,"name":"Curral Velho","state_code":"PB","country_code":"BR"}},{"type":"Feature","geometry":{"type":"Point","coordinates":[-35.92205,-6.67843]},"properties":{"id":11560,"name":"Damião","state_code":"PB","country_code":"BR"}},{"type":"Feature","geometry":{"type":"Point","coordinates":[-37.09389,-7.29056]},"properties":{"id":11579,"name":"Desterro","state_code":"PB","country_code":"BR"}},{"type":"Feature","geometry":{"type":"Point","coordinates":[-38.30873,-7.41004]},"properties":{"id":11584,"name":"Diamante","state_code":"PB","country_code":"BR"}},{"type":"Feature","geometry":{"type":"Point","coordinates":[-35.62654,-6.61354]},"properties":{"id":11642,"name":"Dona Inês","state_code":"PB","country_code":"BR"}},{"type":"Feature","geometry":{"type":"Point","coordinates":[-35.39737,-6.71946]},"properties":{"id":11665,"name":"Duas Estradas","state_code":"PB","country_code":"BR"}},{"type":"Feature","geometry":{"type":"Point","coordinates":[-37.73881,-7.1268]},"properties":{"id":11687,"name":"Emas","state_code":"PB","country_code":"BR"}},{"type":"Feature","geometry":{"type":"Point","coordinates":[-35.90777,-6.99864]},"properties":{"id":11731,"name":"Esperança","state_code":"PB","country_code":"BR"}},{"type":"Feature","geometry":{"type":"Point","coordinates":[-35.775,-7.355]},"properties":{"id":11770,"name":"Fagundes","state_code":"PB","country_code":"BR"}},{"type":"Feature","geometry":{"type":"Point","coordinates":[-36.48061,-6.44605]},"properties":{"id":11894,"name":"Frei Martinho","state_code":"PB","country_code":"BR"}},{"type":"Feature","geometry":{"type":"Point","coordinates":[-35.81967,-7.59984]},"properties":{"id":11911,"name":"Gado Bravo","state_code":"PB","country_code":"BR"}},{"type":"Feature","geometry":{"type":"Point","coordinates":[-35.49,-6.85472]},"properties":{"id":12034,"name":"Guarabira","state_code":"PB","country_code":"BR"}},{"type":"Feature","geometry":{"type":"Point","coordinates":[-35.42444,-7.12389]},"properties":{"id":12086,"name":"Gurinhém","state_code":"PB","country_code":"BR"}},{"type":"Feature","geometry":{"type":"Point","coordinates":[-36.50008,-7.261]},"properties":{"id":12087,"name":"Gurjão","state_code":"PB","country_code":"BR"}},{"type":"Feature","geometry":{"type":"Point","coordinates":[-38.38051,-7.48251]},"properties":{"id":12130,"name":"Ibiara","state_code":"PB","country_code":"BR"}},{"type":"Feature","geometry":{"type":"Point","coordinates":[-38.13526,-7.13856]},"properties":{"id":12179,"name":"Igaracy","state_code":"PB","country_code":"BR"}},{"type":"Feature","geometry":{"type":"Point","coordinates":[-37.50917,-7.38972]},"properties":{"id":12217,"name":"Imaculada","state_code":"PB","country_code":"BR"}},{"type":"Feature","geometry":{"type":"Point","coordinates":[-35.62897,-7.25441]},"properties":{"id":12245,"name":"Ingá","state_code":"PB","country_code":"BR"}},{"type":"Feature","geometry":{"type":"Point","coordinates":[-35.3325,-7.32861]},"properties":{"id":12325,"name":"Itabaiana","state_code":"PB","country_code":"BR"}},{"type":"Feature","geometry":{"type":"Point","coordinates":[-38.25159,-7.30035]},"properties":{"id":12430,"name":"Itaporanga","state_code":"PB","country_code":"BR"}},{"type":"Feature","geometry":{"type":"Point","coordinates":[-35.24478,-6.81152]},"properties":{"id":12432,"name":"Itapororoca","state_code":"PB","country_code":"BR"}},{"type":"Feature","geometry":{"type":"Point","coordinates":[-35.62833,-7.375]},"properties":{"id":12461,"name":"Itatuba","state_code":"PB","country_code":"BR"}},{"type":"Feature","geometry":{"type":"Point","coordinates":[-35.29278,-6.61222]},"properties":{"id":12518,"name":"Jacaraú","state_code":"PB","country_code":"BR"}},{"type":"Feature","geometry":{"type":"Point","coordinates":[-37.80665,-6.50746]},"properties":{"id":12621,"name":"Jericó","state_code":"PB","country_code":"BR"}},{"type":"Feature","geometry":{"type":"Point","coordinates":[-34.86306,-7.115]},"properties":{"id":12665,"name":"João Pessoa","state_code":"PB","country_code":"BR"}},{"type":"Feature","geometry":{"type":"Point","coordinates":[-38.46407,-6.48432]},"properties":{"id":12643,"name":"Joca Claudino","state_code":"PB","country_code":"BR"}},{"type":"Feature","geometry":{"type":"Point","coordinates":[-35.5716,-7.15975]},"properties":{"id":12669,"name":"Juarez Távora","state_code":"PB","country_code":"BR"}},{"type":"Feature","geometry":{"type":"Point","coordinates":[-36.60213,-6.99463]},"properties":{"id":12672,"name":"Juazeirinho","state_code":"PB","country_code":"BR"}},{"type":"Feature","geometry":{"type":"Point","coordinates":[-36.72769,-6.97843]},"properties":{"id":12683,"name":"Junco do Seridó","state_code":"PB","country_code":"BR"}},{"type":"Feature","geometry":{"type":"Point","coordinates":[-35.22087,-7.35]},"properties":{"id":12698,"name":"Juripiranga","state_code":"PB","country_code":"BR"}},{"type":"Feature","geometry":{"type":"Point","coordinates":[-37.78854,-7.49131]},"properties":{"id":12699,"name":"Juru","state_code":"PB","country_code":"BR"}},{"type":"Feature","geometry":{"type":"Point","coordinates":[-37.84991,-6.59521]},"properties":{"id":12733,"name":"Lagoa","state_code":"PB","country_code":"BR"}},{"type":"Feature","geometry":{"type":"Point","coordinates":[-35.35907,-6.68308]},"properties":{"id":12752,"name":"Lagoa de Dentro","state_code":"PB","country_code":"BR"}},{"type":"Feature","geometry":{"type":"Point","coordinates":[-35.85361,-7.17083]},"properties":{"id":12746,"name":"Lagoa Seca","state_code":"PB","country_code":"BR"}},{"type":"Feature","geometry":{"type":"Point","coordinates":[-38.18946,-6.5374]},"properties":{"id":12802,"name":"Lastro","state_code":"PB","country_code":"BR"}},{"type":"Feature","geometry":{"type":"Point","coordinates":[-36.93209,-7.34008]},"properties":{"id":12842,"name":"Livramento","state_code":"PB","country_code":"BR"}},{"type":"Feature","geometry":{"type":"Point","coordinates":[-35.42864,-6.55268]},"properties":{"id":12848,"name":"Logradouro","state_code":"PB","country_code":"BR"}},{"type":"Feature","geometry":{"type":"Point","coordinates":[-34.90267,-6.92461]},"properties":{"id":12858,"name":"Lucena","state_code":"PB","country_code":"BR"}},{"type":"Feature","geometry":{"type":"Point","coordinates":[-37.45284,-7.2199]},"properties":{"id":13292,"name":"Mãe d'Água","state_code":"PB","country_code":"BR"}},{"type":"Feature","geometry":{"type":"Point","coordinates":[-37.51251,-6.904]},"properties":{"id":12930,"name":"Malta","state_code":"PB","country_code":"BR"}},{"type":"Feature","geometry":{"type":"Point","coordinates":[-35.12611,-6.83861]},"properties":{"id":12931,"name":"Mamanguape","state_code":"PB","country_code":"BR"}},{"type":"Feature","geometry":{"type":"Point","coordinates":[-38.15444,-7.70611]},"properties":{"id":12940,"name":"Manaíra","state_code":"PB","country_code":"BR"}},{"type":"Feature","geometry":{"type":"Point","coordinates":[-34.99103,-6.74717]},"properties":{"id":12990,"name":"Marcação","state_code":"PB","country_code":"BR"}},{"type":"Feature","geometry":{"type":"Point","coordinates":[-35.30258,-7.07138]},"properties":{"id":13003,"name":"Mari","state_code":"PB","country_code":"BR"}},{"type":"Feature","geometry":{"type":"Point","coordinates":[-38.33496,-6.82133]},"properties":{"id":13023,"name":"Marizópolis","state_code":"PB","country_code":"BR"}},{"type":"Feature","geometry":{"type":"Point","coordinates":[-35.78379,-7.20476]},"properties":{"id":13043,"name":"Massaranduba","state_code":"PB","country_code":"BR"}},{"type":"Feature","geometry":{"type":"Point","coordinates":[-35.0369,-6.55476]},"properties":{"id":13050,"name":"Mataraca","state_code":"PB","country_code":"BR"}},{"type":"Feature","geometry":{"type":"Point","coordinates":[-35.7607,-7.12428]},"properties":{"id":13061,"name":"Matinhas","state_code":"PB","country_code":"BR"}},{"type":"Feature","geometry":{"type":"Point","coordinates":[-37.75067,-6.54728]},"properties":{"id":13065,"name":"Mato Grosso","state_code":"PB","country_code":"BR"}},{"type":"Feature","geometry":{"type":"Point","coordinates":[-37.3394,-7.27175]},"properties":{"id":13075,"name":"Maturéia","state_code":"PB","country_code":"BR"}},{"type":"Feature","geometry":{"type":"Point","coordinates":[-35.47944,-7.29944]},"properties":{"id":13164,"name":"Mogeiro","state_code":"PB","country_code":"BR"}},{"type":"Feature","geometry":{"type":"Point","coordinates":[-35.903,-7.08947]},"properties":{"id":13181,"name":"Montadas","state_code":"PB","country_code":"BR"}},{"type":"Feature","geometry":{"type":"Point","coordinates":[-38.52503,-7.20792]},"properties":{"id":13205,"name":"Monte Horebe","state_code":"PB","country_code":"BR"}},{"type":"Feature","geometry":{"type":"Point","coordinates":[-37.17496,-7.91637]},"properties":{"id":13215,"name":"Monteiro","state_code":"PB","country_code":"BR"}},{"type":"Feature","geometry":{"type":"Point","coordinates":[-35.46194,-7.02444]},"properties":{"id":13266,"name":"Mulungu","state_code":"PB","country_code":"BR"}},{"type":"Feature","geometry":{"type":"Point","coordinates":[-35.55,-7.64139]},"properties":{"id":13304,"name":"Natuba","state_code":"PB","country_code":"BR"}},{"type":"Feature","geometry":{"type":"Point","coordinates":[-38.32592,-6.91991]},"properties":{"id":13309,"name":"Nazarezinho","state_code":"PB","country_code":"BR"}},{"type":"Feature","geometry":{"type":"Point","coordinates":[-36.20101,-6.48792]},"properties":{"id":13379,"name":"Nova Floresta","state_code":"PB","country_code":"BR"}},{"type":"Feature","geometry":{"type":"Point","coordinates":[-38.01122,-7.45231]},"properties":{"id":13410,"name":"Nova Olinda","state_code":"PB","country_code":"BR"}},{"type":"Feature","geometry":{"type":"Point","coordinates":[-36.44186,-6.67346]},"properties":{"id":13417,"name":"Nova Palmeira","state_code":"PB","country_code":"BR"}},{"type":"Feature","geometry":{"type":"Point","coordinates":[-37.73242,-7.26106]},"properties":{"id":13494,"name":"Olho d'Água","state_code":"PB","country_code":"BR"}},{"type":"Feature","geometry":{"type":"Point","coordinates":[-36.23822,-6.99403]},"properties":{"id":13505,"name":"Olivedos","state_code":"PB","country_code":"BR"}},{"type":"Feature","geometry":{"type":"Point","coordinates":[-37.13565,-7.60554]},"properties":{"id":13544,"name":"Ouro Velho","state_code":"PB","country_code":"BR"}},{"type":"Feature","geometry":{"type":"Point","coordinates":[-36.67699,-7.31136]},"properties":{"id":13652,"name":"Parari","state_code":"PB","country_code":"BR"}},{"type":"Feature","geometry":{"type":"Point","coordinates":[-37.03671,-7.11889]},"properties":{"id":13692,"name":"Passagem","state_code":"PB","country_code":"BR"}},{"type":"Feature","geometry":{"type":"Point","coordinates":[-37.28,-7.02444]},"properties":{"id":13706,"name":"Patos","state_code":"PB","country_code":"BR"}},{"type":"Feature","geometry":{"type":"Point","coordinates":[-37.60966,-6.59504]},"properties":{"id":13726,"name":"Paulista","state_code":"PB","country_code":"BR"}},{"type":"Feature","geometry":{"type":"Point","coordinates":[-38.07996,-7.46068]},"properties":{"id":13750,"name":"Pedra Branca","state_code":"PB","country_code":"BR"}},{"type":"Feature","geometry":{"type":"Point","coordinates":[-36.442,-6.78024]},"properties":{"id":13754,"name":"Pedra Lavrada","state_code":"PB","country_code":"BR"}},{"type":"Feature","geometry":{"type":"Point","coordinates":[-35.11639,-7.40194]},"properties":{"id":13764,"name":"Pedras de Fogo","state_code":"PB","country_code":"BR"}},{"type":"Feature","geometry":{"type":"Point","coordinates":[-35.31031,-6.67047]},"properties":{"id":13781,"name":"Pedro Régis","state_code":"PB","country_code":"BR"}},{"type":"Feature","geometry":{"type":"Point","coordinates":[-37.92917,-7.19806]},"properties":{"id":13824,"name":"Piancó","state_code":"PB","country_code":"BR"}},{"type":"Feature","geometry":{"type":"Point","coordinates":[-36.34694,-6.51056]},"properties":{"id":13830,"name":"Picuí","state_code":"PB","country_code":"BR"}},{"type":"Feature","geometry":{"type":"Point","coordinates":[-35.26971,-7.25739]},"properties":{"id":13836,"name":"Pilar","state_code":"PB","country_code":"BR"}},{"type":"Feature","geometry":{"type":"Point","coordinates":[-35.59432,-6.89446]},"properties":{"id":13841,"name":"Pilões","state_code":"PB","country_code":"BR"}},{"type":"Feature","geometry":{"type":"Point","coordinates":[-35.54455,-6.85269]},"properties":{"id":13843,"name":"Pilõezinhos","state_code":"PB","country_code":"BR"}},{"type":"Feature","geometry":{"type":"Point","coordinates":[-35.49861,-6.78]},"properties":{"id":13920,"name":"Pirpirituba","state_code":"PB","country_code":"BR"}},{"type":"Feature","geometry":{"type":"Point","coordinates":[-34.83686,-7.41381]},"properties":{"id":13925,"name":"Pitimbu","state_code":"PB","country_code":"BR"}},{"type":"Feature","geometry":{"type":"Point","coordinates":[-36.06111,-7.07667]},"properties":{"id":13946,"name":"Pocinhos","state_code":"PB","country_code":"BR"}},{"type":"Feature","geometry":{"type":"Point","coordinates":[-38.53359,-6.38792]},"properties":{"id":14046,"name":"Poço Dantas","state_code":"PB","country_code":"BR"}},{"type":"Feature","geometry":{"type":"Point","coordinates":[-38.50574,-6.59957]},"properties":{"id":14052,"name":"Poço de José de Moura","state_code":"PB","country_code":"BR"}},{"type":"Feature","geometry":{"type":"Point","coordinates":[-37.80167,-6.77028]},"properties":{"id":13951,"name":"Pombal","state_code":"PB","country_code":"BR"}},{"type":"Feature","geometry":{"type":"Point","coordinates":[-37.09411,-7.7125]},"properties":{"id":14068,"name":"Prata","state_code":"PB","country_code":"BR"}},{"type":"Feature","geometry":{"type":"Point","coordinates":[-37.99333,-7.73667]},"properties":{"id":14107,"name":"Princesa Isabel","state_code":"PB","country_code":"BR"}},{"type":"Feature","geometry":{"type":"Point","coordinates":[-35.96056,-7.16111]},"properties":{"id":14118,"name":"Puxinanã","state_code":"PB","country_code":"BR"}},{"type":"Feature","geometry":{"type":"Point","coordinates":[-35.89774,-7.42696]},"properties":{"id":14140,"name":"Queimadas","state_code":"PB","country_code":"BR"}},{"type":"Feature","geometry":{"type":"Point","coordinates":[-37.11783,-7.05081]},"properties":{"id":14158,"name":"Quixaba","state_code":"PB","country_code":"BR"}},{"type":"Feature","geometry":{"type":"Point","coordinates":[-35.78039,-6.94646]},"properties":{"id":14194,"name":"Remígio","state_code":"PB","country_code":"BR"}},{"type":"Feature","geometry":{"type":"Point","coordinates":[-35.62324,-6.55515]},"properties":{"id":14221,"name":"Riachão","state_code":"PB","country_code":"BR"}},{"type":"Feature","geometry":{"type":"Point","coordinates":[-35.67518,-7.26337]},"properties":{"id":14223,"name":"Riachão do Bacamarte","state_code":"PB","country_code":"BR"}},{"type":"Feature","geometry":{"type":"Point","coordinates":[-35.303,-7.17041]},"properties":{"id":14226,"name":"Riachão do Poço","state_code":"PB","country_code":"BR"}},{"type":"Feature","geometry":{"type":"Point","coordinates":[-36.13551,-7.66143]},"properties":{"id":14215,"name":"Riacho de Santo Antônio","state_code":"PB","country_code":"BR"}},{"type":"Feature","geometry":{"type":"Point","coordinates":[-37.64024,-6.4714]},"properties":{"id":14216,"name":"Riacho dos Cavalos","state_code":"PB","country_code":"BR"}},{"type":"Feature","geometry":{"type":"Point","coordinates":[-35.03715,-6.79673]},"properties":{"id":14299,"name":"Rio Tinto","state_code":"PB","country_code":"BR"}},{"type":"Feature","geometry":{"type":"Point","coordinates":[-36.86318,-7.08934]},"properties":{"id":14382,"name":"Salgadinho","state_code":"PB","country_code":"BR"}},{"type":"Feature","geometry":{"type":"Point","coordinates":[-35.44056,-7.35694]},"properties":{"id":14385,"name":"Salgado de São Félix","state_code":"PB","country_code":"BR"}},{"type":"Feature","geometry":{"type":"Point","coordinates":[-35.93681,-7.72027]},"properties":{"id":14433,"name":"Santa Cecília","state_code":"PB","country_code":"BR"}},{"type":"Feature","geometry":{"type":"Point","coordinates":[-38.04968,-6.54542]},"properties":{"id":14440,"name":"Santa Cruz","state_code":"PB","country_code":"BR"}},{"type":"Feature","geometry":{"type":"Point","coordinates":[-38.59506,-6.72745]},"properties":{"id":14471,"name":"Santa Helena","state_code":"PB","country_code":"BR"}},{"type":"Feature","geometry":{"type":"Point","coordinates":[-38.59346,-7.68334]},"properties":{"id":14478,"name":"Santa Inês","state_code":"PB","country_code":"BR"}},{"type":"Feature","geometry":{"type":"Point","coordinates":[-36.91861,-6.87222]},"properties":{"id":14489,"name":"Santa Luzia","state_code":"PB","country_code":"BR"}},{"type":"Feature","geometry":{"type":"Point","coordinates":[-34.97387,-7.10437]},"properties":{"id":14525,"name":"Santa Rita","state_code":"PB","country_code":"BR"}},{"type":"Feature","geometry":{"type":"Point","coordinates":[-37.49654,-7.12089]},"properties":{"id":14552,"name":"Santa Teresinha","state_code":"PB","country_code":"BR"}},{"type":"Feature","geometry":{"type":"Point","coordinates":[-38.35848,-7.66593]},"properties":{"id":14574,"name":"Santana de Mangueira","state_code":"PB","country_code":"BR"}},{"type":"Feature","geometry":{"type":"Point","coordinates":[-37.95386,-7.38163]},"properties":{"id":14595,"name":"Santana dos Garrotes","state_code":"PB","country_code":"BR"}},{"type":"Feature","geometry":{"type":"Point","coordinates":[-36.6146,-7.24178]},"properties":{"id":14608,"name":"Santo André","state_code":"PB","country_code":"BR"}},{"type":"Feature","geometry":{"type":"Point","coordinates":[-37.75898,-6.88452]},"properties":{"id":14834,"name":"São Bentinho","state_code":"PB","country_code":"BR"}},{"type":"Feature","geometry":{"type":"Point","coordinates":[-37.47144,-6.47344]},"properties":{"id":14836,"name":"São Bento","state_code":"PB","country_code":"BR"}},{"type":"Feature","geometry":{"type":"Point","coordinates":[-37.91657,-6.80733]},"properties":{"id":14862,"name":"São Domingos","state_code":"PB","country_code":"BR"}},{"type":"Feature","geometry":{"type":"Point","coordinates":[-36.36393,-7.56749]},"properties":{"id":14870,"name":"São Domingos do Cariri","state_code":"PB","country_code":"BR"}},{"type":"Feature","geometry":{"type":"Point","coordinates":[-38.0378,-6.63302]},"properties":{"id":14879,"name":"São Francisco","state_code":"PB","country_code":"BR"}},{"type":"Feature","geometry":{"type":"Point","coordinates":[-36.48602,-7.48465]},"properties":{"id":15027,"name":"São João do Cariri","state_code":"PB","country_code":"BR"}},{"type":"Feature","geometry":{"type":"Point","coordinates":[-38.42942,-6.71851]},"properties":{"id":15042,"name":"São João do Rio do Peixe","state_code":"PB","country_code":"BR"}},{"type":"Feature","geometry":{"type":"Point","coordinates":[-36.79766,-8.10906]},"properties":{"id":15046,"name":"São João do Tigre","state_code":"PB","country_code":"BR"}},{"type":"Feature","geometry":{"type":"Point","coordinates":[-38.09393,-6.94245]},"properties":{"id":14943,"name":"São José da Lagoa Tapada","state_code":"PB","country_code":"BR"}},{"type":"Feature","geometry":{"type":"Point","coordinates":[-38.34483,-7.25916]},"properties":{"id":14952,"name":"São José de Caiana","state_code":"PB","country_code":"BR"}},{"type":"Feature","geometry":{"type":"Point","coordinates":[-37.38224,-6.80244]},"properties":{"id":14953,"name":"São José de Espinharas","state_code":"PB","country_code":"BR"}},{"type":"Feature","geometry":{"type":"Point","coordinates":[-38.50194,-7.12056]},"properties":{"id":14955,"name":"São José de Piranhas","state_code":"PB","country_code":"BR"}},{"type":"Feature","geometry":{"type":"Point","coordinates":[-38.08465,-7.70649]},"properties":{"id":14956,"name":"São José de Princesa","state_code":"PB","country_code":"BR"}},{"type":"Feature","geometry":{"type":"Point","coordinates":[-37.31607,-7.13715]},"properties":{"id":14962,"name":"São José do Bonfim","state_code":"PB","country_code":"BR"}},{"type":"Feature","geometry":{"type":"Point","coordinates":[-37.37932,-6.23731]},"properties":{"id":14963,"name":"São José do Brejo do Cruz","state_code":"PB","country_code":"BR"}},{"type":"Feature","geometry":{"type":"Point","coordinates":[-36.80335,-6.82784]},"properties":{"id":14986,"name":"São José do Sabugi","state_code":"PB","country_code":"BR"}},{"type":"Feature","geometry":{"type":"Point","coordinates":[-36.84773,-7.41638]},"properties":{"id":14994,"name":"São José dos Cordeiros","state_code":"PB","country_code":"BR"}},{"type":"Feature","geometry":{"type":"Point","coordinates":[-35.3741,-7.25103]},"properties":{"id":14997,"name":"São José dos Ramos","state_code":"PB","country_code":"BR"}},{"type":"Feature","geometry":{"type":"Point","coordinates":[-37.09131,-6.92111]},"properties":{"id":15068,"name":"São Mamede","state_code":"PB","country_code":"BR"}},{"type":"Feature","geometry":{"type":"Point","coordinates":[-35.20175,-7.21706]},"properties":{"id":15084,"name":"São Miguel de Taipu","state_code":"PB","country_code":"BR"}},{"type":"Feature","geometry":{"type":"Point","coordinates":[-35.84445,-7.08497]},"properties":{"id":15142,"name":"São Sebastião de Lagoa de Roça","state_code":"PB","country_code":"BR"}},{"type":"Feature","geometry":{"type":"Point","coordinates":[-37.0222,-8.1569]},"properties":{"id":15154,"name":"São Sebastião do Umbuzeiro","state_code":"PB","country_code":"BR"}},{"type":"Feature","geometry":{"type":"Point","coordinates":[-36.42652,-6.88683]},"properties":{"id":15173,"name":"São Vicente do Seridó","state_code":"PB","country_code":"BR"}},{"type":"Feature","geometry":{"type":"Point","coordinates":[-35.21734,-7.07937]},"properties":{"id":14665,"name":"Sapé","state_code":"PB","country_code":"BR"}},{"type":"Feature","geometry":{"type":"Point","coordinates":[-38.26667,-6.53333]},"properties":{"id":14725,"name":"Serra Branca","state_code":"PB","country_code":"BR"}},{"type":"Feature","geometry":{"type":"Point","coordinates":[-35.43579,-6.69703]},"properties":{"id":14735,"name":"Serra da Raiz","state_code":"PB","country_code":"BR"}},{"type":"Feature","geometry":{"type":"Point","coordinates":[-38.39588,-7.2509]},"properties":{"id":14728,"name":"Serra Grande","state_code":"PB","country_code":"BR"}},{"type":"Feature","geometry":{"type":"Point","coordinates":[-35.67628,-7.15665]},"properties":{"id":14733,"name":"Serra Redonda","state_code":"PB","country_code":"BR"}},{"type":"Feature","geometry":{"type":"Point","coordinates":[-35.66926,-6.86365]},"properties":{"id":14750,"name":"Serraria","state_code":"PB","country_code":"BR"}},{"type":"Feature","geometry":{"type":"Point","coordinates":[-35.41628,-6.73939]},"properties":{"id":14763,"name":"Sertãozinho","state_code":"PB","country_code":"BR"}},{"type":"Feature","geometry":{"type":"Point","coordinates":[-35.23251,-7.16887]},"properties":{"id":14797,"name":"Sobrado","state_code":"PB","country_code":"BR"}},{"type":"Feature","geometry":{"type":"Point","coordinates":[-35.69495,-6.73321]},"properties":{"id":14807,"name":"Solânea","state_code":"PB","country_code":"BR"}},{"type":"Feature","geometry":{"type":"Point","coordinates":[-36.36278,-7.05722]},"properties":{"id":14802,"name":"Soledade","state_code":"PB","country_code":"BR"}},{"type":"Feature","geometry":{"type":"Point","coordinates":[-36.17875,-6.67592]},"properties":{"id":14813,"name":"Sossêgo","state_code":"PB","country_code":"BR"}},{"type":"Feature","geometry":{"type":"Point","coordinates":[-38.18614,-6.73098]},"properties":{"id":14815,"name":"Sousa","state_code":"PB","country_code":"BR"}},{"type":"Feature","geometry":{"type":"Point","coordinates":[-36.88,-7.67167]},"properties":{"id":14825,"name":"Sumé","state_code":"PB","country_code":"BR"}},{"type":"Feature","geometry":{"type":"Point","coordinates":[-35.52277,-6.53805]},"properties":{"id":15196,"name":"Tacima","state_code":"PB","country_code":"BR"}},{"type":"Feature","geometry":{"type":"Point","coordinates":[-36.79197,-7.1687]},"properties":{"id":15230,"name":"Taperoá","state_code":"PB","country_code":"BR"}},{"type":"Feature","geometry":{"type":"Point","coordinates":[-37.87959,-7.61418]},"properties":{"id":15262,"name":"Tavares","state_code":"PB","country_code":"BR"}},{"type":"Feature","geometry":{"type":"Point","coordinates":[-37.27523,-7.24821]},"properties":{"id":15265,"name":"Teixeira","state_code":"PB","country_code":"BR"}},{"type":"Feature","geometry":{"type":"Point","coordinates":[-36.62216,-6.97568]},"properties":{"id":15277,"name":"Tenório","state_code":"PB","country_code":"BR"}},{"type":"Feature","geometry":{"type":"Point","coordinates":[-38.57827,-6.58475]},"properties":{"id":15362,"name":"Triunfo","state_code":"PB","country_code":"BR"}},{"type":"Feature","geometry":{"type":"Point","coordinates":[-38.38015,-6.4965]},"properties":{"id":15442,"name":"Uiraúna","state_code":"PB","country_code":"BR"}},{"type":"Feature","geometry":{"type":"Point","coordinates":[-35.73927,-7.67111]},"properties":{"id":15449,"name":"Umbuzeiro","state_code":"PB","country_code":"BR"}},{"type":"Feature","geometry":{"type":"Point","coordinates":[-37.03707,-6.80276]},"properties":{"id":15613,"name":"Várzea","state_code":"PB","country_code":"BR"}},{"type":"Feature","geometry":{"type":"Point","coordinates":[-38.27091,-6.55838]},"properties":{"id":15563,"name":"Vieirópolis","state_code":"PB","country_code":"BR"}},{"type":"Feature","geometry":{"type":"Point","coordinates":[-37.57597,-6.74167]},"properties":{"id":15593,"name":"Vista Serrana","state_code":"PB","country_code":"BR"}},{"type":"Feature","geometry":{"type":"Point","coordinates":[-37.05635,-8.07634]},"properties":{"id":15644,"name":"Zabelê","state_code":"PB","country_code":"BR"}}]}