{"type":"FeatureCollection","features":[{"type":"Feature","geometry":{"type":"Point","coordinates":[-54.10715,-31.64597]},"properties":{"id":10075,"name":"Aceguá","state_code":"RS","country_code":"BR"}},{"type":"Feature","geometry":{"type":"Point","coordinates":[-52.01286,-28.18543]},"properties":{"id":15664,"name":"Água Santa","state_code":"RS","country_code":"BR"}},{"type":"Feature","geometry":{"type":"Point","coordinates":[-53.22404,-29.62631]},"properties":{"id":10097,"name":"Agudo","state_code":"RS","country_code":"BR"}},{"type":"Feature","geometry":{"type":"Point","coordinates":[-53.74458,-28.20723]},"properties":{"id":10106,"name":"Ajuricaba","state_code":"RS","country_code":"BR"}},{"type":"Feature","geometry":{"type":"Point","coordinates":[-54.75943,-27.65897]},"properties":{"id":10122,"name":"Alecrim","state_code":"RS","country_code":"BR"}},{"type":"Feature","geometry":{"type":"Point","coordinates":[-55.79194,-29.78306]},"properties":{"id":10124,"name":"Alegrete","state_code":"RS","country_code":"BR"}},{"type":"Feature","geometry":{"type":"Point","coordinates":[-54.05855,-27.79967]},"properties":{"id":10126,"name":"Alegria","state_code":"RS","country_code":"BR"}},{"type":"Feature","geometry":{"type":"Point","coordinates":[-52.91142,-28.15104]},"properties":{"id":10145,"name":"Almirante Tamandaré do Sul","state_code":"RS","country_code":"BR"}},{"type":"Feature","geometry":{"type":"Point","coordinates":[-53.05749,-27.22135]},"properties":{"id":10148,"name":"Alpestre","state_code":"RS","country_code":"BR"}},{"type":"Feature","geometry":{"type":"Point","coordinates":[-52.98177,-28.79752]},"properties":{"id":10161,"name":"Alto Alegre","state_code":"RS","country_code":"BR"}},{"type":"Feature","geometry":{"type":"Point","coordinates":[-51.30068,-29.36438]},"properties":{"id":10169,"name":"Alto Feliz","state_code":"RS","country_code":"BR"}},{"type":"Feature","geometry":{"type":"Point","coordinates":[-51.03717,-29.98897]},"properties":{"id":10195,"name":"Alvorada","state_code":"RS","country_code":"BR"}},{"type":"Feature","geometry":{"type":"Point","coordinates":[-52.29964,-30.80769]},"properties":{"id":10207,"name":"Amaral Ferrador","state_code":"RS","country_code":"BR"}},{"type":"Feature","geometry":{"type":"Point","coordinates":[-53.18701,-27.36698]},"properties":{"id":10215,"name":"Ametista do Sul","state_code":"RS","country_code":"BR"}},{"type":"Feature","geometry":{"type":"Point","coordinates":[-51.49976,-28.58832]},"properties":{"id":10248,"name":"André da Rocha","state_code":"RS","country_code":"BR"}},{"type":"Feature","geometry":{"type":"Point","coordinates":[-51.97107,-28.96836]},"properties":{"id":10267,"name":"Anta Gorda","state_code":"RS","country_code":"BR"}},{"type":"Feature","geometry":{"type":"Point","coordinates":[-51.31744,-28.87322]},"properties":{"id":10280,"name":"Antônio Prado","state_code":"RS","country_code":"BR"}},{"type":"Feature","geometry":{"type":"Point","coordinates":[-51.55614,-30.91331]},"properties":{"id":10331,"name":"Arambaré","state_code":"RS","country_code":"BR"}},{"type":"Feature","geometry":{"type":"Point","coordinates":[-50.9335,-29.64987]},"properties":{"id":10353,"name":"Araricá","state_code":"RS","country_code":"BR"}},{"type":"Feature","geometry":{"type":"Point","coordinates":[-52.29009,-27.37708]},"properties":{"id":10360,"name":"Aratiba","state_code":"RS","country_code":"BR"}},{"type":"Feature","geometry":{"type":"Point","coordinates":[-51.945,-29.40111]},"properties":{"id":10412,"name":"Arroio do Meio","state_code":"RS","country_code":"BR"}},{"type":"Feature","geometry":{"type":"Point","coordinates":[-52.39642,-31.43927]},"properties":{"id":10413,"name":"Arroio do Padre","state_code":"RS","country_code":"BR"}},{"type":"Feature","geometry":{"type":"Point","coordinates":[-49.89148,-29.5293]},"properties":{"id":10414,"name":"Arroio do Sal","state_code":"RS","country_code":"BR"}},{"type":"Feature","geometry":{"type":"Point","coordinates":[-53.0606,-29.26209]},"properties":{"id":10415,"name":"Arroio do Tigre","state_code":"RS","country_code":"BR"}},{"type":"Feature","geometry":{"type":"Point","coordinates":[-51.72917,-30.07722]},"properties":{"id":10416,"name":"Arroio dos Ratos","state_code":"RS","country_code":"BR"}},{"type":"Feature","geometry":{"type":"Point","coordinates":[-52.86652,-32.17945]},"properties":{"id":10410,"name":"Arroio Grande","state_code":"RS","country_code":"BR"}},{"type":"Feature","geometry":{"type":"Point","coordinates":[-52.19631,-28.86971]},"properties":{"id":10421,"name":"Arvorezinha","state_code":"RS","country_code":"BR"}},{"type":"Feature","geometry":{"type":"Point","coordinates":[-53.97927,-28.54034]},"properties":{"id":10444,"name":"Augusto Pestana","state_code":"RS","country_code":"BR"}},{"type":"Feature","geometry":{"type":"Point","coordinates":[-52.0656,-27.69538]},"properties":{"id":15680,"name":"Áurea","state_code":"RS","country_code":"BR"}},{"type":"Feature","geometry":{"type":"Point","coordinates":[-54.10694,-31.33139]},"properties":{"id":10474,"name":"Bagé","state_code":"RS","country_code":"BR"}},{"type":"Feature","geometry":{"type":"Point","coordinates":[-50.29309,-30.21275]},"properties":{"id":10488,"name":"Balneário Pinhal","state_code":"RS","country_code":"BR"}},{"type":"Feature","geometry":{"type":"Point","coordinates":[-51.5462,-29.39636]},"properties":{"id":10570,"name":"Barão","state_code":"RS","country_code":"BR"}},{"type":"Feature","geometry":{"type":"Point","coordinates":[-52.44751,-27.55108]},"properties":{"id":10573,"name":"Barão de Cotegipe","state_code":"RS","country_code":"BR"}},{"type":"Feature","geometry":{"type":"Point","coordinates":[-51.79493,-30.39257]},"properties":{"id":10577,"name":"Barão do Triunfo","state_code":"RS","country_code":"BR"}},{"type":"Feature","geometry":{"type":"Point","coordinates":[-53.76461,-27.21739]},"properties":{"id":10536,"name":"Barra do Guarita","state_code":"RS","country_code":"BR"}},{"type":"Feature","geometry":{"type":"Point","coordinates":[-57.31007,-30.17445]},"properties":{"id":10541,"name":"Barra do Quaraí","state_code":"RS","country_code":"BR"}},{"type":"Feature","geometry":{"type":"Point","coordinates":[-51.36125,-30.34435]},"properties":{"id":10542,"name":"Barra do Ribeiro","state_code":"RS","country_code":"BR"}},{"type":"Feature","geometry":{"type":"Point","coordinates":[-52.40887,-27.39848]},"properties":{"id":10543,"name":"Barra do Rio Azul","state_code":"RS","country_code":"BR"}},{"type":"Feature","geometry":{"type":"Point","coordinates":[-53.03286,-27.91562]},"properties":{"id":10518,"name":"Barra Funda","state_code":"RS","country_code":"BR"}},{"type":"Feature","geometry":{"type":"Point","coordinates":[-51.44229,-27.73726]},"properties":{"id":10548,"name":"Barracão","state_code":"RS","country_code":"BR"}},{"type":"Feature","geometry":{"type":"Point","coordinates":[-52.57508,-29.13534]},"properties":{"id":10567,"name":"Barros Cassal","state_code":"RS","country_code":"BR"}},{"type":"Feature","geometry":{"type":"Point","coordinates":[-52.6547,-27.48726]},"properties":{"id":10627,"name":"Benjamin Constant do Sul","state_code":"RS","country_code":"BR"}},{"type":"Feature","geometry":{"type":"Point","coordinates":[-51.54344,-29.09958]},"properties":{"id":10629,"name":"Bento Gonçalves","state_code":"RS","country_code":"BR"}},{"type":"Feature","geometry":{"type":"Point","coordinates":[-53.35253,-27.69239]},"properties":{"id":10669,"name":"Boa Vista das Missões","state_code":"RS","country_code":"BR"}},{"type":"Feature","geometry":{"type":"Point","coordinates":[-54.10928,-27.68021]},"properties":{"id":10670,"name":"Boa Vista do Buricá","state_code":"RS","country_code":"BR"}},{"type":"Feature","geometry":{"type":"Point","coordinates":[-53.81616,-28.62211]},"properties":{"id":10671,"name":"Boa Vista do Cadeado","state_code":"RS","country_code":"BR"}},{"type":"Feature","geometry":{"type":"Point","coordinates":[-53.45649,-28.84193]},"properties":{"id":10673,"name":"Boa Vista do Incra","state_code":"RS","country_code":"BR"}},{"type":"Feature","geometry":{"type":"Point","coordinates":[-51.68079,-29.34197]},"properties":{"id":10675,"name":"Boa Vista do Sul","state_code":"RS","country_code":"BR"}},{"type":"Feature","geometry":{"type":"Point","coordinates":[-50.46197,-28.59981]},"properties":{"id":10701,"name":"Bom Jesus","state_code":"RS","country_code":"BR"}},{"type":"Feature","geometry":{"type":"Point","coordinates":[-51.36405,-29.46171]},"properties":{"id":10719,"name":"Bom Princípio","state_code":"RS","country_code":"BR"}},{"type":"Feature","geometry":{"type":"Point","coordinates":[-53.82889,-27.54223]},"properties":{"id":10721,"name":"Bom Progresso","state_code":"RS","country_code":"BR"}},{"type":"Feature","geometry":{"type":"Point","coordinates":[-51.91097,-29.63558]},"properties":{"id":10724,"name":"Bom Retiro do Sul","state_code":"RS","country_code":"BR"}},{"type":"Feature","geometry":{"type":"Point","coordinates":[-52.39841,-29.31252]},"properties":{"id":10744,"name":"Boqueirão do Leão","state_code":"RS","country_code":"BR"}},{"type":"Feature","geometry":{"type":"Point","coordinates":[-54.96188,-28.67113]},"properties":{"id":10756,"name":"Bossoroca","state_code":"RS","country_code":"BR"}},{"type":"Feature","geometry":{"type":"Point","coordinates":[-53.76893,-28.3658]},"properties":{"id":10762,"name":"Bozano","state_code":"RS","country_code":"BR"}},{"type":"Feature","geometry":{"type":"Point","coordinates":[-53.76214,-27.57218]},"properties":{"id":10763,"name":"Braga","state_code":"RS","country_code":"BR"}},{"type":"Feature","geometry":{"type":"Point","coordinates":[-51.59193,-29.55754]},"properties":{"id":10804,"name":"Brochier","state_code":"RS","country_code":"BR"}},{"type":"Feature","geometry":{"type":"Point","coordinates":[-51.96222,-30.11972]},"properties":{"id":10838,"name":"Butiá","state_code":"RS","country_code":"BR"}},{"type":"Feature","geometry":{"type":"Point","coordinates":[-53.47227,-30.61002]},"properties":{"id":11223,"name":"Caçapava do Sul","state_code":"RS","country_code":"BR"}},{"type":"Feature","geometry":{"type":"Point","coordinates":[-54.825,-29.88361]},"properties":{"id":10860,"name":"Cacequi","state_code":"RS","country_code":"BR"}},{"type":"Feature","geometry":{"type":"Point","coordinates":[-52.97067,-30.20808]},"properties":{"id":10873,"name":"Cachoeira do Sul","state_code":"RS","country_code":"BR"}},{"type":"Feature","geometry":{"type":"Point","coordinates":[-51.09389,-29.95111]},"properties":{"id":10877,"name":"Cachoeirinha","state_code":"RS","country_code":"BR"}},{"type":"Feature","geometry":{"type":"Point","coordinates":[-51.68271,-27.8173]},"properties":{"id":10884,"name":"Cacique Doble","state_code":"RS","country_code":"BR"}},{"type":"Feature","geometry":{"type":"Point","coordinates":[-54.65585,-28.30429]},"properties":{"id":10901,"name":"Caibaté","state_code":"RS","country_code":"BR"}},{"type":"Feature","geometry":{"type":"Point","coordinates":[-53.45824,-27.24828]},"properties":{"id":10908,"name":"Caiçara","state_code":"RS","country_code":"BR"}},{"type":"Feature","geometry":{"type":"Point","coordinates":[-51.85302,-30.91965]},"properties":{"id":10940,"name":"Camaquã","state_code":"RS","country_code":"BR"}},{"type":"Feature","geometry":{"type":"Point","coordinates":[-52.21986,-28.61437]},"properties":{"id":10942,"name":"Camargo","state_code":"RS","country_code":"BR"}},{"type":"Feature","geometry":{"type":"Point","coordinates":[-50.11848,-29.06727]},"properties":{"id":10945,"name":"Cambará do Sul","state_code":"RS","country_code":"BR"}},{"type":"Feature","geometry":{"type":"Point","coordinates":[-51.11921,-28.70645]},"properties":{"id":10959,"name":"Campestre da Serra","state_code":"RS","country_code":"BR"}},{"type":"Feature","geometry":{"type":"Point","coordinates":[-54.8302,-27.98729]},"properties":{"id":10966,"name":"Campina das Missões","state_code":"RS","country_code":"BR"}},{"type":"Feature","geometry":{"type":"Point","coordinates":[-52.63937,-27.70629]},"properties":{"id":10972,"name":"Campinas do Sul","state_code":"RS","country_code":"BR"}},{"type":"Feature","geometry":{"type":"Point","coordinates":[-51.05054,-29.66716]},"properties":{"id":10984,"name":"Campo Bom","state_code":"RS","country_code":"BR"}},{"type":"Feature","geometry":{"type":"Point","coordinates":[-53.81745,-27.67313]},"properties":{"id":10999,"name":"Campo Novo","state_code":"RS","country_code":"BR"}},{"type":"Feature","geometry":{"type":"Point","coordinates":[-53.02543,-28.89387]},"properties":{"id":11010,"name":"Campos Borges","state_code":"RS","country_code":"BR"}},{"type":"Feature","geometry":{"type":"Point","coordinates":[-52.80968,-29.71623]},"properties":{"id":11036,"name":"Candelária","state_code":"RS","country_code":"BR"}},{"type":"Feature","geometry":{"type":"Point","coordinates":[-54.74128,-27.89509]},"properties":{"id":11545,"name":"Cândido Godói","state_code":"RS","country_code":"BR"}},{"type":"Feature","geometry":{"type":"Point","coordinates":[-53.70274,-31.49089]},"properties":{"id":11038,"name":"Candiota","state_code":"RS","country_code":"BR"}},{"type":"Feature","geometry":{"type":"Point","coordinates":[-50.77536,-29.34715]},"properties":{"id":11040,"name":"Canela","state_code":"RS","country_code":"BR"}},{"type":"Feature","geometry":{"type":"Point","coordinates":[-52.67556,-31.395]},"properties":{"id":11043,"name":"Canguçu","state_code":"RS","country_code":"BR"}},{"type":"Feature","geometry":{"type":"Point","coordinates":[-51.18361,-29.91778]},"properties":{"id":11049,"name":"Canoas","state_code":"RS","country_code":"BR"}},{"type":"Feature","geometry":{"type":"Point","coordinates":[-52.22476,-29.32055]},"properties":{"id":11058,"name":"Canudos do Vale","state_code":"RS","country_code":"BR"}},{"type":"Feature","geometry":{"type":"Point","coordinates":[-51.42298,-28.17432]},"properties":{"id":11097,"name":"Capão Bonito do Sul","state_code":"RS","country_code":"BR"}},{"type":"Feature","geometry":{"type":"Point","coordinates":[-50.01422,-29.66118]},"properties":{"id":11098,"name":"Capão da Canoa","state_code":"RS","country_code":"BR"}},{"type":"Feature","geometry":{"type":"Point","coordinates":[-54.60368,-28.94987]},"properties":{"id":11099,"name":"Capão do Cipó","state_code":"RS","country_code":"BR"}},{"type":"Feature","geometry":{"type":"Point","coordinates":[-52.55323,-31.84324]},"properties":{"id":11100,"name":"Capão do Leão","state_code":"RS","country_code":"BR"}},{"type":"Feature","geometry":{"type":"Point","coordinates":[-51.38078,-29.71236]},"properties":{"id":11068,"name":"Capela de Santana","state_code":"RS","country_code":"BR"}},{"type":"Feature","geometry":{"type":"Point","coordinates":[-51.98317,-29.2802]},"properties":{"id":11080,"name":"Capitão","state_code":"RS","country_code":"BR"}},{"type":"Feature","geometry":{"type":"Point","coordinates":[-50.48702,-30.17289]},"properties":{"id":11090,"name":"Capivari do Sul","state_code":"RS","country_code":"BR"}},{"type":"Feature","geometry":{"type":"Point","coordinates":[-50.35369,-29.77397]},"properties":{"id":11114,"name":"Caraá","state_code":"RS","country_code":"BR"}},{"type":"Feature","geometry":{"type":"Point","coordinates":[-52.78639,-28.28389]},"properties":{"id":11113,"name":"Carazinho","state_code":"RS","country_code":"BR"}},{"type":"Feature","geometry":{"type":"Point","coordinates":[-51.50361,-29.2975]},"properties":{"id":11138,"name":"Carlos Barbosa","state_code":"RS","country_code":"BR"}},{"type":"Feature","geometry":{"type":"Point","coordinates":[-51.90645,-27.71183]},"properties":{"id":11140,"name":"Carlos Gomes","state_code":"RS","country_code":"BR"}},{"type":"Feature","geometry":{"type":"Point","coordinates":[-51.9198,-28.5759]},"properties":{"id":11174,"name":"Casca","state_code":"RS","country_code":"BR"}},{"type":"Feature","geometry":{"type":"Point","coordinates":[-51.78157,-28.23222]},"properties":{"id":11179,"name":"Caseiros","state_code":"RS","country_code":"BR"}},{"type":"Feature","geometry":{"type":"Point","coordinates":[-54.05868,-28.19806]},"properties":{"id":11213,"name":"Catuípe","state_code":"RS","country_code":"BR"}},{"type":"Feature","geometry":{"type":"Point","coordinates":[-51.17944,-29.16806]},"properties":{"id":11219,"name":"Caxias do Sul","state_code":"RS","country_code":"BR"}},{"type":"Feature","geometry":{"type":"Point","coordinates":[-52.00905,-27.78654]},"properties":{"id":11236,"name":"Centenário","state_code":"RS","country_code":"BR"}},{"type":"Feature","geometry":{"type":"Point","coordinates":[-52.78378,-31.73952]},"properties":{"id":11248,"name":"Cerrito","state_code":"RS","country_code":"BR"}},{"type":"Feature","geometry":{"type":"Point","coordinates":[-52.98725,-29.63374]},"properties":{"id":11250,"name":"Cerro Branco","state_code":"RS","country_code":"BR"}},{"type":"Feature","geometry":{"type":"Point","coordinates":[-53.16028,-27.62261]},"properties":{"id":11252,"name":"Cerro Grande","state_code":"RS","country_code":"BR"}},{"type":"Feature","geometry":{"type":"Point","coordinates":[-51.74239,-30.58623]},"properties":{"id":11253,"name":"Cerro Grande do Sul","state_code":"RS","country_code":"BR"}},{"type":"Feature","geometry":{"type":"Point","coordinates":[-54.73667,-28.1349]},"properties":{"id":11254,"name":"Cerro Largo","state_code":"RS","country_code":"BR"}},{"type":"Feature","geometry":{"type":"Point","coordinates":[-53.08861,-28.10434]},"properties":{"id":11259,"name":"Chapada","state_code":"RS","country_code":"BR"}},{"type":"Feature","geometry":{"type":"Point","coordinates":[-51.62528,-29.95472]},"properties":{"id":11271,"name":"Charqueadas","state_code":"RS","country_code":"BR"}},{"type":"Feature","geometry":{"type":"Point","coordinates":[-51.99053,-27.94543]},"properties":{"id":11272,"name":"Charrua","state_code":"RS","country_code":"BR"}},{"type":"Feature","geometry":{"type":"Point","coordinates":[-53.92051,-27.9763]},"properties":{"id":11277,"name":"Chiapetta","state_code":"RS","country_code":"BR"}},{"type":"Feature","geometry":{"type":"Point","coordinates":[-53.45667,-33.69111]},"properties":{"id":11284,"name":"Chuí","state_code":"RS","country_code":"BR"}},{"type":"Feature","geometry":{"type":"Point","coordinates":[-52.00221,-30.77649]},"properties":{"id":11283,"name":"Chuvisca","state_code":"RS","country_code":"BR"}},{"type":"Feature","geometry":{"type":"Point","coordinates":[-50.26938,-30.09103]},"properties":{"id":11293,"name":"Cidreira","state_code":"RS","country_code":"BR"}},{"type":"Feature","geometry":{"type":"Point","coordinates":[-51.91242,-28.37066]},"properties":{"id":11296,"name":"Ciríaco","state_code":"RS","country_code":"BR"}},{"type":"Feature","geometry":{"type":"Point","coordinates":[-51.86831,-29.39282]},"properties":{"id":11323,"name":"Colinas","state_code":"RS","country_code":"BR"}},{"type":"Feature","geometry":{"type":"Point","coordinates":[-52.99088,-28.4832]},"properties":{"id":11330,"name":"Colorado","state_code":"RS","country_code":"BR"}},{"type":"Feature","geometry":{"type":"Point","coordinates":[-53.49261,-28.19261]},"properties":{"id":11374,"name":"Condor","state_code":"RS","country_code":"BR"}},{"type":"Feature","geometry":{"type":"Point","coordinates":[-53.00221,-27.70625]},"properties":{"id":11388,"name":"Constantina","state_code":"RS","country_code":"BR"}},{"type":"Feature","geometry":{"type":"Point","coordinates":[-52.10209,-29.17479]},"properties":{"id":11393,"name":"Coqueiro Baixo","state_code":"RS","country_code":"BR"}},{"type":"Feature","geometry":{"type":"Point","coordinates":[-52.76136,-28.13683]},"properties":{"id":11395,"name":"Coqueiros do Sul","state_code":"RS","country_code":"BR"}},{"type":"Feature","geometry":{"type":"Point","coordinates":[-54.06367,-28.39445]},"properties":{"id":11415,"name":"Coronel Barros","state_code":"RS","country_code":"BR"}},{"type":"Feature","geometry":{"type":"Point","coordinates":[-53.6531,-27.79949]},"properties":{"id":11416,"name":"Coronel Bicaco","state_code":"RS","country_code":"BR"}},{"type":"Feature","geometry":{"type":"Point","coordinates":[-51.71821,-29.25977]},"properties":{"id":11428,"name":"Coronel Pilar","state_code":"RS","country_code":"BR"}},{"type":"Feature","geometry":{"type":"Point","coordinates":[-51.69528,-29.00719]},"properties":{"id":11453,"name":"Cotiporã","state_code":"RS","country_code":"BR"}},{"type":"Feature","geometry":{"type":"Point","coordinates":[-52.36576,-28.10327]},"properties":{"id":11457,"name":"Coxilha","state_code":"RS","country_code":"BR"}},{"type":"Feature","geometry":{"type":"Point","coordinates":[-54.14173,-27.48087]},"properties":{"id":11466,"name":"Crissiumal","state_code":"RS","country_code":"BR"}},{"type":"Feature","geometry":{"type":"Point","coordinates":[-52.02929,-31.02454]},"properties":{"id":11469,"name":"Cristal","state_code":"RS","country_code":"BR"}},{"type":"Feature","geometry":{"type":"Point","coordinates":[-53.24362,-27.42515]},"properties":{"id":11470,"name":"Cristal do Sul","state_code":"RS","country_code":"BR"}},{"type":"Feature","geometry":{"type":"Point","coordinates":[-53.60633,-28.64397]},"properties":{"id":11489,"name":"Cruz Alta","state_code":"RS","country_code":"BR"}},{"type":"Feature","geometry":{"type":"Point","coordinates":[-52.63264,-27.64105]},"properties":{"id":11493,"name":"Cruzaltense","state_code":"RS","country_code":"BR"}},{"type":"Feature","geometry":{"type":"Point","coordinates":[-52.03042,-29.56709]},"properties":{"id":11500,"name":"Cruzeiro do Sul","state_code":"RS","country_code":"BR"}},{"type":"Feature","geometry":{"type":"Point","coordinates":[-51.8168,-28.41776]},"properties":{"id":11564,"name":"David Canabarro","state_code":"RS","country_code":"BR"}},{"type":"Feature","geometry":{"type":"Point","coordinates":[-53.88415,-27.25025]},"properties":{"id":11575,"name":"Derrubadas","state_code":"RS","country_code":"BR"}},{"type":"Feature","geometry":{"type":"Point","coordinates":[-55.07548,-28.19125]},"properties":{"id":11582,"name":"Dezesseis de Novembro","state_code":"RS","country_code":"BR"}},{"type":"Feature","geometry":{"type":"Point","coordinates":[-54.15398,-29.80603]},"properties":{"id":11592,"name":"Dilermando de Aguiar","state_code":"RS","country_code":"BR"}},{"type":"Feature","geometry":{"type":"Point","coordinates":[-51.09333,-29.61158]},"properties":{"id":11614,"name":"Dois Irmãos","state_code":"RS","country_code":"BR"}},{"type":"Feature","geometry":{"type":"Point","coordinates":[-53.51477,-27.68117]},"properties":{"id":11615,"name":"Dois Irmãos das Missões","state_code":"RS","country_code":"BR"}},{"type":"Feature","geometry":{"type":"Point","coordinates":[-51.8497,-28.97092]},"properties":{"id":11618,"name":"Dois Lajeados","state_code":"RS","country_code":"BR"}},{"type":"Feature","geometry":{"type":"Point","coordinates":[-52.19315,-30.6139]},"properties":{"id":11628,"name":"Dom Feliciano","state_code":"RS","country_code":"BR"}},{"type":"Feature","geometry":{"type":"Point","coordinates":[-54.67306,-30.98278]},"properties":{"id":11632,"name":"Dom Pedrito","state_code":"RS","country_code":"BR"}},{"type":"Feature","geometry":{"type":"Point","coordinates":[-49.87288,-29.35681]},"properties":{"id":11634,"name":"Dom Pedro de Alcântara","state_code":"RS","country_code":"BR"}},{"type":"Feature","geometry":{"type":"Point","coordinates":[-53.33964,-29.58683]},"properties":{"id":11641,"name":"Dona Francisca","state_code":"RS","country_code":"BR"}},{"type":"Feature","geometry":{"type":"Point","coordinates":[-54.364,-27.4954]},"properties":{"id":11656,"name":"Doutor Maurício Cardoso","state_code":"RS","country_code":"BR"}},{"type":"Feature","geometry":{"type":"Point","coordinates":[-51.9744,-29.10117]},"properties":{"id":11658,"name":"Doutor Ricardo","state_code":"RS","country_code":"BR"}},{"type":"Feature","geometry":{"type":"Point","coordinates":[-51.534,-30.08896]},"properties":{"id":11680,"name":"Eldorado do Sul","state_code":"RS","country_code":"BR"}},{"type":"Feature","geometry":{"type":"Point","coordinates":[-51.86972,-29.23611]},"properties":{"id":11694,"name":"Encantado","state_code":"RS","country_code":"BR"}},{"type":"Feature","geometry":{"type":"Point","coordinates":[-52.6828,-30.60368]},"properties":{"id":11697,"name":"Encruzilhada do Sul","state_code":"RS","country_code":"BR"}},{"type":"Feature","geometry":{"type":"Point","coordinates":[-52.9104,-27.67698]},"properties":{"id":11703,"name":"Engenho Velho","state_code":"RS","country_code":"BR"}},{"type":"Feature","geometry":{"type":"Point","coordinates":[-52.72855,-27.50821]},"properties":{"id":11709,"name":"Entre Rios do Sul","state_code":"RS","country_code":"BR"}},{"type":"Feature","geometry":{"type":"Point","coordinates":[-54.30321,-28.46066]},"properties":{"id":11710,"name":"Entre-Ijuís","state_code":"RS","country_code":"BR"}},{"type":"Feature","geometry":{"type":"Point","coordinates":[-52.31909,-27.82558]},"properties":{"id":11715,"name":"Erebango","state_code":"RS","country_code":"BR"}},{"type":"Feature","geometry":{"type":"Point","coordinates":[-52.2754,-27.63461]},"properties":{"id":11716,"name":"Erechim","state_code":"RS","country_code":"BR"}},{"type":"Feature","geometry":{"type":"Point","coordinates":[-52.57365,-28.42323]},"properties":{"id":11719,"name":"Ernestina","state_code":"RS","country_code":"BR"}},{"type":"Feature","geometry":{"type":"Point","coordinates":[-52.57486,-27.36138]},"properties":{"id":11720,"name":"Erval Grande","state_code":"RS","country_code":"BR"}},{"type":"Feature","geometry":{"type":"Point","coordinates":[-53.52792,-27.49433]},"properties":{"id":11721,"name":"Erval Seco","state_code":"RS","country_code":"BR"}},{"type":"Feature","geometry":{"type":"Point","coordinates":[-51.19413,-27.98347]},"properties":{"id":11725,"name":"Esmeralda","state_code":"RS","country_code":"BR"}},{"type":"Feature","geometry":{"type":"Point","coordinates":[-54.01108,-27.321]},"properties":{"id":11733,"name":"Esperança do Sul","state_code":"RS","country_code":"BR"}},{"type":"Feature","geometry":{"type":"Point","coordinates":[-52.84972,-28.72472]},"properties":{"id":11738,"name":"Espumoso","state_code":"RS","country_code":"BR"}},{"type":"Feature","geometry":{"type":"Point","coordinates":[-52.29516,-27.93562]},"properties":{"id":11743,"name":"Estação","state_code":"RS","country_code":"BR"}},{"type":"Feature","geometry":{"type":"Point","coordinates":[-51.17389,-29.64833]},"properties":{"id":11758,"name":"Estância Velha","state_code":"RS","country_code":"BR"}},{"type":"Feature","geometry":{"type":"Point","coordinates":[-51.17917,-29.86139]},"properties":{"id":11744,"name":"Esteio","state_code":"RS","country_code":"BR"}},{"type":"Feature","geometry":{"type":"Point","coordinates":[-50.93833,-28.06111]},"properties":{"id":11748,"name":"Estrela","state_code":"RS","country_code":"BR"}},{"type":"Feature","geometry":{"type":"Point","coordinates":[-53.17076,-29.2236]},"properties":{"id":11750,"name":"Estrela Velha","state_code":"RS","country_code":"BR"}},{"type":"Feature","geometry":{"type":"Point","coordinates":[-54.26582,-28.57179]},"properties":{"id":11762,"name":"Eugênio de Castro","state_code":"RS","country_code":"BR"}},{"type":"Feature","geometry":{"type":"Point","coordinates":[-51.72861,-28.88133]},"properties":{"id":11771,"name":"Fagundes Varela","state_code":"RS","country_code":"BR"}},{"type":"Feature","geometry":{"type":"Point","coordinates":[-51.34778,-29.225]},"properties":{"id":11778,"name":"Farroupilha","state_code":"RS","country_code":"BR"}},{"type":"Feature","geometry":{"type":"Point","coordinates":[-53.47332,-29.57197]},"properties":{"id":11782,"name":"Faxinal do Soturno","state_code":"RS","country_code":"BR"}},{"type":"Feature","geometry":{"type":"Point","coordinates":[-52.66899,-27.37178]},"properties":{"id":11784,"name":"Faxinalzinho","state_code":"RS","country_code":"BR"}},{"type":"Feature","geometry":{"type":"Point","coordinates":[-51.84244,-29.59817]},"properties":{"id":11787,"name":"Fazenda Vilanova","state_code":"RS","country_code":"BR"}},{"type":"Feature","geometry":{"type":"Point","coordinates":[-51.27775,-29.45459]},"properties":{"id":11798,"name":"Feliz","state_code":"RS","country_code":"BR"}},{"type":"Feature","geometry":{"type":"Point","coordinates":[-51.18167,-29.02889]},"properties":{"id":11831,"name":"Flores da Cunha","state_code":"RS","country_code":"BR"}},{"type":"Feature","geometry":{"type":"Point","coordinates":[-52.03361,-27.85241]},"properties":{"id":11842,"name":"Floriano Peixoto","state_code":"RS","country_code":"BR"}},{"type":"Feature","geometry":{"type":"Point","coordinates":[-52.36771,-29.01054]},"properties":{"id":11849,"name":"Fontoura Xavier","state_code":"RS","country_code":"BR"}},{"type":"Feature","geometry":{"type":"Point","coordinates":[-53.46743,-29.96944]},"properties":{"id":11851,"name":"Formigueiro","state_code":"RS","country_code":"BR"}},{"type":"Feature","geometry":{"type":"Point","coordinates":[-52.11762,-29.39695]},"properties":{"id":11860,"name":"Forquetinha","state_code":"RS","country_code":"BR"}},{"type":"Feature","geometry":{"type":"Point","coordinates":[-53.33891,-28.91268]},"properties":{"id":11867,"name":"Fortaleza dos Valos","state_code":"RS","country_code":"BR"}},{"type":"Feature","geometry":{"type":"Point","coordinates":[-53.39444,-27.35917]},"properties":{"id":11889,"name":"Frederico Westphalen","state_code":"RS","country_code":"BR"}},{"type":"Feature","geometry":{"type":"Point","coordinates":[-51.53361,-29.25611]},"properties":{"id":11921,"name":"Garibaldi","state_code":"RS","country_code":"BR"}},{"type":"Feature","geometry":{"type":"Point","coordinates":[-55.51556,-28.25602]},"properties":{"id":11924,"name":"Garruchos","state_code":"RS","country_code":"BR"}},{"type":"Feature","geometry":{"type":"Point","coordinates":[-52.10405,-27.61693]},"properties":{"id":11929,"name":"Gaurama","state_code":"RS","country_code":"BR"}},{"type":"Feature","geometry":{"type":"Point","coordinates":[-51.94718,-29.83922]},"properties":{"id":11936,"name":"General Câmara","state_code":"RS","country_code":"BR"}},{"type":"Feature","geometry":{"type":"Point","coordinates":[-52.04926,-28.38797]},"properties":{"id":11940,"name":"Gentil","state_code":"RS","country_code":"BR"}},{"type":"Feature","geometry":{"type":"Point","coordinates":[-52.16526,-27.87411]},"properties":{"id":11943,"name":"Getúlio Vargas","state_code":"RS","country_code":"BR"}},{"type":"Feature","geometry":{"type":"Point","coordinates":[-54.30456,-28.01046]},"properties":{"id":11946,"name":"Giruá","state_code":"RS","country_code":"BR"}},{"type":"Feature","geometry":{"type":"Point","coordinates":[-50.75086,-29.85685]},"properties":{"id":11949,"name":"Glorinha","state_code":"RS","country_code":"BR"}},{"type":"Feature","geometry":{"type":"Point","coordinates":[-50.90318,-29.36252]},"properties":{"id":11993,"name":"Gramado","state_code":"RS","country_code":"BR"}},{"type":"Feature","geometry":{"type":"Point","coordinates":[-52.91705,-27.45441]},"properties":{"id":11995,"name":"Gramado dos Loureiros","state_code":"RS","country_code":"BR"}},{"type":"Feature","geometry":{"type":"Point","coordinates":[-52.61202,-29.28655]},"properties":{"id":11994,"name":"Gramado Xavier","state_code":"RS","country_code":"BR"}},{"type":"Feature","geometry":{"type":"Point","coordinates":[-50.99278,-29.94218]},"properties":{"id":12001,"name":"Gravataí","state_code":"RS","country_code":"BR"}},{"type":"Feature","geometry":{"type":"Point","coordinates":[-51.64765,-28.58817]},"properties":{"id":12010,"name":"Guabiju","state_code":"RS","country_code":"BR"}},{"type":"Feature","geometry":{"type":"Point","coordinates":[-51.325,-30.11389]},"properties":{"id":12076,"name":"Guaíba","state_code":"RS","country_code":"BR"}},{"type":"Feature","geometry":{"type":"Point","coordinates":[-51.9188,-28.84191]},"properties":{"id":12031,"name":"Guaporé","state_code":"RS","country_code":"BR"}},{"type":"Feature","geometry":{"type":"Point","coordinates":[-54.60026,-28.15071]},"properties":{"id":12045,"name":"Guarani das Missões","state_code":"RS","country_code":"BR"}},{"type":"Feature","geometry":{"type":"Point","coordinates":[-51.42357,-29.54904]},"properties":{"id":12092,"name":"Harmonia","state_code":"RS","country_code":"BR"}},{"type":"Feature","geometry":{"type":"Point","coordinates":[-53.39556,-32.02361]},"properties":{"id":12097,"name":"Herval","state_code":"RS","country_code":"BR"}},{"type":"Feature","geometry":{"type":"Point","coordinates":[-52.67366,-29.43864]},"properties":{"id":12099,"name":"Herveiras","state_code":"RS","country_code":"BR"}},{"type":"Feature","geometry":{"type":"Point","coordinates":[-54.30778,-27.62583]},"properties":{"id":12106,"name":"Horizontina","state_code":"RS","country_code":"BR"}},{"type":"Feature","geometry":{"type":"Point","coordinates":[-53.86271,-31.57199]},"properties":{"id":12109,"name":"Hulha Negra","state_code":"RS","country_code":"BR"}},{"type":"Feature","geometry":{"type":"Point","coordinates":[-53.99627,-27.58561]},"properties":{"id":12111,"name":"Humaitá","state_code":"RS","country_code":"BR"}},{"type":"Feature","geometry":{"type":"Point","coordinates":[-53.18252,-29.40889]},"properties":{"id":12121,"name":"Ibarama","state_code":"RS","country_code":"BR"}},{"type":"Feature","geometry":{"type":"Point","coordinates":[-51.80283,-28.10474]},"properties":{"id":12132,"name":"Ibiaçá","state_code":"RS","country_code":"BR"}},{"type":"Feature","geometry":{"type":"Point","coordinates":[-51.6271,-28.38729]},"properties":{"id":12146,"name":"Ibiraiaras","state_code":"RS","country_code":"BR"}},{"type":"Feature","geometry":{"type":"Point","coordinates":[-52.47077,-28.61696]},"properties":{"id":12150,"name":"Ibirapuitã","state_code":"RS","country_code":"BR"}},{"type":"Feature","geometry":{"type":"Point","coordinates":[-53.08972,-28.6275]},"properties":{"id":12156,"name":"Ibirubá","state_code":"RS","country_code":"BR"}},{"type":"Feature","geometry":{"type":"Point","coordinates":[-50.79028,-29.57444]},"properties":{"id":12194,"name":"Igrejinha","state_code":"RS","country_code":"BR"}},{"type":"Feature","geometry":{"type":"Point","coordinates":[-53.91472,-28.38778]},"properties":{"id":12205,"name":"Ijuí","state_code":"RS","country_code":"BR"}},{"type":"Feature","geometry":{"type":"Point","coordinates":[-52.14813,-28.9169]},"properties":{"id":12216,"name":"Ilópolis","state_code":"RS","country_code":"BR"}},{"type":"Feature","geometry":{"type":"Point","coordinates":[-50.12826,-29.92719]},"properties":{"id":12223,"name":"Imbé","state_code":"RS","country_code":"BR"}},{"type":"Feature","geometry":{"type":"Point","coordinates":[-51.75667,-29.34023]},"properties":{"id":12225,"name":"Imigrante","state_code":"RS","country_code":"BR"}},{"type":"Feature","geometry":{"type":"Point","coordinates":[-54.19784,-27.89333]},"properties":{"id":12235,"name":"Independência","state_code":"RS","country_code":"BR"}},{"type":"Feature","geometry":{"type":"Point","coordinates":[-54.03786,-27.91435]},"properties":{"id":12246,"name":"Inhacorá","state_code":"RS","country_code":"BR"}},{"type":"Feature","geometry":{"type":"Point","coordinates":[-51.27787,-28.71616]},"properties":{"id":12299,"name":"Ipê","state_code":"RS","country_code":"BR"}},{"type":"Feature","geometry":{"type":"Point","coordinates":[-52.43068,-27.94208]},"properties":{"id":12279,"name":"Ipiranga do Sul","state_code":"RS","country_code":"BR"}},{"type":"Feature","geometry":{"type":"Point","coordinates":[-53.23696,-27.27078]},"properties":{"id":12315,"name":"Iraí","state_code":"RS","country_code":"BR"}},{"type":"Feature","geometry":{"type":"Point","coordinates":[-53.74584,-29.56305]},"properties":{"id":12324,"name":"Itaara","state_code":"RS","country_code":"BR"}},{"type":"Feature","geometry":{"type":"Point","coordinates":[-55.26568,-28.7854]},"properties":{"id":12345,"name":"Itacurubi","state_code":"RS","country_code":"BR"}},{"type":"Feature","geometry":{"type":"Point","coordinates":[-52.20012,-28.77178]},"properties":{"id":12436,"name":"Itapuca","state_code":"RS","country_code":"BR"}},{"type":"Feature","geometry":{"type":"Point","coordinates":[-56.55306,-29.12528]},"properties":{"id":12444,"name":"Itaqui","state_code":"RS","country_code":"BR"}},{"type":"Feature","geometry":{"type":"Point","coordinates":[-50.17775,-29.4284]},"properties":{"id":12453,"name":"Itati","state_code":"RS","country_code":"BR"}},{"type":"Feature","geometry":{"type":"Point","coordinates":[-52.49074,-27.36303]},"properties":{"id":12457,"name":"Itatiba do Sul","state_code":"RS","country_code":"BR"}},{"type":"Feature","geometry":{"type":"Point","coordinates":[-53.56819,-29.50743]},"properties":{"id":12504,"name":"Ivorá","state_code":"RS","country_code":"BR"}},{"type":"Feature","geometry":{"type":"Point","coordinates":[-51.16056,-29.59111]},"properties":{"id":12505,"name":"Ivoti","state_code":"RS","country_code":"BR"}},{"type":"Feature","geometry":{"type":"Point","coordinates":[-53.27016,-27.60969]},"properties":{"id":12514,"name":"Jaboticaba","state_code":"RS","country_code":"BR"}},{"type":"Feature","geometry":{"type":"Point","coordinates":[-53.06796,-29.03095]},"properties":{"id":12529,"name":"Jacuizinho","state_code":"RS","country_code":"BR"}},{"type":"Feature","geometry":{"type":"Point","coordinates":[-52.52224,-27.77469]},"properties":{"id":12532,"name":"Jacutinga","state_code":"RS","country_code":"BR"}},{"type":"Feature","geometry":{"type":"Point","coordinates":[-53.37583,-32.56611]},"properties":{"id":12549,"name":"Jaguarão","state_code":"RS","country_code":"BR"}},{"type":"Feature","geometry":{"type":"Point","coordinates":[-54.64626,-29.45245]},"properties":{"id":12541,"name":"Jaguari","state_code":"RS","country_code":"BR"}},{"type":"Feature","geometry":{"type":"Point","coordinates":[-50.3643,-28.9347]},"properties":{"id":12578,"name":"Jaquirana","state_code":"RS","country_code":"BR"}},{"type":"Feature","geometry":{"type":"Point","coordinates":[-54.29784,-29.28796]},"properties":{"id":12594,"name":"Jari","state_code":"RS","country_code":"BR"}},{"type":"Feature","geometry":{"type":"Point","coordinates":[-54.12253,-28.72932]},"properties":{"id":12716,"name":"Jóia","state_code":"RS","country_code":"BR"}},{"type":"Feature","geometry":{"type":"Point","coordinates":[-53.62459,-29.26449]},"properties":{"id":12719,"name":"Júlio de Castilhos","state_code":"RS","country_code":"BR"}},{"type":"Feature","geometry":{"type":"Point","coordinates":[-53.0347,-29.49396]},"properties":{"id":12735,"name":"Lagoa Bonita do Sul","state_code":"RS","country_code":"BR"}},{"type":"Feature","geometry":{"type":"Point","coordinates":[-52.8465,-28.56607]},"properties":{"id":12767,"name":"Lagoa dos Três Cantos","state_code":"RS","country_code":"BR"}},{"type":"Feature","geometry":{"type":"Point","coordinates":[-51.47225,-28.21995]},"properties":{"id":12747,"name":"Lagoa Vermelha","state_code":"RS","country_code":"BR"}},{"type":"Feature","geometry":{"type":"Point","coordinates":[-52.76687,-29.25902]},"properties":{"id":12770,"name":"Lagoão","state_code":"RS","country_code":"BR"}},{"type":"Feature","geometry":{"type":"Point","coordinates":[-51.96139,-29.46694]},"properties":{"id":12775,"name":"Lajeado","state_code":"RS","country_code":"BR"}},{"type":"Feature","geometry":{"type":"Point","coordinates":[-53.20742,-27.70327]},"properties":{"id":12779,"name":"Lajeado do Bugre","state_code":"RS","country_code":"BR"}},{"type":"Feature","geometry":{"type":"Point","coordinates":[-54.0283,-30.8498]},"properties":{"id":12810,"name":"Lavras do Sul","state_code":"RS","country_code":"BR"}},{"type":"Feature","geometry":{"type":"Point","coordinates":[-53.07401,-27.53845]},"properties":{"id":12823,"name":"Liberato Salzano","state_code":"RS","country_code":"BR"}},{"type":"Feature","geometry":{"type":"Point","coordinates":[-51.22786,-29.57482]},"properties":{"id":12836,"name":"Lindolfo Collor","state_code":"RS","country_code":"BR"}},{"type":"Feature","geometry":{"type":"Point","coordinates":[-51.21876,-29.45535]},"properties":{"id":12839,"name":"Linha Nova","state_code":"RS","country_code":"BR"}},{"type":"Feature","geometry":{"type":"Point","coordinates":[-55.61102,-29.05822]},"properties":{"id":13089,"name":"Maçambará","state_code":"RS","country_code":"BR"}},{"type":"Feature","geometry":{"type":"Point","coordinates":[-51.68758,-27.59183]},"properties":{"id":12898,"name":"Machadinho","state_code":"RS","country_code":"BR"}},{"type":"Feature","geometry":{"type":"Point","coordinates":[-50.0107,-29.26145]},"properties":{"id":12935,"name":"Mampituba","state_code":"RS","country_code":"BR"}},{"type":"Feature","geometry":{"type":"Point","coordinates":[-55.5687,-29.40696]},"properties":{"id":12955,"name":"Manoel Viana","state_code":"RS","country_code":"BR"}},{"type":"Feature","geometry":{"type":"Point","coordinates":[-50.25993,-29.57608]},"properties":{"id":12960,"name":"Maquiné","state_code":"RS","country_code":"BR"}},{"type":"Feature","geometry":{"type":"Point","coordinates":[-51.55693,-29.54921]},"properties":{"id":12983,"name":"Maratá","state_code":"RS","country_code":"BR"}},{"type":"Feature","geometry":{"type":"Point","coordinates":[-52.27411,-28.44217]},"properties":{"id":12984,"name":"Marau","state_code":"RS","country_code":"BR"}},{"type":"Feature","geometry":{"type":"Point","coordinates":[-51.95065,-27.47851]},"properties":{"id":12991,"name":"Marcelino Ramos","state_code":"RS","country_code":"BR"}},{"type":"Feature","geometry":{"type":"Point","coordinates":[-51.58133,-30.3022]},"properties":{"id":13008,"name":"Mariana Pimentel","state_code":"RS","country_code":"BR"}},{"type":"Feature","geometry":{"type":"Point","coordinates":[-52.18363,-27.35013]},"properties":{"id":13009,"name":"Mariano Moro","state_code":"RS","country_code":"BR"}},{"type":"Feature","geometry":{"type":"Point","coordinates":[-52.1572,-29.27327]},"properties":{"id":13029,"name":"Marques de Souza","state_code":"RS","country_code":"BR"}},{"type":"Feature","geometry":{"type":"Point","coordinates":[-54.44545,-29.54895]},"properties":{"id":13045,"name":"Mata","state_code":"RS","country_code":"BR"}},{"type":"Feature","geometry":{"type":"Point","coordinates":[-52.17628,-28.27248]},"properties":{"id":13064,"name":"Mato Castelhano","state_code":"RS","country_code":"BR"}},{"type":"Feature","geometry":{"type":"Point","coordinates":[-52.13856,-29.51457]},"properties":{"id":13066,"name":"Mato Leitão","state_code":"RS","country_code":"BR"}},{"type":"Feature","geometry":{"type":"Point","coordinates":[-54.67109,-28.2568]},"properties":{"id":13067,"name":"Mato Queimado","state_code":"RS","country_code":"BR"}},{"type":"Feature","geometry":{"type":"Point","coordinates":[-51.80358,-27.58802]},"properties":{"id":13087,"name":"Maximiliano de Almeida","state_code":"RS","country_code":"BR"}},{"type":"Feature","geometry":{"type":"Point","coordinates":[-52.11996,-30.07189]},"properties":{"id":13123,"name":"Minas do Leão","state_code":"RS","country_code":"BR"}},{"type":"Feature","geometry":{"type":"Point","coordinates":[-53.75549,-27.48658]},"properties":{"id":13137,"name":"Miraguaí","state_code":"RS","country_code":"BR"}},{"type":"Feature","geometry":{"type":"Point","coordinates":[-52.05388,-28.66498]},"properties":{"id":13185,"name":"Montauri","state_code":"RS","country_code":"BR"}},{"type":"Feature","geometry":{"type":"Point","coordinates":[-50.80405,-28.70177]},"properties":{"id":13193,"name":"Monte Alegre dos Campos","state_code":"RS","country_code":"BR"}},{"type":"Feature","geometry":{"type":"Point","coordinates":[-51.64287,-29.1318]},"properties":{"id":13199,"name":"Monte Belo do Sul","state_code":"RS","country_code":"BR"}},{"type":"Feature","geometry":{"type":"Point","coordinates":[-51.46111,-29.68861]},"properties":{"id":13218,"name":"Montenegro","state_code":"RS","country_code":"BR"}},{"type":"Feature","geometry":{"type":"Point","coordinates":[-52.66928,-28.69004]},"properties":{"id":13233,"name":"Mormaço","state_code":"RS","country_code":"BR"}},{"type":"Feature","geometry":{"type":"Point","coordinates":[-49.96435,-29.34362]},"properties":{"id":13238,"name":"Morrinhos do Sul","state_code":"RS","country_code":"BR"}},{"type":"Feature","geometry":{"type":"Point","coordinates":[-52.63569,-31.63833]},"properties":{"id":13243,"name":"Morro Redondo","state_code":"RS","country_code":"BR"}},{"type":"Feature","geometry":{"type":"Point","coordinates":[-51.01861,-29.51567]},"properties":{"id":13244,"name":"Morro Reuter","state_code":"RS","country_code":"BR"}},{"type":"Feature","geometry":{"type":"Point","coordinates":[-50.85421,-30.92226]},"properties":{"id":13256,"name":"Mostardas","state_code":"RS","country_code":"BR"}},{"type":"Feature","geometry":{"type":"Point","coordinates":[-51.8233,-29.14017]},"properties":{"id":13289,"name":"Muçum","state_code":"RS","country_code":"BR"}},{"type":"Feature","geometry":{"type":"Point","coordinates":[-51.24691,-28.43447]},"properties":{"id":13264,"name":"Muitos Capões","state_code":"RS","country_code":"BR"}},{"type":"Feature","geometry":{"type":"Point","coordinates":[-51.78652,-28.31235]},"properties":{"id":13265,"name":"Muliterno","state_code":"RS","country_code":"BR"}},{"type":"Feature","geometry":{"type":"Point","coordinates":[-52.82083,-28.45917]},"properties":{"id":13485,"name":"Não Me Toque","state_code":"RS","country_code":"BR"}},{"type":"Feature","geometry":{"type":"Point","coordinates":[-52.44444,-28.52442]},"properties":{"id":13323,"name":"Nicolau Vergueiro","state_code":"RS","country_code":"BR"}},{"type":"Feature","geometry":{"type":"Point","coordinates":[-52.8759,-27.36903]},"properties":{"id":13333,"name":"Nonoai","state_code":"RS","country_code":"BR"}},{"type":"Feature","geometry":{"type":"Point","coordinates":[-52.16616,-28.70497]},"properties":{"id":13347,"name":"Nova Alvorada","state_code":"RS","country_code":"BR"}},{"type":"Feature","geometry":{"type":"Point","coordinates":[-51.73489,-28.64411]},"properties":{"id":13352,"name":"Nova Araçá","state_code":"RS","country_code":"BR"}},{"type":"Feature","geometry":{"type":"Point","coordinates":[-51.80542,-28.70293]},"properties":{"id":13356,"name":"Nova Bassano","state_code":"RS","country_code":"BR"}},{"type":"Feature","geometry":{"type":"Point","coordinates":[-52.98206,-28.00887]},"properties":{"id":13358,"name":"Nova Boa Vista","state_code":"RS","country_code":"BR"}},{"type":"Feature","geometry":{"type":"Point","coordinates":[-52.04822,-29.20206]},"properties":{"id":13361,"name":"Nova Bréscia","state_code":"RS","country_code":"BR"}},{"type":"Feature","geometry":{"type":"Point","coordinates":[-54.12172,-27.59344]},"properties":{"id":13366,"name":"Nova Candelária","state_code":"RS","country_code":"BR"}},{"type":"Feature","geometry":{"type":"Point","coordinates":[-54.8346,-29.39225]},"properties":{"id":13377,"name":"Nova Esperança do Sul","state_code":"RS","country_code":"BR"}},{"type":"Feature","geometry":{"type":"Point","coordinates":[-50.90836,-29.5964]},"properties":{"id":13387,"name":"Nova Hartz","state_code":"RS","country_code":"BR"}},{"type":"Feature","geometry":{"type":"Point","coordinates":[-51.31451,-29.01222]},"properties":{"id":13423,"name":"Nova Pádua","state_code":"RS","country_code":"BR"}},{"type":"Feature","geometry":{"type":"Point","coordinates":[-53.4324,-29.4071]},"properties":{"id":13416,"name":"Nova Palma","state_code":"RS","country_code":"BR"}},{"type":"Feature","geometry":{"type":"Point","coordinates":[-51.11444,-29.37639]},"properties":{"id":13418,"name":"Nova Petrópolis","state_code":"RS","country_code":"BR"}},{"type":"Feature","geometry":{"type":"Point","coordinates":[-51.61,-28.78389]},"properties":{"id":13421,"name":"Nova Prata","state_code":"RS","country_code":"BR"}},{"type":"Feature","geometry":{"type":"Point","coordinates":[-53.69502,-28.09297]},"properties":{"id":13424,"name":"Nova Ramada","state_code":"RS","country_code":"BR"}},{"type":"Feature","geometry":{"type":"Point","coordinates":[-51.41443,-28.99091]},"properties":{"id":13428,"name":"Nova Roma do Sul","state_code":"RS","country_code":"BR"}},{"type":"Feature","geometry":{"type":"Point","coordinates":[-51.27431,-29.83265]},"properties":{"id":13434,"name":"Nova Santa Rita","state_code":"RS","country_code":"BR"}},{"type":"Feature","geometry":{"type":"Point","coordinates":[-53.1122,-27.89154]},"properties":{"id":13454,"name":"Novo Barreiro","state_code":"RS","country_code":"BR"}},{"type":"Feature","geometry":{"type":"Point","coordinates":[-52.98402,-29.76161]},"properties":{"id":13456,"name":"Novo Cabrais","state_code":"RS","country_code":"BR"}},{"type":"Feature","geometry":{"type":"Point","coordinates":[-51.13056,-29.67833]},"properties":{"id":13459,"name":"Novo Hamburgo","state_code":"RS","country_code":"BR"}},{"type":"Feature","geometry":{"type":"Point","coordinates":[-54.53613,-27.55482]},"properties":{"id":13469,"name":"Novo Machado","state_code":"RS","country_code":"BR"}},{"type":"Feature","geometry":{"type":"Point","coordinates":[-53.15567,-27.55948]},"properties":{"id":13480,"name":"Novo Tiradentes","state_code":"RS","country_code":"BR"}},{"type":"Feature","geometry":{"type":"Point","coordinates":[-53.04043,-27.74556]},"properties":{"id":13482,"name":"Novo Xingu","state_code":"RS","country_code":"BR"}},{"type":"Feature","geometry":{"type":"Point","coordinates":[-50.23467,-29.89454]},"properties":{"id":13530,"name":"Osório","state_code":"RS","country_code":"BR"}},{"type":"Feature","geometry":{"type":"Point","coordinates":[-51.78102,-27.72984]},"properties":{"id":13568,"name":"Paim Filho","state_code":"RS","country_code":"BR"}},{"type":"Feature","geometry":{"type":"Point","coordinates":[-50.50972,-30.25778]},"properties":{"id":13585,"name":"Palmares do Sul","state_code":"RS","country_code":"BR"}},{"type":"Feature","geometry":{"type":"Point","coordinates":[-53.31361,-27.89944]},"properties":{"id":13592,"name":"Palmeira das Missões","state_code":"RS","country_code":"BR"}},{"type":"Feature","geometry":{"type":"Point","coordinates":[-53.5922,-27.32268]},"properties":{"id":13607,"name":"Palmitinho","state_code":"RS","country_code":"BR"}},{"type":"Feature","geometry":{"type":"Point","coordinates":[-53.50167,-28.2925]},"properties":{"id":13612,"name":"Panambi","state_code":"RS","country_code":"BR"}},{"type":"Feature","geometry":{"type":"Point","coordinates":[-52.34168,-30.25817]},"properties":{"id":13618,"name":"Pantano Grande","state_code":"RS","country_code":"BR"}},{"type":"Feature","geometry":{"type":"Point","coordinates":[-51.79731,-28.59575]},"properties":{"id":13657,"name":"Paraí","state_code":"RS","country_code":"BR"}},{"type":"Feature","geometry":{"type":"Point","coordinates":[-53.11162,-29.72404]},"properties":{"id":13663,"name":"Paraíso do Sul","state_code":"RS","country_code":"BR"}},{"type":"Feature","geometry":{"type":"Point","coordinates":[-51.42691,-29.61153]},"properties":{"id":13668,"name":"Pareci Novo","state_code":"RS","country_code":"BR"}},{"type":"Feature","geometry":{"type":"Point","coordinates":[-50.83472,-29.62861]},"properties":{"id":13683,"name":"Parobé","state_code":"RS","country_code":"BR"}},{"type":"Feature","geometry":{"type":"Point","coordinates":[-52.86514,-29.4306]},"properties":{"id":13686,"name":"Passa Sete","state_code":"RS","country_code":"BR"}},{"type":"Feature","geometry":{"type":"Point","coordinates":[-52.23175,-29.73133]},"properties":{"id":13699,"name":"Passo do Sobrado","state_code":"RS","country_code":"BR"}},{"type":"Feature","geometry":{"type":"Point","coordinates":[-52.40667,-28.26278]},"properties":{"id":13696,"name":"Passo Fundo","state_code":"RS","country_code":"BR"}},{"type":"Feature","geometry":{"type":"Point","coordinates":[-52.39667,-27.73673]},"properties":{"id":13732,"name":"Paulo Bento","state_code":"RS","country_code":"BR"}},{"type":"Feature","geometry":{"type":"Point","coordinates":[-51.72344,-29.59556]},"properties":{"id":13739,"name":"Paverama","state_code":"RS","country_code":"BR"}},{"type":"Feature","geometry":{"type":"Point","coordinates":[-53.63272,-31.83276]},"properties":{"id":13762,"name":"Pedras Altas","state_code":"RS","country_code":"BR"}},{"type":"Feature","geometry":{"type":"Point","coordinates":[-52.89419,-31.9576]},"properties":{"id":13780,"name":"Pedro Osório","state_code":"RS","country_code":"BR"}},{"type":"Feature","geometry":{"type":"Point","coordinates":[-53.61044,-28.45442]},"properties":{"id":13790,"name":"Pejuçara","state_code":"RS","country_code":"BR"}},{"type":"Feature","geometry":{"type":"Point","coordinates":[-52.34101,-31.76997]},"properties":{"id":13791,"name":"Pelotas","state_code":"RS","country_code":"BR"}},{"type":"Feature","geometry":{"type":"Point","coordinates":[-51.11522,-29.44757]},"properties":{"id":13828,"name":"Picada Café","state_code":"RS","country_code":"BR"}},{"type":"Feature","geometry":{"type":"Point","coordinates":[-53.23425,-27.52636]},"properties":{"id":13859,"name":"Pinhal","state_code":"RS","country_code":"BR"}},{"type":"Feature","geometry":{"type":"Point","coordinates":[-51.2245,-27.88164]},"properties":{"id":13861,"name":"Pinhal da Serra","state_code":"RS","country_code":"BR"}},{"type":"Feature","geometry":{"type":"Point","coordinates":[-53.34587,-29.27075]},"properties":{"id":13860,"name":"Pinhal Grande","state_code":"RS","country_code":"BR"}},{"type":"Feature","geometry":{"type":"Point","coordinates":[-53.63352,-27.22637]},"properties":{"id":13867,"name":"Pinheirinho do Vale","state_code":"RS","country_code":"BR"}},{"type":"Feature","geometry":{"type":"Point","coordinates":[-53.38111,-31.57833]},"properties":{"id":13869,"name":"Pinheiro Machado","state_code":"RS","country_code":"BR"}},{"type":"Feature","geometry":{"type":"Point","coordinates":[-52.73333,-29.78333]},"properties":{"id":13871,"name":"Pinheiros","state_code":"RS","country_code":"BR"}},{"type":"Feature","geometry":{"type":"Point","coordinates":[-51.4618,-29.09289]},"properties":{"id":13876,"name":"Pinto Bandeira","state_code":"RS","country_code":"BR"}},{"type":"Feature","geometry":{"type":"Point","coordinates":[-55.2346,-28.05287]},"properties":{"id":13903,"name":"Pirapó","state_code":"RS","country_code":"BR"}},{"type":"Feature","geometry":{"type":"Point","coordinates":[-53.11163,-31.41655]},"properties":{"id":13907,"name":"Piratini","state_code":"RS","country_code":"BR"}},{"type":"Feature","geometry":{"type":"Point","coordinates":[-53.08947,-27.34391]},"properties":{"id":13940,"name":"Planalto","state_code":"RS","country_code":"BR"}},{"type":"Feature","geometry":{"type":"Point","coordinates":[-51.66969,-29.45339]},"properties":{"id":14050,"name":"Poço das Antas","state_code":"RS","country_code":"BR"}},{"type":"Feature","geometry":{"type":"Point","coordinates":[-52.6374,-28.04977]},"properties":{"id":13979,"name":"Pontão","state_code":"RS","country_code":"BR"}},{"type":"Feature","geometry":{"type":"Point","coordinates":[-52.51736,-27.67688]},"properties":{"id":13971,"name":"Ponte Preta","state_code":"RS","country_code":"BR"}},{"type":"Feature","geometry":{"type":"Point","coordinates":[-51.23572,-29.70746]},"properties":{"id":14029,"name":"Portão","state_code":"RS","country_code":"BR"}},{"type":"Feature","geometry":{"type":"Point","coordinates":[-51.23019,-30.03283]},"properties":{"id":13994,"name":"Porto Alegre","state_code":"RS","country_code":"BR"}},{"type":"Feature","geometry":{"type":"Point","coordinates":[-54.96059,-27.84663]},"properties":{"id":14009,"name":"Porto Lucena","state_code":"RS","country_code":"BR"}},{"type":"Feature","geometry":{"type":"Point","coordinates":[-54.65773,-27.59808]},"properties":{"id":14010,"name":"Porto Mauá","state_code":"RS","country_code":"BR"}},{"type":"Feature","geometry":{"type":"Point","coordinates":[-54.90094,-27.76244]},"properties":{"id":14020,"name":"Porto Vera Cruz","state_code":"RS","country_code":"BR"}},{"type":"Feature","geometry":{"type":"Point","coordinates":[-55.15422,-27.93317]},"properties":{"id":14023,"name":"Porto Xavier","state_code":"RS","country_code":"BR"}},{"type":"Feature","geometry":{"type":"Point","coordinates":[-52.22165,-29.16777]},"properties":{"id":14040,"name":"Pouso Novo","state_code":"RS","country_code":"BR"}},{"type":"Feature","geometry":{"type":"Point","coordinates":[-51.19285,-29.52778]},"properties":{"id":14090,"name":"Presidente Lucena","state_code":"RS","country_code":"BR"}},{"type":"Feature","geometry":{"type":"Point","coordinates":[-52.3096,-29.22873]},"properties":{"id":14109,"name":"Progresso","state_code":"RS","country_code":"BR"}},{"type":"Feature","geometry":{"type":"Point","coordinates":[-51.4962,-28.74413]},"properties":{"id":14112,"name":"Protásio Alves","state_code":"RS","country_code":"BR"}},{"type":"Feature","geometry":{"type":"Point","coordinates":[-52.16503,-29.04776]},"properties":{"id":14117,"name":"Putinga","state_code":"RS","country_code":"BR"}},{"type":"Feature","geometry":{"type":"Point","coordinates":[-56.45139,-30.3875]},"properties":{"id":14126,"name":"Quaraí","state_code":"RS","country_code":"BR"}},{"type":"Feature","geometry":{"type":"Point","coordinates":[-52.46069,-27.81251]},"properties":{"id":14133,"name":"Quatro Irmãos","state_code":"RS","country_code":"BR"}},{"type":"Feature","geometry":{"type":"Point","coordinates":[-54.07002,-29.3067]},"properties":{"id":14147,"name":"Quevedos","state_code":"RS","country_code":"BR"}},{"type":"Feature","geometry":{"type":"Point","coordinates":[-53.11648,-28.74442]},"properties":{"id":14152,"name":"Quinze de Novembro","state_code":"RS","country_code":"BR"}},{"type":"Feature","geometry":{"type":"Point","coordinates":[-53.60924,-27.56833]},"properties":{"id":14182,"name":"Redentora","state_code":"RS","country_code":"BR"}},{"type":"Feature","geometry":{"type":"Point","coordinates":[-52.05393,-29.12666]},"properties":{"id":14192,"name":"Relvado","state_code":"RS","country_code":"BR"}},{"type":"Feature","geometry":{"type":"Point","coordinates":[-53.34008,-29.82715]},"properties":{"id":14206,"name":"Restinga Sêca","state_code":"RS","country_code":"BR"}},{"type":"Feature","geometry":{"type":"Point","coordinates":[-52.87641,-27.25523]},"properties":{"id":14319,"name":"Rio dos Índios","state_code":"RS","country_code":"BR"}},{"type":"Feature","geometry":{"type":"Point","coordinates":[-52.35014,-32.07811]},"properties":{"id":14276,"name":"Rio Grande","state_code":"RS","country_code":"BR"}},{"type":"Feature","geometry":{"type":"Point","coordinates":[-52.37806,-29.98972]},"properties":{"id":14288,"name":"Rio Pardo","state_code":"RS","country_code":"BR"}},{"type":"Feature","geometry":{"type":"Point","coordinates":[-50.39225,-29.59847]},"properties":{"id":14321,"name":"Riozinho","state_code":"RS","country_code":"BR"}},{"type":"Feature","geometry":{"type":"Point","coordinates":[-51.8244,-29.22637]},"properties":{"id":14325,"name":"Roca Sales","state_code":"RS","country_code":"BR"}},{"type":"Feature","geometry":{"type":"Point","coordinates":[-53.17038,-27.46968]},"properties":{"id":14329,"name":"Rodeio Bonito","state_code":"RS","country_code":"BR"}},{"type":"Feature","geometry":{"type":"Point","coordinates":[-54.85608,-28.27096]},"properties":{"id":14334,"name":"Rolador","state_code":"RS","country_code":"BR"}},{"type":"Feature","geometry":{"type":"Point","coordinates":[-50.57583,-29.65056]},"properties":{"id":14335,"name":"Rolante","state_code":"RS","country_code":"BR"}},{"type":"Feature","geometry":{"type":"Point","coordinates":[-52.72873,-27.82614]},"properties":{"id":14341,"name":"Ronda Alta","state_code":"RS","country_code":"BR"}},{"type":"Feature","geometry":{"type":"Point","coordinates":[-52.91661,-27.83287]},"properties":{"id":14342,"name":"Rondinha","state_code":"RS","country_code":"BR"}},{"type":"Feature","geometry":{"type":"Point","coordinates":[-55.12048,-28.05673]},"properties":{"id":14347,"name":"Roque Gonzales","state_code":"RS","country_code":"BR"}},{"type":"Feature","geometry":{"type":"Point","coordinates":[-54.91417,-30.25833]},"properties":{"id":14355,"name":"Rosário do Sul","state_code":"RS","country_code":"BR"}},{"type":"Feature","geometry":{"type":"Point","coordinates":[-53.1285,-27.71478]},"properties":{"id":14373,"name":"Sagrada Família","state_code":"RS","country_code":"BR"}},{"type":"Feature","geometry":{"type":"Point","coordinates":[-53.09584,-28.38701]},"properties":{"id":14376,"name":"Saldanha Marinho","state_code":"RS","country_code":"BR"}},{"type":"Feature","geometry":{"type":"Point","coordinates":[-53.16909,-29.04212]},"properties":{"id":14402,"name":"Salto do Jacuí","state_code":"RS","country_code":"BR"}},{"type":"Feature","geometry":{"type":"Point","coordinates":[-54.8288,-28.07697]},"properties":{"id":14405,"name":"Salvador das Missões","state_code":"RS","country_code":"BR"}},{"type":"Feature","geometry":{"type":"Point","coordinates":[-51.51407,-29.48006]},"properties":{"id":14406,"name":"Salvador do Sul","state_code":"RS","country_code":"BR"}},{"type":"Feature","geometry":{"type":"Point","coordinates":[-51.80667,-27.94972]},"properties":{"id":14410,"name":"Sananduva","state_code":"RS","country_code":"BR"}},{"type":"Feature","geometry":{"type":"Point","coordinates":[-55.48158,-30.78069]},"properties":{"id":14416,"name":"Sant'Ana do Livramento","state_code":"RS","country_code":"BR"}},{"type":"Feature","geometry":{"type":"Point","coordinates":[-53.25738,-28.37429]},"properties":{"id":14429,"name":"Santa Bárbara do Sul","state_code":"RS","country_code":"BR"}},{"type":"Feature","geometry":{"type":"Point","coordinates":[-51.92401,-28.17256]},"properties":{"id":14435,"name":"Santa Cecília do Sul","state_code":"RS","country_code":"BR"}},{"type":"Feature","geometry":{"type":"Point","coordinates":[-52.14362,-29.45575]},"properties":{"id":14437,"name":"Santa Clara do Sul","state_code":"RS","country_code":"BR"}},{"type":"Feature","geometry":{"type":"Point","coordinates":[-52.42583,-29.7175]},"properties":{"id":14456,"name":"Santa Cruz do Sul","state_code":"RS","country_code":"BR"}},{"type":"Feature","geometry":{"type":"Point","coordinates":[-54.10999,-30.36744]},"properties":{"id":14501,"name":"Santa Margarida do Sul","state_code":"RS","country_code":"BR"}},{"type":"Feature","geometry":{"type":"Point","coordinates":[-53.80694,-29.68417]},"properties":{"id":14502,"name":"Santa Maria","state_code":"RS","country_code":"BR"}},{"type":"Feature","geometry":{"type":"Point","coordinates":[-50.98806,-29.47954]},"properties":{"id":14512,"name":"Santa Maria do Herval","state_code":"RS","country_code":"BR"}},{"type":"Feature","geometry":{"type":"Point","coordinates":[-54.48139,-27.87083]},"properties":{"id":14540,"name":"Santa Rosa","state_code":"RS","country_code":"BR"}},{"type":"Feature","geometry":{"type":"Point","coordinates":[-51.7216,-29.15063]},"properties":{"id":14553,"name":"Santa Tereza","state_code":"RS","country_code":"BR"}},{"type":"Feature","geometry":{"type":"Point","coordinates":[-53.36806,-33.51889]},"properties":{"id":14566,"name":"Santa Vitória do Palmar","state_code":"RS","country_code":"BR"}},{"type":"Feature","geometry":{"type":"Point","coordinates":[-53.18297,-30.76195]},"properties":{"id":14570,"name":"Santana da Boa Vista","state_code":"RS","country_code":"BR"}},{"type":"Feature","geometry":{"type":"Point","coordinates":[-55.53278,-30.89083]},"properties":{"id":14585,"name":"Santana do Livramento","state_code":"RS","country_code":"BR"}},{"type":"Feature","geometry":{"type":"Point","coordinates":[-54.73359,-29.11368]},"properties":{"id":14600,"name":"Santiago","state_code":"RS","country_code":"BR"}},{"type":"Feature","geometry":{"type":"Point","coordinates":[-54.26306,-28.29917]},"properties":{"id":14652,"name":"Santo Ângelo","state_code":"RS","country_code":"BR"}},{"type":"Feature","geometry":{"type":"Point","coordinates":[-50.56024,-29.82214]},"properties":{"id":14613,"name":"Santo Antônio da Patrulha","state_code":"RS","country_code":"BR"}},{"type":"Feature","geometry":{"type":"Point","coordinates":[-55.40876,-28.47797]},"properties":{"id":14615,"name":"Santo Antônio das Missões","state_code":"RS","country_code":"BR"}},{"type":"Feature","geometry":{"type":"Point","coordinates":[-52.0193,-28.4863]},"properties":{"id":14634,"name":"Santo Antônio do Palma","state_code":"RS","country_code":"BR"}},{"type":"Feature","geometry":{"type":"Point","coordinates":[-52.66579,-28.38607]},"properties":{"id":14637,"name":"Santo Antônio do Planalto","state_code":"RS","country_code":"BR"}},{"type":"Feature","geometry":{"type":"Point","coordinates":[-53.77722,-27.85083]},"properties":{"id":14644,"name":"Santo Augusto","state_code":"RS","country_code":"BR"}},{"type":"Feature","geometry":{"type":"Point","coordinates":[-54.70378,-27.78844]},"properties":{"id":14645,"name":"Santo Cristo","state_code":"RS","country_code":"BR"}},{"type":"Feature","geometry":{"type":"Point","coordinates":[-51.67042,-27.92306]},"properties":{"id":14648,"name":"Santo Expedito do Sul","state_code":"RS","country_code":"BR"}},{"type":"Feature","geometry":{"type":"Point","coordinates":[-56.00444,-28.66056]},"properties":{"id":14848,"name":"São Borja","state_code":"RS","country_code":"BR"}},{"type":"Feature","geometry":{"type":"Point","coordinates":[-51.8733,-28.54446]},"properties":{"id":14874,"name":"São Domingos do Sul","state_code":"RS","country_code":"BR"}},{"type":"Feature","geometry":{"type":"Point","coordinates":[-55.13111,-29.55028]},"properties":{"id":14883,"name":"São Francisco de Assis","state_code":"RS","country_code":"BR"}},{"type":"Feature","geometry":{"type":"Point","coordinates":[-50.44928,-29.24246]},"properties":{"id":14887,"name":"São Francisco de Paula","state_code":"RS","country_code":"BR"}},{"type":"Feature","geometry":{"type":"Point","coordinates":[-54.33029,-30.33369]},"properties":{"id":14908,"name":"São Gabriel","state_code":"RS","country_code":"BR"}},{"type":"Feature","geometry":{"type":"Point","coordinates":[-51.72222,-29.95917]},"properties":{"id":14928,"name":"São Jerônimo","state_code":"RS","country_code":"BR"}},{"type":"Feature","geometry":{"type":"Point","coordinates":[-51.83882,-27.79677]},"properties":{"id":15016,"name":"São João da Urtiga","state_code":"RS","country_code":"BR"}},{"type":"Feature","geometry":{"type":"Point","coordinates":[-53.47291,-29.64559]},"properties":{"id":15041,"name":"São João do Polêsine","state_code":"RS","country_code":"BR"}},{"type":"Feature","geometry":{"type":"Point","coordinates":[-51.73076,-28.4989]},"properties":{"id":14934,"name":"São Jorge","state_code":"RS","country_code":"BR"}},{"type":"Feature","geometry":{"type":"Point","coordinates":[-53.12963,-27.79738]},"properties":{"id":14950,"name":"São José das Missões","state_code":"RS","country_code":"BR"}},{"type":"Feature","geometry":{"type":"Point","coordinates":[-52.27281,-29.06441]},"properties":{"id":14972,"name":"São José do Herval","state_code":"RS","country_code":"BR"}},{"type":"Feature","geometry":{"type":"Point","coordinates":[-51.24977,-29.54364]},"properties":{"id":14973,"name":"São José do Hortêncio","state_code":"RS","country_code":"BR"}},{"type":"Feature","geometry":{"type":"Point","coordinates":[-54.12155,-27.73525]},"properties":{"id":14974,"name":"São José do Inhacorá","state_code":"RS","country_code":"BR"}},{"type":"Feature","geometry":{"type":"Point","coordinates":[-51.76198,-31.80089]},"properties":{"id":14978,"name":"São José do Norte","state_code":"RS","country_code":"BR"}},{"type":"Feature","geometry":{"type":"Point","coordinates":[-51.55722,-27.7558]},"properties":{"id":14979,"name":"São José do Ouro","state_code":"RS","country_code":"BR"}},{"type":"Feature","geometry":{"type":"Point","coordinates":[-51.49254,-29.54416]},"properties":{"id":14988,"name":"São José do Sul","state_code":"RS","country_code":"BR"}},{"type":"Feature","geometry":{"type":"Point","coordinates":[-49.94674,-28.68307]},"properties":{"id":14991,"name":"São José dos Ausentes","state_code":"RS","country_code":"BR"}},{"type":"Feature","geometry":{"type":"Point","coordinates":[-51.14722,-29.76028]},"properties":{"id":15051,"name":"São Leopoldo","state_code":"RS","country_code":"BR"}},{"type":"Feature","geometry":{"type":"Point","coordinates":[-51.97833,-31.36528]},"properties":{"id":15057,"name":"São Lourenço do Sul","state_code":"RS","country_code":"BR"}},{"type":"Feature","geometry":{"type":"Point","coordinates":[-54.96083,-28.40833]},"properties":{"id":15060,"name":"São Luiz Gonzaga","state_code":"RS","country_code":"BR"}},{"type":"Feature","geometry":{"type":"Point","coordinates":[-51.049,-28.96872]},"properties":{"id":15071,"name":"São Marcos","state_code":"RS","country_code":"BR"}},{"type":"Feature","geometry":{"type":"Point","coordinates":[-53.96611,-27.72779]},"properties":{"id":15072,"name":"São Martinho","state_code":"RS","country_code":"BR"}},{"type":"Feature","geometry":{"type":"Point","coordinates":[-53.88452,-29.45793]},"properties":{"id":15074,"name":"São Martinho da Serra","state_code":"RS","country_code":"BR"}},{"type":"Feature","geometry":{"type":"Point","coordinates":[-54.50818,-28.7243]},"properties":{"id":15083,"name":"São Miguel das Missões","state_code":"RS","country_code":"BR"}},{"type":"Feature","geometry":{"type":"Point","coordinates":[-55.25589,-28.22363]},"properties":{"id":15099,"name":"São Nicolau","state_code":"RS","country_code":"BR"}},{"type":"Feature","geometry":{"type":"Point","coordinates":[-54.95513,-27.96215]},"properties":{"id":15102,"name":"São Paulo das Missões","state_code":"RS","country_code":"BR"}},{"type":"Feature","geometry":{"type":"Point","coordinates":[-51.51442,-29.42131]},"properties":{"id":15110,"name":"São Pedro da Serra","state_code":"RS","country_code":"BR"}},{"type":"Feature","geometry":{"type":"Point","coordinates":[-53.24444,-27.79277]},"properties":{"id":15113,"name":"São Pedro das Missões","state_code":"RS","country_code":"BR"}},{"type":"Feature","geometry":{"type":"Point","coordinates":[-54.90336,-28.15561]},"properties":{"id":15115,"name":"São Pedro do Butiá","state_code":"RS","country_code":"BR"}},{"type":"Feature","geometry":{"type":"Point","coordinates":[-54.17889,-29.62056]},"properties":{"id":15121,"name":"São Pedro do Sul","state_code":"RS","country_code":"BR"}},{"type":"Feature","geometry":{"type":"Point","coordinates":[-51.37556,-29.58667]},"properties":{"id":15145,"name":"São Sebastião do Caí","state_code":"RS","country_code":"BR"}},{"type":"Feature","geometry":{"type":"Point","coordinates":[-53.56528,-30.16056]},"properties":{"id":15155,"name":"São Sepé","state_code":"RS","country_code":"BR"}},{"type":"Feature","geometry":{"type":"Point","coordinates":[-52.58722,-27.55106]},"properties":{"id":15163,"name":"São Valentim","state_code":"RS","country_code":"BR"}},{"type":"Feature","geometry":{"type":"Point","coordinates":[-51.73687,-29.06303]},"properties":{"id":15164,"name":"São Valentim do Sul","state_code":"RS","country_code":"BR"}},{"type":"Feature","geometry":{"type":"Point","coordinates":[-53.9205,-27.81235]},"properties":{"id":15166,"name":"São Valério do Sul","state_code":"RS","country_code":"BR"}},{"type":"Feature","geometry":{"type":"Point","coordinates":[-51.37289,-29.38319]},"properties":{"id":15167,"name":"São Vendelino","state_code":"RS","country_code":"BR"}},{"type":"Feature","geometry":{"type":"Point","coordinates":[-54.76241,-29.71725]},"properties":{"id":15174,"name":"São Vicente do Sul","state_code":"RS","country_code":"BR"}},{"type":"Feature","geometry":{"type":"Point","coordinates":[-51.00694,-29.63806]},"properties":{"id":14658,"name":"Sapiranga","state_code":"RS","country_code":"BR"}},{"type":"Feature","geometry":{"type":"Point","coordinates":[-51.15,-29.83333]},"properties":{"id":14660,"name":"Sapucaia","state_code":"RS","country_code":"BR"}},{"type":"Feature","geometry":{"type":"Point","coordinates":[-51.15527,-29.81826]},"properties":{"id":14663,"name":"Sapucaia do Sul","state_code":"RS","country_code":"BR"}},{"type":"Feature","geometry":{"type":"Point","coordinates":[-52.92306,-27.94389]},"properties":{"id":14667,"name":"Sarandi","state_code":"RS","country_code":"BR"}},{"type":"Feature","geometry":{"type":"Point","coordinates":[-53.36482,-27.50884]},"properties":{"id":14686,"name":"Seberi","state_code":"RS","country_code":"BR"}},{"type":"Feature","geometry":{"type":"Point","coordinates":[-53.96149,-27.6449]},"properties":{"id":14687,"name":"Sede Nova","state_code":"RS","country_code":"BR"}},{"type":"Feature","geometry":{"type":"Point","coordinates":[-52.92281,-29.29705]},"properties":{"id":14688,"name":"Segredo","state_code":"RS","country_code":"BR"}},{"type":"Feature","geometry":{"type":"Point","coordinates":[-52.98236,-28.67641]},"properties":{"id":14689,"name":"Selbach","state_code":"RS","country_code":"BR"}},{"type":"Feature","geometry":{"type":"Point","coordinates":[-54.52396,-28.02951]},"properties":{"id":14707,"name":"Senador Salgado Filho","state_code":"RS","country_code":"BR"}},{"type":"Feature","geometry":{"type":"Point","coordinates":[-51.62096,-30.60341]},"properties":{"id":14714,"name":"Sentinela do Sul","state_code":"RS","country_code":"BR"}},{"type":"Feature","geometry":{"type":"Point","coordinates":[-51.92671,-28.69115]},"properties":{"id":14716,"name":"Serafina Corrêa","state_code":"RS","country_code":"BR"}},{"type":"Feature","geometry":{"type":"Point","coordinates":[-52.24358,-29.40642]},"properties":{"id":15175,"name":"Sério","state_code":"RS","country_code":"BR"}},{"type":"Feature","geometry":{"type":"Point","coordinates":[-52.35664,-28.00412]},"properties":{"id":14760,"name":"Sertão","state_code":"RS","country_code":"BR"}},{"type":"Feature","geometry":{"type":"Point","coordinates":[-51.66541,-30.49105]},"properties":{"id":14761,"name":"Sertão Santana","state_code":"RS","country_code":"BR"}},{"type":"Feature","geometry":{"type":"Point","coordinates":[-54.47905,-28.12546]},"properties":{"id":14767,"name":"Sete de Setembro","state_code":"RS","country_code":"BR"}},{"type":"Feature","geometry":{"type":"Point","coordinates":[-52.10747,-27.40649]},"properties":{"id":14770,"name":"Severiano de Almeida","state_code":"RS","country_code":"BR"}},{"type":"Feature","geometry":{"type":"Point","coordinates":[-53.54609,-29.63635]},"properties":{"id":14777,"name":"Silveira Martins","state_code":"RS","country_code":"BR"}},{"type":"Feature","geometry":{"type":"Point","coordinates":[-52.60499,-29.41512]},"properties":{"id":14790,"name":"Sinimbu","state_code":"RS","country_code":"BR"}},{"type":"Feature","geometry":{"type":"Point","coordinates":[-53.02018,-29.41325]},"properties":{"id":14796,"name":"Sobradinho","state_code":"RS","country_code":"BR"}},{"type":"Feature","geometry":{"type":"Point","coordinates":[-52.51015,-28.84047]},"properties":{"id":14803,"name":"Soledade","state_code":"RS","country_code":"BR"}},{"type":"Feature","geometry":{"type":"Point","coordinates":[-51.72796,-29.66719]},"properties":{"id":15186,"name":"Tabaí","state_code":"RS","country_code":"BR"}},{"type":"Feature","geometry":{"type":"Point","coordinates":[-52.00823,-28.06426]},"properties":{"id":15227,"name":"Tapejara","state_code":"RS","country_code":"BR"}},{"type":"Feature","geometry":{"type":"Point","coordinates":[-52.8662,-28.66758]},"properties":{"id":15229,"name":"Tapera","state_code":"RS","country_code":"BR"}},{"type":"Feature","geometry":{"type":"Point","coordinates":[-51.39583,-30.67333]},"properties":{"id":15232,"name":"Tapes","state_code":"RS","country_code":"BR"}},{"type":"Feature","geometry":{"type":"Point","coordinates":[-50.76365,-29.66336]},"properties":{"id":15240,"name":"Taquara","state_code":"RS","country_code":"BR"}},{"type":"Feature","geometry":{"type":"Point","coordinates":[-51.86444,-29.79972]},"properties":{"id":15245,"name":"Taquari","state_code":"RS","country_code":"BR"}},{"type":"Feature","geometry":{"type":"Point","coordinates":[-53.49914,-27.40719]},"properties":{"id":15251,"name":"Taquaruçu do Sul","state_code":"RS","country_code":"BR"}},{"type":"Feature","geometry":{"type":"Point","coordinates":[-51.07758,-31.27291]},"properties":{"id":15263,"name":"Tavares","state_code":"RS","country_code":"BR"}},{"type":"Feature","geometry":{"type":"Point","coordinates":[-53.77115,-27.36291]},"properties":{"id":15276,"name":"Tenente Portela","state_code":"RS","country_code":"BR"}},{"type":"Feature","geometry":{"type":"Point","coordinates":[-50.06135,-29.58443]},"properties":{"id":15298,"name":"Terra de Areia","state_code":"RS","country_code":"BR"}},{"type":"Feature","geometry":{"type":"Point","coordinates":[-51.77144,-29.46814]},"properties":{"id":15300,"name":"Teutônia","state_code":"RS","country_code":"BR"}},{"type":"Feature","geometry":{"type":"Point","coordinates":[-52.59736,-28.5818]},"properties":{"id":15320,"name":"Tio Hugo","state_code":"RS","country_code":"BR"}},{"type":"Feature","geometry":{"type":"Point","coordinates":[-54.11303,-27.38183]},"properties":{"id":15322,"name":"Tiradentes do Sul","state_code":"RS","country_code":"BR"}},{"type":"Feature","geometry":{"type":"Point","coordinates":[-54.29307,-29.47869]},"properties":{"id":15339,"name":"Toropi","state_code":"RS","country_code":"BR"}},{"type":"Feature","geometry":{"type":"Point","coordinates":[-49.81982,-29.29667]},"properties":{"id":15341,"name":"Torres","state_code":"RS","country_code":"BR"}},{"type":"Feature","geometry":{"type":"Point","coordinates":[-50.23016,-30.03977]},"properties":{"id":15351,"name":"Tramandaí","state_code":"RS","country_code":"BR"}},{"type":"Feature","geometry":{"type":"Point","coordinates":[-52.09974,-29.28808]},"properties":{"id":15352,"name":"Travesseiro","state_code":"RS","country_code":"BR"}},{"type":"Feature","geometry":{"type":"Point","coordinates":[-52.1837,-27.48222]},"properties":{"id":15369,"name":"Três Arroios","state_code":"RS","country_code":"BR"}},{"type":"Feature","geometry":{"type":"Point","coordinates":[-49.98487,-29.47525]},"properties":{"id":15372,"name":"Três Cachoeiras","state_code":"RS","country_code":"BR"}},{"type":"Feature","geometry":{"type":"Point","coordinates":[-50.77684,-29.46604]},"properties":{"id":15374,"name":"Três Coroas","state_code":"RS","country_code":"BR"}},{"type":"Feature","geometry":{"type":"Point","coordinates":[-54.26018,-27.73449]},"properties":{"id":15384,"name":"Três de Maio","state_code":"RS","country_code":"BR"}},{"type":"Feature","geometry":{"type":"Point","coordinates":[-50.08341,-29.43246]},"properties":{"id":15375,"name":"Três Forquilhas","state_code":"RS","country_code":"BR"}},{"type":"Feature","geometry":{"type":"Point","coordinates":[-52.86635,-27.61276]},"properties":{"id":15379,"name":"Três Palmeiras","state_code":"RS","country_code":"BR"}},{"type":"Feature","geometry":{"type":"Point","coordinates":[-53.92238,-27.43083]},"properties":{"id":15380,"name":"Três Passos","state_code":"RS","country_code":"BR"}},{"type":"Feature","geometry":{"type":"Point","coordinates":[-52.91351,-27.52679]},"properties":{"id":15361,"name":"Trindade do Sul","state_code":"RS","country_code":"BR"}},{"type":"Feature","geometry":{"type":"Point","coordinates":[-51.56027,-29.82246]},"properties":{"id":15364,"name":"Triunfo","state_code":"RS","country_code":"BR"}},{"type":"Feature","geometry":{"type":"Point","coordinates":[-54.43972,-27.64923]},"properties":{"id":15388,"name":"Tucunduva","state_code":"RS","country_code":"BR"}},{"type":"Feature","geometry":{"type":"Point","coordinates":[-52.89867,-29.10586]},"properties":{"id":15393,"name":"Tunas","state_code":"RS","country_code":"BR"}},{"type":"Feature","geometry":{"type":"Point","coordinates":[-51.5445,-27.9264]},"properties":{"id":15400,"name":"Tupanci do Sul","state_code":"RS","country_code":"BR"}},{"type":"Feature","geometry":{"type":"Point","coordinates":[-53.97471,-29.0219]},"properties":{"id":15401,"name":"Tupanciretã","state_code":"RS","country_code":"BR"}},{"type":"Feature","geometry":{"type":"Point","coordinates":[-51.43044,-29.48]},"properties":{"id":15402,"name":"Tupandi","state_code":"RS","country_code":"BR"}},{"type":"Feature","geometry":{"type":"Point","coordinates":[-54.55912,-27.68918]},"properties":{"id":15403,"name":"Tuparendi","state_code":"RS","country_code":"BR"}},{"type":"Feature","geometry":{"type":"Point","coordinates":[-52.1287,-31.52317]},"properties":{"id":15416,"name":"Turuçu","state_code":"RS","country_code":"BR"}},{"type":"Feature","geometry":{"type":"Point","coordinates":[-54.66252,-28.05186]},"properties":{"id":15437,"name":"Ubiretama","state_code":"RS","country_code":"BR"}},{"type":"Feature","geometry":{"type":"Point","coordinates":[-52.03971,-28.78526]},"properties":{"id":15458,"name":"União da Serra","state_code":"RS","country_code":"BR"}},{"type":"Feature","geometry":{"type":"Point","coordinates":[-55.19194,-29.08248]},"properties":{"id":15455,"name":"Unistalda","state_code":"RS","country_code":"BR"}},{"type":"Feature","geometry":{"type":"Point","coordinates":[-56.63224,-29.82797]},"properties":{"id":15479,"name":"Uruguaiana","state_code":"RS","country_code":"BR"}},{"type":"Feature","geometry":{"type":"Point","coordinates":[-50.94431,-28.41223]},"properties":{"id":15490,"name":"Vacaria","state_code":"RS","country_code":"BR"}},{"type":"Feature","geometry":{"type":"Point","coordinates":[-52.68161,-29.5816]},"properties":{"id":15496,"name":"Vale do Sol","state_code":"RS","country_code":"BR"}},{"type":"Feature","geometry":{"type":"Point","coordinates":[-51.23013,-29.34986]},"properties":{"id":15491,"name":"Vale Real","state_code":"RS","country_code":"BR"}},{"type":"Feature","geometry":{"type":"Point","coordinates":[-52.10562,-29.83509]},"properties":{"id":15492,"name":"Vale Verde","state_code":"RS","country_code":"BR"}},{"type":"Feature","geometry":{"type":"Point","coordinates":[-51.83316,-28.48831]},"properties":{"id":15505,"name":"Vanini","state_code":"RS","country_code":"BR"}},{"type":"Feature","geometry":{"type":"Point","coordinates":[-52.21959,-29.54206]},"properties":{"id":15530,"name":"Venâncio Aires","state_code":"RS","country_code":"BR"}},{"type":"Feature","geometry":{"type":"Point","coordinates":[-52.52818,-29.77275]},"properties":{"id":15534,"name":"Vera Cruz","state_code":"RS","country_code":"BR"}},{"type":"Feature","geometry":{"type":"Point","coordinates":[-51.55656,-28.97791]},"properties":{"id":15538,"name":"Veranópolis","state_code":"RS","country_code":"BR"}},{"type":"Feature","geometry":{"type":"Point","coordinates":[-51.86646,-29.07064]},"properties":{"id":15549,"name":"Vespasiano Corrêa","state_code":"RS","country_code":"BR"}},{"type":"Feature","geometry":{"type":"Point","coordinates":[-51.98735,-27.57743]},"properties":{"id":15550,"name":"Viadutos","state_code":"RS","country_code":"BR"}},{"type":"Feature","geometry":{"type":"Point","coordinates":[-51.02333,-30.08111]},"properties":{"id":15551,"name":"Viamão","state_code":"RS","country_code":"BR"}},{"type":"Feature","geometry":{"type":"Point","coordinates":[-53.39966,-27.17975]},"properties":{"id":15555,"name":"Vicente Dutra","state_code":"RS","country_code":"BR"}},{"type":"Feature","geometry":{"type":"Point","coordinates":[-52.68069,-28.54502]},"properties":{"id":15558,"name":"Victor Graeff","state_code":"RS","country_code":"BR"}},{"type":"Feature","geometry":{"type":"Point","coordinates":[-51.52935,-28.86838]},"properties":{"id":15568,"name":"Vila Flores","state_code":"RS","country_code":"BR"}},{"type":"Feature","geometry":{"type":"Point","coordinates":[-52.14152,-28.12778]},"properties":{"id":15569,"name":"Vila Lângaro","state_code":"RS","country_code":"BR"}},{"type":"Feature","geometry":{"type":"Point","coordinates":[-52.1638,-28.55505]},"properties":{"id":15570,"name":"Vila Maria","state_code":"RS","country_code":"BR"}},{"type":"Feature","geometry":{"type":"Point","coordinates":[-53.88004,-30.33711]},"properties":{"id":15572,"name":"Vila Nova do Sul","state_code":"RS","country_code":"BR"}},{"type":"Feature","geometry":{"type":"Point","coordinates":[-53.51572,-27.31083]},"properties":{"id":15589,"name":"Vista Alegre","state_code":"RS","country_code":"BR"}},{"type":"Feature","geometry":{"type":"Point","coordinates":[-51.79221,-28.83075]},"properties":{"id":15591,"name":"Vista Alegre do Prata","state_code":"RS","country_code":"BR"}},{"type":"Feature","geometry":{"type":"Point","coordinates":[-53.69737,-27.26738]},"properties":{"id":15592,"name":"Vista Gaúcha","state_code":"RS","country_code":"BR"}},{"type":"Feature","geometry":{"type":"Point","coordinates":[-54.48174,-28.35473]},"properties":{"id":15600,"name":"Vitória das Missões","state_code":"RS","country_code":"BR"}},{"type":"Feature","geometry":{"type":"Point","coordinates":[-51.75617,-29.42302]},"properties":{"id":15631,"name":"Westfália","state_code":"RS","country_code":"BR"}},{"type":"Feature","geometry":{"type":"Point","coordinates":[-50.09223,-29.81049]},"properties":{"id":15635,"name":"Xangri-lá","state_code":"RS","country_code":"BR"}}]}