{"type":"FeatureCollection","features":[{"type":"Feature","geometry":{"type":"Point","coordinates":[89.55,27.2]},"properties":{"id":153825,"name":"Chapchha","state_code":"12","country_code":"BT"}},{"type":"Feature","geometry":{"type":"Point","coordinates":[89.3833,26.9667]},"properties":{"id":15706,"name":"Daphu","state_code":"12","country_code":"BT"}},{"type":"Feature","geometry":{"type":"Point","coordinates":[89.6167,26.9]},"properties":{"id":153827,"name":"Khitokha","state_code":"12","country_code":"BT"}},{"type":"Feature","geometry":{"type":"Point","coordinates":[89.55,27.15]},"properties":{"id":153826,"name":"Lobnig","state_code":"12","country_code":"BT"}},{"type":"Feature","geometry":{"type":"Point","coordinates":[89.35,26.9]},"properties":{"id":15726,"name":"Pachu","state_code":"12","country_code":"BT"}},{"type":"Feature","geometry":{"type":"Point","coordinates":[89.38837,26.85164]},"properties":{"id":15716,"name":"Phuntsholing","state_code":"12","country_code":"BT"}}]}