{"type":"FeatureCollection","features":[{"type":"Feature","geometry":{"type":"Point","coordinates":[89.28074,27.38747]},"properties":{"id":15708,"name":"Ha","state_code":"13","country_code":"BT"}},{"type":"Feature","geometry":{"type":"Point","coordinates":[89.2667,27.3833]},"properties":{"id":153829,"name":"Naktsang","state_code":"13","country_code":"BT"}},{"type":"Feature","geometry":{"type":"Point","coordinates":[89.3167,27.3]},"properties":{"id":153830,"name":"Sangkari","state_code":"13","country_code":"BT"}}]}