{"type":"FeatureCollection","features":[{"type":"Feature","geometry":{"type":"Point","coordinates":[90.2333,27.0333]},"properties":{"id":153854,"name":"Beteni","state_code":"21","country_code":"BT"}},{"type":"Feature","geometry":{"type":"Point","coordinates":[89.95,26.9333]},"properties":{"id":153853,"name":"Dagapela","state_code":"21","country_code":"BT"}},{"type":"Feature","geometry":{"type":"Point","coordinates":[90.1,27.0167]},"properties":{"id":15725,"name":"Damphu","state_code":"21","country_code":"BT"}},{"type":"Feature","geometry":{"type":"Point","coordinates":[90.12291,27.0219]},"properties":{"id":15727,"name":"Tsirang","state_code":"21","country_code":"BT"}}]}