{"type":"FeatureCollection","features":[{"type":"Feature","geometry":{"type":"Point","coordinates":[91.25,27.1]},"properties":{"id":153832,"name":"Kengkhar","state_code":"42","country_code":"BT"}},{"type":"Feature","geometry":{"type":"Point","coordinates":[91.23963,27.27471]},"properties":{"id":15711,"name":"Mongar","state_code":"42","country_code":"BT"}},{"type":"Feature","geometry":{"type":"Point","coordinates":[91.2667,27.2667]},"properties":{"id":153831,"name":"Thebong","state_code":"42","country_code":"BT"}}]}