{"type":"FeatureCollection","features":[{"type":"Feature","geometry":{"type":"Point","coordinates":[-64.19874,45.83345]},"properties":{"id":16161,"name":"Amherst","state_code":"NS","country_code":"CA"}},{"type":"Feature","geometry":{"type":"Point","coordinates":[-65.16551,44.58345]},"properties":{"id":16170,"name":"Annapolis","state_code":"NS","country_code":"CA"}},{"type":"Feature","geometry":{"type":"Point","coordinates":[-61.99858,45.61685]},"properties":{"id":16171,"name":"Antigonish","state_code":"NS","country_code":"CA"}},{"type":"Feature","geometry":{"type":"Point","coordinates":[-64.73208,45.05015]},"properties":{"id":16216,"name":"Berwick","state_code":"NS","country_code":"CA"}},{"type":"Feature","geometry":{"type":"Point","coordinates":[-64.51882,44.37856]},"properties":{"id":16242,"name":"Bridgewater","state_code":"NS","country_code":"CA"}},{"type":"Feature","geometry":{"type":"Point","coordinates":[-60.31516,46.00014]},"properties":{"id":16272,"name":"Cape Breton","state_code":"NS","country_code":"CA"}},{"type":"Feature","geometry":{"type":"Point","coordinates":[-64.23891,44.54225]},"properties":{"id":16304,"name":"Chester","state_code":"NS","country_code":"CA"}},{"type":"Feature","geometry":{"type":"Point","coordinates":[-63.24868,45.33345]},"properties":{"id":16322,"name":"Colchester","state_code":"NS","country_code":"CA"}},{"type":"Feature","geometry":{"type":"Point","coordinates":[-63.47506,44.67244]},"properties":{"id":16324,"name":"Cole Harbour","state_code":"NS","country_code":"CA"}},{"type":"Feature","geometry":{"type":"Point","coordinates":[-63.43218,44.63141]},"properties":{"id":16342,"name":"Cow Bay","state_code":"NS","country_code":"CA"}},{"type":"Feature","geometry":{"type":"Point","coordinates":[-63.57719,44.67134]},"properties":{"id":16355,"name":"Dartmouth","state_code":"NS","country_code":"CA"}},{"type":"Feature","geometry":{"type":"Point","coordinates":[-65.7586,44.62188]},"properties":{"id":16374,"name":"Digby","state_code":"NS","country_code":"CA"}},{"type":"Feature","geometry":{"type":"Point","coordinates":[-65.69884,44.36685]},"properties":{"id":16375,"name":"Digby County","state_code":"NS","country_code":"CA"}},{"type":"Feature","geometry":{"type":"Point","coordinates":[-63.78201,44.73345]},"properties":{"id":16406,"name":"English Corner","state_code":"NS","country_code":"CA"}},{"type":"Feature","geometry":{"type":"Point","coordinates":[-60.61617,45.94522]},"properties":{"id":16407,"name":"Eskasoni 3","state_code":"NS","country_code":"CA"}},{"type":"Feature","geometry":{"type":"Point","coordinates":[-63.6154,44.81685]},"properties":{"id":16416,"name":"Fall River","state_code":"NS","country_code":"CA"}},{"type":"Feature","geometry":{"type":"Point","coordinates":[-59.95698,46.19695]},"properties":{"id":16454,"name":"Glace Bay","state_code":"NS","country_code":"CA"}},{"type":"Feature","geometry":{"type":"Point","coordinates":[-64.93169,44.97413]},"properties":{"id":16475,"name":"Greenwood","state_code":"NS","country_code":"CA"}},{"type":"Feature","geometry":{"type":"Point","coordinates":[-63.57239,44.64533]},"properties":{"id":16482,"name":"Halifax","state_code":"NS","country_code":"CA"}},{"type":"Feature","geometry":{"type":"Point","coordinates":[-64.16544,45.06685]},"properties":{"id":16490,"name":"Hantsport","state_code":"NS","country_code":"CA"}},{"type":"Feature","geometry":{"type":"Point","coordinates":[-64.58795,45.05519]},"properties":{"id":16499,"name":"Hayes Subdivision","state_code":"NS","country_code":"CA"}},{"type":"Feature","geometry":{"type":"Point","coordinates":[-64.49605,45.0771]},"properties":{"id":16539,"name":"Kentville","state_code":"NS","country_code":"CA"}},{"type":"Feature","geometry":{"type":"Point","coordinates":[-63.38198,44.73345]},"properties":{"id":16589,"name":"Lake Echo","state_code":"NS","country_code":"CA"}},{"type":"Feature","geometry":{"type":"Point","coordinates":[-63.48199,44.98345]},"properties":{"id":16600,"name":"Lantz","state_code":"NS","country_code":"CA"}},{"type":"Feature","geometry":{"type":"Point","coordinates":[-63.67865,44.77599]},"properties":{"id":16632,"name":"Lower Sackville","state_code":"NS","country_code":"CA"}},{"type":"Feature","geometry":{"type":"Point","coordinates":[-64.31658,44.37847]},"properties":{"id":16637,"name":"Lunenburg","state_code":"NS","country_code":"CA"}},{"type":"Feature","geometry":{"type":"Point","coordinates":[-65.07022,44.94284]},"properties":{"id":16686,"name":"Middleton","state_code":"NS","country_code":"CA"}},{"type":"Feature","geometry":{"type":"Point","coordinates":[-62.64863,45.58344]},"properties":{"id":16739,"name":"New Glasgow","state_code":"NS","country_code":"CA"}},{"type":"Feature","geometry":{"type":"Point","coordinates":[-63.86542,45.73345]},"properties":{"id":16791,"name":"Oxford","state_code":"NS","country_code":"CA"}},{"type":"Feature","geometry":{"type":"Point","coordinates":[-64.32585,45.40567]},"properties":{"id":16799,"name":"Parrsboro","state_code":"NS","country_code":"CA"}},{"type":"Feature","geometry":{"type":"Point","coordinates":[-62.70936,45.67875]},"properties":{"id":16818,"name":"Pictou","state_code":"NS","country_code":"CA"}},{"type":"Feature","geometry":{"type":"Point","coordinates":[-62.58193,45.50015]},"properties":{"id":16819,"name":"Pictou County","state_code":"NS","country_code":"CA"}},{"type":"Feature","geometry":{"type":"Point","coordinates":[-61.34853,45.61685]},"properties":{"id":16840,"name":"Port Hawkesbury","state_code":"NS","country_code":"CA"}},{"type":"Feature","geometry":{"type":"Point","coordinates":[-64.41546,45.10015]},"properties":{"id":16846,"name":"Port Williams","state_code":"NS","country_code":"CA"}},{"type":"Feature","geometry":{"type":"Point","coordinates":[-61.29853,45.76684]},"properties":{"id":16859,"name":"Princeville","state_code":"NS","country_code":"CA"}},{"type":"Feature","geometry":{"type":"Point","coordinates":[-65.32355,43.76325]},"properties":{"id":17037,"name":"Shelburne","state_code":"NS","country_code":"CA"}},{"type":"Feature","geometry":{"type":"Point","coordinates":[-64.04873,45.65015]},"properties":{"id":17064,"name":"Springhill","state_code":"NS","country_code":"CA"}},{"type":"Feature","geometry":{"type":"Point","coordinates":[-60.1831,46.1351]},"properties":{"id":17095,"name":"Sydney","state_code":"NS","country_code":"CA"}},{"type":"Feature","geometry":{"type":"Point","coordinates":[-60.21767,46.23669]},"properties":{"id":17096,"name":"Sydney Mines","state_code":"NS","country_code":"CA"}},{"type":"Feature","geometry":{"type":"Point","coordinates":[-63.26538,45.36685]},"properties":{"id":17127,"name":"Truro","state_code":"NS","country_code":"CA"}},{"type":"Feature","geometry":{"type":"Point","coordinates":[-64.13204,44.98345]},"properties":{"id":17211,"name":"Windsor","state_code":"NS","country_code":"CA"}},{"type":"Feature","geometry":{"type":"Point","coordinates":[-64.36546,45.08345]},"properties":{"id":17216,"name":"Wolfville","state_code":"NS","country_code":"CA"}},{"type":"Feature","geometry":{"type":"Point","coordinates":[-66.11557,43.83345]},"properties":{"id":17220,"name":"Yarmouth","state_code":"NS","country_code":"CA"}}]}