{"type":"FeatureCollection","features":[{"type":"Feature","geometry":{"type":"Point","coordinates":[27.61603,2.77391]},"properties":{"id":17250,"name":"Isiro","state_code":"HU","country_code":"CD"}},{"type":"Feature","geometry":{"type":"Point","coordinates":[27.99466,2.14838]},"properties":{"id":17291,"name":"Wamba","state_code":"HU","country_code":"CD"}},{"type":"Feature","geometry":{"type":"Point","coordinates":[29.53551,3.03716]},"properties":{"id":17292,"name":"Watsa","state_code":"HU","country_code":"CD"}}]}