{"type":"FeatureCollection","features":[{"type":"Feature","geometry":{"type":"Point","coordinates":[15.88948,4.31211]},"properties":{"id":17301,"name":"Berberati","state_code":"HS","country_code":"CF"}},{"type":"Feature","geometry":{"type":"Point","coordinates":[15.87735,4.94273]},"properties":{"id":17314,"name":"Carnot","state_code":"HS","country_code":"CF"}},{"type":"Feature","geometry":{"type":"Point","coordinates":[15.13926,4.11775]},"properties":{"id":17317,"name":"Gamboula","state_code":"HS","country_code":"CF"}}]}