{"type":"FeatureCollection","features":[{"type":"Feature","geometry":{"type":"Point","coordinates":[15.77873,6.76546]},"properties":{"id":17306,"name":"Bocaranga","state_code":"OP","country_code":"CF"}},{"type":"Feature","geometry":{"type":"Point","coordinates":[16.37992,6.31933]},"properties":{"id":17312,"name":"Bozoum","state_code":"OP","country_code":"CF"}},{"type":"Feature","geometry":{"type":"Point","coordinates":[16.44059,7.24269]},"properties":{"id":17335,"name":"Paoua","state_code":"OP","country_code":"CF"}}]}