{"type":"FeatureCollection","features":[{"type":"Feature","geometry":{"type":"Point","coordinates":[9.02551,47.14995]},"properties":{"id":17529,"name":"Bilten","state_code":"GL","country_code":"CH"}},{"type":"Feature","geometry":{"type":"Point","coordinates":[9.07888,47.03363]},"properties":{"id":17751,"name":"Ennenda","state_code":"GL","country_code":"CH"}},{"type":"Feature","geometry":{"type":"Point","coordinates":[9.06804,47.04057]},"properties":{"id":17839,"name":"Glarus","state_code":"GL","country_code":"CH"}},{"type":"Feature","geometry":{"type":"Point","coordinates":[8.99799,46.92127]},"properties":{"id":18086,"name":"Linthal","state_code":"GL","country_code":"CH"}},{"type":"Feature","geometry":{"type":"Point","coordinates":[9.03715,46.9664]},"properties":{"id":18097,"name":"Luchsingen","state_code":"GL","country_code":"CH"}},{"type":"Feature","geometry":{"type":"Point","coordinates":[9.07242,47.08878]},"properties":{"id":18162,"name":"Mollis","state_code":"GL","country_code":"CH"}},{"type":"Feature","geometry":{"type":"Point","coordinates":[9.06361,47.09775]},"properties":{"id":18235,"name":"Näfels","state_code":"GL","country_code":"CH"}},{"type":"Feature","geometry":{"type":"Point","coordinates":[9.05734,47.06337]},"properties":{"id":18211,"name":"Netstal","state_code":"GL","country_code":"CH"}},{"type":"Feature","geometry":{"type":"Point","coordinates":[9.05428,47.12598]},"properties":{"id":18229,"name":"Niederurnen","state_code":"GL","country_code":"CH"}},{"type":"Feature","geometry":{"type":"Point","coordinates":[9.05866,47.11412]},"properties":{"id":18268,"name":"Oberurnen","state_code":"GL","country_code":"CH"}},{"type":"Feature","geometry":{"type":"Point","coordinates":[9.0701,46.99541]},"properties":{"id":18475,"name":"Schwanden","state_code":"GL","country_code":"CH"}}]}