{"type":"FeatureCollection","features":[{"type":"Feature","geometry":{"type":"Point","coordinates":[8.36124,47.06521]},"properties":{"id":17363,"name":"Adligenswil","state_code":"LU","country_code":"CH"}},{"type":"Feature","geometry":{"type":"Point","coordinates":[7.96964,47.19916]},"properties":{"id":17391,"name":"Altishofen","state_code":"LU","country_code":"CH"}},{"type":"Feature","geometry":{"type":"Point","coordinates":[8.32233,47.15371]},"properties":{"id":17437,"name":"Ballwil","state_code":"LU","country_code":"CH"}},{"type":"Feature","geometry":{"type":"Point","coordinates":[8.19265,47.20612]},"properties":{"id":17466,"name":"Beromünster","state_code":"LU","country_code":"CH"}},{"type":"Feature","geometry":{"type":"Point","coordinates":[8.34729,47.09625]},"properties":{"id":17578,"name":"Buchrain","state_code":"LU","country_code":"CH"}},{"type":"Feature","geometry":{"type":"Point","coordinates":[8.0942,47.21192]},"properties":{"id":17604,"name":"Büron","state_code":"LU","country_code":"CH"}},{"type":"Feature","geometry":{"type":"Point","coordinates":[8.09425,47.11442]},"properties":{"id":17587,"name":"Buttisholz","state_code":"LU","country_code":"CH"}},{"type":"Feature","geometry":{"type":"Point","coordinates":[7.98519,47.21405]},"properties":{"id":17674,"name":"Dagmersellen","state_code":"LU","country_code":"CH"}},{"type":"Feature","geometry":{"type":"Point","coordinates":[8.34041,47.07937]},"properties":{"id":17718,"name":"Ebikon","state_code":"LU","country_code":"CH"}},{"type":"Feature","geometry":{"type":"Point","coordinates":[8.16695,47.15116]},"properties":{"id":17735,"name":"Eich","state_code":"LU","country_code":"CH"}},{"type":"Feature","geometry":{"type":"Point","coordinates":[8.27331,47.07819]},"properties":{"id":17746,"name":"Emmen","state_code":"LU","country_code":"CH"}},{"type":"Feature","geometry":{"type":"Point","coordinates":[8.06354,46.99559]},"properties":{"id":17753,"name":"Entlebuch","state_code":"LU","country_code":"CH"}},{"type":"Feature","geometry":{"type":"Point","coordinates":[8.01427,46.9259]},"properties":{"id":17754,"name":"Entlebuch District","state_code":"LU","country_code":"CH"}},{"type":"Feature","geometry":{"type":"Point","coordinates":[7.93426,46.9135]},"properties":{"id":17772,"name":"Escholzmatt","state_code":"LU","country_code":"CH"}},{"type":"Feature","geometry":{"type":"Point","coordinates":[8.01759,47.15031]},"properties":{"id":17776,"name":"Ettiswil","state_code":"LU","country_code":"CH"}},{"type":"Feature","geometry":{"type":"Point","coordinates":[8.01558,46.88391]},"properties":{"id":17797,"name":"Flühli","state_code":"LU","country_code":"CH"}},{"type":"Feature","geometry":{"type":"Point","coordinates":[8.10689,47.1997]},"properties":{"id":17831,"name":"Geuensee","state_code":"LU","country_code":"CH"}},{"type":"Feature","geometry":{"type":"Point","coordinates":[8.05041,47.1331]},"properties":{"id":17875,"name":"Grosswangen","state_code":"LU","country_code":"CH"}},{"type":"Feature","geometry":{"type":"Point","coordinates":[8.17932,47.21072]},"properties":{"id":17887,"name":"Gunzwil","state_code":"LU","country_code":"CH"}},{"type":"Feature","geometry":{"type":"Point","coordinates":[8.05326,46.97787]},"properties":{"id":17893,"name":"Hasle","state_code":"LU","country_code":"CH"}},{"type":"Feature","geometry":{"type":"Point","coordinates":[8.22582,47.15068]},"properties":{"id":17912,"name":"Hildisrieden","state_code":"LU","country_code":"CH"}},{"type":"Feature","geometry":{"type":"Point","coordinates":[8.26425,47.22403]},"properties":{"id":17920,"name":"Hitzkirch","state_code":"LU","country_code":"CH"}},{"type":"Feature","geometry":{"type":"Point","coordinates":[8.29179,47.16841]},"properties":{"id":17921,"name":"Hochdorf","state_code":"LU","country_code":"CH"}},{"type":"Feature","geometry":{"type":"Point","coordinates":[8.28702,47.17062]},"properties":{"id":17922,"name":"Hochdorf District","state_code":"LU","country_code":"CH"}},{"type":"Feature","geometry":{"type":"Point","coordinates":[8.31802,47.18083]},"properties":{"id":17926,"name":"Hohenrain","state_code":"LU","country_code":"CH"}},{"type":"Feature","geometry":{"type":"Point","coordinates":[8.30956,47.01692]},"properties":{"id":17935,"name":"Horw","state_code":"LU","country_code":"CH"}},{"type":"Feature","geometry":{"type":"Point","coordinates":[8.34885,47.1253]},"properties":{"id":17955,"name":"Inwil","state_code":"LU","country_code":"CH"}},{"type":"Feature","geometry":{"type":"Point","coordinates":[8.07315,47.19953]},"properties":{"id":17998,"name":"Knutwil","state_code":"LU","country_code":"CH"}},{"type":"Feature","geometry":{"type":"Point","coordinates":[8.28547,47.0311]},"properties":{"id":18008,"name":"Kriens","state_code":"LU","country_code":"CH"}},{"type":"Feature","geometry":{"type":"Point","coordinates":[8.26274,47.05]},"properties":{"id":18087,"name":"Littau","state_code":"LU","country_code":"CH"}},{"type":"Feature","geometry":{"type":"Point","coordinates":[8.29271,47.04046]},"properties":{"id":18095,"name":"Lucerne-Land","state_code":"LU","country_code":"CH"}},{"type":"Feature","geometry":{"type":"Point","coordinates":[8.31063,47.05334]},"properties":{"id":18096,"name":"Lucerne-Stadt","state_code":"LU","country_code":"CH"}},{"type":"Feature","geometry":{"type":"Point","coordinates":[7.91692,47.05753]},"properties":{"id":18103,"name":"Luthern","state_code":"LU","country_code":"CH"}},{"type":"Feature","geometry":{"type":"Point","coordinates":[8.30635,47.05048]},"properties":{"id":18106,"name":"Luzern","state_code":"LU","country_code":"CH"}},{"type":"Feature","geometry":{"type":"Point","coordinates":[8.18193,47.03628]},"properties":{"id":18119,"name":"Malters","state_code":"LU","country_code":"CH"}},{"type":"Feature","geometry":{"type":"Point","coordinates":[8.06793,47.16703]},"properties":{"id":18136,"name":"Mauensee","state_code":"LU","country_code":"CH"}},{"type":"Feature","geometry":{"type":"Point","coordinates":[8.37467,47.04691]},"properties":{"id":18138,"name":"Meggen","state_code":"LU","country_code":"CH"}},{"type":"Feature","geometry":{"type":"Point","coordinates":[8.44274,47.1247]},"properties":{"id":18139,"name":"Meierskappel","state_code":"LU","country_code":"CH"}},{"type":"Feature","geometry":{"type":"Point","coordinates":[8.03971,47.08364]},"properties":{"id":18153,"name":"Menznau","state_code":"LU","country_code":"CH"}},{"type":"Feature","geometry":{"type":"Point","coordinates":[7.97769,47.19185]},"properties":{"id":18208,"name":"Nebikon","state_code":"LU","country_code":"CH"}},{"type":"Feature","geometry":{"type":"Point","coordinates":[8.20911,47.17699]},"properties":{"id":18214,"name":"Neudorf","state_code":"LU","country_code":"CH"}},{"type":"Feature","geometry":{"type":"Point","coordinates":[8.20416,47.09989]},"properties":{"id":18216,"name":"Neuenkirch","state_code":"LU","country_code":"CH"}},{"type":"Feature","geometry":{"type":"Point","coordinates":[8.13774,47.13469]},"properties":{"id":18230,"name":"Nottwil","state_code":"LU","country_code":"CH"}},{"type":"Feature","geometry":{"type":"Point","coordinates":[8.11567,47.15642]},"properties":{"id":18256,"name":"Oberkirch","state_code":"LU","country_code":"CH"}},{"type":"Feature","geometry":{"type":"Point","coordinates":[7.89719,47.22772]},"properties":{"id":18306,"name":"Pfaffnau","state_code":"LU","country_code":"CH"}},{"type":"Feature","geometry":{"type":"Point","coordinates":[7.97135,47.24719]},"properties":{"id":18361,"name":"Reiden","state_code":"LU","country_code":"CH"}},{"type":"Feature","geometry":{"type":"Point","coordinates":[8.24528,47.16881]},"properties":{"id":18402,"name":"Römerswil","state_code":"LU","country_code":"CH"}},{"type":"Feature","geometry":{"type":"Point","coordinates":[8.39021,47.11458]},"properties":{"id":18390,"name":"Root","state_code":"LU","country_code":"CH"}},{"type":"Feature","geometry":{"type":"Point","coordinates":[8.12645,47.08425]},"properties":{"id":18401,"name":"Ruswil","state_code":"LU","country_code":"CH"}},{"type":"Feature","geometry":{"type":"Point","coordinates":[8.13204,47.17765]},"properties":{"id":18459,"name":"Schenkon","state_code":"LU","country_code":"CH"}},{"type":"Feature","geometry":{"type":"Point","coordinates":[7.9887,47.16896]},"properties":{"id":18486,"name":"Schötz","state_code":"LU","country_code":"CH"}},{"type":"Feature","geometry":{"type":"Point","coordinates":[8.01723,46.95161]},"properties":{"id":18489,"name":"Schüpfheim","state_code":"LU","country_code":"CH"}},{"type":"Feature","geometry":{"type":"Point","coordinates":[8.17261,47.01705]},"properties":{"id":18476,"name":"Schwarzenberg","state_code":"LU","country_code":"CH"}},{"type":"Feature","geometry":{"type":"Point","coordinates":[8.19149,47.13577]},"properties":{"id":18508,"name":"Sempach","state_code":"LU","country_code":"CH"}},{"type":"Feature","geometry":{"type":"Point","coordinates":[8.11113,47.17088]},"properties":{"id":18567,"name":"Sursee","state_code":"LU","country_code":"CH"}},{"type":"Feature","geometry":{"type":"Point","coordinates":[8.13704,47.15591]},"properties":{"id":18568,"name":"Sursee District","state_code":"LU","country_code":"CH"}},{"type":"Feature","geometry":{"type":"Point","coordinates":[8.07652,47.23573]},"properties":{"id":18602,"name":"Triengen","state_code":"LU","country_code":"CH"}},{"type":"Feature","geometry":{"type":"Point","coordinates":[8.40335,47.09005]},"properties":{"id":18622,"name":"Udligenswil","state_code":"LU","country_code":"CH"}},{"type":"Feature","geometry":{"type":"Point","coordinates":[8.4842,47.01014]},"properties":{"id":18690,"name":"Vitznau","state_code":"LU","country_code":"CH"}},{"type":"Feature","geometry":{"type":"Point","coordinates":[8.021,47.18457]},"properties":{"id":18726,"name":"Wauwil","state_code":"LU","country_code":"CH"}},{"type":"Feature","geometry":{"type":"Point","coordinates":[8.43219,47.03208]},"properties":{"id":18729,"name":"Weggis","state_code":"LU","country_code":"CH"}},{"type":"Feature","geometry":{"type":"Point","coordinates":[8.10182,47.05578]},"properties":{"id":18735,"name":"Werthenstein","state_code":"LU","country_code":"CH"}},{"type":"Feature","geometry":{"type":"Point","coordinates":[7.96801,47.26339]},"properties":{"id":18748,"name":"Wikon","state_code":"LU","country_code":"CH"}},{"type":"Feature","geometry":{"type":"Point","coordinates":[7.99418,47.12183]},"properties":{"id":18754,"name":"Willisau","state_code":"LU","country_code":"CH"}},{"type":"Feature","geometry":{"type":"Point","coordinates":[7.95933,47.14097]},"properties":{"id":18755,"name":"Willisau District","state_code":"LU","country_code":"CH"}},{"type":"Feature","geometry":{"type":"Point","coordinates":[8.07389,47.05983]},"properties":{"id":18766,"name":"Wolhusen","state_code":"LU","country_code":"CH"}},{"type":"Feature","geometry":{"type":"Point","coordinates":[7.92495,47.13673]},"properties":{"id":18792,"name":"Zell","state_code":"LU","country_code":"CH"}}]}