{"type":"FeatureCollection","features":[{"type":"Feature","geometry":{"type":"Point","coordinates":[8.83823,47.18994]},"properties":{"id":17389,"name":"Altendorf","state_code":"SZ","country_code":"CH"}},{"type":"Feature","geometry":{"type":"Point","coordinates":[8.52349,47.06337]},"properties":{"id":17410,"name":"Arth","state_code":"SZ","country_code":"CH"}},{"type":"Feature","geometry":{"type":"Point","coordinates":[8.73224,47.20388]},"properties":{"id":17590,"name":"Bäch","state_code":"SZ","country_code":"CH"}},{"type":"Feature","geometry":{"type":"Point","coordinates":[8.7601,47.10792]},"properties":{"id":17483,"name":"Bezirk Einsiedeln","state_code":"SZ","country_code":"CH"}},{"type":"Feature","geometry":{"type":"Point","coordinates":[8.51678,47.008]},"properties":{"id":17484,"name":"Bezirk Gersau","state_code":"SZ","country_code":"CH"}},{"type":"Feature","geometry":{"type":"Point","coordinates":[8.7396,47.19043]},"properties":{"id":17490,"name":"Bezirk Höfe","state_code":"SZ","country_code":"CH"}},{"type":"Feature","geometry":{"type":"Point","coordinates":[8.44444,47.08611]},"properties":{"id":17492,"name":"Bezirk Küssnacht","state_code":"SZ","country_code":"CH"}},{"type":"Feature","geometry":{"type":"Point","coordinates":[8.91103,47.16128]},"properties":{"id":17498,"name":"Bezirk March","state_code":"SZ","country_code":"CH"}},{"type":"Feature","geometry":{"type":"Point","coordinates":[8.63619,47.02814]},"properties":{"id":17509,"name":"Bezirk Schwyz","state_code":"SZ","country_code":"CH"}},{"type":"Feature","geometry":{"type":"Point","coordinates":[8.74735,47.12849]},"properties":{"id":17738,"name":"Einsiedeln","state_code":"SZ","country_code":"CH"}},{"type":"Feature","geometry":{"type":"Point","coordinates":[8.74724,47.18707]},"properties":{"id":17787,"name":"Feusisberg","state_code":"SZ","country_code":"CH"}},{"type":"Feature","geometry":{"type":"Point","coordinates":[8.75842,47.20534]},"properties":{"id":17806,"name":"Freienbach","state_code":"SZ","country_code":"CH"}},{"type":"Feature","geometry":{"type":"Point","coordinates":[8.525,46.99419]},"properties":{"id":17830,"name":"Gersau","state_code":"SZ","country_code":"CH"}},{"type":"Feature","geometry":{"type":"Point","coordinates":[8.54616,47.04761]},"properties":{"id":17848,"name":"Goldau","state_code":"SZ","country_code":"CH"}},{"type":"Feature","geometry":{"type":"Point","coordinates":[8.64538,47.01105]},"properties":{"id":17946,"name":"Ibach","state_code":"SZ","country_code":"CH"}},{"type":"Feature","geometry":{"type":"Point","coordinates":[8.61529,46.9988]},"properties":{"id":17951,"name":"Ingenbohl","state_code":"SZ","country_code":"CH"}},{"type":"Feature","geometry":{"type":"Point","coordinates":[8.44206,47.08557]},"properties":{"id":18019,"name":"Küssnacht","state_code":"SZ","country_code":"CH"}},{"type":"Feature","geometry":{"type":"Point","coordinates":[8.85324,47.19224]},"properties":{"id":18030,"name":"Lachen","state_code":"SZ","country_code":"CH"}},{"type":"Feature","geometry":{"type":"Point","coordinates":[8.76499,46.97676]},"properties":{"id":18179,"name":"Muotathal","state_code":"SZ","country_code":"CH"}},{"type":"Feature","geometry":{"type":"Point","coordinates":[8.77816,47.20109]},"properties":{"id":18310,"name":"Pfäffikon","state_code":"SZ","country_code":"CH"}},{"type":"Feature","geometry":{"type":"Point","coordinates":[8.97704,47.17097]},"properties":{"id":18360,"name":"Reichenburg","state_code":"SZ","country_code":"CH"}},{"type":"Feature","geometry":{"type":"Point","coordinates":[8.67585,47.1042]},"properties":{"id":18393,"name":"Rothenthurm","state_code":"SZ","country_code":"CH"}},{"type":"Feature","geometry":{"type":"Point","coordinates":[8.63565,47.08246]},"properties":{"id":18449,"name":"Sattel","state_code":"SZ","country_code":"CH"}},{"type":"Feature","geometry":{"type":"Point","coordinates":[8.71345,47.1746]},"properties":{"id":18461,"name":"Schindellegi","state_code":"SZ","country_code":"CH"}},{"type":"Feature","geometry":{"type":"Point","coordinates":[8.92811,47.17326]},"properties":{"id":18487,"name":"Schübelbach","state_code":"SZ","country_code":"CH"}},{"type":"Feature","geometry":{"type":"Point","coordinates":[8.65414,47.02076]},"properties":{"id":18481,"name":"Schwyz","state_code":"SZ","country_code":"CH"}},{"type":"Feature","geometry":{"type":"Point","coordinates":[8.89781,47.17449]},"properties":{"id":18516,"name":"Siebnen","state_code":"SZ","country_code":"CH"}},{"type":"Feature","geometry":{"type":"Point","coordinates":[8.61214,47.04975]},"properties":{"id":18553,"name":"Steinen","state_code":"SZ","country_code":"CH"}},{"type":"Feature","geometry":{"type":"Point","coordinates":[8.94896,47.20291]},"properties":{"id":18612,"name":"Tuggen","state_code":"SZ","country_code":"CH"}},{"type":"Feature","geometry":{"type":"Point","coordinates":[8.8052,47.06258]},"properties":{"id":18632,"name":"Unteriberg","state_code":"SZ","country_code":"CH"}},{"type":"Feature","geometry":{"type":"Point","coordinates":[8.90225,47.12172]},"properties":{"id":18693,"name":"Vorderthal","state_code":"SZ","country_code":"CH"}},{"type":"Feature","geometry":{"type":"Point","coordinates":[8.71903,47.19478]},"properties":{"id":18767,"name":"Wollerau","state_code":"SZ","country_code":"CH"}}]}