{"type":"FeatureCollection","features":[{"type":"Feature","geometry":{"type":"Point","coordinates":[8.94261,46.45473]},"properties":{"id":17361,"name":"Acquarossa","state_code":"TI","country_code":"CH"}},{"type":"Feature","geometry":{"type":"Point","coordinates":[8.9003,45.99863]},"properties":{"id":17380,"name":"Agno","state_code":"TI","country_code":"CH"}},{"type":"Feature","geometry":{"type":"Point","coordinates":[8.61189,46.52855]},"properties":{"id":17384,"name":"Airolo","state_code":"TI","country_code":"CH"}},{"type":"Feature","geometry":{"type":"Point","coordinates":[8.94103,45.87606]},"properties":{"id":17413,"name":"Arzo","state_code":"TI","country_code":"CH"}},{"type":"Feature","geometry":{"type":"Point","coordinates":[8.77327,46.15451]},"properties":{"id":17414,"name":"Ascona","state_code":"TI","country_code":"CH"}},{"type":"Feature","geometry":{"type":"Point","coordinates":[9.00724,45.84638]},"properties":{"id":17434,"name":"Balerna","state_code":"TI","country_code":"CH"}},{"type":"Feature","geometry":{"type":"Point","coordinates":[9.01703,46.19278]},"properties":{"id":17452,"name":"Bellinzona","state_code":"TI","country_code":"CH"}},{"type":"Feature","geometry":{"type":"Point","coordinates":[9.00254,46.18858]},"properties":{"id":17453,"name":"Bellinzona District","state_code":"TI","country_code":"CH"}},{"type":"Feature","geometry":{"type":"Point","coordinates":[8.96965,46.35972]},"properties":{"id":17524,"name":"Biasca","state_code":"TI","country_code":"CH"}},{"type":"Feature","geometry":{"type":"Point","coordinates":[8.91103,46.01357]},"properties":{"id":17533,"name":"Bioggio","state_code":"TI","country_code":"CH"}},{"type":"Feature","geometry":{"type":"Point","coordinates":[8.94609,46.47613]},"properties":{"id":17540,"name":"Blenio","state_code":"TI","country_code":"CH"}},{"type":"Feature","geometry":{"type":"Point","coordinates":[8.90991,46.37808]},"properties":{"id":17544,"name":"Bodio","state_code":"TI","country_code":"CH"}},{"type":"Feature","geometry":{"type":"Point","coordinates":[8.71181,46.12013]},"properties":{"id":17564,"name":"Brissago","state_code":"TI","country_code":"CH"}},{"type":"Feature","geometry":{"type":"Point","coordinates":[8.93403,46.03672]},"properties":{"id":17607,"name":"Cadempino","state_code":"TI","country_code":"CH"}},{"type":"Feature","geometry":{"type":"Point","coordinates":[8.94719,46.15172]},"properties":{"id":17608,"name":"Cadenazzo","state_code":"TI","country_code":"CH"}},{"type":"Feature","geometry":{"type":"Point","coordinates":[8.98725,46.04595]},"properties":{"id":17609,"name":"Cadro","state_code":"TI","country_code":"CH"}},{"type":"Feature","geometry":{"type":"Point","coordinates":[9.00547,46.16483]},"properties":{"id":17610,"name":"Camorino","state_code":"TI","country_code":"CH"}},{"type":"Feature","geometry":{"type":"Point","coordinates":[8.96605,46.03592]},"properties":{"id":17611,"name":"Canobbio","state_code":"TI","country_code":"CH"}},{"type":"Feature","geometry":{"type":"Point","coordinates":[8.87739,45.97364]},"properties":{"id":17613,"name":"Caslano","state_code":"TI","country_code":"CH"}},{"type":"Feature","geometry":{"type":"Point","coordinates":[9.00843,45.86211]},"properties":{"id":17614,"name":"Castel San Pietro","state_code":"TI","country_code":"CH"}},{"type":"Feature","geometry":{"type":"Point","coordinates":[8.60332,46.31479]},"properties":{"id":17620,"name":"Cevio","state_code":"TI","country_code":"CH"}},{"type":"Feature","geometry":{"type":"Point","coordinates":[9.03119,45.83203]},"properties":{"id":17636,"name":"Chiasso","state_code":"TI","country_code":"CH"}},{"type":"Feature","geometry":{"type":"Point","coordinates":[9.02252,46.25763]},"properties":{"id":17645,"name":"Claro","state_code":"TI","country_code":"CH"}},{"type":"Feature","geometry":{"type":"Point","coordinates":[8.95526,46.03635]},"properties":{"id":17648,"name":"Comano","state_code":"TI","country_code":"CH"}},{"type":"Feature","geometry":{"type":"Point","coordinates":[8.91684,46.17473]},"properties":{"id":17670,"name":"Cugnasco","state_code":"TI","country_code":"CH"}},{"type":"Feature","geometry":{"type":"Point","coordinates":[8.80125,46.477]},"properties":{"id":17780,"name":"Faido","state_code":"TI","country_code":"CH"}},{"type":"Feature","geometry":{"type":"Point","coordinates":[9.00793,46.17246]},"properties":{"id":17836,"name":"Giubiasco","state_code":"TI","country_code":"CH"}},{"type":"Feature","geometry":{"type":"Point","coordinates":[8.86657,46.18256]},"properties":{"id":17854,"name":"Gordola","state_code":"TI","country_code":"CH"}},{"type":"Feature","geometry":{"type":"Point","coordinates":[8.91832,46.04208]},"properties":{"id":17863,"name":"Gravesano","state_code":"TI","country_code":"CH"}},{"type":"Feature","geometry":{"type":"Point","coordinates":[8.83756,46.25893]},"properties":{"id":18053,"name":"Lavertezzo","state_code":"TI","country_code":"CH"}},{"type":"Feature","geometry":{"type":"Point","coordinates":[8.75539,46.46912]},"properties":{"id":18078,"name":"Leventina","state_code":"TI","country_code":"CH"}},{"type":"Feature","geometry":{"type":"Point","coordinates":[8.95166,45.86161]},"properties":{"id":18084,"name":"Ligornetto","state_code":"TI","country_code":"CH"}},{"type":"Feature","geometry":{"type":"Point","coordinates":[8.79953,46.17086]},"properties":{"id":18088,"name":"Locarno","state_code":"TI","country_code":"CH"}},{"type":"Feature","geometry":{"type":"Point","coordinates":[8.75991,46.18033]},"properties":{"id":18089,"name":"Locarno District","state_code":"TI","country_code":"CH"}},{"type":"Feature","geometry":{"type":"Point","coordinates":[8.97986,46.30016]},"properties":{"id":18090,"name":"Lodrino","state_code":"TI","country_code":"CH"}},{"type":"Feature","geometry":{"type":"Point","coordinates":[8.75928,46.16866]},"properties":{"id":18091,"name":"Losone","state_code":"TI","country_code":"CH"}},{"type":"Feature","geometry":{"type":"Point","coordinates":[8.96004,46.01008]},"properties":{"id":18098,"name":"Lugano","state_code":"TI","country_code":"CH"}},{"type":"Feature","geometry":{"type":"Point","coordinates":[8.93802,46.02322]},"properties":{"id":18099,"name":"Lugano District","state_code":"TI","country_code":"CH"}},{"type":"Feature","geometry":{"type":"Point","coordinates":[9.0642,46.2302]},"properties":{"id":18100,"name":"Lumino","state_code":"TI","country_code":"CH"}},{"type":"Feature","geometry":{"type":"Point","coordinates":[8.8561,46.14892]},"properties":{"id":18114,"name":"Magadino","state_code":"TI","country_code":"CH"}},{"type":"Feature","geometry":{"type":"Point","coordinates":[8.9819,46.40588]},"properties":{"id":18120,"name":"Malvaglia","state_code":"TI","country_code":"CH"}},{"type":"Feature","geometry":{"type":"Point","coordinates":[8.94354,46.01257]},"properties":{"id":18128,"name":"Massagno","state_code":"TI","country_code":"CH"}},{"type":"Feature","geometry":{"type":"Point","coordinates":[8.98435,45.92202]},"properties":{"id":18145,"name":"Melano","state_code":"TI","country_code":"CH"}},{"type":"Feature","geometry":{"type":"Point","coordinates":[8.94725,45.95455]},"properties":{"id":18147,"name":"Melide","state_code":"TI","country_code":"CH"}},{"type":"Feature","geometry":{"type":"Point","coordinates":[8.9816,45.87019]},"properties":{"id":18149,"name":"Mendrisio","state_code":"TI","country_code":"CH"}},{"type":"Feature","geometry":{"type":"Point","coordinates":[8.99931,45.86592]},"properties":{"id":18150,"name":"Mendrisio District","state_code":"TI","country_code":"CH"}},{"type":"Feature","geometry":{"type":"Point","coordinates":[8.81473,46.17769]},"properties":{"id":18159,"name":"Minusio","state_code":"TI","country_code":"CH"}},{"type":"Feature","geometry":{"type":"Point","coordinates":[8.91786,45.98323]},"properties":{"id":18163,"name":"Montagnola","state_code":"TI","country_code":"CH"}},{"type":"Feature","geometry":{"type":"Point","coordinates":[8.99892,46.18649]},"properties":{"id":18166,"name":"Monte Carasso","state_code":"TI","country_code":"CH"}},{"type":"Feature","geometry":{"type":"Point","coordinates":[9.01907,45.84915]},"properties":{"id":18170,"name":"Morbio Inferiore","state_code":"TI","country_code":"CH"}},{"type":"Feature","geometry":{"type":"Point","coordinates":[8.80219,46.17323]},"properties":{"id":18180,"name":"Muralto","state_code":"TI","country_code":"CH"}},{"type":"Feature","geometry":{"type":"Point","coordinates":[8.98236,45.84073]},"properties":{"id":18231,"name":"Novazzano","state_code":"TI","country_code":"CH"}},{"type":"Feature","geometry":{"type":"Point","coordinates":[8.97429,46.02021]},"properties":{"id":18325,"name":"Pregassona","state_code":"TI","country_code":"CH"}},{"type":"Feature","geometry":{"type":"Point","coordinates":[8.86877,45.98647]},"properties":{"id":18331,"name":"Pura","state_code":"TI","country_code":"CH"}},{"type":"Feature","geometry":{"type":"Point","coordinates":[8.97167,45.90123]},"properties":{"id":18378,"name":"Riva San Vitale","state_code":"TI","country_code":"CH"}},{"type":"Feature","geometry":{"type":"Point","coordinates":[8.98148,46.30926]},"properties":{"id":18379,"name":"Riviera","state_code":"TI","country_code":"CH"}},{"type":"Feature","geometry":{"type":"Point","coordinates":[8.99162,46.18363]},"properties":{"id":18507,"name":"Sementina","state_code":"TI","country_code":"CH"}},{"type":"Feature","geometry":{"type":"Point","coordinates":[8.93783,45.99766]},"properties":{"id":18530,"name":"Sorengo","state_code":"TI","country_code":"CH"}},{"type":"Feature","geometry":{"type":"Point","coordinates":[8.93642,45.84846]},"properties":{"id":18536,"name":"Stabio","state_code":"TI","country_code":"CH"}},{"type":"Feature","geometry":{"type":"Point","coordinates":[8.96501,46.06813]},"properties":{"id":18578,"name":"Tesserete","state_code":"TI","country_code":"CH"}},{"type":"Feature","geometry":{"type":"Point","coordinates":[8.6054,46.35483]},"properties":{"id":18658,"name":"Vallemaggia","state_code":"TI","country_code":"CH"}},{"type":"Feature","geometry":{"type":"Point","coordinates":[8.73224,46.18482]},"properties":{"id":18671,"name":"Verscio","state_code":"TI","country_code":"CH"}},{"type":"Feature","geometry":{"type":"Point","coordinates":[8.96879,46.01342]},"properties":{"id":18678,"name":"Viganello","state_code":"TI","country_code":"CH"}}]}