{"type":"FeatureCollection","features":[{"type":"Feature","geometry":{"type":"Point","coordinates":[7.26012,46.20951]},"properties":{"id":17405,"name":"Ardon","state_code":"VS","country_code":"CH"}},{"type":"Feature","geometry":{"type":"Point","coordinates":[7.41028,46.28249]},"properties":{"id":17427,"name":"Ayent","state_code":"VS","country_code":"CH"}},{"type":"Feature","geometry":{"type":"Point","coordinates":[7.21667,46.08333]},"properties":{"id":17433,"name":"Bagnes","state_code":"VS","country_code":"CH"}},{"type":"Feature","geometry":{"type":"Point","coordinates":[7.8657,46.30888]},"properties":{"id":17439,"name":"Baltschieder","state_code":"VS","country_code":"CH"}},{"type":"Feature","geometry":{"type":"Point","coordinates":[7.31209,46.18993]},"properties":{"id":17441,"name":"Basse-Nendaz","state_code":"VS","country_code":"CH"}},{"type":"Feature","geometry":{"type":"Point","coordinates":[7.98333,46.31667]},"properties":{"id":17561,"name":"Brig","state_code":"VS","country_code":"CH"}},{"type":"Feature","geometry":{"type":"Point","coordinates":[8.01185,46.28255]},"properties":{"id":17562,"name":"Brig District","state_code":"VS","country_code":"CH"}},{"type":"Feature","geometry":{"type":"Point","coordinates":[7.51145,46.26758]},"properties":{"id":17621,"name":"Chalais","state_code":"VS","country_code":"CH"}},{"type":"Feature","geometry":{"type":"Point","coordinates":[7.22319,46.20275]},"properties":{"id":17623,"name":"Chamoson","state_code":"VS","country_code":"CH"}},{"type":"Feature","geometry":{"type":"Point","coordinates":[6.86903,46.17543]},"properties":{"id":17624,"name":"Champéry","state_code":"VS","country_code":"CH"}},{"type":"Feature","geometry":{"type":"Point","coordinates":[7.13138,46.1249]},"properties":{"id":17628,"name":"Charrat","state_code":"VS","country_code":"CH"}},{"type":"Feature","geometry":{"type":"Point","coordinates":[7.47487,46.28844]},"properties":{"id":17632,"name":"Chermignon-d’en Haut","state_code":"VS","country_code":"CH"}},{"type":"Feature","geometry":{"type":"Point","coordinates":[7.53962,46.2802]},"properties":{"id":17637,"name":"Chippis","state_code":"VS","country_code":"CH"}},{"type":"Feature","geometry":{"type":"Point","coordinates":[6.94789,46.27385]},"properties":{"id":17646,"name":"Collombey-Muraz","state_code":"VS","country_code":"CH"}},{"type":"Feature","geometry":{"type":"Point","coordinates":[7.30283,46.2237]},"properties":{"id":17650,"name":"Conthey","state_code":"VS","country_code":"CH"}},{"type":"Feature","geometry":{"type":"Point","coordinates":[7.27857,46.20485]},"properties":{"id":17651,"name":"Conthey District","state_code":"VS","country_code":"CH"}},{"type":"Feature","geometry":{"type":"Point","coordinates":[7.2126,46.02099]},"properties":{"id":17755,"name":"Entremont","state_code":"VS","country_code":"CH"}},{"type":"Feature","geometry":{"type":"Point","coordinates":[7.02232,46.18096]},"properties":{"id":17778,"name":"Evionnaz","state_code":"VS","country_code":"CH"}},{"type":"Feature","geometry":{"type":"Point","coordinates":[7.49407,46.11422]},"properties":{"id":17779,"name":"Evolène","state_code":"VS","country_code":"CH"}},{"type":"Feature","geometry":{"type":"Point","coordinates":[8.13533,46.39981]},"properties":{"id":17788,"name":"Fiesch","state_code":"VS","country_code":"CH"}},{"type":"Feature","geometry":{"type":"Point","coordinates":[7.11468,46.13851]},"properties":{"id":17815,"name":"Fully","state_code":"VS","country_code":"CH"}},{"type":"Feature","geometry":{"type":"Point","coordinates":[7.7421,46.31599]},"properties":{"id":17820,"name":"Gampel","state_code":"VS","country_code":"CH"}},{"type":"Feature","geometry":{"type":"Point","coordinates":[8.2219,46.46161]},"properties":{"id":17851,"name":"Goms","state_code":"VS","country_code":"CH"}},{"type":"Feature","geometry":{"type":"Point","coordinates":[7.83745,46.19529]},"properties":{"id":17879,"name":"Grächen","state_code":"VS","country_code":"CH"}},{"type":"Feature","geometry":{"type":"Point","coordinates":[7.38408,46.25938]},"properties":{"id":17869,"name":"Grimisuat","state_code":"VS","country_code":"CH"}},{"type":"Feature","geometry":{"type":"Point","coordinates":[7.45947,46.25288]},"properties":{"id":17881,"name":"Grône","state_code":"VS","country_code":"CH"}},{"type":"Feature","geometry":{"type":"Point","coordinates":[7.40477,46.18032]},"properties":{"id":17941,"name":"Hérémence","state_code":"VS","country_code":"CH"}},{"type":"Feature","geometry":{"type":"Point","coordinates":[7.42391,46.19407]},"properties":{"id":17940,"name":"Hérens","state_code":"VS","country_code":"CH"}},{"type":"Feature","geometry":{"type":"Point","coordinates":[7.44976,46.28298]},"properties":{"id":18065,"name":"Lens","state_code":"VS","country_code":"CH"}},{"type":"Feature","geometry":{"type":"Point","coordinates":[7.63412,46.31736]},"properties":{"id":18074,"name":"Leuk","state_code":"VS","country_code":"CH"}},{"type":"Feature","geometry":{"type":"Point","coordinates":[7.67291,46.31439]},"properties":{"id":18075,"name":"Leuk District","state_code":"VS","country_code":"CH"}},{"type":"Feature","geometry":{"type":"Point","coordinates":[7.62687,46.37943]},"properties":{"id":18076,"name":"Leukerbad","state_code":"VS","country_code":"CH"}},{"type":"Feature","geometry":{"type":"Point","coordinates":[7.2078,46.1866]},"properties":{"id":18080,"name":"Leytron","state_code":"VS","country_code":"CH"}},{"type":"Feature","geometry":{"type":"Point","coordinates":[7.10354,46.12386]},"properties":{"id":18125,"name":"Martigny","state_code":"VS","country_code":"CH"}},{"type":"Feature","geometry":{"type":"Point","coordinates":[7.05099,46.07817]},"properties":{"id":18126,"name":"Martigny-Combe","state_code":"VS","country_code":"CH"}},{"type":"Feature","geometry":{"type":"Point","coordinates":[7.07245,46.10276]},"properties":{"id":18127,"name":"Martigny-Ville","state_code":"VS","country_code":"CH"}},{"type":"Feature","geometry":{"type":"Point","coordinates":[7.48839,46.31338]},"properties":{"id":18165,"name":"Montana","state_code":"VS","country_code":"CH"}},{"type":"Feature","geometry":{"type":"Point","coordinates":[6.95406,46.25451]},"properties":{"id":18167,"name":"Monthey","state_code":"VS","country_code":"CH"}},{"type":"Feature","geometry":{"type":"Point","coordinates":[6.90274,46.27043]},"properties":{"id":18168,"name":"Monthey District","state_code":"VS","country_code":"CH"}},{"type":"Feature","geometry":{"type":"Point","coordinates":[7.98912,46.32536]},"properties":{"id":18207,"name":"Naters","state_code":"VS","country_code":"CH"}},{"type":"Feature","geometry":{"type":"Point","coordinates":[7.14437,46.02903]},"properties":{"id":18290,"name":"Orsières","state_code":"VS","country_code":"CH"}},{"type":"Feature","geometry":{"type":"Point","coordinates":[7.50058,46.30952]},"properties":{"id":18337,"name":"Randogne","state_code":"VS","country_code":"CH"}},{"type":"Feature","geometry":{"type":"Point","coordinates":[7.80029,46.31196]},"properties":{"id":18339,"name":"Raron","state_code":"VS","country_code":"CH"}},{"type":"Feature","geometry":{"type":"Point","coordinates":[7.8,46.3]},"properties":{"id":18340,"name":"Raron District","state_code":"VS","country_code":"CH"}},{"type":"Feature","geometry":{"type":"Point","coordinates":[7.2236,46.17276]},"properties":{"id":18374,"name":"Riddes","state_code":"VS","country_code":"CH"}},{"type":"Feature","geometry":{"type":"Point","coordinates":[7.92741,46.10805]},"properties":{"id":18416,"name":"Saas-Fee","state_code":"VS","country_code":"CH"}},{"type":"Feature","geometry":{"type":"Point","coordinates":[7.93651,46.12281]},"properties":{"id":18417,"name":"Saas-Grund","state_code":"VS","country_code":"CH"}},{"type":"Feature","geometry":{"type":"Point","coordinates":[7.18771,46.17035]},"properties":{"id":18421,"name":"Saillon","state_code":"VS","country_code":"CH"}},{"type":"Feature","geometry":{"type":"Point","coordinates":[7.41714,46.25152]},"properties":{"id":18427,"name":"Saint-Léonard","state_code":"VS","country_code":"CH"}},{"type":"Feature","geometry":{"type":"Point","coordinates":[7.0032,46.21826]},"properties":{"id":18428,"name":"Saint-Maurice","state_code":"VS","country_code":"CH"}},{"type":"Feature","geometry":{"type":"Point","coordinates":[6.99823,46.15384]},"properties":{"id":18429,"name":"Saint-Maurice District","state_code":"VS","country_code":"CH"}},{"type":"Feature","geometry":{"type":"Point","coordinates":[7.5712,46.31155]},"properties":{"id":18432,"name":"Salgesch","state_code":"VS","country_code":"CH"}},{"type":"Feature","geometry":{"type":"Point","coordinates":[7.02078,46.1189]},"properties":{"id":18434,"name":"Salvan","state_code":"VS","country_code":"CH"}},{"type":"Feature","geometry":{"type":"Point","coordinates":[7.80349,46.17717]},"properties":{"id":18441,"name":"Sankt Niklaus","state_code":"VS","country_code":"CH"}},{"type":"Feature","geometry":{"type":"Point","coordinates":[7.34558,46.25115]},"properties":{"id":18452,"name":"Savièse","state_code":"VS","country_code":"CH"}},{"type":"Feature","geometry":{"type":"Point","coordinates":[7.17514,46.14937]},"properties":{"id":18453,"name":"Saxon","state_code":"VS","country_code":"CH"}},{"type":"Feature","geometry":{"type":"Point","coordinates":[7.53559,46.29192]},"properties":{"id":18517,"name":"Sierre","state_code":"VS","country_code":"CH"}},{"type":"Feature","geometry":{"type":"Point","coordinates":[7.5157,46.27052]},"properties":{"id":18518,"name":"Sierre District","state_code":"VS","country_code":"CH"}},{"type":"Feature","geometry":{"type":"Point","coordinates":[7.34939,46.23343]},"properties":{"id":18524,"name":"Sion","state_code":"VS","country_code":"CH"}},{"type":"Feature","geometry":{"type":"Point","coordinates":[7.35559,46.22739]},"properties":{"id":18527,"name":"Sitten","state_code":"VS","country_code":"CH"}},{"type":"Feature","geometry":{"type":"Point","coordinates":[7.87273,46.23341]},"properties":{"id":18545,"name":"Stalden","state_code":"VS","country_code":"CH"}},{"type":"Feature","geometry":{"type":"Point","coordinates":[6.83041,46.34503]},"properties":{"id":18573,"name":"Tanay","state_code":"VS","country_code":"CH"}},{"type":"Feature","geometry":{"type":"Point","coordinates":[6.91589,46.2289]},"properties":{"id":18607,"name":"Troistorrents","state_code":"VS","country_code":"CH"}},{"type":"Feature","geometry":{"type":"Point","coordinates":[7.702,46.30028]},"properties":{"id":18615,"name":"Turtmann","state_code":"VS","country_code":"CH"}},{"type":"Feature","geometry":{"type":"Point","coordinates":[7.60743,46.3186]},"properties":{"id":18662,"name":"Varen","state_code":"VS","country_code":"CH"}},{"type":"Feature","geometry":{"type":"Point","coordinates":[7.22651,46.1002]},"properties":{"id":18668,"name":"Verbier","state_code":"VS","country_code":"CH"}},{"type":"Feature","geometry":{"type":"Point","coordinates":[7.03906,46.13667]},"properties":{"id":18669,"name":"Vernayaz","state_code":"VS","country_code":"CH"}},{"type":"Feature","geometry":{"type":"Point","coordinates":[7.27858,46.22171]},"properties":{"id":18697,"name":"Vétroz","state_code":"VS","country_code":"CH"}},{"type":"Feature","geometry":{"type":"Point","coordinates":[7.39826,46.21239]},"properties":{"id":18675,"name":"Vex","state_code":"VS","country_code":"CH"}},{"type":"Feature","geometry":{"type":"Point","coordinates":[6.90062,46.31101]},"properties":{"id":18686,"name":"Vionnaz","state_code":"VS","country_code":"CH"}},{"type":"Feature","geometry":{"type":"Point","coordinates":[7.88149,46.2937]},"properties":{"id":18687,"name":"Visp","state_code":"VS","country_code":"CH"}},{"type":"Feature","geometry":{"type":"Point","coordinates":[7.85609,46.17612]},"properties":{"id":18688,"name":"Visp District","state_code":"VS","country_code":"CH"}},{"type":"Feature","geometry":{"type":"Point","coordinates":[7.90192,46.25899]},"properties":{"id":18689,"name":"Visperterminen","state_code":"VS","country_code":"CH"}},{"type":"Feature","geometry":{"type":"Point","coordinates":[6.8895,46.33746]},"properties":{"id":18694,"name":"Vouvry","state_code":"VS","country_code":"CH"}},{"type":"Feature","geometry":{"type":"Point","coordinates":[7.74863,46.01998]},"properties":{"id":18793,"name":"Zermatt","state_code":"VS","country_code":"CH"}}]}