{"type":"FeatureCollection","features":[{"type":"Feature","geometry":{"type":"Point","coordinates":[8.52462,47.30997]},"properties":{"id":17364,"name":"Adliswil","state_code":"ZH","country_code":"CH"}},{"type":"Feature","geometry":{"type":"Point","coordinates":[8.52675,47.31128]},"properties":{"id":17365,"name":"Adliswil / Adliswil (Stadtkern)","state_code":"ZH","country_code":"CH"}},{"type":"Feature","geometry":{"type":"Point","coordinates":[8.51888,47.31637]},"properties":{"id":17366,"name":"Adliswil / Hündli-Zopf","state_code":"ZH","country_code":"CH"}},{"type":"Feature","geometry":{"type":"Point","coordinates":[8.51508,47.3202]},"properties":{"id":17367,"name":"Adliswil / Oberleimbach","state_code":"ZH","country_code":"CH"}},{"type":"Feature","geometry":{"type":"Point","coordinates":[8.52055,47.30958]},"properties":{"id":17368,"name":"Adliswil / Sonnenberg","state_code":"ZH","country_code":"CH"}},{"type":"Feature","geometry":{"type":"Point","coordinates":[8.52425,47.3187]},"properties":{"id":17369,"name":"Adliswil / Sood","state_code":"ZH","country_code":"CH"}},{"type":"Feature","geometry":{"type":"Point","coordinates":[8.53446,47.31142]},"properties":{"id":17370,"name":"Adliswil / Tal","state_code":"ZH","country_code":"CH"}},{"type":"Feature","geometry":{"type":"Point","coordinates":[8.6541,47.3297]},"properties":{"id":17372,"name":"Aesch","state_code":"ZH","country_code":"CH"}},{"type":"Feature","geometry":{"type":"Point","coordinates":[8.45218,47.27324]},"properties":{"id":17375,"name":"Affoltern / Hasenbüel","state_code":"ZH","country_code":"CH"}},{"type":"Feature","geometry":{"type":"Point","coordinates":[8.45651,47.27852]},"properties":{"id":17376,"name":"Affoltern / Oberdorf","state_code":"ZH","country_code":"CH"}},{"type":"Feature","geometry":{"type":"Point","coordinates":[8.46008,47.28055]},"properties":{"id":17377,"name":"Affoltern / Sonnenberg","state_code":"ZH","country_code":"CH"}},{"type":"Feature","geometry":{"type":"Point","coordinates":[8.45409,47.28277]},"properties":{"id":17378,"name":"Affoltern / Unterdorf","state_code":"ZH","country_code":"CH"}},{"type":"Feature","geometry":{"type":"Point","coordinates":[8.45128,47.27743]},"properties":{"id":17379,"name":"Affoltern am Albis","state_code":"ZH","country_code":"CH"}},{"type":"Feature","geometry":{"type":"Point","coordinates":[8.67826,47.59447]},"properties":{"id":17396,"name":"Andelfingen","state_code":"ZH","country_code":"CH"}},{"type":"Feature","geometry":{"type":"Point","coordinates":[8.64406,47.24185]},"properties":{"id":17418,"name":"Au","state_code":"ZH","country_code":"CH"}},{"type":"Feature","geometry":{"type":"Point","coordinates":[8.64591,47.24303]},"properties":{"id":17420,"name":"Au / Mittel-Dorf","state_code":"ZH","country_code":"CH"}},{"type":"Feature","geometry":{"type":"Point","coordinates":[8.6327,47.2473]},"properties":{"id":17421,"name":"Au / Unter-Dorf","state_code":"ZH","country_code":"CH"}},{"type":"Feature","geometry":{"type":"Point","coordinates":[8.54556,47.50317]},"properties":{"id":17429,"name":"Bachenbülach","state_code":"ZH","country_code":"CH"}},{"type":"Feature","geometry":{"type":"Point","coordinates":[8.85645,47.33709]},"properties":{"id":17591,"name":"Bäretswil","state_code":"ZH","country_code":"CH"}},{"type":"Feature","geometry":{"type":"Point","coordinates":[8.62851,47.44342]},"properties":{"id":17443,"name":"Bassersdorf","state_code":"ZH","country_code":"CH"}},{"type":"Feature","geometry":{"type":"Point","coordinates":[8.87905,47.36745]},"properties":{"id":17445,"name":"Bauma","state_code":"ZH","country_code":"CH"}},{"type":"Feature","geometry":{"type":"Point","coordinates":[8.63687,47.36077]},"properties":{"id":17457,"name":"Benglen","state_code":"ZH","country_code":"CH"}},{"type":"Feature","geometry":{"type":"Point","coordinates":[8.47444,47.27311]},"properties":{"id":17472,"name":"Bezirk Affoltern","state_code":"ZH","country_code":"CH"}},{"type":"Feature","geometry":{"type":"Point","coordinates":[8.68124,47.61328]},"properties":{"id":17473,"name":"Bezirk Andelfingen","state_code":"ZH","country_code":"CH"}},{"type":"Feature","geometry":{"type":"Point","coordinates":[8.56764,47.49706]},"properties":{"id":17479,"name":"Bezirk Bülach","state_code":"ZH","country_code":"CH"}},{"type":"Feature","geometry":{"type":"Point","coordinates":[8.45631,47.47181]},"properties":{"id":17480,"name":"Bezirk Dielsdorf","state_code":"ZH","country_code":"CH"}},{"type":"Feature","geometry":{"type":"Point","coordinates":[8.4426,47.38804]},"properties":{"id":17481,"name":"Bezirk Dietikon","state_code":"ZH","country_code":"CH"}},{"type":"Feature","geometry":{"type":"Point","coordinates":[8.83431,47.29646]},"properties":{"id":17488,"name":"Bezirk Hinwil","state_code":"ZH","country_code":"CH"}},{"type":"Feature","geometry":{"type":"Point","coordinates":[8.59702,47.25767]},"properties":{"id":17489,"name":"Bezirk Horgen","state_code":"ZH","country_code":"CH"}},{"type":"Feature","geometry":{"type":"Point","coordinates":[8.66259,47.2792]},"properties":{"id":17499,"name":"Bezirk Meilen","state_code":"ZH","country_code":"CH"}},{"type":"Feature","geometry":{"type":"Point","coordinates":[8.77208,47.40905]},"properties":{"id":17504,"name":"Bezirk Pfäffikon","state_code":"ZH","country_code":"CH"}},{"type":"Feature","geometry":{"type":"Point","coordinates":[8.71353,47.34952]},"properties":{"id":17516,"name":"Bezirk Uster","state_code":"ZH","country_code":"CH"}},{"type":"Feature","geometry":{"type":"Point","coordinates":[8.769,47.50781]},"properties":{"id":17520,"name":"Bezirk Winterthur","state_code":"ZH","country_code":"CH"}},{"type":"Feature","geometry":{"type":"Point","coordinates":[8.54323,47.3711]},"properties":{"id":17523,"name":"Bezirk Zürich","state_code":"ZH","country_code":"CH"}},{"type":"Feature","geometry":{"type":"Point","coordinates":[8.62657,47.35635]},"properties":{"id":17531,"name":"Binz","state_code":"ZH","country_code":"CH"}},{"type":"Feature","geometry":{"type":"Point","coordinates":[8.75851,47.27632]},"properties":{"id":17532,"name":"Binzikon","state_code":"ZH","country_code":"CH"}},{"type":"Feature","geometry":{"type":"Point","coordinates":[8.63477,47.45431]},"properties":{"id":17534,"name":"Birchwil","state_code":"ZH","country_code":"CH"}},{"type":"Feature","geometry":{"type":"Point","coordinates":[8.44256,47.35515]},"properties":{"id":17535,"name":"Birmensdorf","state_code":"ZH","country_code":"CH"}},{"type":"Feature","geometry":{"type":"Point","coordinates":[8.46836,47.31505]},"properties":{"id":17550,"name":"Bonstetten","state_code":"ZH","country_code":"CH"}},{"type":"Feature","geometry":{"type":"Point","coordinates":[8.67569,47.47318]},"properties":{"id":17573,"name":"Brütten","state_code":"ZH","country_code":"CH"}},{"type":"Feature","geometry":{"type":"Point","coordinates":[8.63263,47.42173]},"properties":{"id":17574,"name":"Brüttisellen","state_code":"ZH","country_code":"CH"}},{"type":"Feature","geometry":{"type":"Point","coordinates":[8.8179,47.26698]},"properties":{"id":17576,"name":"Bubikon","state_code":"ZH","country_code":"CH"}},{"type":"Feature","geometry":{"type":"Point","coordinates":[8.54049,47.52197]},"properties":{"id":17598,"name":"Bülach","state_code":"ZH","country_code":"CH"}},{"type":"Feature","geometry":{"type":"Point","coordinates":[8.54879,47.52337]},"properties":{"id":17599,"name":"Bülach / Gstückt","state_code":"ZH","country_code":"CH"}},{"type":"Feature","geometry":{"type":"Point","coordinates":[8.54651,47.51716]},"properties":{"id":17600,"name":"Bülach / Seematt","state_code":"ZH","country_code":"CH"}},{"type":"Feature","geometry":{"type":"Point","coordinates":[8.54106,47.52632]},"properties":{"id":17601,"name":"Bülach / Soligänter","state_code":"ZH","country_code":"CH"}},{"type":"Feature","geometry":{"type":"Point","coordinates":[8.6179,47.66515]},"properties":{"id":17673,"name":"Dachsen","state_code":"ZH","country_code":"CH"}},{"type":"Feature","geometry":{"type":"Point","coordinates":[8.43813,47.43983]},"properties":{"id":17706,"name":"Dällikon / Dällikon (Dorf)","state_code":"ZH","country_code":"CH"}},{"type":"Feature","geometry":{"type":"Point","coordinates":[8.40648,47.44674]},"properties":{"id":17707,"name":"Dänikon","state_code":"ZH","country_code":"CH"}},{"type":"Feature","geometry":{"type":"Point","coordinates":[8.4585,47.48146]},"properties":{"id":17685,"name":"Dielsdorf","state_code":"ZH","country_code":"CH"}},{"type":"Feature","geometry":{"type":"Point","coordinates":[8.40015,47.40165]},"properties":{"id":17689,"name":"Dietikon","state_code":"ZH","country_code":"CH"}},{"type":"Feature","geometry":{"type":"Point","coordinates":[8.39168,47.40477]},"properties":{"id":17690,"name":"Dietikon / Almend","state_code":"ZH","country_code":"CH"}},{"type":"Feature","geometry":{"type":"Point","coordinates":[8.40818,47.40009]},"properties":{"id":17691,"name":"Dietikon / Guggenbühl","state_code":"ZH","country_code":"CH"}},{"type":"Feature","geometry":{"type":"Point","coordinates":[8.41609,47.39718]},"properties":{"id":17692,"name":"Dietikon / Hofacker","state_code":"ZH","country_code":"CH"}},{"type":"Feature","geometry":{"type":"Point","coordinates":[8.40146,47.39919]},"properties":{"id":17693,"name":"Dietikon / Kreuzacker","state_code":"ZH","country_code":"CH"}},{"type":"Feature","geometry":{"type":"Point","coordinates":[8.39416,47.40065]},"properties":{"id":17694,"name":"Dietikon / Oberdorf","state_code":"ZH","country_code":"CH"}},{"type":"Feature","geometry":{"type":"Point","coordinates":[8.42576,47.39706]},"properties":{"id":17695,"name":"Dietikon / Schönenwerd","state_code":"ZH","country_code":"CH"}},{"type":"Feature","geometry":{"type":"Point","coordinates":[8.39719,47.40819]},"properties":{"id":17696,"name":"Dietikon / Vorstadt","state_code":"ZH","country_code":"CH"}},{"type":"Feature","geometry":{"type":"Point","coordinates":[8.6188,47.41827]},"properties":{"id":17697,"name":"Dietlikon / Dietlikon (Dorf)","state_code":"ZH","country_code":"CH"}},{"type":"Feature","geometry":{"type":"Point","coordinates":[8.62078,47.4191]},"properties":{"id":17698,"name":"Dietlikon / Eichwiesen","state_code":"ZH","country_code":"CH"}},{"type":"Feature","geometry":{"type":"Point","coordinates":[8.73567,47.239]},"properties":{"id":17703,"name":"Dorf","state_code":"ZH","country_code":"CH"}},{"type":"Feature","geometry":{"type":"Point","coordinates":[8.61872,47.39724]},"properties":{"id":17709,"name":"Dübendorf","state_code":"ZH","country_code":"CH"}},{"type":"Feature","geometry":{"type":"Point","coordinates":[8.62724,47.40109]},"properties":{"id":17710,"name":"Dübendorf / Kunklerstrasse","state_code":"ZH","country_code":"CH"}},{"type":"Feature","geometry":{"type":"Point","coordinates":[8.63162,47.39469]},"properties":{"id":17711,"name":"Dübendorf / Sonnenberg","state_code":"ZH","country_code":"CH"}},{"type":"Feature","geometry":{"type":"Point","coordinates":[8.61184,47.39502]},"properties":{"id":17712,"name":"Dübendorf / Vogelquartier","state_code":"ZH","country_code":"CH"}},{"type":"Feature","geometry":{"type":"Point","coordinates":[8.6085,47.39352]},"properties":{"id":17713,"name":"Dübendorf / Wasserfurren","state_code":"ZH","country_code":"CH"}},{"type":"Feature","geometry":{"type":"Point","coordinates":[8.84156,47.27856]},"properties":{"id":17715,"name":"Dürnten","state_code":"ZH","country_code":"CH"}},{"type":"Feature","geometry":{"type":"Point","coordinates":[8.64013,47.34987]},"properties":{"id":17719,"name":"Ebmatingen","state_code":"ZH","country_code":"CH"}},{"type":"Feature","geometry":{"type":"Point","coordinates":[8.69094,47.42575]},"properties":{"id":17724,"name":"Effretikon","state_code":"ZH","country_code":"CH"}},{"type":"Feature","geometry":{"type":"Point","coordinates":[8.69653,47.42388]},"properties":{"id":17725,"name":"Effretikon / Rappenhalde-Bannhalde","state_code":"ZH","country_code":"CH"}},{"type":"Feature","geometry":{"type":"Point","coordinates":[8.68624,47.43099]},"properties":{"id":17726,"name":"Effretikon / Rikon","state_code":"ZH","country_code":"CH"}},{"type":"Feature","geometry":{"type":"Point","coordinates":[8.69822,47.42797]},"properties":{"id":17727,"name":"Effretikon / Watt","state_code":"ZH","country_code":"CH"}},{"type":"Feature","geometry":{"type":"Point","coordinates":[8.69032,47.29976]},"properties":{"id":17729,"name":"Egg","state_code":"ZH","country_code":"CH"}},{"type":"Feature","geometry":{"type":"Point","coordinates":[8.86523,47.49715]},"properties":{"id":17739,"name":"Elgg","state_code":"ZH","country_code":"CH"}},{"type":"Feature","geometry":{"type":"Point","coordinates":[8.8668,47.49265]},"properties":{"id":17740,"name":"Elgg / Städtchen und Umgebung","state_code":"ZH","country_code":"CH"}},{"type":"Feature","geometry":{"type":"Point","coordinates":[8.79874,47.50238]},"properties":{"id":17741,"name":"Elsau-Räterschen","state_code":"ZH","country_code":"CH"}},{"type":"Feature","geometry":{"type":"Point","coordinates":[8.796,47.49927]},"properties":{"id":17742,"name":"Elsau-Räterschen / Räterschen","state_code":"ZH","country_code":"CH"}},{"type":"Feature","geometry":{"type":"Point","coordinates":[8.59406,47.50561]},"properties":{"id":17743,"name":"Embrach","state_code":"ZH","country_code":"CH"}},{"type":"Feature","geometry":{"type":"Point","coordinates":[8.59477,47.504]},"properties":{"id":17744,"name":"Embrach / Embrach (Dorfkern)","state_code":"ZH","country_code":"CH"}},{"type":"Feature","geometry":{"type":"Point","coordinates":[8.59146,47.51455]},"properties":{"id":17745,"name":"Embrach / Kellersacker","state_code":"ZH","country_code":"CH"}},{"type":"Feature","geometry":{"type":"Point","coordinates":[8.59743,47.30298]},"properties":{"id":17761,"name":"Erlenbach","state_code":"ZH","country_code":"CH"}},{"type":"Feature","geometry":{"type":"Point","coordinates":[8.60188,47.2995]},"properties":{"id":17762,"name":"Erlenbach / links des Dorfbachs oberhalb Bahnlinie","state_code":"ZH","country_code":"CH"}},{"type":"Feature","geometry":{"type":"Point","coordinates":[8.60271,47.30658]},"properties":{"id":17763,"name":"Erlenbach / rechts des Dorfbachs oberhalb Bahnlinie","state_code":"ZH","country_code":"CH"}},{"type":"Feature","geometry":{"type":"Point","coordinates":[8.71038,47.28325]},"properties":{"id":17773,"name":"Esslingen","state_code":"ZH","country_code":"CH"}},{"type":"Feature","geometry":{"type":"Point","coordinates":[8.63869,47.37169]},"properties":{"id":17816,"name":"Fällanden","state_code":"ZH","country_code":"CH"}},{"type":"Feature","geometry":{"type":"Point","coordinates":[8.75149,47.38775]},"properties":{"id":17781,"name":"Fehraltorf","state_code":"ZH","country_code":"CH"}},{"type":"Feature","geometry":{"type":"Point","coordinates":[8.62165,47.27873]},"properties":{"id":17782,"name":"Feldmeilen","state_code":"ZH","country_code":"CH"}},{"type":"Feature","geometry":{"type":"Point","coordinates":[8.64357,47.69054]},"properties":{"id":17786,"name":"Feuerthalen","state_code":"ZH","country_code":"CH"}},{"type":"Feature","geometry":{"type":"Point","coordinates":[8.62995,47.6839]},"properties":{"id":17795,"name":"Flurlingen","state_code":"ZH","country_code":"CH"}},{"type":"Feature","geometry":{"type":"Point","coordinates":[8.58455,47.53307]},"properties":{"id":17807,"name":"Freienstein","state_code":"ZH","country_code":"CH"}},{"type":"Feature","geometry":{"type":"Point","coordinates":[8.5483,47.28439]},"properties":{"id":17823,"name":"Gattikon","state_code":"ZH","country_code":"CH"}},{"type":"Feature","geometry":{"type":"Point","coordinates":[8.41085,47.42213]},"properties":{"id":17829,"name":"Geroldswil","state_code":"ZH","country_code":"CH"}},{"type":"Feature","geometry":{"type":"Point","coordinates":[8.56272,47.4313]},"properties":{"id":17840,"name":"Glattbrugg","state_code":"ZH","country_code":"CH"}},{"type":"Feature","geometry":{"type":"Point","coordinates":[8.56642,47.43721]},"properties":{"id":17841,"name":"Glattbrugg / Rohr/Platten-Balsberg","state_code":"ZH","country_code":"CH"}},{"type":"Feature","geometry":{"type":"Point","coordinates":[8.56657,47.42908]},"properties":{"id":17842,"name":"Glattbrugg / Wydacker/Bettacker/Lättenwiesen","state_code":"ZH","country_code":"CH"}},{"type":"Feature","geometry":{"type":"Point","coordinates":[8.50167,47.55871]},"properties":{"id":17843,"name":"Glattfelden","state_code":"ZH","country_code":"CH"}},{"type":"Feature","geometry":{"type":"Point","coordinates":[8.59978,47.38098]},"properties":{"id":17846,"name":"Gockhausen","state_code":"ZH","country_code":"CH"}},{"type":"Feature","geometry":{"type":"Point","coordinates":[8.75831,47.3051]},"properties":{"id":17857,"name":"Gossau","state_code":"ZH","country_code":"CH"}},{"type":"Feature","geometry":{"type":"Point","coordinates":[8.68115,47.36717]},"properties":{"id":17864,"name":"Greifensee","state_code":"ZH","country_code":"CH"}},{"type":"Feature","geometry":{"type":"Point","coordinates":[8.68151,47.37042]},"properties":{"id":17865,"name":"Greifensee / Müllerwis / Seilerwis","state_code":"ZH","country_code":"CH"}},{"type":"Feature","geometry":{"type":"Point","coordinates":[8.68979,47.3643]},"properties":{"id":17866,"name":"Greifensee / Pfisterhölzli","state_code":"ZH","country_code":"CH"}},{"type":"Feature","geometry":{"type":"Point","coordinates":[8.57886,47.42696]},"properties":{"id":17873,"name":"Grossacker/Opfikon","state_code":"ZH","country_code":"CH"}},{"type":"Feature","geometry":{"type":"Point","coordinates":[8.78339,47.31151]},"properties":{"id":17883,"name":"Grüt","state_code":"ZH","country_code":"CH"}},{"type":"Feature","geometry":{"type":"Point","coordinates":[8.71763,47.38387]},"properties":{"id":17888,"name":"Gutenswil","state_code":"ZH","country_code":"CH"}},{"type":"Feature","geometry":{"type":"Point","coordinates":[8.85719,47.2875]},"properties":{"id":17891,"name":"Hadlikon","state_code":"ZH","country_code":"CH"}},{"type":"Feature","geometry":{"type":"Point","coordinates":[8.53299,47.24496]},"properties":{"id":17896,"name":"Hausen am Albis / Hausen (Dorf)","state_code":"ZH","country_code":"CH"}},{"type":"Feature","geometry":{"type":"Point","coordinates":[8.44833,47.29794]},"properties":{"id":17897,"name":"Hedingen","state_code":"ZH","country_code":"CH"}},{"type":"Feature","geometry":{"type":"Point","coordinates":[8.66988,47.39227]},"properties":{"id":17898,"name":"Hegnau","state_code":"ZH","country_code":"CH"}},{"type":"Feature","geometry":{"type":"Point","coordinates":[8.66657,47.38713]},"properties":{"id":17899,"name":"Hegnau / Dammboden-Grindel","state_code":"ZH","country_code":"CH"}},{"type":"Feature","geometry":{"type":"Point","coordinates":[8.6791,47.39246]},"properties":{"id":17900,"name":"Hegnau / Sunnebüel-Eich","state_code":"ZH","country_code":"CH"}},{"type":"Feature","geometry":{"type":"Point","coordinates":[8.68215,47.56272]},"properties":{"id":17905,"name":"Henggart","state_code":"ZH","country_code":"CH"}},{"type":"Feature","geometry":{"type":"Point","coordinates":[8.61464,47.29064]},"properties":{"id":17909,"name":"Herrliberg","state_code":"ZH","country_code":"CH"}},{"type":"Feature","geometry":{"type":"Point","coordinates":[8.70532,47.5461]},"properties":{"id":17911,"name":"Hettlingen","state_code":"ZH","country_code":"CH"}},{"type":"Feature","geometry":{"type":"Point","coordinates":[8.68339,47.30736]},"properties":{"id":17916,"name":"Hinteregg","state_code":"ZH","country_code":"CH"}},{"type":"Feature","geometry":{"type":"Point","coordinates":[8.84393,47.29426]},"properties":{"id":17918,"name":"Hinwil","state_code":"ZH","country_code":"CH"}},{"type":"Feature","geometry":{"type":"Point","coordinates":[8.82418,47.36334]},"properties":{"id":17919,"name":"Hittnau / Hittnau (Dorf)","state_code":"ZH","country_code":"CH"}},{"type":"Feature","geometry":{"type":"Point","coordinates":[8.51564,47.52262]},"properties":{"id":17923,"name":"Hochfelden","state_code":"ZH","country_code":"CH"}},{"type":"Feature","geometry":{"type":"Point","coordinates":[8.50646,47.47778]},"properties":{"id":17925,"name":"Hofstetten","state_code":"ZH","country_code":"CH"}},{"type":"Feature","geometry":{"type":"Point","coordinates":[8.77212,47.25298]},"properties":{"id":17927,"name":"Hombrechtikon","state_code":"ZH","country_code":"CH"}},{"type":"Feature","geometry":{"type":"Point","coordinates":[8.59778,47.25983]},"properties":{"id":17929,"name":"Horgen","state_code":"ZH","country_code":"CH"}},{"type":"Feature","geometry":{"type":"Point","coordinates":[8.6066,47.24729]},"properties":{"id":17930,"name":"Horgen / Allmend","state_code":"ZH","country_code":"CH"}},{"type":"Feature","geometry":{"type":"Point","coordinates":[8.60159,47.25604]},"properties":{"id":17931,"name":"Horgen / Horgen (Dorfkern)","state_code":"ZH","country_code":"CH"}},{"type":"Feature","geometry":{"type":"Point","coordinates":[8.59013,47.25837]},"properties":{"id":17932,"name":"Horgen / Oberdorf","state_code":"ZH","country_code":"CH"}},{"type":"Feature","geometry":{"type":"Point","coordinates":[8.5876,47.26584]},"properties":{"id":17933,"name":"Horgen / Scheller-Stockerstrasse","state_code":"ZH","country_code":"CH"}},{"type":"Feature","geometry":{"type":"Point","coordinates":[8.51203,47.50799]},"properties":{"id":17943,"name":"Höri","state_code":"ZH","country_code":"CH"}},{"type":"Feature","geometry":{"type":"Point","coordinates":[8.72125,47.4113]},"properties":{"id":17949,"name":"Illnau","state_code":"ZH","country_code":"CH"}},{"type":"Feature","geometry":{"type":"Point","coordinates":[8.72607,47.40787]},"properties":{"id":17950,"name":"Illnau / Unter-Illnau","state_code":"ZH","country_code":"CH"}},{"type":"Feature","geometry":{"type":"Point","coordinates":[8.54548,47.32438]},"properties":{"id":17975,"name":"Kilchberg","state_code":"ZH","country_code":"CH"}},{"type":"Feature","geometry":{"type":"Point","coordinates":[8.53957,47.32728]},"properties":{"id":17976,"name":"Kilchberg / Bächler-Stocken","state_code":"ZH","country_code":"CH"}},{"type":"Feature","geometry":{"type":"Point","coordinates":[8.54306,47.32012]},"properties":{"id":17977,"name":"Kilchberg / Kilchberg (Dorfkern)","state_code":"ZH","country_code":"CH"}},{"type":"Feature","geometry":{"type":"Point","coordinates":[8.68296,47.40644]},"properties":{"id":17979,"name":"Kindhausen / Kindhausen (Dorf)","state_code":"ZH","country_code":"CH"}},{"type":"Feature","geometry":{"type":"Point","coordinates":[8.68362,47.60058]},"properties":{"id":17983,"name":"Kleinandelfingen","state_code":"ZH","country_code":"CH"}},{"type":"Feature","geometry":{"type":"Point","coordinates":[8.58491,47.45152]},"properties":{"id":17987,"name":"Kloten","state_code":"ZH","country_code":"CH"}},{"type":"Feature","geometry":{"type":"Point","coordinates":[8.57496,47.44233]},"properties":{"id":17988,"name":"Kloten / Balsberg","state_code":"ZH","country_code":"CH"}},{"type":"Feature","geometry":{"type":"Point","coordinates":[8.58145,47.46584]},"properties":{"id":17989,"name":"Kloten / Freienberg (Chanzler-Chlini Chaseren)","state_code":"ZH","country_code":"CH"}},{"type":"Feature","geometry":{"type":"Point","coordinates":[8.59066,47.45424]},"properties":{"id":17990,"name":"Kloten / Geissberg","state_code":"ZH","country_code":"CH"}},{"type":"Feature","geometry":{"type":"Point","coordinates":[8.57661,47.44642]},"properties":{"id":17991,"name":"Kloten / Holberg","state_code":"ZH","country_code":"CH"}},{"type":"Feature","geometry":{"type":"Point","coordinates":[8.58306,47.45399]},"properties":{"id":17992,"name":"Kloten / Horainli","state_code":"ZH","country_code":"CH"}},{"type":"Feature","geometry":{"type":"Point","coordinates":[8.59464,47.45255]},"properties":{"id":17993,"name":"Kloten / Hostrass","state_code":"ZH","country_code":"CH"}},{"type":"Feature","geometry":{"type":"Point","coordinates":[8.58683,47.45134]},"properties":{"id":17994,"name":"Kloten / Kloten (Zentrum)","state_code":"ZH","country_code":"CH"}},{"type":"Feature","geometry":{"type":"Point","coordinates":[8.58808,47.44726]},"properties":{"id":17995,"name":"Kloten / Rütlen","state_code":"ZH","country_code":"CH"}},{"type":"Feature","geometry":{"type":"Point","coordinates":[8.58724,47.44455]},"properties":{"id":17996,"name":"Kloten / Spitz","state_code":"ZH","country_code":"CH"}},{"type":"Feature","geometry":{"type":"Point","coordinates":[8.46197,47.2235]},"properties":{"id":17997,"name":"Knonau","state_code":"ZH","country_code":"CH"}},{"type":"Feature","geometry":{"type":"Point","coordinates":[8.78295,47.45793]},"properties":{"id":18000,"name":"Kollbrunn","state_code":"ZH","country_code":"CH"}},{"type":"Feature","geometry":{"type":"Point","coordinates":[8.77413,47.45748]},"properties":{"id":18001,"name":"Kollbrunn / Kollbrunn (Dorfkern)","state_code":"ZH","country_code":"CH"}},{"type":"Feature","geometry":{"type":"Point","coordinates":[8.58401,47.31805]},"properties":{"id":18013,"name":"Küsnacht","state_code":"ZH","country_code":"CH"}},{"type":"Feature","geometry":{"type":"Point","coordinates":[8.58303,47.31783]},"properties":{"id":18014,"name":"Küsnacht / Dorf","state_code":"ZH","country_code":"CH"}},{"type":"Feature","geometry":{"type":"Point","coordinates":[8.58077,47.32729]},"properties":{"id":18015,"name":"Küsnacht / Goldbach","state_code":"ZH","country_code":"CH"}},{"type":"Feature","geometry":{"type":"Point","coordinates":[8.58849,47.31307]},"properties":{"id":18016,"name":"Küsnacht / Heslibach","state_code":"ZH","country_code":"CH"}},{"type":"Feature","geometry":{"type":"Point","coordinates":[8.60068,47.32714]},"properties":{"id":18017,"name":"Küsnacht / Itschnach","state_code":"ZH","country_code":"CH"}},{"type":"Feature","geometry":{"type":"Point","coordinates":[8.58881,47.32112]},"properties":{"id":18018,"name":"Küsnacht / Schiedhalden","state_code":"ZH","country_code":"CH"}},{"type":"Feature","geometry":{"type":"Point","coordinates":[8.53627,47.28643]},"properties":{"id":18038,"name":"Langnau / Langnau (Dorf)","state_code":"ZH","country_code":"CH"}},{"type":"Feature","geometry":{"type":"Point","coordinates":[8.53758,47.29377]},"properties":{"id":18039,"name":"Langnau / Vitaquartier","state_code":"ZH","country_code":"CH"}},{"type":"Feature","geometry":{"type":"Point","coordinates":[8.5411,47.28885]},"properties":{"id":18040,"name":"Langnau am Albis","state_code":"ZH","country_code":"CH"}},{"type":"Feature","geometry":{"type":"Point","coordinates":[8.69893,47.25686]},"properties":{"id":18186,"name":"Männedorf","state_code":"ZH","country_code":"CH"}},{"type":"Feature","geometry":{"type":"Point","coordinates":[8.70608,47.24636]},"properties":{"id":18187,"name":"Männedorf / Ausserfeld","state_code":"ZH","country_code":"CH"}},{"type":"Feature","geometry":{"type":"Point","coordinates":[8.69161,47.25612]},"properties":{"id":18188,"name":"Männedorf / Dorfkern","state_code":"ZH","country_code":"CH"}},{"type":"Feature","geometry":{"type":"Point","coordinates":[8.65326,47.62913]},"properties":{"id":18124,"name":"Marthalen","state_code":"ZH","country_code":"CH"}},{"type":"Feature","geometry":{"type":"Point","coordinates":[8.74681,47.48705]},"properties":{"id":18130,"name":"Mattenbach (Kreis 7)","state_code":"ZH","country_code":"CH"}},{"type":"Feature","geometry":{"type":"Point","coordinates":[8.73948,47.49419]},"properties":{"id":18131,"name":"Mattenbach (Kreis 7) / Deutweg","state_code":"ZH","country_code":"CH"}},{"type":"Feature","geometry":{"type":"Point","coordinates":[8.74938,47.48821]},"properties":{"id":18132,"name":"Mattenbach (Kreis 7) / Endliker","state_code":"ZH","country_code":"CH"}},{"type":"Feature","geometry":{"type":"Point","coordinates":[8.75258,47.49104]},"properties":{"id":18133,"name":"Mattenbach (Kreis 7) / Gutschick","state_code":"ZH","country_code":"CH"}},{"type":"Feature","geometry":{"type":"Point","coordinates":[8.64617,47.27232]},"properties":{"id":18140,"name":"Meilen","state_code":"ZH","country_code":"CH"}},{"type":"Feature","geometry":{"type":"Point","coordinates":[8.46347,47.24529]},"properties":{"id":18157,"name":"Mettmenstetten","state_code":"ZH","country_code":"CH"}},{"type":"Feature","geometry":{"type":"Point","coordinates":[8.72029,47.30958]},"properties":{"id":18192,"name":"Mönchaltorf","state_code":"ZH","country_code":"CH"}},{"type":"Feature","geometry":{"type":"Point","coordinates":[8.72211,47.30401]},"properties":{"id":18193,"name":"Mönchaltorf / Dorf","state_code":"ZH","country_code":"CH"}},{"type":"Feature","geometry":{"type":"Point","coordinates":[8.53386,47.28306]},"properties":{"id":18196,"name":"Mühlehalde","state_code":"ZH","country_code":"CH"}},{"type":"Feature","geometry":{"type":"Point","coordinates":[8.68894,47.36975]},"properties":{"id":18236,"name":"Nänikon","state_code":"ZH","country_code":"CH"}},{"type":"Feature","geometry":{"type":"Point","coordinates":[8.69254,47.37099]},"properties":{"id":18237,"name":"Nänikon / Nänikon (Dorfkern)","state_code":"ZH","country_code":"CH"}},{"type":"Feature","geometry":{"type":"Point","coordinates":[8.47099,47.51096]},"properties":{"id":18209,"name":"Neerach","state_code":"ZH","country_code":"CH"}},{"type":"Feature","geometry":{"type":"Point","coordinates":[8.6649,47.52764]},"properties":{"id":18210,"name":"Neftenbach / Dorf Neftenbach","state_code":"ZH","country_code":"CH"}},{"type":"Feature","geometry":{"type":"Point","coordinates":[8.49987,47.49066]},"properties":{"id":18222,"name":"Niederglatt","state_code":"ZH","country_code":"CH"}},{"type":"Feature","geometry":{"type":"Point","coordinates":[8.50048,47.49065]},"properties":{"id":18223,"name":"Niederglatt / Niederglatt (Dorfkern)","state_code":"ZH","country_code":"CH"}},{"type":"Feature","geometry":{"type":"Point","coordinates":[8.48576,47.48012]},"properties":{"id":18225,"name":"Niederhasli","state_code":"ZH","country_code":"CH"}},{"type":"Feature","geometry":{"type":"Point","coordinates":[8.64908,47.44814]},"properties":{"id":18238,"name":"Nürensdorf","state_code":"ZH","country_code":"CH"}},{"type":"Feature","geometry":{"type":"Point","coordinates":[8.46515,47.40841]},"properties":{"id":18246,"name":"Oberengstringen","state_code":"ZH","country_code":"CH"}},{"type":"Feature","geometry":{"type":"Point","coordinates":[8.45627,47.40919]},"properties":{"id":18247,"name":"Oberengstringen / Rauchacher","state_code":"ZH","country_code":"CH"}},{"type":"Feature","geometry":{"type":"Point","coordinates":[8.46055,47.41211]},"properties":{"id":18248,"name":"Oberengstringen / Sonnenberg","state_code":"ZH","country_code":"CH"}},{"type":"Feature","geometry":{"type":"Point","coordinates":[8.46276,47.40711]},"properties":{"id":18249,"name":"Oberengstringen / Zentrum","state_code":"ZH","country_code":"CH"}},{"type":"Feature","geometry":{"type":"Point","coordinates":[8.51896,47.47576]},"properties":{"id":18251,"name":"Oberglatt","state_code":"ZH","country_code":"CH"}},{"type":"Feature","geometry":{"type":"Point","coordinates":[8.51289,47.47143]},"properties":{"id":18252,"name":"Oberglatt / Bahnhofquartier","state_code":"ZH","country_code":"CH"}},{"type":"Feature","geometry":{"type":"Point","coordinates":[8.51929,47.47596]},"properties":{"id":18253,"name":"Oberglatt / Oberglatt (Dorfkern)","state_code":"ZH","country_code":"CH"}},{"type":"Feature","geometry":{"type":"Point","coordinates":[8.65567,47.26574]},"properties":{"id":18258,"name":"Obermeilen","state_code":"ZH","country_code":"CH"}},{"type":"Feature","geometry":{"type":"Point","coordinates":[8.57838,47.27444]},"properties":{"id":18259,"name":"Oberrieden","state_code":"ZH","country_code":"CH"}},{"type":"Feature","geometry":{"type":"Point","coordinates":[8.57257,47.27628]},"properties":{"id":18260,"name":"Oberrieden / Berg","state_code":"ZH","country_code":"CH"}},{"type":"Feature","geometry":{"type":"Point","coordinates":[8.58021,47.27242]},"properties":{"id":18261,"name":"Oberrieden / Mitte","state_code":"ZH","country_code":"CH"}},{"type":"Feature","geometry":{"type":"Point","coordinates":[8.76863,47.51692]},"properties":{"id":18271,"name":"Oberwinterthur (Kreis 2)","state_code":"ZH","country_code":"CH"}},{"type":"Feature","geometry":{"type":"Point","coordinates":[8.75998,47.51339]},"properties":{"id":18272,"name":"Oberwinterthur (Kreis 2) / Guggenbühl","state_code":"ZH","country_code":"CH"}},{"type":"Feature","geometry":{"type":"Point","coordinates":[8.77057,47.50716]},"properties":{"id":18273,"name":"Oberwinterthur (Kreis 2) / Hegi","state_code":"ZH","country_code":"CH"}},{"type":"Feature","geometry":{"type":"Point","coordinates":[8.7515,47.50596]},"properties":{"id":18274,"name":"Oberwinterthur (Kreis 2) / Talacker","state_code":"ZH","country_code":"CH"}},{"type":"Feature","geometry":{"type":"Point","coordinates":[8.7564,47.5195]},"properties":{"id":18275,"name":"Oberwinterthur (Kreis 2) / Zinzikon","state_code":"ZH","country_code":"CH"}},{"type":"Feature","geometry":{"type":"Point","coordinates":[8.4215,47.26413]},"properties":{"id":18276,"name":"Obfelden","state_code":"ZH","country_code":"CH"}},{"type":"Feature","geometry":{"type":"Point","coordinates":[8.41588,47.26197]},"properties":{"id":18277,"name":"Obfelden / Oberlunnern","state_code":"ZH","country_code":"CH"}},{"type":"Feature","geometry":{"type":"Point","coordinates":[8.43013,47.26574]},"properties":{"id":18278,"name":"Obfelden / Toussen","state_code":"ZH","country_code":"CH"}},{"type":"Feature","geometry":{"type":"Point","coordinates":[8.72023,47.27049]},"properties":{"id":18280,"name":"Oetwil","state_code":"ZH","country_code":"CH"}},{"type":"Feature","geometry":{"type":"Point","coordinates":[8.57588,47.43169]},"properties":{"id":18285,"name":"Opfikon","state_code":"ZH","country_code":"CH"}},{"type":"Feature","geometry":{"type":"Point","coordinates":[8.39141,47.46053]},"properties":{"id":18292,"name":"Otelfingen","state_code":"ZH","country_code":"CH"}},{"type":"Feature","geometry":{"type":"Point","coordinates":[8.40432,47.28228]},"properties":{"id":18294,"name":"Ottenbach","state_code":"ZH","country_code":"CH"}},{"type":"Feature","geometry":{"type":"Point","coordinates":[8.62375,47.36476]},"properties":{"id":18305,"name":"Pfaffhausen","state_code":"ZH","country_code":"CH"}},{"type":"Feature","geometry":{"type":"Point","coordinates":[8.79202,47.36453]},"properties":{"id":18311,"name":"Pfäffikon","state_code":"ZH","country_code":"CH"}},{"type":"Feature","geometry":{"type":"Point","coordinates":[8.79265,47.3624]},"properties":{"id":18312,"name":"Pfäffikon / Irgenhausen","state_code":"ZH","country_code":"CH"}},{"type":"Feature","geometry":{"type":"Point","coordinates":[8.78309,47.36943]},"properties":{"id":18313,"name":"Pfäffikon / Pfäffikon (Dorfkern)","state_code":"ZH","country_code":"CH"}},{"type":"Feature","geometry":{"type":"Point","coordinates":[8.6423,47.51394]},"properties":{"id":18308,"name":"Pfungen","state_code":"ZH","country_code":"CH"}},{"type":"Feature","geometry":{"type":"Point","coordinates":[8.54305,47.60438]},"properties":{"id":18335,"name":"Rafz","state_code":"ZH","country_code":"CH"}},{"type":"Feature","geometry":{"type":"Point","coordinates":[8.46874,47.4341]},"properties":{"id":18344,"name":"Regensdorf","state_code":"ZH","country_code":"CH"}},{"type":"Feature","geometry":{"type":"Point","coordinates":[8.46659,47.43618]},"properties":{"id":18345,"name":"Regensdorf / Feldblumen-Riedthofstrasse","state_code":"ZH","country_code":"CH"}},{"type":"Feature","geometry":{"type":"Point","coordinates":[8.4624,47.43525]},"properties":{"id":18346,"name":"Regensdorf / Hofacher-Geeren","state_code":"ZH","country_code":"CH"}},{"type":"Feature","geometry":{"type":"Point","coordinates":[8.46566,47.42772]},"properties":{"id":18347,"name":"Regensdorf / Obstgarten","state_code":"ZH","country_code":"CH"}},{"type":"Feature","geometry":{"type":"Point","coordinates":[8.69686,47.20622]},"properties":{"id":18369,"name":"Richterswil","state_code":"ZH","country_code":"CH"}},{"type":"Feature","geometry":{"type":"Point","coordinates":[8.69133,47.20973]},"properties":{"id":18370,"name":"Richterswil / Burghalde","state_code":"ZH","country_code":"CH"}},{"type":"Feature","geometry":{"type":"Point","coordinates":[8.70607,47.20715]},"properties":{"id":18371,"name":"Richterswil / Dorfkern","state_code":"ZH","country_code":"CH"}},{"type":"Feature","geometry":{"type":"Point","coordinates":[8.70516,47.20323]},"properties":{"id":18372,"name":"Richterswil / Richterswil (Dorfkern)","state_code":"ZH","country_code":"CH"}},{"type":"Feature","geometry":{"type":"Point","coordinates":[8.57555,47.53092]},"properties":{"id":18391,"name":"Rorbas","state_code":"ZH","country_code":"CH"}},{"type":"Feature","geometry":{"type":"Point","coordinates":[8.52993,47.45041]},"properties":{"id":18406,"name":"Rümlang","state_code":"ZH","country_code":"CH"}},{"type":"Feature","geometry":{"type":"Point","coordinates":[8.53255,47.4494]},"properties":{"id":18407,"name":"Rümlang / Rümlang (Dorfkern)","state_code":"ZH","country_code":"CH"}},{"type":"Feature","geometry":{"type":"Point","coordinates":[8.55135,47.30688]},"properties":{"id":18409,"name":"Rüschlikon","state_code":"ZH","country_code":"CH"}},{"type":"Feature","geometry":{"type":"Point","coordinates":[8.77515,47.39669]},"properties":{"id":18400,"name":"Russikon","state_code":"ZH","country_code":"CH"}},{"type":"Feature","geometry":{"type":"Point","coordinates":[8.85552,47.25603]},"properties":{"id":18411,"name":"Rüti","state_code":"ZH","country_code":"CH"}},{"type":"Feature","geometry":{"type":"Point","coordinates":[8.85654,47.25368]},"properties":{"id":18412,"name":"Rüti / Dorfzentrum Südl. Teil","state_code":"ZH","country_code":"CH"}},{"type":"Feature","geometry":{"type":"Point","coordinates":[8.86512,47.25894]},"properties":{"id":18413,"name":"Rüti / Oberdorf","state_code":"ZH","country_code":"CH"}},{"type":"Feature","geometry":{"type":"Point","coordinates":[8.8449,47.25548]},"properties":{"id":18414,"name":"Rüti / Westlicher Dorfteil","state_code":"ZH","country_code":"CH"}},{"type":"Feature","geometry":{"type":"Point","coordinates":[8.68196,47.19167]},"properties":{"id":18436,"name":"Samstagern","state_code":"ZH","country_code":"CH"}},{"type":"Feature","geometry":{"type":"Point","coordinates":[8.47251,47.32419]},"properties":{"id":18454,"name":"Schachen","state_code":"ZH","country_code":"CH"}},{"type":"Feature","geometry":{"type":"Point","coordinates":[8.44763,47.39668]},"properties":{"id":18465,"name":"Schlieren","state_code":"ZH","country_code":"CH"}},{"type":"Feature","geometry":{"type":"Point","coordinates":[8.45734,47.39721]},"properties":{"id":18466,"name":"Schlieren / Boden","state_code":"ZH","country_code":"CH"}},{"type":"Feature","geometry":{"type":"Point","coordinates":[8.44352,47.40338]},"properties":{"id":18467,"name":"Schlieren / Engstingerquartier","state_code":"ZH","country_code":"CH"}},{"type":"Feature","geometry":{"type":"Point","coordinates":[8.44202,47.39598]},"properties":{"id":18468,"name":"Schlieren / Freiestrasse","state_code":"ZH","country_code":"CH"}},{"type":"Feature","geometry":{"type":"Point","coordinates":[8.44453,47.39358]},"properties":{"id":18469,"name":"Schlieren / Kamp","state_code":"ZH","country_code":"CH"}},{"type":"Feature","geometry":{"type":"Point","coordinates":[8.43027,47.39489]},"properties":{"id":18470,"name":"Schlieren / Spital","state_code":"ZH","country_code":"CH"}},{"type":"Feature","geometry":{"type":"Point","coordinates":[8.4477,47.39779]},"properties":{"id":18471,"name":"Schlieren / Zentrum","state_code":"ZH","country_code":"CH"}},{"type":"Feature","geometry":{"type":"Point","coordinates":[8.65727,47.38213]},"properties":{"id":18478,"name":"Schwerzenbach","state_code":"ZH","country_code":"CH"}},{"type":"Feature","geometry":{"type":"Point","coordinates":[8.64954,47.38308]},"properties":{"id":18479,"name":"Schwerzenbach / Blatten","state_code":"ZH","country_code":"CH"}},{"type":"Feature","geometry":{"type":"Point","coordinates":[8.65888,47.38592]},"properties":{"id":18480,"name":"Schwerzenbach / Chimli","state_code":"ZH","country_code":"CH"}},{"type":"Feature","geometry":{"type":"Point","coordinates":[8.76996,47.47646]},"properties":{"id":18495,"name":"Seen (Kreis 3)","state_code":"ZH","country_code":"CH"}},{"type":"Feature","geometry":{"type":"Point","coordinates":[8.76517,47.48446]},"properties":{"id":18496,"name":"Seen (Kreis 3) / Büelwiesen","state_code":"ZH","country_code":"CH"}},{"type":"Feature","geometry":{"type":"Point","coordinates":[8.76249,47.481]},"properties":{"id":18497,"name":"Seen (Kreis 3) / Ganzenbühl","state_code":"ZH","country_code":"CH"}},{"type":"Feature","geometry":{"type":"Point","coordinates":[8.77289,47.48205]},"properties":{"id":18498,"name":"Seen (Kreis 3) / Oberseen","state_code":"ZH","country_code":"CH"}},{"type":"Feature","geometry":{"type":"Point","coordinates":[8.75586,47.48393]},"properties":{"id":18499,"name":"Seen (Kreis 3) / Waldegg","state_code":"ZH","country_code":"CH"}},{"type":"Feature","geometry":{"type":"Point","coordinates":[8.76034,47.48913]},"properties":{"id":18500,"name":"Seen (Kreis 3) / Waser","state_code":"ZH","country_code":"CH"}},{"type":"Feature","geometry":{"type":"Point","coordinates":[8.52093,47.57244]},"properties":{"id":18503,"name":"Seglingen","state_code":"ZH","country_code":"CH"}},{"type":"Feature","geometry":{"type":"Point","coordinates":[8.48301,47.34361]},"properties":{"id":18504,"name":"Sellenbüren","state_code":"ZH","country_code":"CH"}},{"type":"Feature","geometry":{"type":"Point","coordinates":[8.73728,47.53545]},"properties":{"id":18512,"name":"Seuzach / Seuzach (Dorf)","state_code":"ZH","country_code":"CH"}},{"type":"Feature","geometry":{"type":"Point","coordinates":[8.73209,47.5356]},"properties":{"id":18513,"name":"Seuzach Dorf","state_code":"ZH","country_code":"CH"}},{"type":"Feature","geometry":{"type":"Point","coordinates":[8.73415,47.53345]},"properties":{"id":18514,"name":"Seuzach Dorf / Breite-Weid","state_code":"ZH","country_code":"CH"}},{"type":"Feature","geometry":{"type":"Point","coordinates":[8.46091,47.45329]},"properties":{"id":18529,"name":"Sonnhalde","state_code":"ZH","country_code":"CH"}},{"type":"Feature","geometry":{"type":"Point","coordinates":[8.71954,47.49494]},"properties":{"id":18537,"name":"Stadt Winterthur (Kreis 1)","state_code":"ZH","country_code":"CH"}},{"type":"Feature","geometry":{"type":"Point","coordinates":[8.72872,47.49951]},"properties":{"id":18538,"name":"Stadt Winterthur (Kreis 1) / Altstadt","state_code":"ZH","country_code":"CH"}},{"type":"Feature","geometry":{"type":"Point","coordinates":[8.71272,47.49764]},"properties":{"id":18539,"name":"Stadt Winterthur (Kreis 1) / Brühlberg","state_code":"ZH","country_code":"CH"}},{"type":"Feature","geometry":{"type":"Point","coordinates":[8.72334,47.49409]},"properties":{"id":18540,"name":"Stadt Winterthur (Kreis 1) / Heiligberg","state_code":"ZH","country_code":"CH"}},{"type":"Feature","geometry":{"type":"Point","coordinates":[8.73372,47.50571]},"properties":{"id":18541,"name":"Stadt Winterthur (Kreis 1) / Lind","state_code":"ZH","country_code":"CH"}},{"type":"Feature","geometry":{"type":"Point","coordinates":[8.71625,47.50207]},"properties":{"id":18542,"name":"Stadt Winterthur (Kreis 1) / Neuwiesen","state_code":"ZH","country_code":"CH"}},{"type":"Feature","geometry":{"type":"Point","coordinates":[8.71512,47.4934]},"properties":{"id":18543,"name":"Stadt Winterthur (Kreis 1) / Tössfeld","state_code":"ZH","country_code":"CH"}},{"type":"Feature","geometry":{"type":"Point","coordinates":[8.72342,47.24254]},"properties":{"id":18560,"name":"Stäfa","state_code":"ZH","country_code":"CH"}},{"type":"Feature","geometry":{"type":"Point","coordinates":[8.45216,47.4971]},"properties":{"id":18555,"name":"Steinmaur","state_code":"ZH","country_code":"CH"}},{"type":"Feature","geometry":{"type":"Point","coordinates":[8.78887,47.53954]},"properties":{"id":18565,"name":"Sulz","state_code":"ZH","country_code":"CH"}},{"type":"Feature","geometry":{"type":"Point","coordinates":[8.67284,47.4307]},"properties":{"id":18571,"name":"Tagelswangen","state_code":"ZH","country_code":"CH"}},{"type":"Feature","geometry":{"type":"Point","coordinates":[8.85024,47.26898]},"properties":{"id":18574,"name":"Tann","state_code":"ZH","country_code":"CH"}},{"type":"Feature","geometry":{"type":"Point","coordinates":[8.85048,47.26494]},"properties":{"id":18575,"name":"Tann / Tann (Dorfkern)","state_code":"ZH","country_code":"CH"}},{"type":"Feature","geometry":{"type":"Point","coordinates":[8.56351,47.29175]},"properties":{"id":18582,"name":"Thalwil","state_code":"ZH","country_code":"CH"}},{"type":"Feature","geometry":{"type":"Point","coordinates":[8.55602,47.29178]},"properties":{"id":18583,"name":"Thalwil / Berg","state_code":"ZH","country_code":"CH"}},{"type":"Feature","geometry":{"type":"Point","coordinates":[8.56633,47.29047]},"properties":{"id":18584,"name":"Thalwil / Dorfkern","state_code":"ZH","country_code":"CH"}},{"type":"Feature","geometry":{"type":"Point","coordinates":[8.55634,47.29748]},"properties":{"id":18585,"name":"Thalwil / Nord","state_code":"ZH","country_code":"CH"}},{"type":"Feature","geometry":{"type":"Point","coordinates":[8.56929,47.29409]},"properties":{"id":18586,"name":"Thalwil / See","state_code":"ZH","country_code":"CH"}},{"type":"Feature","geometry":{"type":"Point","coordinates":[8.56954,47.28495]},"properties":{"id":18587,"name":"Thalwil / Süd","state_code":"ZH","country_code":"CH"}},{"type":"Feature","geometry":{"type":"Point","coordinates":[8.70215,47.4789]},"properties":{"id":18618,"name":"Töss (Kreis 4)","state_code":"ZH","country_code":"CH"}},{"type":"Feature","geometry":{"type":"Point","coordinates":[8.7074,47.48727]},"properties":{"id":18619,"name":"Töss (Kreis 4) / Eichliacker","state_code":"ZH","country_code":"CH"}},{"type":"Feature","geometry":{"type":"Point","coordinates":[8.70223,47.49279]},"properties":{"id":18620,"name":"Töss (Kreis 4) / Schlosstal","state_code":"ZH","country_code":"CH"}},{"type":"Feature","geometry":{"type":"Point","coordinates":[8.69855,47.48135]},"properties":{"id":18621,"name":"Töss (Kreis 4) / Vorder-Dättnau","state_code":"ZH","country_code":"CH"}},{"type":"Feature","geometry":{"type":"Point","coordinates":[8.84629,47.43633]},"properties":{"id":18613,"name":"Turbenthal","state_code":"ZH","country_code":"CH"}},{"type":"Feature","geometry":{"type":"Point","coordinates":[8.7573,47.23672]},"properties":{"id":18624,"name":"Uerikon","state_code":"ZH","country_code":"CH"}},{"type":"Feature","geometry":{"type":"Point","coordinates":[8.67925,47.26441]},"properties":{"id":18627,"name":"Uetikon","state_code":"ZH","country_code":"CH"}},{"type":"Feature","geometry":{"type":"Point","coordinates":[8.67765,47.26654]},"properties":{"id":18628,"name":"Uetikon / Grossdorf","state_code":"ZH","country_code":"CH"}},{"type":"Feature","geometry":{"type":"Point","coordinates":[8.63542,47.67074]},"properties":{"id":18629,"name":"Uhwiesen","state_code":"ZH","country_code":"CH"}},{"type":"Feature","geometry":{"type":"Point","coordinates":[8.45699,47.36911]},"properties":{"id":18630,"name":"Uitikon","state_code":"ZH","country_code":"CH"}},{"type":"Feature","geometry":{"type":"Point","coordinates":[8.44761,47.41396]},"properties":{"id":18631,"name":"Unterengstringen","state_code":"ZH","country_code":"CH"}},{"type":"Feature","geometry":{"type":"Point","coordinates":[8.42581,47.38507]},"properties":{"id":18639,"name":"Urdorf","state_code":"ZH","country_code":"CH"}},{"type":"Feature","geometry":{"type":"Point","coordinates":[8.42265,47.3892]},"properties":{"id":18640,"name":"Urdorf / Bodenfeld","state_code":"ZH","country_code":"CH"}},{"type":"Feature","geometry":{"type":"Point","coordinates":[8.42886,47.38977]},"properties":{"id":18641,"name":"Urdorf / Moos","state_code":"ZH","country_code":"CH"}},{"type":"Feature","geometry":{"type":"Point","coordinates":[8.42343,47.38072]},"properties":{"id":18642,"name":"Urdorf / Oberurdorf","state_code":"ZH","country_code":"CH"}},{"type":"Feature","geometry":{"type":"Point","coordinates":[8.72091,47.34713]},"properties":{"id":18645,"name":"Uster","state_code":"ZH","country_code":"CH"}},{"type":"Feature","geometry":{"type":"Point","coordinates":[8.7139,47.36016]},"properties":{"id":18646,"name":"Uster / Gschwader","state_code":"ZH","country_code":"CH"}},{"type":"Feature","geometry":{"type":"Point","coordinates":[8.71839,47.34579]},"properties":{"id":18647,"name":"Uster / Kirch-Uster","state_code":"ZH","country_code":"CH"}},{"type":"Feature","geometry":{"type":"Point","coordinates":[8.70088,47.34743]},"properties":{"id":18648,"name":"Uster / Nieder-Uster","state_code":"ZH","country_code":"CH"}},{"type":"Feature","geometry":{"type":"Point","coordinates":[8.72555,47.34088]},"properties":{"id":18649,"name":"Uster / Nossikon","state_code":"ZH","country_code":"CH"}},{"type":"Feature","geometry":{"type":"Point","coordinates":[8.73319,47.34874]},"properties":{"id":18650,"name":"Uster / Ober-Uster","state_code":"ZH","country_code":"CH"}},{"type":"Feature","geometry":{"type":"Point","coordinates":[8.717,47.51419]},"properties":{"id":18665,"name":"Veltheim (Kreis 5)","state_code":"ZH","country_code":"CH"}},{"type":"Feature","geometry":{"type":"Point","coordinates":[8.71563,47.50618]},"properties":{"id":18666,"name":"Veltheim (Kreis 5) / Blumenau","state_code":"ZH","country_code":"CH"}},{"type":"Feature","geometry":{"type":"Point","coordinates":[8.71583,47.51386]},"properties":{"id":18667,"name":"Veltheim (Kreis 5) / Rosenberg","state_code":"ZH","country_code":"CH"}},{"type":"Feature","geometry":{"type":"Point","coordinates":[8.69085,47.39016]},"properties":{"id":18691,"name":"Volketswil / Volketswil (Dorf)","state_code":"ZH","country_code":"CH"}},{"type":"Feature","geometry":{"type":"Point","coordinates":[8.6687,47.22683]},"properties":{"id":18773,"name":"Wädenswil","state_code":"ZH","country_code":"CH"}},{"type":"Feature","geometry":{"type":"Point","coordinates":[8.68385,47.22115]},"properties":{"id":18774,"name":"Wädenswil / Boller-Giessen","state_code":"ZH","country_code":"CH"}},{"type":"Feature","geometry":{"type":"Point","coordinates":[8.66346,47.23395]},"properties":{"id":18775,"name":"Wädenswil / Büelen","state_code":"ZH","country_code":"CH"}},{"type":"Feature","geometry":{"type":"Point","coordinates":[8.6722,47.22923]},"properties":{"id":18776,"name":"Wädenswil / Dorf (Wädenswil)","state_code":"ZH","country_code":"CH"}},{"type":"Feature","geometry":{"type":"Point","coordinates":[8.6744,47.21847]},"properties":{"id":18777,"name":"Wädenswil / Eichweid","state_code":"ZH","country_code":"CH"}},{"type":"Feature","geometry":{"type":"Point","coordinates":[8.65251,47.23367]},"properties":{"id":18778,"name":"Wädenswil / Hangenmoos","state_code":"ZH","country_code":"CH"}},{"type":"Feature","geometry":{"type":"Point","coordinates":[8.67149,47.22364]},"properties":{"id":18779,"name":"Wädenswil / Leihof-Mühlebach","state_code":"ZH","country_code":"CH"}},{"type":"Feature","geometry":{"type":"Point","coordinates":[8.66303,47.22772]},"properties":{"id":18780,"name":"Wädenswil / Untermosen-Fuhr","state_code":"ZH","country_code":"CH"}},{"type":"Feature","geometry":{"type":"Point","coordinates":[8.91405,47.27595]},"properties":{"id":18709,"name":"Wald","state_code":"ZH","country_code":"CH"}},{"type":"Feature","geometry":{"type":"Point","coordinates":[8.59672,47.41499]},"properties":{"id":18715,"name":"Wallisellen","state_code":"ZH","country_code":"CH"}},{"type":"Feature","geometry":{"type":"Point","coordinates":[8.60028,47.41738]},"properties":{"id":18716,"name":"Wallisellen / Rieden","state_code":"ZH","country_code":"CH"}},{"type":"Feature","geometry":{"type":"Point","coordinates":[8.59727,47.41446]},"properties":{"id":18717,"name":"Wallisellen / Wallisellen-Ost","state_code":"ZH","country_code":"CH"}},{"type":"Feature","geometry":{"type":"Point","coordinates":[8.58586,47.41906]},"properties":{"id":18718,"name":"Wallisellen / Wallisellen-West","state_code":"ZH","country_code":"CH"}},{"type":"Feature","geometry":{"type":"Point","coordinates":[8.64516,47.41182]},"properties":{"id":18722,"name":"Wangen","state_code":"ZH","country_code":"CH"}},{"type":"Feature","geometry":{"type":"Point","coordinates":[8.43644,47.42022]},"properties":{"id":18732,"name":"Weiningen","state_code":"ZH","country_code":"CH"}},{"type":"Feature","geometry":{"type":"Point","coordinates":[8.76787,47.43063]},"properties":{"id":18733,"name":"Weisslingen","state_code":"ZH","country_code":"CH"}},{"type":"Feature","geometry":{"type":"Point","coordinates":[8.47732,47.33197]},"properties":{"id":18737,"name":"Wettswil / Ausser-Dorf","state_code":"ZH","country_code":"CH"}},{"type":"Feature","geometry":{"type":"Point","coordinates":[8.47149,47.34152]},"properties":{"id":18738,"name":"Wettswil / Wettswil (Dorf)","state_code":"ZH","country_code":"CH"}},{"type":"Feature","geometry":{"type":"Point","coordinates":[8.79779,47.3264]},"properties":{"id":18739,"name":"Wetzikon","state_code":"ZH","country_code":"CH"}},{"type":"Feature","geometry":{"type":"Point","coordinates":[8.80982,47.33319]},"properties":{"id":18740,"name":"Wetzikon / Kempten","state_code":"ZH","country_code":"CH"}},{"type":"Feature","geometry":{"type":"Point","coordinates":[8.80005,47.32514]},"properties":{"id":18741,"name":"Wetzikon / Ober-Wetzikon","state_code":"ZH","country_code":"CH"}},{"type":"Feature","geometry":{"type":"Point","coordinates":[8.78762,47.33089]},"properties":{"id":18742,"name":"Wetzikon / Robenhausen","state_code":"ZH","country_code":"CH"}},{"type":"Feature","geometry":{"type":"Point","coordinates":[8.79369,47.31637]},"properties":{"id":18743,"name":"Wetzikon / Unter-Wetzikon","state_code":"ZH","country_code":"CH"}},{"type":"Feature","geometry":{"type":"Point","coordinates":[8.78967,47.5217]},"properties":{"id":18746,"name":"Wiesendangen / Wiesendangen (Dorf)","state_code":"ZH","country_code":"CH"}},{"type":"Feature","geometry":{"type":"Point","coordinates":[8.84524,47.41928]},"properties":{"id":18750,"name":"Wila","state_code":"ZH","country_code":"CH"}},{"type":"Feature","geometry":{"type":"Point","coordinates":[8.72413,47.50564]},"properties":{"id":18758,"name":"Winterthur","state_code":"ZH","country_code":"CH"}},{"type":"Feature","geometry":{"type":"Point","coordinates":[8.7991,47.25619]},"properties":{"id":18764,"name":"Wolfhausen","state_code":"ZH","country_code":"CH"}},{"type":"Feature","geometry":{"type":"Point","coordinates":[8.68333,47.51036]},"properties":{"id":18783,"name":"Wülflingen (Kreis 6)","state_code":"ZH","country_code":"CH"}},{"type":"Feature","geometry":{"type":"Point","coordinates":[8.684,47.51262]},"properties":{"id":18784,"name":"Wülflingen (Kreis 6) / Härti","state_code":"ZH","country_code":"CH"}},{"type":"Feature","geometry":{"type":"Point","coordinates":[8.6929,47.51098]},"properties":{"id":18785,"name":"Wülflingen (Kreis 6) / Lindenplatz","state_code":"ZH","country_code":"CH"}},{"type":"Feature","geometry":{"type":"Point","coordinates":[8.67968,47.50904]},"properties":{"id":18786,"name":"Wülflingen (Kreis 6) / Niederfeld","state_code":"ZH","country_code":"CH"}},{"type":"Feature","geometry":{"type":"Point","coordinates":[8.69897,47.49873]},"properties":{"id":18787,"name":"Wülflingen (Kreis 6) / Oberfeld","state_code":"ZH","country_code":"CH"}},{"type":"Feature","geometry":{"type":"Point","coordinates":[8.60088,47.3451]},"properties":{"id":18797,"name":"Zollikerberg","state_code":"ZH","country_code":"CH"}},{"type":"Feature","geometry":{"type":"Point","coordinates":[8.57407,47.34019]},"properties":{"id":18799,"name":"Zollikon","state_code":"ZH","country_code":"CH"}},{"type":"Feature","geometry":{"type":"Point","coordinates":[8.62271,47.33158]},"properties":{"id":18802,"name":"Zumikon","state_code":"ZH","country_code":"CH"}},{"type":"Feature","geometry":{"type":"Point","coordinates":[8.55,47.36667]},"properties":{"id":18809,"name":"Zürich","state_code":"ZH","country_code":"CH"}},{"type":"Feature","geometry":{"type":"Point","coordinates":[8.54177,47.37055]},"properties":{"id":18810,"name":"Zürich (Kreis 1)","state_code":"ZH","country_code":"CH"}},{"type":"Feature","geometry":{"type":"Point","coordinates":[8.53576,47.37269]},"properties":{"id":18811,"name":"Zürich (Kreis 1) / City","state_code":"ZH","country_code":"CH"}},{"type":"Feature","geometry":{"type":"Point","coordinates":[8.54036,47.37188]},"properties":{"id":18812,"name":"Zürich (Kreis 1) / Lindenhof","state_code":"ZH","country_code":"CH"}},{"type":"Feature","geometry":{"type":"Point","coordinates":[8.54501,47.37161]},"properties":{"id":18813,"name":"Zürich (Kreis 1) / Rathaus","state_code":"ZH","country_code":"CH"}},{"type":"Feature","geometry":{"type":"Point","coordinates":[8.5005,47.40773]},"properties":{"id":18814,"name":"Zürich (Kreis 10)","state_code":"ZH","country_code":"CH"}},{"type":"Feature","geometry":{"type":"Point","coordinates":[8.4971,47.40313]},"properties":{"id":18815,"name":"Zürich (Kreis 10) / Höngg","state_code":"ZH","country_code":"CH"}},{"type":"Feature","geometry":{"type":"Point","coordinates":[8.47928,47.41444]},"properties":{"id":18816,"name":"Zürich (Kreis 10) / Rütihof","state_code":"ZH","country_code":"CH"}},{"type":"Feature","geometry":{"type":"Point","coordinates":[8.52529,47.39503]},"properties":{"id":18817,"name":"Zürich (Kreis 10) / Wipkingen","state_code":"ZH","country_code":"CH"}},{"type":"Feature","geometry":{"type":"Point","coordinates":[8.52166,47.42326]},"properties":{"id":18818,"name":"Zürich (Kreis 11)","state_code":"ZH","country_code":"CH"}},{"type":"Feature","geometry":{"type":"Point","coordinates":[8.5122,47.41814]},"properties":{"id":18819,"name":"Zürich (Kreis 11) / Affoltern","state_code":"ZH","country_code":"CH"}},{"type":"Feature","geometry":{"type":"Point","coordinates":[8.54258,47.40823]},"properties":{"id":18820,"name":"Zürich (Kreis 11) / Oerlikon","state_code":"ZH","country_code":"CH"}},{"type":"Feature","geometry":{"type":"Point","coordinates":[8.52125,47.42476]},"properties":{"id":18821,"name":"Zürich (Kreis 11) / Schwandenholz","state_code":"ZH","country_code":"CH"}},{"type":"Feature","geometry":{"type":"Point","coordinates":[8.54779,47.42181]},"properties":{"id":18822,"name":"Zürich (Kreis 11) / Seebach","state_code":"ZH","country_code":"CH"}},{"type":"Feature","geometry":{"type":"Point","coordinates":[8.57608,47.40372]},"properties":{"id":18823,"name":"Zürich (Kreis 12)","state_code":"ZH","country_code":"CH"}},{"type":"Feature","geometry":{"type":"Point","coordinates":[8.57014,47.41511]},"properties":{"id":18824,"name":"Zürich (Kreis 12) / Auzelg","state_code":"ZH","country_code":"CH"}},{"type":"Feature","geometry":{"type":"Point","coordinates":[8.58633,47.40187]},"properties":{"id":18825,"name":"Zürich (Kreis 12) / Hirzenbach","state_code":"ZH","country_code":"CH"}},{"type":"Feature","geometry":{"type":"Point","coordinates":[8.5648,47.41127]},"properties":{"id":18826,"name":"Zürich (Kreis 12) / Saatlen","state_code":"ZH","country_code":"CH"}},{"type":"Feature","geometry":{"type":"Point","coordinates":[8.57242,47.4063]},"properties":{"id":18827,"name":"Zürich (Kreis 12) / Schwamendingen-Mitte","state_code":"ZH","country_code":"CH"}},{"type":"Feature","geometry":{"type":"Point","coordinates":[8.5211,47.33756]},"properties":{"id":18828,"name":"Zürich (Kreis 2)","state_code":"ZH","country_code":"CH"}},{"type":"Feature","geometry":{"type":"Point","coordinates":[8.53127,47.3605]},"properties":{"id":18829,"name":"Zürich (Kreis 2) / Enge","state_code":"ZH","country_code":"CH"}},{"type":"Feature","geometry":{"type":"Point","coordinates":[8.51391,47.32538]},"properties":{"id":18830,"name":"Zürich (Kreis 2) / Mittel-Leimbach","state_code":"ZH","country_code":"CH"}},{"type":"Feature","geometry":{"type":"Point","coordinates":[8.51433,47.33362]},"properties":{"id":18831,"name":"Zürich (Kreis 2) / Unter-Leimbach","state_code":"ZH","country_code":"CH"}},{"type":"Feature","geometry":{"type":"Point","coordinates":[8.53134,47.3401]},"properties":{"id":18832,"name":"Zürich (Kreis 2) / Wollishofen","state_code":"ZH","country_code":"CH"}},{"type":"Feature","geometry":{"type":"Point","coordinates":[8.50296,47.35785]},"properties":{"id":18833,"name":"Zürich (Kreis 3)","state_code":"ZH","country_code":"CH"}},{"type":"Feature","geometry":{"type":"Point","coordinates":[8.51497,47.36201]},"properties":{"id":18834,"name":"Zürich (Kreis 3) / Alt-Wiedikon","state_code":"ZH","country_code":"CH"}},{"type":"Feature","geometry":{"type":"Point","coordinates":[8.50417,47.36372]},"properties":{"id":18835,"name":"Zürich (Kreis 3) / Friesenberg","state_code":"ZH","country_code":"CH"}},{"type":"Feature","geometry":{"type":"Point","coordinates":[8.51164,47.37382]},"properties":{"id":18836,"name":"Zürich (Kreis 3) / Sihlfeld","state_code":"ZH","country_code":"CH"}},{"type":"Feature","geometry":{"type":"Point","coordinates":[8.52127,47.37752]},"properties":{"id":18837,"name":"Zürich (Kreis 4) / Aussersihl","state_code":"ZH","country_code":"CH"}},{"type":"Feature","geometry":{"type":"Point","coordinates":[8.50942,47.38311]},"properties":{"id":18838,"name":"Zürich (Kreis 4) / Hard","state_code":"ZH","country_code":"CH"}},{"type":"Feature","geometry":{"type":"Point","coordinates":[8.52854,47.37767]},"properties":{"id":18839,"name":"Zürich (Kreis 4) / Langstrasse","state_code":"ZH","country_code":"CH"}},{"type":"Feature","geometry":{"type":"Point","coordinates":[8.52584,47.37178]},"properties":{"id":18840,"name":"Zürich (Kreis 4) / Werd","state_code":"ZH","country_code":"CH"}},{"type":"Feature","geometry":{"type":"Point","coordinates":[8.52152,47.38767]},"properties":{"id":18841,"name":"Zürich (Kreis 5)","state_code":"ZH","country_code":"CH"}},{"type":"Feature","geometry":{"type":"Point","coordinates":[8.51292,47.39052]},"properties":{"id":18842,"name":"Zürich (Kreis 5) / Escher-Wyss","state_code":"ZH","country_code":"CH"}},{"type":"Feature","geometry":{"type":"Point","coordinates":[8.53011,47.38481]},"properties":{"id":18843,"name":"Zürich (Kreis 5) / Gewerbeschule","state_code":"ZH","country_code":"CH"}},{"type":"Feature","geometry":{"type":"Point","coordinates":[8.54381,47.39223]},"properties":{"id":18844,"name":"Zürich (Kreis 6)","state_code":"ZH","country_code":"CH"}},{"type":"Feature","geometry":{"type":"Point","coordinates":[8.5504,47.38917]},"properties":{"id":18845,"name":"Zürich (Kreis 6) / Oberstrass","state_code":"ZH","country_code":"CH"}},{"type":"Feature","geometry":{"type":"Point","coordinates":[8.53721,47.3953]},"properties":{"id":18846,"name":"Zürich (Kreis 6) / Unterstrass","state_code":"ZH","country_code":"CH"}},{"type":"Feature","geometry":{"type":"Point","coordinates":[8.58038,47.37328]},"properties":{"id":18847,"name":"Zürich (Kreis 7)","state_code":"ZH","country_code":"CH"}},{"type":"Feature","geometry":{"type":"Point","coordinates":[8.56133,47.38013]},"properties":{"id":18848,"name":"Zürich (Kreis 7) / Fluntern","state_code":"ZH","country_code":"CH"}},{"type":"Feature","geometry":{"type":"Point","coordinates":[8.56755,47.3624]},"properties":{"id":18849,"name":"Zürich (Kreis 7) / Hirslanden","state_code":"ZH","country_code":"CH"}},{"type":"Feature","geometry":{"type":"Point","coordinates":[8.56306,47.37011]},"properties":{"id":18850,"name":"Zürich (Kreis 7) / Hottingen","state_code":"ZH","country_code":"CH"}},{"type":"Feature","geometry":{"type":"Point","coordinates":[8.59105,47.35751]},"properties":{"id":18851,"name":"Zürich (Kreis 7) / Witikon","state_code":"ZH","country_code":"CH"}},{"type":"Feature","geometry":{"type":"Point","coordinates":[8.56097,47.3548]},"properties":{"id":18852,"name":"Zürich (Kreis 8)","state_code":"ZH","country_code":"CH"}},{"type":"Feature","geometry":{"type":"Point","coordinates":[8.55744,47.35727]},"properties":{"id":18853,"name":"Zürich (Kreis 8) / Mühlebach","state_code":"ZH","country_code":"CH"}},{"type":"Feature","geometry":{"type":"Point","coordinates":[8.55537,47.35462]},"properties":{"id":18854,"name":"Zürich (Kreis 8) / Seefeld","state_code":"ZH","country_code":"CH"}},{"type":"Feature","geometry":{"type":"Point","coordinates":[8.57011,47.3525]},"properties":{"id":18855,"name":"Zürich (Kreis 8) / Weinegg","state_code":"ZH","country_code":"CH"}},{"type":"Feature","geometry":{"type":"Point","coordinates":[8.47993,47.38245]},"properties":{"id":18856,"name":"Zürich (Kreis 9)","state_code":"ZH","country_code":"CH"}},{"type":"Feature","geometry":{"type":"Point","coordinates":[8.49007,47.37398]},"properties":{"id":18857,"name":"Zürich (Kreis 9) / Albisrieden","state_code":"ZH","country_code":"CH"}},{"type":"Feature","geometry":{"type":"Point","coordinates":[8.48533,47.38946]},"properties":{"id":18858,"name":"Zürich (Kreis 9) / Altstetten","state_code":"ZH","country_code":"CH"}}]}