{"type":"FeatureCollection","features":[{"type":"Feature","geometry":{"type":"Point","coordinates":[-70.9057665,-53.1413897]},"properties":{"id":19029,"name":"Antártica","state_code":"MA","country_code":"CL"}},{"type":"Feature","geometry":{"type":"Point","coordinates":[-67.61666667,-54.93333333]},"properties":{"id":148404,"name":"Cabo de Hornos","state_code":"MA","country_code":"CL"}},{"type":"Feature","geometry":{"type":"Point","coordinates":[-71.91666667,-52.25]},"properties":{"id":148405,"name":"Laguna Blanca","state_code":"MA","country_code":"CL"}},{"type":"Feature","geometry":{"type":"Point","coordinates":[-72.51666667,-51.73333333]},"properties":{"id":148406,"name":"Natales","state_code":"MA","country_code":"CL"}},{"type":"Feature","geometry":{"type":"Point","coordinates":[-70.36666667,-53.3]},"properties":{"id":19028,"name":"Porvenir","state_code":"MA","country_code":"CL"}},{"type":"Feature","geometry":{"type":"Point","coordinates":[-69.25,-52.71666667]},"properties":{"id":148407,"name":"Primavera","state_code":"MA","country_code":"CL"}},{"type":"Feature","geometry":{"type":"Point","coordinates":[-70.9081,-53.1627]},"properties":{"id":19088,"name":"Punta Arenas","state_code":"MA","country_code":"CL"}},{"type":"Feature","geometry":{"type":"Point","coordinates":[-71.48333333,-52.65]},"properties":{"id":148408,"name":"Río Verde","state_code":"MA","country_code":"CL"}},{"type":"Feature","geometry":{"type":"Point","coordinates":[-69.68333333,-52.31666667]},"properties":{"id":148409,"name":"San Gregorio","state_code":"MA","country_code":"CL"}},{"type":"Feature","geometry":{"type":"Point","coordinates":[-69.9,-53.66666667]},"properties":{"id":148410,"name":"Timaukel","state_code":"MA","country_code":"CL"}},{"type":"Feature","geometry":{"type":"Point","coordinates":[-72.35,-51.26666667]},"properties":{"id":148411,"name":"Torres del Paine","state_code":"MA","country_code":"CL"}}]}