{"type":"FeatureCollection","features":[{"type":"Feature","geometry":{"type":"Point","coordinates":[-70.68333333,-33.2]},"properties":{"id":148502,"name":"Colina","state_code":"RM","country_code":"CL"}},{"type":"Feature","geometry":{"type":"Point","coordinates":[-71.21528,-33.68909]},"properties":{"id":19012,"name":"Melipilla","state_code":"RM","country_code":"CL"}},{"type":"Feature","geometry":{"type":"Point","coordinates":[-70.57577,-33.61169]},"properties":{"id":19081,"name":"Puente Alto","state_code":"RM","country_code":"CL"}},{"type":"Feature","geometry":{"type":"Point","coordinates":[-70.6996,-33.59217]},"properties":{"id":19102,"name":"San Bernardo","state_code":"RM","country_code":"CL"}},{"type":"Feature","geometry":{"type":"Point","coordinates":[-70.64827,-33.45694]},"properties":{"id":19111,"name":"Santiago","state_code":"RM","country_code":"CL"}},{"type":"Feature","geometry":{"type":"Point","coordinates":[-70.92734,-33.66386]},"properties":{"id":19112,"name":"Talagante","state_code":"RM","country_code":"CL"}}]}