{"type":"FeatureCollection","features":[{"type":"Feature","geometry":{"type":"Point","coordinates":[11.4905,6.08303]},"properties":{"id":19148,"name":"Bankim","state_code":"AD","country_code":"CM"}},{"type":"Feature","geometry":{"type":"Point","coordinates":[11.81667,6.75]},"properties":{"id":19150,"name":"Banyo","state_code":"AD","country_code":"CM"}},{"type":"Feature","geometry":{"type":"Point","coordinates":[14.43333,7.05]},"properties":{"id":19162,"name":"Bélel","state_code":"AD","country_code":"CM"}},{"type":"Feature","geometry":{"type":"Point","coordinates":[14.7,6.83333]},"properties":{"id":19168,"name":"Djohong","state_code":"AD","country_code":"CM"}},{"type":"Feature","geometry":{"type":"Point","coordinates":[12.23333,7.96667]},"properties":{"id":19187,"name":"Kontcha","state_code":"AD","country_code":"CM"}},{"type":"Feature","geometry":{"type":"Point","coordinates":[11.73522,6.58138]},"properties":{"id":19203,"name":"Mayo-Banyo","state_code":"AD","country_code":"CM"}},{"type":"Feature","geometry":{"type":"Point","coordinates":[14.3,6.51667]},"properties":{"id":19218,"name":"Meïganga","state_code":"AD","country_code":"CM"}},{"type":"Feature","geometry":{"type":"Point","coordinates":[13.58472,7.32765]},"properties":{"id":19236,"name":"Ngaoundéré","state_code":"AD","country_code":"CM"}},{"type":"Feature","geometry":{"type":"Point","coordinates":[11.43299,6.45843]},"properties":{"id":19256,"name":"Somié","state_code":"AD","country_code":"CM"}},{"type":"Feature","geometry":{"type":"Point","coordinates":[12.62843,6.46504]},"properties":{"id":19258,"name":"Tibati","state_code":"AD","country_code":"CM"}},{"type":"Feature","geometry":{"type":"Point","coordinates":[12.65,7.36667]},"properties":{"id":19259,"name":"Tignère","state_code":"AD","country_code":"CM"}},{"type":"Feature","geometry":{"type":"Point","coordinates":[13.72711,7.16365]},"properties":{"id":19262,"name":"Vina","state_code":"AD","country_code":"CM"}}]}