{"type":"FeatureCollection","features":[{"type":"Feature","geometry":{"type":"Point","coordinates":[126.97703,45.54545]},"properties":{"id":19272,"name":"Acheng","state_code":"HL","country_code":"CN"}},{"type":"Feature","geometry":{"type":"Point","coordinates":[126.9694447,45.5362499]},"properties":{"id":157846,"name":"Acheng","state_code":"HL","country_code":"CN"}},{"type":"Feature","geometry":{"type":"Point","coordinates":[127.11731,49.249879]},"properties":{"id":157941,"name":"Aihui","state_code":"HL","country_code":"CN"}},{"type":"Feature","geometry":{"type":"Point","coordinates":[129.5129995,44.7085896]},"properties":{"id":157933,"name":"Aimin","state_code":"HL","country_code":"CN"}},{"type":"Feature","geometry":{"type":"Point","coordinates":[125.31454,46.40202]},"properties":{"id":19279,"name":"Anda","state_code":"HL","country_code":"CN"}},{"type":"Feature","geometry":{"type":"Point","coordinates":[125.4192927,46.5169806]},"properties":{"id":157954,"name":"Anda","state_code":"HL","country_code":"CN"}},{"type":"Feature","geometry":{"type":"Point","coordinates":[123.914486,47.14167]},"properties":{"id":157860,"name":"Ang'angxi","state_code":"HL","country_code":"CN"}},{"type":"Feature","geometry":{"type":"Point","coordinates":[126.08481,47.60605]},"properties":{"id":19302,"name":"Baiquan","state_code":"HL","country_code":"CN"}},{"type":"Feature","geometry":{"type":"Point","coordinates":[126.030847,47.576989]},"properties":{"id":157871,"name":"Baiquan","state_code":"HL","country_code":"CN"}},{"type":"Feature","geometry":{"type":"Point","coordinates":[130.52,44.91738]},"properties":{"id":19312,"name":"Bamiantong","state_code":"HL","country_code":"CN"}},{"type":"Feature","geometry":{"type":"Point","coordinates":[132.21111,46.33167]},"properties":{"id":19316,"name":"Baoqing","state_code":"HL","country_code":"CN"}},{"type":"Feature","geometry":{"type":"Point","coordinates":[132.432532,46.4282459]},"properties":{"id":157896,"name":"Baoqing","state_code":"HL","country_code":"CN"}},{"type":"Feature","geometry":{"type":"Point","coordinates":[131.4826694,46.5206052]},"properties":{"id":157893,"name":"Baoshan","state_code":"HL","country_code":"CN"}},{"type":"Feature","geometry":{"type":"Point","coordinates":[127.3984,46.07556]},"properties":{"id":19322,"name":"Bayan","state_code":"HL","country_code":"CN"}},{"type":"Feature","geometry":{"type":"Point","coordinates":[127.3996815,46.0777848]},"properties":{"id":157851,"name":"Bayan","state_code":"HL","country_code":"CN"}},{"type":"Feature","geometry":{"type":"Point","coordinates":[127.151802,48.1392776]},"properties":{"id":157944,"name":"Bei'an","state_code":"HL","country_code":"CN"}},{"type":"Feature","geometry":{"type":"Point","coordinates":[126.6,48.26667]},"properties":{"id":19336,"name":"Bei’an","state_code":"HL","country_code":"CN"}},{"type":"Feature","geometry":{"type":"Point","coordinates":[126.9626572,46.6520372]},"properties":{"id":157947,"name":"Beilin","state_code":"HL","country_code":"CN"}},{"type":"Feature","geometry":{"type":"Point","coordinates":[0,0]},"properties":{"id":157850,"name":"Binxian","state_code":"HL","country_code":"CN"}},{"type":"Feature","geometry":{"type":"Point","coordinates":[127.47986,45.75281]},"properties":{"id":19344,"name":"Binzhou","state_code":"HL","country_code":"CN"}},{"type":"Feature","geometry":{"type":"Point","coordinates":[130.57211,45.75279]},"properties":{"id":19347,"name":"Boli","state_code":"HL","country_code":"CN"}},{"type":"Feature","geometry":{"type":"Point","coordinates":[130.4878261,45.8166782]},"properties":{"id":157930,"name":"Boli","state_code":"HL","country_code":"CN"}},{"type":"Feature","geometry":{"type":"Point","coordinates":[129.67826,44.7598]},"properties":{"id":19361,"name":"Chaihe","state_code":"HL","country_code":"CN"}},{"type":"Feature","geometry":{"type":"Point","coordinates":[131.06667,45.33333]},"properties":{"id":19397,"name":"Chengzihe","state_code":"HL","country_code":"CN"}},{"type":"Feature","geometry":{"type":"Point","coordinates":[131.019432,45.377197]},"properties":{"id":157877,"name":"Chengzihe","state_code":"HL","country_code":"CN"}},{"type":"Feature","geometry":{"type":"Point","coordinates":[129.0132615,47.025999]},"properties":{"id":157915,"name":"Dajingshan","state_code":"HL","country_code":"CN"}},{"type":"Feature","geometry":{"type":"Point","coordinates":[126.6133114,45.7538705]},"properties":{"id":157839,"name":"Daoli","state_code":"HL","country_code":"CN"}},{"type":"Feature","geometry":{"type":"Point","coordinates":[126.8488572,45.8324184]},"properties":{"id":157841,"name":"Daowai","state_code":"HL","country_code":"CN"}},{"type":"Feature","geometry":{"type":"Point","coordinates":[124.5598093,46.3240228]},"properties":{"id":19430,"name":"Daqing","state_code":"HL","country_code":"CN"}},{"type":"Feature","geometry":{"type":"Point","coordinates":[124.8140828,46.0351964]},"properties":{"id":157902,"name":"Datong","state_code":"HL","country_code":"CN"}},{"type":"Feature","geometry":{"type":"Point","coordinates":[124.5619384,52.3413513]},"properties":{"id":157957,"name":"Daxing'anling","state_code":"HL","country_code":"CN"}},{"type":"Feature","geometry":{"type":"Point","coordinates":[130.8367458,45.3466325]},"properties":{"id":157875,"name":"Didao","state_code":"HL","country_code":"CN"}},{"type":"Feature","geometry":{"type":"Point","coordinates":[129.797811,44.4105272]},"properties":{"id":157931,"name":"Dong'an","state_code":"HL","country_code":"CN"}},{"type":"Feature","geometry":{"type":"Point","coordinates":[130.3951437,46.8199766]},"properties":{"id":157918,"name":"Dongfeng","state_code":"HL","country_code":"CN"}},{"type":"Feature","geometry":{"type":"Point","coordinates":[131.12075,44.06219]},"properties":{"id":19473,"name":"Dongning","state_code":"HL","country_code":"CN"}},{"type":"Feature","geometry":{"type":"Point","coordinates":[130.8926354,44.0697214]},"properties":{"id":157940,"name":"Dongning","state_code":"HL","country_code":"CN"}},{"type":"Feature","geometry":{"type":"Point","coordinates":[130.3090238,47.3360262]},"properties":{"id":157886,"name":"Dongshan","state_code":"HL","country_code":"CN"}},{"type":"Feature","geometry":{"type":"Point","coordinates":[130.78679,45.36088]},"properties":{"id":19480,"name":"Dongxing","state_code":"HL","country_code":"CN"}},{"type":"Feature","geometry":{"type":"Point","coordinates":[0,0]},"properties":{"id":157906,"name":"Durbote","state_code":"HL","country_code":"CN"}},{"type":"Feature","geometry":{"type":"Point","coordinates":[128.8341092,45.8357401]},"properties":{"id":157849,"name":"Fangzheng","state_code":"HL","country_code":"CN"}},{"type":"Feature","geometry":{"type":"Point","coordinates":[124.86283,46.64142]},"properties":{"id":19503,"name":"Fendou","state_code":"HL","country_code":"CN"}},{"type":"Feature","geometry":{"type":"Point","coordinates":[129.525924,48.288143]},"properties":{"id":157913,"name":"Fenglin","state_code":"HL","country_code":"CN"}},{"type":"Feature","geometry":{"type":"Point","coordinates":[130.82306,47.57549]},"properties":{"id":19511,"name":"Fengxiang","state_code":"HL","country_code":"CN"}},{"type":"Feature","geometry":{"type":"Point","coordinates":[132.03222,47.26]},"properties":{"id":19518,"name":"Fujin","state_code":"HL","country_code":"CN"}},{"type":"Feature","geometry":{"type":"Point","coordinates":[132.516788,47.174394]},"properties":{"id":157924,"name":"Fujin","state_code":"HL","country_code":"CN"}},{"type":"Feature","geometry":{"type":"Point","coordinates":[123.6294983,47.2074162]},"properties":{"id":157861,"name":"Fularji","state_code":"HL","country_code":"CN"}},{"type":"Feature","geometry":{"type":"Point","coordinates":[131.13944,46.72167]},"properties":{"id":19520,"name":"Fuli","state_code":"HL","country_code":"CN"}},{"type":"Feature","geometry":{"type":"Point","coordinates":[124.45731,47.79756]},"properties":{"id":19528,"name":"Fuyu","state_code":"HL","country_code":"CN"}},{"type":"Feature","geometry":{"type":"Point","coordinates":[124.564511,47.659918]},"properties":{"id":157868,"name":"Fuyu","state_code":"HL","country_code":"CN"}},{"type":"Feature","geometry":{"type":"Point","coordinates":[134.28917,48.36306]},"properties":{"id":19530,"name":"Fuyuan","state_code":"HL","country_code":"CN"}},{"type":"Feature","geometry":{"type":"Point","coordinates":[134.2574179,47.94063]},"properties":{"id":157925,"name":"Fuyuan","state_code":"HL","country_code":"CN"}},{"type":"Feature","geometry":{"type":"Point","coordinates":[123.50306,47.91472]},"properties":{"id":19535,"name":"Gannan","state_code":"HL","country_code":"CN"}},{"type":"Feature","geometry":{"type":"Point","coordinates":[123.8597389,47.980015]},"properties":{"id":157867,"name":"Gannan","state_code":"HL","country_code":"CN"}},{"type":"Feature","geometry":{"type":"Point","coordinates":[130.2630133,47.3206426]},"properties":{"id":157883,"name":"Gongnong","state_code":"HL","country_code":"CN"}},{"type":"Feature","geometry":{"type":"Point","coordinates":[129.38539,44.57149]},"properties":{"id":19588,"name":"Hailin","state_code":"HL","country_code":"CN"}},{"type":"Feature","geometry":{"type":"Point","coordinates":[129.257006,44.861966]},"properties":{"id":157937,"name":"Hailin","state_code":"HL","country_code":"CN"}},{"type":"Feature","geometry":{"type":"Point","coordinates":[126.95368,47.4565]},"properties":{"id":19589,"name":"Hailun","state_code":"HL","country_code":"CN"}},{"type":"Feature","geometry":{"type":"Point","coordinates":[126.8214728,47.4165095]},"properties":{"id":157956,"name":"Hailun","state_code":"HL","country_code":"CN"}},{"type":"Feature","geometry":{"type":"Point","coordinates":[126.6276177,45.7593633]},"properties":{"id":19601,"name":"Harbin","state_code":"HL","country_code":"CN"}},{"type":"Feature","geometry":{"type":"Point","coordinates":[130.2684769,47.3272338]},"properties":{"id":19609,"name":"Hegang","state_code":"HL","country_code":"CN"}},{"type":"Feature","geometry":{"type":"Point","coordinates":[127.11731,49.249879]},"properties":{"id":19610,"name":"Heihe","state_code":"HL","country_code":"CN"}},{"type":"Feature","geometry":{"type":"Point","coordinates":[130.928803,45.166014]},"properties":{"id":157874,"name":"Hengshan","state_code":"HL","country_code":"CN"}},{"type":"Feature","geometry":{"type":"Point","coordinates":[124.88322,46.40124]},"properties":{"id":19624,"name":"Honggang","state_code":"HL","country_code":"CN"}},{"type":"Feature","geometry":{"type":"Point","coordinates":[124.8844111,46.3966917]},"properties":{"id":157901,"name":"Honggang","state_code":"HL","country_code":"CN"}},{"type":"Feature","geometry":{"type":"Point","coordinates":[130.8779418,47.0439159]},"properties":{"id":157921,"name":"Huachuan","state_code":"HL","country_code":"CN"}},{"type":"Feature","geometry":{"type":"Point","coordinates":[130.525,46.2207]},"properties":{"id":19645,"name":"Huanan","state_code":"HL","country_code":"CN"}},{"type":"Feature","geometry":{"type":"Point","coordinates":[130.7006906,46.2845347]},"properties":{"id":157920,"name":"Huanan","state_code":"HL","country_code":"CN"}},{"type":"Feature","geometry":{"type":"Point","coordinates":[126.6,45.98333]},"properties":{"id":19676,"name":"Hulan","state_code":"HL","country_code":"CN"}},{"type":"Feature","geometry":{"type":"Point","coordinates":[126.6013646,45.9733487]},"properties":{"id":157845,"name":"Hulan","state_code":"HL","country_code":"CN"}},{"type":"Feature","geometry":{"type":"Point","coordinates":[123.63333,47.20417]},"properties":{"id":19677,"name":"Hulan Ergi","state_code":"HL","country_code":"CN"}},{"type":"Feature","geometry":{"type":"Point","coordinates":[133.1530496,46.0140986]},"properties":{"id":157880,"name":"Hulin","state_code":"HL","country_code":"CN"}},{"type":"Feature","geometry":{"type":"Point","coordinates":[126.1030159,51.7100589]},"properties":{"id":157963,"name":"Huma","state_code":"HL","country_code":"CN"}},{"type":"Feature","geometry":{"type":"Point","coordinates":[0,0]},"properties":{"id":157961,"name":"Huzhong","state_code":"HL","country_code":"CN"}},{"type":"Feature","geometry":{"type":"Point","coordinates":[0,0]},"properties":{"id":157958,"name":"Jiagedaqi","state_code":"HL","country_code":"CN"}},{"type":"Feature","geometry":{"type":"Point","coordinates":[132.044137,47.02157]},"properties":{"id":19694,"name":"Jiamusi","state_code":"HL","country_code":"CN"}},{"type":"Feature","geometry":{"type":"Point","coordinates":[124.0073676,47.3969205]},"properties":{"id":157858,"name":"Jianhua","state_code":"HL","country_code":"CN"}},{"type":"Feature","geometry":{"type":"Point","coordinates":[131.150909,46.6392248]},"properties":{"id":157890,"name":"Jianshan","state_code":"HL","country_code":"CN"}},{"type":"Feature","geometry":{"type":"Point","coordinates":[130.2681034,46.7775266]},"properties":{"id":157919,"name":"Jiaoqu","state_code":"HL","country_code":"CN"}},{"type":"Feature","geometry":{"type":"Point","coordinates":[129.9233971,48.7833237]},"properties":{"id":157911,"name":"Jiayin","state_code":"HL","country_code":"CN"}},{"type":"Feature","geometry":{"type":"Point","coordinates":[131.08333,45.21667]},"properties":{"id":19718,"name":"Jidong","state_code":"HL","country_code":"CN"}},{"type":"Feature","geometry":{"type":"Point","coordinates":[131.2998895,45.2611439]},"properties":{"id":157879,"name":"Jidong","state_code":"HL","country_code":"CN"}},{"type":"Feature","geometry":{"type":"Point","coordinates":[130.9742213,45.3024982]},"properties":{"id":157873,"name":"Jiguan","state_code":"HL","country_code":"CN"}},{"type":"Feature","geometry":{"type":"Point","coordinates":[129.4208784,47.4105141]},"properties":{"id":157910,"name":"Jinlin","state_code":"HL","country_code":"CN"}},{"type":"Feature","geometry":{"type":"Point","coordinates":[132.461493,45.65802]},"properties":{"id":19760,"name":"Jixi","state_code":"HL","country_code":"CN"}},{"type":"Feature","geometry":{"type":"Point","coordinates":[131.179367,46.798313]},"properties":{"id":157894,"name":"Jixian","state_code":"HL","country_code":"CN"}},{"type":"Feature","geometry":{"type":"Point","coordinates":[126.3551998,47.9974403]},"properties":{"id":157870,"name":"Kedong","state_code":"HL","country_code":"CN"}},{"type":"Feature","geometry":{"type":"Point","coordinates":[125.6957904,48.1838575]},"properties":{"id":157869,"name":"Keshan","state_code":"HL","country_code":"CN"}},{"type":"Feature","geometry":{"type":"Point","coordinates":[128.86849,46.94985]},"properties":{"id":19797,"name":"Langxiang","state_code":"HL","country_code":"CN"}},{"type":"Feature","geometry":{"type":"Point","coordinates":[126.28269,46.25785]},"properties":{"id":19802,"name":"Lanxi","state_code":"HL","country_code":"CN"}},{"type":"Feature","geometry":{"type":"Point","coordinates":[126.207599,46.318105]},"properties":{"id":157949,"name":"Lanxi","state_code":"HL","country_code":"CN"}},{"type":"Feature","geometry":{"type":"Point","coordinates":[129.27426,47.13333]},"properties":{"id":19819,"name":"Lianhe","state_code":"HL","country_code":"CN"}},{"type":"Feature","geometry":{"type":"Point","coordinates":[124.8442603,47.1472112]},"properties":{"id":157905,"name":"Lindian","state_code":"HL","country_code":"CN"}},{"type":"Feature","geometry":{"type":"Point","coordinates":[131.14528,46.56694]},"properties":{"id":19841,"name":"Lingdong","state_code":"HL","country_code":"CN"}},{"type":"Feature","geometry":{"type":"Point","coordinates":[131.1566892,46.5904696]},"properties":{"id":157891,"name":"Lingdong","state_code":"HL","country_code":"CN"}},{"type":"Feature","geometry":{"type":"Point","coordinates":[130.26151,45.28606]},"properties":{"id":19847,"name":"Linkou","state_code":"HL","country_code":"CN"}},{"type":"Feature","geometry":{"type":"Point","coordinates":[130.0904711,45.4427775]},"properties":{"id":157935,"name":"Linkou","state_code":"HL","country_code":"CN"}},{"type":"Feature","geometry":{"type":"Point","coordinates":[130.6898801,45.0900079]},"properties":{"id":157876,"name":"Lishu","state_code":"HL","country_code":"CN"}},{"type":"Feature","geometry":{"type":"Point","coordinates":[125.1038,46.53168]},"properties":{"id":19865,"name":"Longfeng","state_code":"HL","country_code":"CN"}},{"type":"Feature","geometry":{"type":"Point","coordinates":[125.1377353,46.5675495]},"properties":{"id":157899,"name":"Longfeng","state_code":"HL","country_code":"CN"}},{"type":"Feature","geometry":{"type":"Point","coordinates":[123.17816,47.33072]},"properties":{"id":19867,"name":"Longjiang","state_code":"HL","country_code":"CN"}},{"type":"Feature","geometry":{"type":"Point","coordinates":[123.1778544,47.2041505]},"properties":{"id":157864,"name":"Longjiang","state_code":"HL","country_code":"CN"}},{"type":"Feature","geometry":{"type":"Point","coordinates":[123.9163872,47.2776439]},"properties":{"id":157857,"name":"Longsha","state_code":"HL","country_code":"CN"}},{"type":"Feature","geometry":{"type":"Point","coordinates":[130.661476,47.733004]},"properties":{"id":157888,"name":"Luobei","state_code":"HL","country_code":"CN"}},{"type":"Feature","geometry":{"type":"Point","coordinates":[130.4702281,45.209535]},"properties":{"id":157878,"name":"Mashan","state_code":"HL","country_code":"CN"}},{"type":"Feature","geometry":{"type":"Point","coordinates":[123.821107,47.545477]},"properties":{"id":157863,"name":"Meilisi Daur","state_code":"HL","country_code":"CN"}},{"type":"Feature","geometry":{"type":"Point","coordinates":[125.90027,47.1815]},"properties":{"id":19921,"name":"Mingshui","state_code":"HL","country_code":"CN"}},{"type":"Feature","geometry":{"type":"Point","coordinates":[125.8813422,47.1747821]},"properties":{"id":157952,"name":"Mingshui","state_code":"HL","country_code":"CN"}},{"type":"Feature","geometry":{"type":"Point","coordinates":[131.88333,45.55]},"properties":{"id":19925,"name":"Mishan","state_code":"HL","country_code":"CN"}},{"type":"Feature","geometry":{"type":"Point","coordinates":[132.1986356,45.4701565]},"properties":{"id":157881,"name":"Mishan","state_code":"HL","country_code":"CN"}},{"type":"Feature","geometry":{"type":"Point","coordinates":[122.7933319,52.9759171]},"properties":{"id":157962,"name":"Mohe","state_code":"HL","country_code":"CN"}},{"type":"Feature","geometry":{"type":"Point","coordinates":[130.013384,44.635006]},"properties":{"id":19929,"name":"Mudanjiang","state_code":"HL","country_code":"CN"}},{"type":"Feature","geometry":{"type":"Point","coordinates":[128.0377468,45.9490304]},"properties":{"id":157852,"name":"Mulan","state_code":"HL","country_code":"CN"}},{"type":"Feature","geometry":{"type":"Point","coordinates":[130.3726378,44.5331072]},"properties":{"id":157939,"name":"Muling","state_code":"HL","country_code":"CN"}},{"type":"Feature","geometry":{"type":"Point","coordinates":[129.2760916,47.1362843]},"properties":{"id":157914,"name":"Nancha","state_code":"HL","country_code":"CN"}},{"type":"Feature","geometry":{"type":"Point","coordinates":[126.5919596,45.6991743]},"properties":{"id":157840,"name":"Nangang","state_code":"HL","country_code":"CN"}},{"type":"Feature","geometry":{"type":"Point","coordinates":[130.2783732,47.3126689]},"properties":{"id":157884,"name":"Nanshan","state_code":"HL","country_code":"CN"}},{"type":"Feature","geometry":{"type":"Point","coordinates":[124.83333,48.48333]},"properties":{"id":19953,"name":"Nehe","state_code":"HL","country_code":"CN"}},{"type":"Feature","geometry":{"type":"Point","coordinates":[125.119851,48.4540245]},"properties":{"id":157872,"name":"Nehe","state_code":"HL","country_code":"CN"}},{"type":"Feature","geometry":{"type":"Point","coordinates":[125.21774,49.17414]},"properties":{"id":19956,"name":"Nenjiang","state_code":"HL","country_code":"CN"}},{"type":"Feature","geometry":{"type":"Point","coordinates":[125.830457,49.4176627]},"properties":{"id":157946,"name":"Nenjiang","state_code":"HL","country_code":"CN"}},{"type":"Feature","geometry":{"type":"Point","coordinates":[122.88333,47.51667]},"properties":{"id":19958,"name":"Nianzishan","state_code":"HL","country_code":"CN"}},{"type":"Feature","geometry":{"type":"Point","coordinates":[122.8809284,47.514833]},"properties":{"id":157862,"name":"Nianzishan","state_code":"HL","country_code":"CN"}},{"type":"Feature","geometry":{"type":"Point","coordinates":[129.203752,44.061477]},"properties":{"id":157938,"name":"Ning'an","state_code":"HL","country_code":"CN"}},{"type":"Feature","geometry":{"type":"Point","coordinates":[129.46556,44.34395]},"properties":{"id":19964,"name":"Ning’an","state_code":"HL","country_code":"CN"}},{"type":"Feature","geometry":{"type":"Point","coordinates":[126.6311254,45.5957262]},"properties":{"id":157842,"name":"Pingfang","state_code":"HL","country_code":"CN"}},{"type":"Feature","geometry":{"type":"Point","coordinates":[130.383602,46.7833475]},"properties":{"id":157917,"name":"Qianjin","state_code":"HL","country_code":"CN"}},{"type":"Feature","geometry":{"type":"Point","coordinates":[131.4384715,45.89551]},"properties":{"id":157929,"name":"Qiezihe","state_code":"HL","country_code":"CN"}},{"type":"Feature","geometry":{"type":"Point","coordinates":[127.6452162,47.0617345]},"properties":{"id":157951,"name":"Qing'an","state_code":"HL","country_code":"CN"}},{"type":"Feature","geometry":{"type":"Point","coordinates":[125.9744506,46.8254338]},"properties":{"id":157950,"name":"Qinggang","state_code":"HL","country_code":"CN"}},{"type":"Feature","geometry":{"type":"Point","coordinates":[126.10595,46.68469]},"properties":{"id":20017,"name":"Qinggang","state_code":"HL","country_code":"CN"}},{"type":"Feature","geometry":{"type":"Point","coordinates":[124.6567611,47.7363891]},"properties":{"id":20035,"name":"Qiqihar","state_code":"HL","country_code":"CN"}},{"type":"Feature","geometry":{"type":"Point","coordinates":[131.0066556,45.7703578]},"properties":{"id":157926,"name":"Qitaihe","state_code":"HL","country_code":"CN"}},{"type":"Feature","geometry":{"type":"Point","coordinates":[124.7891124,46.731266]},"properties":{"id":157900,"name":"Ranghulu","state_code":"HL","country_code":"CN"}},{"type":"Feature","geometry":{"type":"Point","coordinates":[133.6179888,47.1302804]},"properties":{"id":157897,"name":"Raohe","state_code":"HL","country_code":"CN"}},{"type":"Feature","geometry":{"type":"Point","coordinates":[125.057799,46.709442]},"properties":{"id":157898,"name":"Sartu","state_code":"HL","country_code":"CN"}},{"type":"Feature","geometry":{"type":"Point","coordinates":[127.97426,45.21406]},"properties":{"id":20070,"name":"Shangzhi","state_code":"HL","country_code":"CN"}},{"type":"Feature","geometry":{"type":"Point","coordinates":[127.9634816,45.2133989]},"properties":{"id":157855,"name":"Shangzhi","state_code":"HL","country_code":"CN"}},{"type":"Feature","geometry":{"type":"Point","coordinates":[128.58029,45.71131]},"properties":{"id":20072,"name":"Shanhecun","state_code":"HL","country_code":"CN"}},{"type":"Feature","geometry":{"type":"Point","coordinates":[126.28333,45.35]},"properties":{"id":20114,"name":"Shuangcheng","state_code":"HL","country_code":"CN"}},{"type":"Feature","geometry":{"type":"Point","coordinates":[126.3046846,45.3662519]},"properties":{"id":157847,"name":"Shuangcheng","state_code":"HL","country_code":"CN"}},{"type":"Feature","geometry":{"type":"Point","coordinates":[132.645516,46.522721]},"properties":{"id":20120,"name":"Shuangyashan","state_code":"HL","country_code":"CN"}},{"type":"Feature","geometry":{"type":"Point","coordinates":[131.3213561,46.5956397]},"properties":{"id":157892,"name":"Sifangtai","state_code":"HL","country_code":"CN"}},{"type":"Feature","geometry":{"type":"Point","coordinates":[126.4431652,45.9237128]},"properties":{"id":157843,"name":"Songbei","state_code":"HL","country_code":"CN"}},{"type":"Feature","geometry":{"type":"Point","coordinates":[0,0]},"properties":{"id":157959,"name":"Songling","state_code":"HL","country_code":"CN"}},{"type":"Feature","geometry":{"type":"Point","coordinates":[131.859113,47.46615]},"properties":{"id":157889,"name":"Suibin","state_code":"HL","country_code":"CN"}},{"type":"Feature","geometry":{"type":"Point","coordinates":[131.14775,44.39982]},"properties":{"id":20140,"name":"Suifenhe","state_code":"HL","country_code":"CN"}},{"type":"Feature","geometry":{"type":"Point","coordinates":[131.1556208,44.3946516]},"properties":{"id":157936,"name":"Suifenhe","state_code":"HL","country_code":"CN"}},{"type":"Feature","geometry":{"type":"Point","coordinates":[126.9626572,46.6520372]},"properties":{"id":20141,"name":"Suihua","state_code":"HL","country_code":"CN"}},{"type":"Feature","geometry":{"type":"Point","coordinates":[127.09535,47.24805]},"properties":{"id":20142,"name":"Suileng","state_code":"HL","country_code":"CN"}},{"type":"Feature","geometry":{"type":"Point","coordinates":[127.7141814,47.565378]},"properties":{"id":157953,"name":"Suileng","state_code":"HL","country_code":"CN"}},{"type":"Feature","geometry":{"type":"Point","coordinates":[127.331244,49.361732]},"properties":{"id":157943,"name":"Sunwu","state_code":"HL","country_code":"CN"}},{"type":"Feature","geometry":{"type":"Point","coordinates":[124.6607199,52.7161539]},"properties":{"id":157964,"name":"Tahe","state_code":"HL","country_code":"CN"}},{"type":"Feature","geometry":{"type":"Point","coordinates":[124.73333,52.33333]},"properties":{"id":20154,"name":"Tahe","state_code":"HL","country_code":"CN"}},{"type":"Feature","geometry":{"type":"Point","coordinates":[130.85048,45.76347]},"properties":{"id":20156,"name":"Taihecun","state_code":"HL","country_code":"CN"}},{"type":"Feature","geometry":{"type":"Point","coordinates":[124.442,46.86135]},"properties":{"id":20157,"name":"Taikang","state_code":"HL","country_code":"CN"}},{"type":"Feature","geometry":{"type":"Point","coordinates":[123.41371,46.38909]},"properties":{"id":20158,"name":"Tailai","state_code":"HL","country_code":"CN"}},{"type":"Feature","geometry":{"type":"Point","coordinates":[123.5469477,46.5443277]},"properties":{"id":157866,"name":"Tailai","state_code":"HL","country_code":"CN"}},{"type":"Feature","geometry":{"type":"Point","coordinates":[129.5650304,48.4520308]},"properties":{"id":157912,"name":"Tangwang","state_code":"HL","country_code":"CN"}},{"type":"Feature","geometry":{"type":"Point","coordinates":[130.1137919,47.0053708]},"properties":{"id":157922,"name":"Tangyuan","state_code":"HL","country_code":"CN"}},{"type":"Feature","geometry":{"type":"Point","coordinates":[131.0122204,45.76379]},"properties":{"id":157928,"name":"Taoshan","state_code":"HL","country_code":"CN"}},{"type":"Feature","geometry":{"type":"Point","coordinates":[124.2401057,47.2910564]},"properties":{"id":157859,"name":"Tiefeng","state_code":"HL","country_code":"CN"}},{"type":"Feature","geometry":{"type":"Point","coordinates":[128.04497,46.98043]},"properties":{"id":20182,"name":"Tieli","state_code":"HL","country_code":"CN"}},{"type":"Feature","geometry":{"type":"Point","coordinates":[128.549903,46.856397]},"properties":{"id":157916,"name":"Tieli","state_code":"HL","country_code":"CN"}},{"type":"Feature","geometry":{"type":"Point","coordinates":[128.7472619,45.9786526]},"properties":{"id":157853,"name":"Tonghe","state_code":"HL","country_code":"CN"}},{"type":"Feature","geometry":{"type":"Point","coordinates":[133.1718339,47.78564]},"properties":{"id":157923,"name":"Tongjiang","state_code":"HL","country_code":"CN"}},{"type":"Feature","geometry":{"type":"Point","coordinates":[126.47768,46.83283]},"properties":{"id":20207,"name":"Wangkui","state_code":"HL","country_code":"CN"}},{"type":"Feature","geometry":{"type":"Point","coordinates":[126.6451331,46.8717014]},"properties":{"id":157948,"name":"Wangkui","state_code":"HL","country_code":"CN"}},{"type":"Feature","geometry":{"type":"Point","coordinates":[127.15001,44.91428]},"properties":{"id":20228,"name":"Wuchang","state_code":"HL","country_code":"CN"}},{"type":"Feature","geometry":{"type":"Point","coordinates":[127.160945,44.9299296]},"properties":{"id":157856,"name":"Wuchang","state_code":"HL","country_code":"CN"}},{"type":"Feature","geometry":{"type":"Point","coordinates":[128.6617429,47.7243795]},"properties":{"id":157909,"name":"Wucui","state_code":"HL","country_code":"CN"}},{"type":"Feature","geometry":{"type":"Point","coordinates":[126.6482851,48.7520542]},"properties":{"id":157945,"name":"Wudalianchi","state_code":"HL","country_code":"CN"}},{"type":"Feature","geometry":{"type":"Point","coordinates":[129.5093059,44.488144]},"properties":{"id":157934,"name":"Xi'an","state_code":"HL","country_code":"CN"}},{"type":"Feature","geometry":{"type":"Point","coordinates":[126.6569134,45.7061795]},"properties":{"id":157844,"name":"Xiangfang","state_code":"HL","country_code":"CN"}},{"type":"Feature","geometry":{"type":"Point","coordinates":[130.3429678,46.8093658]},"properties":{"id":157882,"name":"Xiangyang","state_code":"HL","country_code":"CN"}},{"type":"Feature","geometry":{"type":"Point","coordinates":[130.2315555,47.250405]},"properties":{"id":157885,"name":"Xing'an","state_code":"HL","country_code":"CN"}},{"type":"Feature","geometry":{"type":"Point","coordinates":[130.2684769,47.3272338]},"properties":{"id":157887,"name":"Xingshan","state_code":"HL","country_code":"CN"}},{"type":"Feature","geometry":{"type":"Point","coordinates":[0,0]},"properties":{"id":157960,"name":"Xinlin","state_code":"HL","country_code":"CN"}},{"type":"Feature","geometry":{"type":"Point","coordinates":[129.52337,48.28701]},"properties":{"id":20304,"name":"Xinqing","state_code":"HL","country_code":"CN"}},{"type":"Feature","geometry":{"type":"Point","coordinates":[131.2003869,46.0114388]},"properties":{"id":157927,"name":"Xinxing","state_code":"HL","country_code":"CN"}},{"type":"Feature","geometry":{"type":"Point","coordinates":[128.4022681,48.8812889]},"properties":{"id":157942,"name":"Xunke","state_code":"HL","country_code":"CN"}},{"type":"Feature","geometry":{"type":"Point","coordinates":[129.8576036,44.6637551]},"properties":{"id":157932,"name":"Yangming","state_code":"HL","country_code":"CN"}},{"type":"Feature","geometry":{"type":"Point","coordinates":[128.3250854,45.4526408]},"properties":{"id":157854,"name":"Yanshou","state_code":"HL","country_code":"CN"}},{"type":"Feature","geometry":{"type":"Point","coordinates":[125.311867,47.679513]},"properties":{"id":157865,"name":"Yi'an","state_code":"HL","country_code":"CN"}},{"type":"Feature","geometry":{"type":"Point","coordinates":[129.1847514,47.9433709]},"properties":{"id":20370,"name":"Yichun","state_code":"HL","country_code":"CN"}},{"type":"Feature","geometry":{"type":"Point","coordinates":[129.55455,46.31618]},"properties":{"id":20372,"name":"Yilan","state_code":"HL","country_code":"CN"}},{"type":"Feature","geometry":{"type":"Point","coordinates":[129.5650414,46.3208082]},"properties":{"id":157848,"name":"Yilan","state_code":"HL","country_code":"CN"}},{"type":"Feature","geometry":{"type":"Point","coordinates":[128.9002435,47.7258868]},"properties":{"id":157908,"name":"Yimei","state_code":"HL","country_code":"CN"}},{"type":"Feature","geometry":{"type":"Point","coordinates":[128.83565,47.85306]},"properties":{"id":20389,"name":"Youhao","state_code":"HL","country_code":"CN"}},{"type":"Feature","geometry":{"type":"Point","coordinates":[128.8234339,47.8430859]},"properties":{"id":157907,"name":"Youhao","state_code":"HL","country_code":"CN"}},{"type":"Feature","geometry":{"type":"Point","coordinates":[131.8093179,46.7413317]},"properties":{"id":157895,"name":"Youyi","state_code":"HL","country_code":"CN"}},{"type":"Feature","geometry":{"type":"Point","coordinates":[125.98263,46.06771]},"properties":{"id":20431,"name":"Zhaodong","state_code":"HL","country_code":"CN"}},{"type":"Feature","geometry":{"type":"Point","coordinates":[125.814502,46.026373]},"properties":{"id":157955,"name":"Zhaodong","state_code":"HL","country_code":"CN"}},{"type":"Feature","geometry":{"type":"Point","coordinates":[125.13333,45.5]},"properties":{"id":20436,"name":"Zhaoyuan","state_code":"HL","country_code":"CN"}},{"type":"Feature","geometry":{"type":"Point","coordinates":[124.83788,45.611428]},"properties":{"id":157904,"name":"Zhaoyuan","state_code":"HL","country_code":"CN"}},{"type":"Feature","geometry":{"type":"Point","coordinates":[125.31667,45.68333]},"properties":{"id":20437,"name":"Zhaozhou","state_code":"HL","country_code":"CN"}},{"type":"Feature","geometry":{"type":"Point","coordinates":[125.2870292,45.8509486]},"properties":{"id":157903,"name":"Zhaozhou","state_code":"HL","country_code":"CN"}}]}