{"type":"FeatureCollection","features":[{"type":"Feature","geometry":{"type":"Point","coordinates":[119.1925,36.43417]},"properties":{"id":19286,"name":"Anqiu","state_code":"SD","country_code":"CN"}},{"type":"Feature","geometry":{"type":"Point","coordinates":[119.2129818,36.4794705]},"properties":{"id":158937,"name":"Anqiu","state_code":"SD","country_code":"CN"}},{"type":"Feature","geometry":{"type":"Point","coordinates":[120.52889,36.21972]},"properties":{"id":19335,"name":"Beizhai","state_code":"SD","country_code":"CN"}},{"type":"Feature","geometry":{"type":"Point","coordinates":[118.04472,34.84861]},"properties":{"id":19340,"name":"Bianzhuang","state_code":"SD","country_code":"CN"}},{"type":"Feature","geometry":{"type":"Point","coordinates":[118.0136196,37.4311343]},"properties":{"id":158996,"name":"Bincheng","state_code":"SD","country_code":"CN"}},{"type":"Feature","geometry":{"type":"Point","coordinates":[117.9647262,37.3821206]},"properties":{"id":19343,"name":"Binzhou","state_code":"SD","country_code":"CN"}},{"type":"Feature","geometry":{"type":"Point","coordinates":[117.83333,36.48333]},"properties":{"id":19348,"name":"Boshan","state_code":"SD","country_code":"CN"}},{"type":"Feature","geometry":{"type":"Point","coordinates":[117.8567023,36.494716]},"properties":{"id":158900,"name":"Boshan","state_code":"SD","country_code":"CN"}},{"type":"Feature","geometry":{"type":"Point","coordinates":[118.1046769,37.1535401]},"properties":{"id":159001,"name":"Boxing","state_code":"SD","country_code":"CN"}},{"type":"Feature","geometry":{"type":"Point","coordinates":[115.5508246,34.8587459]},"properties":{"id":159005,"name":"Caoxian","state_code":"SD","country_code":"CN"}},{"type":"Feature","geometry":{"type":"Point","coordinates":[118.908889,36.513889]},"properties":{"id":158933,"name":"Changle","state_code":"SD","country_code":"CN"}},{"type":"Feature","geometry":{"type":"Point","coordinates":[116.72722,36.5575]},"properties":{"id":19372,"name":"Changqing","state_code":"SD","country_code":"CN"}},{"type":"Feature","geometry":{"type":"Point","coordinates":[116.7464153,36.5539604]},"properties":{"id":158881,"name":"Changqing","state_code":"SD","country_code":"CN"}},{"type":"Feature","geometry":{"type":"Point","coordinates":[119.4013261,36.8394346]},"properties":{"id":158939,"name":"Changyi","state_code":"SD","country_code":"CN"}},{"type":"Feature","geometry":{"type":"Point","coordinates":[121.52504,36.9106]},"properties":{"id":19392,"name":"Chengqu","state_code":"SD","country_code":"CN"}},{"type":"Feature","geometry":{"type":"Point","coordinates":[117.19071,35.08357]},"properties":{"id":19393,"name":"Chengtangcun","state_code":"SD","country_code":"CN"}},{"type":"Feature","geometry":{"type":"Point","coordinates":[115.8843008,34.9533967]},"properties":{"id":159007,"name":"Chengwu","state_code":"SD","country_code":"CN"}},{"type":"Feature","geometry":{"type":"Point","coordinates":[118.83278,35.57944]},"properties":{"id":19395,"name":"Chengyang","state_code":"SD","country_code":"CN"}},{"type":"Feature","geometry":{"type":"Point","coordinates":[120.3913784,36.3042163]},"properties":{"id":158893,"name":"Chengyang","state_code":"SD","country_code":"CN"}},{"type":"Feature","geometry":{"type":"Point","coordinates":[116.2406737,36.5865512]},"properties":{"id":158989,"name":"Chiping","state_code":"SD","country_code":"CN"}},{"type":"Feature","geometry":{"type":"Point","coordinates":[117.0355841,36.186661]},"properties":{"id":158953,"name":"Daiyue","state_code":"SD","country_code":"CN"}},{"type":"Feature","geometry":{"type":"Point","coordinates":[116.2936979,37.4501076]},"properties":{"id":158977,"name":"Decheng","state_code":"SD","country_code":"CN"}},{"type":"Feature","geometry":{"type":"Point","coordinates":[120.57417,36.13889]},"properties":{"id":19450,"name":"Dengying","state_code":"SD","country_code":"CN"}},{"type":"Feature","geometry":{"type":"Point","coordinates":[120.75908,37.80822]},"properties":{"id":19452,"name":"Dengzhou","state_code":"SD","country_code":"CN"}},{"type":"Feature","geometry":{"type":"Point","coordinates":[116.3534091,37.4363704]},"properties":{"id":19455,"name":"Dezhou","state_code":"SD","country_code":"CN"}},{"type":"Feature","geometry":{"type":"Point","coordinates":[115.56582,35.07436]},"properties":{"id":19458,"name":"Dingtao","state_code":"SD","country_code":"CN"}},{"type":"Feature","geometry":{"type":"Point","coordinates":[115.565062,35.0758996]},"properties":{"id":159004,"name":"Dingtao","state_code":"SD","country_code":"CN"}},{"type":"Feature","geometry":{"type":"Point","coordinates":[116.2591454,36.3337944]},"properties":{"id":158992,"name":"Dong'e","state_code":"SD","country_code":"CN"}},{"type":"Feature","geometry":{"type":"Point","coordinates":[116.0007625,36.4128622]},"properties":{"id":158988,"name":"Dongchangfu","state_code":"SD","country_code":"CN"}},{"type":"Feature","geometry":{"type":"Point","coordinates":[121.15972,36.77667]},"properties":{"id":19463,"name":"Dongcun","state_code":"SD","country_code":"CN"}},{"type":"Feature","geometry":{"type":"Point","coordinates":[117.7,35.85]},"properties":{"id":19465,"name":"Dongdu","state_code":"SD","country_code":"CN"}},{"type":"Feature","geometry":{"type":"Point","coordinates":[119.4565498,35.4265777]},"properties":{"id":158962,"name":"Donggang","state_code":"SD","country_code":"CN"}},{"type":"Feature","geometry":{"type":"Point","coordinates":[115.1015207,35.275857]},"properties":{"id":159011,"name":"Dongming","state_code":"SD","country_code":"CN"}},{"type":"Feature","geometry":{"type":"Point","coordinates":[116.4646998,35.9364734]},"properties":{"id":158955,"name":"Dongping","state_code":"SD","country_code":"CN"}},{"type":"Feature","geometry":{"type":"Point","coordinates":[117.33028,39.87889]},"properties":{"id":149169,"name":"Dongshigu","state_code":"SD","country_code":"CN"}},{"type":"Feature","geometry":{"type":"Point","coordinates":[118.6689349,37.4334738]},"properties":{"id":158911,"name":"Dongying","state_code":"SD","country_code":"CN"}},{"type":"Feature","geometry":{"type":"Point","coordinates":[119.1605221,36.6542543]},"properties":{"id":158930,"name":"Fangzi","state_code":"SD","country_code":"CN"}},{"type":"Feature","geometry":{"type":"Point","coordinates":[116.76583,36.24861]},"properties":{"id":19501,"name":"Feicheng","state_code":"SD","country_code":"CN"}},{"type":"Feature","geometry":{"type":"Point","coordinates":[116.7653466,36.1841443]},"properties":{"id":158957,"name":"Feicheng","state_code":"SD","country_code":"CN"}},{"type":"Feature","geometry":{"type":"Point","coordinates":[117.9721788,35.2662953]},"properties":{"id":158972,"name":"Feixian","state_code":"SD","country_code":"CN"}},{"type":"Feature","geometry":{"type":"Point","coordinates":[121.2624982,37.4975863]},"properties":{"id":158918,"name":"Fushan","state_code":"SD","country_code":"CN"}},{"type":"Feature","geometry":{"type":"Point","coordinates":[117.8053635,36.0597837]},"properties":{"id":158885,"name":"Gangcheng","state_code":"SD","country_code":"CN"}},{"type":"Feature","geometry":{"type":"Point","coordinates":[119.75278,36.38333]},"properties":{"id":19541,"name":"Gaomi","state_code":"SD","country_code":"CN"}},{"type":"Feature","geometry":{"type":"Point","coordinates":[119.8005385,36.3654065]},"properties":{"id":158938,"name":"Gaomi","state_code":"SD","country_code":"CN"}},{"type":"Feature","geometry":{"type":"Point","coordinates":[117.8204107,37.1707264]},"properties":{"id":158904,"name":"Gaoqing","state_code":"SD","country_code":"CN"}},{"type":"Feature","geometry":{"type":"Point","coordinates":[116.268056,36.854444]},"properties":{"id":158994,"name":"Gaotang","state_code":"SD","country_code":"CN"}},{"type":"Feature","geometry":{"type":"Point","coordinates":[118.4129962,37.0486917]},"properties":{"id":158916,"name":"Guangrao","state_code":"SD","country_code":"CN"}},{"type":"Feature","geometry":{"type":"Point","coordinates":[115.4446073,36.4827737]},"properties":{"id":158993,"name":"Guanxian","state_code":"SD","country_code":"CN"}},{"type":"Feature","geometry":{"type":"Point","coordinates":[121.168464,36.6884947]},"properties":{"id":158927,"name":"Haiyang","state_code":"SD","country_code":"CN"}},{"type":"Feature","geometry":{"type":"Point","coordinates":[119.21083,36.77083]},"properties":{"id":19599,"name":"Hanting","state_code":"SD","country_code":"CN"}},{"type":"Feature","geometry":{"type":"Point","coordinates":[119.2054018,36.7553782]},"properties":{"id":158929,"name":"Hanting","state_code":"SD","country_code":"CN"}},{"type":"Feature","geometry":{"type":"Point","coordinates":[118.3972545,35.0900603]},"properties":{"id":158967,"name":"Hedong","state_code":"SD","country_code":"CN"}},{"type":"Feature","geometry":{"type":"Point","coordinates":[118.5196832,37.8856476]},"properties":{"id":158913,"name":"Hekou","state_code":"SD","country_code":"CN"}},{"type":"Feature","geometry":{"type":"Point","coordinates":[115.4464761,35.2477266]},"properties":{"id":19621,"name":"Heze","state_code":"SD","country_code":"CN"}},{"type":"Feature","geometry":{"type":"Point","coordinates":[116.8955753,36.6522591]},"properties":{"id":158878,"name":"Huaiyin","state_code":"SD","country_code":"CN"}},{"type":"Feature","geometry":{"type":"Point","coordinates":[122.118165,37.5006278]},"properties":{"id":158958,"name":"Huancui","state_code":"SD","country_code":"CN"}},{"type":"Feature","geometry":{"type":"Point","coordinates":[120.1930928,35.9589567]},"properties":{"id":158890,"name":"Huangdao","state_code":"SD","country_code":"CN"}},{"type":"Feature","geometry":{"type":"Point","coordinates":[118.0926284,36.9590987]},"properties":{"id":158903,"name":"Huantai","state_code":"SD","country_code":"CN"}},{"type":"Feature","geometry":{"type":"Point","coordinates":[117.5034499,37.4892875]},"properties":{"id":158998,"name":"Huimin","state_code":"SD","country_code":"CN"}},{"type":"Feature","geometry":{"type":"Point","coordinates":[115.95,37.20806]},"properties":{"id":19693,"name":"Jiamaying","state_code":"SD","country_code":"CN"}},{"type":"Feature","geometry":{"type":"Point","coordinates":[120.00333,36.28389]},"properties":{"id":19711,"name":"Jiaozhou","state_code":"SD","country_code":"CN"}},{"type":"Feature","geometry":{"type":"Point","coordinates":[120.0284928,36.2640866]},"properties":{"id":158895,"name":"Jiaozhou","state_code":"SD","country_code":"CN"}},{"type":"Feature","geometry":{"type":"Point","coordinates":[116.3368106,35.4089574]},"properties":{"id":158945,"name":"Jiaxiang","state_code":"SD","country_code":"CN"}},{"type":"Feature","geometry":{"type":"Point","coordinates":[118.455,35.54278]},"properties":{"id":19719,"name":"Jiehu","state_code":"SD","country_code":"CN"}},{"type":"Feature","geometry":{"type":"Point","coordinates":[120.46222,36.38972]},"properties":{"id":19726,"name":"Jimo","state_code":"SD","country_code":"CN"}},{"type":"Feature","geometry":{"type":"Point","coordinates":[120.5348775,36.4083982]},"properties":{"id":158894,"name":"Jimo","state_code":"SD","country_code":"CN"}},{"type":"Feature","geometry":{"type":"Point","coordinates":[117.1138479,36.6519754]},"properties":{"id":19727,"name":"Jinan","state_code":"SD","country_code":"CN"}},{"type":"Feature","geometry":{"type":"Point","coordinates":[116.5849266,35.4125047]},"properties":{"id":19741,"name":"Jining","state_code":"SD","country_code":"CN"}},{"type":"Feature","geometry":{"type":"Point","coordinates":[116.3141927,35.074498]},"properties":{"id":158944,"name":"Jinxiang","state_code":"SD","country_code":"CN"}},{"type":"Feature","geometry":{"type":"Point","coordinates":[117.1672097,36.9779626]},"properties":{"id":158883,"name":"Jiyang","state_code":"SD","country_code":"CN"}},{"type":"Feature","geometry":{"type":"Point","coordinates":[115.5387841,35.5344257]},"properties":{"id":159010,"name":"Juancheng","state_code":"SD","country_code":"CN"}},{"type":"Feature","geometry":{"type":"Point","coordinates":[118.8296704,35.1757385]},"properties":{"id":158974,"name":"Junan","state_code":"SD","country_code":"CN"}},{"type":"Feature","geometry":{"type":"Point","coordinates":[118.8269753,35.5867424]},"properties":{"id":158965,"name":"Juxian","state_code":"SD","country_code":"CN"}},{"type":"Feature","geometry":{"type":"Point","coordinates":[116.056912,35.3887802]},"properties":{"id":159008,"name":"Juye","state_code":"SD","country_code":"CN"}},{"type":"Feature","geometry":{"type":"Point","coordinates":[116.08833,35.39472]},"properties":{"id":19765,"name":"Juye","state_code":"SD","country_code":"CN"}},{"type":"Feature","geometry":{"type":"Point","coordinates":[118.5696505,37.5714983]},"properties":{"id":158914,"name":"Kenli","state_code":"SD","country_code":"CN"}},{"type":"Feature","geometry":{"type":"Point","coordinates":[119.39083,36.85361]},"properties":{"id":19782,"name":"Kuiju","state_code":"SD","country_code":"CN"}},{"type":"Feature","geometry":{"type":"Point","coordinates":[119.1268375,36.7066306]},"properties":{"id":158931,"name":"Kuiwen","state_code":"SD","country_code":"CN"}},{"type":"Feature","geometry":{"type":"Point","coordinates":[120.48778,36.145]},"properties":{"id":19787,"name":"Kutao","state_code":"SD","country_code":"CN"}},{"type":"Feature","geometry":{"type":"Point","coordinates":[121.4399498,37.5102686]},"properties":{"id":158920,"name":"Laishan","state_code":"SD","country_code":"CN"}},{"type":"Feature","geometry":{"type":"Point","coordinates":[117.6698329,36.2150252]},"properties":{"id":19790,"name":"Laiwu","state_code":"SD","country_code":"CN"}},{"type":"Feature","geometry":{"type":"Point","coordinates":[120.52694,36.85917]},"properties":{"id":19791,"name":"Laixi","state_code":"SD","country_code":"CN"}},{"type":"Feature","geometry":{"type":"Point","coordinates":[120.5158492,36.8618279]},"properties":{"id":158897,"name":"Laixi","state_code":"SD","country_code":"CN"}},{"type":"Feature","geometry":{"type":"Point","coordinates":[120.71361,36.97583]},"properties":{"id":19792,"name":"Laiyang","state_code":"SD","country_code":"CN"}},{"type":"Feature","geometry":{"type":"Point","coordinates":[120.7068644,36.9786591]},"properties":{"id":158923,"name":"Laiyang","state_code":"SD","country_code":"CN"}},{"type":"Feature","geometry":{"type":"Point","coordinates":[119.94217,37.18073]},"properties":{"id":19793,"name":"Laizhou","state_code":"SD","country_code":"CN"}},{"type":"Feature","geometry":{"type":"Point","coordinates":[119.9370943,37.1773133]},"properties":{"id":158924,"name":"Laizhou","state_code":"SD","country_code":"CN"}},{"type":"Feature","geometry":{"type":"Point","coordinates":[118.0652879,34.8586131]},"properties":{"id":158971,"name":"Lanling","state_code":"SD","country_code":"CN"}},{"type":"Feature","geometry":{"type":"Point","coordinates":[119.3131286,35.1220034]},"properties":{"id":158963,"name":"Lanshan","state_code":"SD","country_code":"CN"}},{"type":"Feature","geometry":{"type":"Point","coordinates":[115.88833,37.14278]},"properties":{"id":19804,"name":"Laocheng","state_code":"SD","country_code":"CN"}},{"type":"Feature","geometry":{"type":"Point","coordinates":[120.4645782,36.1059695]},"properties":{"id":158891,"name":"Laoshan","state_code":"SD","country_code":"CN"}},{"type":"Feature","geometry":{"type":"Point","coordinates":[117.2135729,37.7289733]},"properties":{"id":158986,"name":"Leling","state_code":"SD","country_code":"CN"}},{"type":"Feature","geometry":{"type":"Point","coordinates":[116.1258857,35.7660857]},"properties":{"id":158948,"name":"Liangshan","state_code":"SD","country_code":"CN"}},{"type":"Feature","geometry":{"type":"Point","coordinates":[115.9642007,36.4441808]},"properties":{"id":19828,"name":"Liaocheng","state_code":"SD","country_code":"CN"}},{"type":"Feature","geometry":{"type":"Point","coordinates":[120.4270377,36.1453955]},"properties":{"id":158892,"name":"Licang","state_code":"SD","country_code":"CN"}},{"type":"Feature","geometry":{"type":"Point","coordinates":[117.0590968,36.6802602]},"properties":{"id":158880,"name":"Licheng","state_code":"SD","country_code":"CN"}},{"type":"Feature","geometry":{"type":"Point","coordinates":[118.2420463,37.4964272]},"properties":{"id":158915,"name":"Lijin","state_code":"SD","country_code":"CN"}},{"type":"Feature","geometry":{"type":"Point","coordinates":[116.5706208,37.3358724]},"properties":{"id":158978,"name":"Lingcheng","state_code":"SD","country_code":"CN"}},{"type":"Feature","geometry":{"type":"Point","coordinates":[115.7118439,36.8459198]},"properties":{"id":158995,"name":"Linqing","state_code":"SD","country_code":"CN"}},{"type":"Feature","geometry":{"type":"Point","coordinates":[118.53972,36.51556]},"properties":{"id":19850,"name":"Linqu","state_code":"SD","country_code":"CN"}},{"type":"Feature","geometry":{"type":"Point","coordinates":[118.5384882,36.5156772]},"properties":{"id":158932,"name":"Linqu","state_code":"SD","country_code":"CN"}},{"type":"Feature","geometry":{"type":"Point","coordinates":[118.6343077,34.9137378]},"properties":{"id":158976,"name":"Linshu","state_code":"SD","country_code":"CN"}},{"type":"Feature","geometry":{"type":"Point","coordinates":[118.3506988,35.1032403]},"properties":{"id":19856,"name":"Linyi","state_code":"SD","country_code":"CN"}},{"type":"Feature","geometry":{"type":"Point","coordinates":[118.325278,36.794167]},"properties":{"id":158901,"name":"Linzi","state_code":"SD","country_code":"CN"}},{"type":"Feature","geometry":{"type":"Point","coordinates":[117.0701896,36.6664043]},"properties":{"id":158876,"name":"Lixia","state_code":"SD","country_code":"CN"}},{"type":"Feature","geometry":{"type":"Point","coordinates":[120.33063,37.65181]},"properties":{"id":19866,"name":"Longgang","state_code":"SD","country_code":"CN"}},{"type":"Feature","geometry":{"type":"Point","coordinates":[120.4708629,37.6443474]},"properties":{"id":158922,"name":"Longkou","state_code":"SD","country_code":"CN"}},{"type":"Feature","geometry":{"type":"Point","coordinates":[118.279238,34.9976234]},"properties":{"id":158966,"name":"Luozhuang","state_code":"SD","country_code":"CN"}},{"type":"Feature","geometry":{"type":"Point","coordinates":[117.9462238,35.7200664]},"properties":{"id":158975,"name":"Mengyin","state_code":"SD","country_code":"CN"}},{"type":"Feature","geometry":{"type":"Point","coordinates":[117.92639,35.70694]},"properties":{"id":19915,"name":"Mengyin","state_code":"SD","country_code":"CN"}},{"type":"Feature","geometry":{"type":"Point","coordinates":[117.5,36.71667]},"properties":{"id":19920,"name":"Mingshui","state_code":"SD","country_code":"CN"}},{"type":"Feature","geometry":{"type":"Point","coordinates":[119.3975,35.99472]},"properties":{"id":19927,"name":"Mizhou","state_code":"SD","country_code":"CN"}},{"type":"Feature","geometry":{"type":"Point","coordinates":[115.4107298,35.2510986]},"properties":{"id":159003,"name":"Mudan","state_code":"SD","country_code":"CN"}},{"type":"Feature","geometry":{"type":"Point","coordinates":[121.5956195,37.3870896]},"properties":{"id":158919,"name":"Muping","state_code":"SD","country_code":"CN"}},{"type":"Feature","geometry":{"type":"Point","coordinates":[118.05583,36.74833]},"properties":{"id":19937,"name":"Nanding","state_code":"SD","country_code":"CN"}},{"type":"Feature","geometry":{"type":"Point","coordinates":[118.15486,36.18478]},"properties":{"id":19943,"name":"Nanma","state_code":"SD","country_code":"CN"}},{"type":"Feature","geometry":{"type":"Point","coordinates":[121.60859,37.38422]},"properties":{"id":19962,"name":"Ninghai","state_code":"SD","country_code":"CN"}},{"type":"Feature","geometry":{"type":"Point","coordinates":[116.823056,37.681111]},"properties":{"id":158979,"name":"Ningjin","state_code":"SD","country_code":"CN"}},{"type":"Feature","geometry":{"type":"Point","coordinates":[116.79139,35.76417]},"properties":{"id":19963,"name":"Ningyang","state_code":"SD","country_code":"CN"}},{"type":"Feature","geometry":{"type":"Point","coordinates":[116.800091,35.7591944]},"properties":{"id":158954,"name":"Ningyang","state_code":"SD","country_code":"CN"}},{"type":"Feature","geometry":{"type":"Point","coordinates":[120.824268,37.7949103]},"properties":{"id":158921,"name":"Penglai","state_code":"SD","country_code":"CN"}},{"type":"Feature","geometry":{"type":"Point","coordinates":[119.94639,36.78444]},"properties":{"id":19978,"name":"Pingdu","state_code":"SD","country_code":"CN"}},{"type":"Feature","geometry":{"type":"Point","coordinates":[119.9648885,36.7534005]},"properties":{"id":158896,"name":"Pingdu","state_code":"SD","country_code":"CN"}},{"type":"Feature","geometry":{"type":"Point","coordinates":[117.63083,35.50056]},"properties":{"id":19984,"name":"Pingyi","state_code":"SD","country_code":"CN"}},{"type":"Feature","geometry":{"type":"Point","coordinates":[117.6097303,35.5177818]},"properties":{"id":158973,"name":"Pingyi","state_code":"SD","country_code":"CN"}},{"type":"Feature","geometry":{"type":"Point","coordinates":[116.44528,36.28306]},"properties":{"id":19985,"name":"Pingyin","state_code":"SD","country_code":"CN"}},{"type":"Feature","geometry":{"type":"Point","coordinates":[116.4503206,36.2894384]},"properties":{"id":158886,"name":"Pingyin","state_code":"SD","country_code":"CN"}},{"type":"Feature","geometry":{"type":"Point","coordinates":[116.435,37.165833]},"properties":{"id":158983,"name":"Pingyuan","state_code":"SD","country_code":"CN"}},{"type":"Feature","geometry":{"type":"Point","coordinates":[116.743889,36.799444]},"properties":{"id":158982,"name":"Qihe","state_code":"SD","country_code":"CN"}},{"type":"Feature","geometry":{"type":"Point","coordinates":[120.3777659,36.0663249]},"properties":{"id":20016,"name":"Qingdao","state_code":"SD","country_code":"CN"}},{"type":"Feature","geometry":{"type":"Point","coordinates":[115.71183,36.84032]},"properties":{"id":20020,"name":"Qingnian","state_code":"SD","country_code":"CN"}},{"type":"Feature","geometry":{"type":"Point","coordinates":[120.6824,36.15415]},"properties":{"id":20023,"name":"Qingshancun","state_code":"SD","country_code":"CN"}},{"type":"Feature","geometry":{"type":"Point","coordinates":[121.25806,37.49583]},"properties":{"id":20025,"name":"Qingyang","state_code":"SD","country_code":"CN"}},{"type":"Feature","geometry":{"type":"Point","coordinates":[117.3777228,37.7734342]},"properties":{"id":158980,"name":"Qingyun","state_code":"SD","country_code":"CN"}},{"type":"Feature","geometry":{"type":"Point","coordinates":[118.47972,36.69667]},"properties":{"id":20028,"name":"Qingzhou","state_code":"SD","country_code":"CN"}},{"type":"Feature","geometry":{"type":"Point","coordinates":[118.4738118,36.6843271]},"properties":{"id":158934,"name":"Qingzhou","state_code":"SD","country_code":"CN"}},{"type":"Feature","geometry":{"type":"Point","coordinates":[120.8447987,37.3352456]},"properties":{"id":158926,"name":"Qixia","state_code":"SD","country_code":"CN"}},{"type":"Feature","geometry":{"type":"Point","coordinates":[116.99111,35.59667]},"properties":{"id":20037,"name":"Qufu","state_code":"SD","country_code":"CN"}},{"type":"Feature","geometry":{"type":"Point","coordinates":[116.987543,35.5956915]},"properties":{"id":158949,"name":"Qufu","state_code":"SD","country_code":"CN"}},{"type":"Feature","geometry":{"type":"Point","coordinates":[116.6000801,35.4421741]},"properties":{"id":158940,"name":"Rencheng","state_code":"SD","country_code":"CN"}},{"type":"Feature","geometry":{"type":"Point","coordinates":[119.5213994,35.4178833]},"properties":{"id":20042,"name":"Rizhao","state_code":"SD","country_code":"CN"}},{"type":"Feature","geometry":{"type":"Point","coordinates":[122.482296,37.1649467]},"properties":{"id":158960,"name":"Rongcheng","state_code":"SD","country_code":"CN"}},{"type":"Feature","geometry":{"type":"Point","coordinates":[121.5346952,36.9199831]},"properties":{"id":158961,"name":"Rushan","state_code":"SD","country_code":"CN"}},{"type":"Feature","geometry":{"type":"Point","coordinates":[116.08167,34.79528]},"properties":{"id":20062,"name":"Shancheng","state_code":"SD","country_code":"CN"}},{"type":"Feature","geometry":{"type":"Point","coordinates":[117.1515267,37.3096329]},"properties":{"id":158887,"name":"Shanghe","state_code":"SD","country_code":"CN"}},{"type":"Feature","geometry":{"type":"Point","coordinates":[117.45778,35.07528]},"properties":{"id":20075,"name":"Shanting","state_code":"SD","country_code":"CN"}},{"type":"Feature","geometry":{"type":"Point","coordinates":[117.4551974,35.1005834]},"properties":{"id":158909,"name":"Shanting","state_code":"SD","country_code":"CN"}},{"type":"Feature","geometry":{"type":"Point","coordinates":[116.1008931,34.7805434]},"properties":{"id":159006,"name":"Shanxian","state_code":"SD","country_code":"CN"}},{"type":"Feature","geometry":{"type":"Point","coordinates":[120.53722,36.115]},"properties":{"id":20086,"name":"Shazikou","state_code":"SD","country_code":"CN"}},{"type":"Feature","geometry":{"type":"Point","coordinates":[118.49165,37.46271]},"properties":{"id":20087,"name":"Shengli","state_code":"SD","country_code":"CN"}},{"type":"Feature","geometry":{"type":"Point","coordinates":[115.6667421,36.23788]},"properties":{"id":158991,"name":"Shenxian","state_code":"SD","country_code":"CN"}},{"type":"Feature","geometry":{"type":"Point","coordinates":[120.3696639,36.0873176]},"properties":{"id":158889,"name":"Shibei","state_code":"SD","country_code":"CN"}},{"type":"Feature","geometry":{"type":"Point","coordinates":[120.4891,36.09723]},"properties":{"id":20099,"name":"Shilaorencun","state_code":"SD","country_code":"CN"}},{"type":"Feature","geometry":{"type":"Point","coordinates":[120.4056631,36.0758752]},"properties":{"id":158888,"name":"Shinan","state_code":"SD","country_code":"CN"}},{"type":"Feature","geometry":{"type":"Point","coordinates":[116.9920138,36.6510653]},"properties":{"id":158877,"name":"Shizhong","state_code":"SD","country_code":"CN"}},{"type":"Feature","geometry":{"type":"Point","coordinates":[118.82889,35.17111]},"properties":{"id":20110,"name":"Shizilu","state_code":"SD","country_code":"CN"}},{"type":"Feature","geometry":{"type":"Point","coordinates":[118.7375,36.88]},"properties":{"id":20112,"name":"Shouguang","state_code":"SD","country_code":"CN"}},{"type":"Feature","geometry":{"type":"Point","coordinates":[118.7322549,36.8762356]},"properties":{"id":158936,"name":"Shouguang","state_code":"SD","country_code":"CN"}},{"type":"Feature","geometry":{"type":"Point","coordinates":[117.27583,35.64889]},"properties":{"id":20131,"name":"Sishui","state_code":"SD","country_code":"CN"}},{"type":"Feature","geometry":{"type":"Point","coordinates":[117.2457433,35.6648659]},"properties":{"id":158947,"name":"Sishui","state_code":"SD","country_code":"CN"}},{"type":"Feature","geometry":{"type":"Point","coordinates":[118.10472,36.95389]},"properties":{"id":20148,"name":"Suozhen","state_code":"SD","country_code":"CN"}},{"type":"Feature","geometry":{"type":"Point","coordinates":[117.0809316,36.2002968]},"properties":{"id":158951,"name":"Tai'an","state_code":"SD","country_code":"CN"}},{"type":"Feature","geometry":{"type":"Point","coordinates":[117.7297728,34.5635977]},"properties":{"id":158908,"name":"Tai'erzhuang","state_code":"SD","country_code":"CN"}},{"type":"Feature","geometry":{"type":"Point","coordinates":[117.12,36.18528]},"properties":{"id":20165,"name":"Tai’an","state_code":"SD","country_code":"CN"}},{"type":"Feature","geometry":{"type":"Point","coordinates":[117.1289741,36.1930772]},"properties":{"id":158952,"name":"Taishan","state_code":"SD","country_code":"CN"}},{"type":"Feature","geometry":{"type":"Point","coordinates":[118.361505,34.6148165]},"properties":{"id":158969,"name":"Tancheng","state_code":"SD","country_code":"CN"}},{"type":"Feature","geometry":{"type":"Point","coordinates":[117.33333,34.85]},"properties":{"id":20176,"name":"Taozhuang","state_code":"SD","country_code":"CN"}},{"type":"Feature","geometry":{"type":"Point","coordinates":[117.1600052,35.1139509]},"properties":{"id":158910,"name":"Tengzhou","state_code":"SD","country_code":"CN"}},{"type":"Feature","geometry":{"type":"Point","coordinates":[122.05228,37.19723]},"properties":{"id":20179,"name":"Tianfu","state_code":"SD","country_code":"CN"}},{"type":"Feature","geometry":{"type":"Point","coordinates":[116.9813635,36.6777745]},"properties":{"id":158879,"name":"Tianqiao","state_code":"SD","country_code":"CN"}},{"type":"Feature","geometry":{"type":"Point","coordinates":[119.0191186,36.7277965]},"properties":{"id":158928,"name":"Weicheng","state_code":"SD","country_code":"CN"}},{"type":"Feature","geometry":{"type":"Point","coordinates":[119.1557441,36.7071591]},"properties":{"id":20213,"name":"Weifang","state_code":"SD","country_code":"CN"}},{"type":"Feature","geometry":{"type":"Point","coordinates":[122.1152599,37.5120997]},"properties":{"id":20214,"name":"Weihai","state_code":"SD","country_code":"CN"}},{"type":"Feature","geometry":{"type":"Point","coordinates":[117.1230989,34.8071864]},"properties":{"id":158942,"name":"Weishan","state_code":"SD","country_code":"CN"}},{"type":"Feature","geometry":{"type":"Point","coordinates":[117.44083,39.025]},"properties":{"id":149201,"name":"Weiwangzhuang","state_code":"SD","country_code":"CN"}},{"type":"Feature","geometry":{"type":"Point","coordinates":[122.0834466,37.1954062]},"properties":{"id":158959,"name":"Wendeng","state_code":"SD","country_code":"CN"}},{"type":"Feature","geometry":{"type":"Point","coordinates":[116.49611,35.7275]},"properties":{"id":20223,"name":"Wenshang","state_code":"SD","country_code":"CN"}},{"type":"Feature","geometry":{"type":"Point","coordinates":[116.4914646,35.7115565]},"properties":{"id":158946,"name":"Wenshang","state_code":"SD","country_code":"CN"}},{"type":"Feature","geometry":{"type":"Point","coordinates":[116.0820353,37.2076575]},"properties":{"id":158985,"name":"Wucheng","state_code":"SD","country_code":"CN"}},{"type":"Feature","geometry":{"type":"Point","coordinates":[117.6199106,37.7699483]},"properties":{"id":159000,"name":"Wudi","state_code":"SD","country_code":"CN"}},{"type":"Feature","geometry":{"type":"Point","coordinates":[119.2024296,35.7575847]},"properties":{"id":158964,"name":"Wulian","state_code":"SD","country_code":"CN"}},{"type":"Feature","geometry":{"type":"Point","coordinates":[115.9957995,36.9478323]},"properties":{"id":158984,"name":"Xiajin","state_code":"SD","country_code":"CN"}},{"type":"Feature","geometry":{"type":"Point","coordinates":[117.11167,34.80222]},"properties":{"id":20277,"name":"Xiazhen","state_code":"SD","country_code":"CN"}},{"type":"Feature","geometry":{"type":"Point","coordinates":[118.63889,34.91611]},"properties":{"id":20278,"name":"Xiazhuang","state_code":"SD","country_code":"CN"}},{"type":"Feature","geometry":{"type":"Point","coordinates":[115.94139,37.07833]},"properties":{"id":20283,"name":"Xiliguantun","state_code":"SD","country_code":"CN"}},{"type":"Feature","geometry":{"type":"Point","coordinates":[118.29444,36.7975]},"properties":{"id":20291,"name":"Xindian","state_code":"SD","country_code":"CN"}},{"type":"Feature","geometry":{"type":"Point","coordinates":[117.75194,35.90056]},"properties":{"id":20306,"name":"Xintai","state_code":"SD","country_code":"CN"}},{"type":"Feature","geometry":{"type":"Point","coordinates":[117.7620286,35.9094557]},"properties":{"id":158956,"name":"Xintai","state_code":"SD","country_code":"CN"}},{"type":"Feature","geometry":{"type":"Point","coordinates":[116.721046,36.3592886]},"properties":{"id":158907,"name":"Xuecheng","state_code":"SD","country_code":"CN"}},{"type":"Feature","geometry":{"type":"Point","coordinates":[115.77528,36.11056]},"properties":{"id":20342,"name":"Yanggu","state_code":"SD","country_code":"CN"}},{"type":"Feature","geometry":{"type":"Point","coordinates":[115.7857865,36.1142991]},"properties":{"id":158990,"name":"Yanggu","state_code":"SD","country_code":"CN"}},{"type":"Feature","geometry":{"type":"Point","coordinates":[117.5974413,37.6319379]},"properties":{"id":158999,"name":"Yangxin","state_code":"SD","country_code":"CN"}},{"type":"Feature","geometry":{"type":"Point","coordinates":[115.66722,36.24111]},"properties":{"id":20355,"name":"Yanta","state_code":"SD","country_code":"CN"}},{"type":"Feature","geometry":{"type":"Point","coordinates":[121.4425255,37.461928]},"properties":{"id":20356,"name":"Yantai","state_code":"SD","country_code":"CN"}},{"type":"Feature","geometry":{"type":"Point","coordinates":[116.82861,35.55278]},"properties":{"id":20359,"name":"Yanzhou","state_code":"SD","country_code":"CN"}},{"type":"Feature","geometry":{"type":"Point","coordinates":[116.7780517,35.5520437]},"properties":{"id":158941,"name":"Yanzhou","state_code":"SD","country_code":"CN"}},{"type":"Feature","geometry":{"type":"Point","coordinates":[122.43762,37.1566]},"properties":{"id":20362,"name":"Yatou","state_code":"SD","country_code":"CN"}},{"type":"Feature","geometry":{"type":"Point","coordinates":[117.5402508,34.7117635]},"properties":{"id":158906,"name":"Yicheng","state_code":"SD","country_code":"CN"}},{"type":"Feature","geometry":{"type":"Point","coordinates":[118.4595027,35.5499885]},"properties":{"id":158968,"name":"Yinan","state_code":"SD","country_code":"CN"}},{"type":"Feature","geometry":{"type":"Point","coordinates":[119.97528,35.87861]},"properties":{"id":20381,"name":"Yinzhu","state_code":"SD","country_code":"CN"}},{"type":"Feature","geometry":{"type":"Point","coordinates":[118.62806,35.78472]},"properties":{"id":20382,"name":"Yishui","state_code":"SD","country_code":"CN"}},{"type":"Feature","geometry":{"type":"Point","coordinates":[118.6227646,35.7911764]},"properties":{"id":158970,"name":"Yishui","state_code":"SD","country_code":"CN"}},{"type":"Feature","geometry":{"type":"Point","coordinates":[118.1586017,36.1819283]},"properties":{"id":158905,"name":"Yiyuan","state_code":"SD","country_code":"CN"}},{"type":"Feature","geometry":{"type":"Point","coordinates":[116.46528,34.92889]},"properties":{"id":20393,"name":"Yucheng","state_code":"SD","country_code":"CN"}},{"type":"Feature","geometry":{"type":"Point","coordinates":[116.6329789,36.933782]},"properties":{"id":158987,"name":"Yucheng","state_code":"SD","country_code":"CN"}},{"type":"Feature","geometry":{"type":"Point","coordinates":[115.9334944,35.5759752]},"properties":{"id":159009,"name":"Yuncheng","state_code":"SD","country_code":"CN"}},{"type":"Feature","geometry":{"type":"Point","coordinates":[116.6450258,35.0135864]},"properties":{"id":158943,"name":"Yutai","state_code":"SD","country_code":"CN"}},{"type":"Feature","geometry":{"type":"Point","coordinates":[117.3178922,34.8108822]},"properties":{"id":20415,"name":"Zaozhuang","state_code":"SD","country_code":"CN"}},{"type":"Feature","geometry":{"type":"Point","coordinates":[118.0118881,36.806232]},"properties":{"id":158899,"name":"Zhangdian","state_code":"SD","country_code":"CN"}},{"type":"Feature","geometry":{"type":"Point","coordinates":[117.5201284,36.6811534]},"properties":{"id":158882,"name":"Zhangqiu","state_code":"SD","country_code":"CN"}},{"type":"Feature","geometry":{"type":"Point","coordinates":[118.0922504,37.8324833]},"properties":{"id":158997,"name":"Zhanhua","state_code":"SD","country_code":"CN"}},{"type":"Feature","geometry":{"type":"Point","coordinates":[120.40997,37.36497]},"properties":{"id":20435,"name":"Zhaoyuan","state_code":"SD","country_code":"CN"}},{"type":"Feature","geometry":{"type":"Point","coordinates":[120.4281727,37.3538319]},"properties":{"id":158925,"name":"Zhaoyuan","state_code":"SD","country_code":"CN"}},{"type":"Feature","geometry":{"type":"Point","coordinates":[121.3950498,37.5404322]},"properties":{"id":158917,"name":"Zhifu","state_code":"SD","country_code":"CN"}},{"type":"Feature","geometry":{"type":"Point","coordinates":[116.31167,35.91222]},"properties":{"id":20458,"name":"Zhoucheng","state_code":"SD","country_code":"CN"}},{"type":"Feature","geometry":{"type":"Point","coordinates":[117.81667,36.81667]},"properties":{"id":20459,"name":"Zhoucun","state_code":"SD","country_code":"CN"}},{"type":"Feature","geometry":{"type":"Point","coordinates":[117.8639989,36.8029113]},"properties":{"id":158902,"name":"Zhoucun","state_code":"SD","country_code":"CN"}},{"type":"Feature","geometry":{"type":"Point","coordinates":[119.40259,35.99502]},"properties":{"id":20463,"name":"Zhu Cheng","state_code":"SD","country_code":"CN"}},{"type":"Feature","geometry":{"type":"Point","coordinates":[120.82747,37.30553]},"properties":{"id":20465,"name":"Zhuangyuan","state_code":"SD","country_code":"CN"}},{"type":"Feature","geometry":{"type":"Point","coordinates":[119.4041185,35.9957253]},"properties":{"id":158935,"name":"Zhucheng","state_code":"SD","country_code":"CN"}},{"type":"Feature","geometry":{"type":"Point","coordinates":[118.0488401,36.8129564]},"properties":{"id":20478,"name":"Zibo","state_code":"SD","country_code":"CN"}},{"type":"Feature","geometry":{"type":"Point","coordinates":[117.961169,36.6438283]},"properties":{"id":158898,"name":"Zichuan","state_code":"SD","country_code":"CN"}},{"type":"Feature","geometry":{"type":"Point","coordinates":[116.96556,35.40056]},"properties":{"id":20481,"name":"Zoucheng","state_code":"SD","country_code":"CN"}},{"type":"Feature","geometry":{"type":"Point","coordinates":[117.0017252,35.403211]},"properties":{"id":158950,"name":"Zoucheng","state_code":"SD","country_code":"CN"}},{"type":"Feature","geometry":{"type":"Point","coordinates":[117.736995,36.8629315]},"properties":{"id":159002,"name":"Zouping","state_code":"SD","country_code":"CN"}}]}