{"type":"FeatureCollection","features":[{"type":"Feature","geometry":{"type":"Point","coordinates":[81.33299,43.90845]},"properties":{"id":19273,"name":"Ailan Mubage","state_code":"XJ","country_code":"CN"}},{"type":"Feature","geometry":{"type":"Point","coordinates":[78.016667,40.833333]},"properties":{"id":159907,"name":"Akqi","state_code":"XJ","country_code":"CN"}},{"type":"Feature","geometry":{"type":"Point","coordinates":[80.2582136,41.1677575]},"properties":{"id":19274,"name":"Aksu","state_code":"XJ","country_code":"CN"}},{"type":"Feature","geometry":{"type":"Point","coordinates":[81.84629,40.55689]},"properties":{"id":19275,"name":"Aksu","state_code":"XJ","country_code":"CN"}},{"type":"Feature","geometry":{"type":"Point","coordinates":[75.1459013,38.6819183]},"properties":{"id":159906,"name":"Akto","state_code":"XJ","country_code":"CN"}},{"type":"Feature","geometry":{"type":"Point","coordinates":[82.5669384,45.1707258]},"properties":{"id":159883,"name":"Alashankou","state_code":"XJ","country_code":"CN"}},{"type":"Feature","geometry":{"type":"Point","coordinates":[88.4341751,47.1001782]},"properties":{"id":19276,"name":"Altay","state_code":"XJ","country_code":"CN"}},{"type":"Feature","geometry":{"type":"Point","coordinates":[88.11667,47.86667]},"properties":{"id":19277,"name":"Altay","state_code":"XJ","country_code":"CN"}},{"type":"Feature","geometry":{"type":"Point","coordinates":[81.26566,40.54184]},"properties":{"id":19293,"name":"Aral","state_code":"XJ","country_code":"CN"}},{"type":"Feature","geometry":{"type":"Point","coordinates":[81.2770789,40.5421865]},"properties":{"id":159961,"name":"Aral","state_code":"XJ","country_code":"CN"}},{"type":"Feature","geometry":{"type":"Point","coordinates":[76.8334834,40.0818065]},"properties":{"id":159905,"name":"Artux","state_code":"XJ","country_code":"CN"}},{"type":"Feature","geometry":{"type":"Point","coordinates":[80.5092961,40.2031074]},"properties":{"id":159902,"name":"Awat","state_code":"XJ","country_code":"CN"}},{"type":"Feature","geometry":{"type":"Point","coordinates":[80.13574,40.95759]},"properties":{"id":19294,"name":"Aykol","state_code":"XJ","country_code":"CN"}},{"type":"Feature","geometry":{"type":"Point","coordinates":[78.25,39.766667]},"properties":{"id":159920,"name":"Bachu","state_code":"XJ","country_code":"CN"}},{"type":"Feature","geometry":{"type":"Point","coordinates":[81.848927,41.7939895]},"properties":{"id":159900,"name":"Baicheng","state_code":"XJ","country_code":"CN"}},{"type":"Feature","geometry":{"type":"Point","coordinates":[85.13942,45.69298]},"properties":{"id":19300,"name":"Baijiantan","state_code":"XJ","country_code":"CN"}},{"type":"Feature","geometry":{"type":"Point","coordinates":[85.260773,45.634206]},"properties":{"id":159866,"name":"Baijiantan","state_code":"XJ","country_code":"CN"}},{"type":"Feature","geometry":{"type":"Point","coordinates":[82.8947023,46.7266427]},"properties":{"id":159971,"name":"Baiyang","state_code":"XJ","country_code":"CN"}},{"type":"Feature","geometry":{"type":"Point","coordinates":[86.32424,42.66842]},"properties":{"id":19311,"name":"Baluntaicun","state_code":"XJ","country_code":"CN"}},{"type":"Feature","geometry":{"type":"Point","coordinates":[92.8274089,44.2774955]},"properties":{"id":159872,"name":"Barkol","state_code":"XJ","country_code":"CN"}},{"type":"Feature","geometry":{"type":"Point","coordinates":[87.9790569,39.495586]},"properties":{"id":159972,"name":"Bayin'gholin","state_code":"XJ","country_code":"CN"}},{"type":"Feature","geometry":{"type":"Point","coordinates":[87.9790569,39.495586]},"properties":{"id":19325,"name":"Bayingolin","state_code":"XJ","country_code":"CN"}},{"type":"Feature","geometry":{"type":"Point","coordinates":[87.8306682,47.3249377]},"properties":{"id":159964,"name":"Beitun","state_code":"XJ","country_code":"CN"}},{"type":"Feature","geometry":{"type":"Point","coordinates":[86.8882655,41.8344666]},"properties":{"id":159894,"name":"Bohu","state_code":"XJ","country_code":"CN"}},{"type":"Feature","geometry":{"type":"Point","coordinates":[82.0629703,44.904806]},"properties":{"id":159882,"name":"Bole","state_code":"XJ","country_code":"CN"}},{"type":"Feature","geometry":{"type":"Point","coordinates":[82.0629703,44.904806]},"properties":{"id":159881,"name":"Bortala","state_code":"XJ","country_code":"CN"}},{"type":"Feature","geometry":{"type":"Point","coordinates":[87.236938,48.367198]},"properties":{"id":159953,"name":"Burqin","state_code":"XJ","country_code":"CN"}},{"type":"Feature","geometry":{"type":"Point","coordinates":[86.6870066,44.3478012]},"properties":{"id":19365,"name":"Changji","state_code":"XJ","country_code":"CN"}},{"type":"Feature","geometry":{"type":"Point","coordinates":[87.31667,44.01667]},"properties":{"id":19366,"name":"Changji","state_code":"XJ","country_code":"CN"}},{"type":"Feature","geometry":{"type":"Point","coordinates":[88.399713,43.559774]},"properties":{"id":159861,"name":"Dabancheng","state_code":"XJ","country_code":"CN"}},{"type":"Feature","geometry":{"type":"Point","coordinates":[87.5865391,43.8808697]},"properties":{"id":159959,"name":"Direct","state_code":"XJ","country_code":"CN"}},{"type":"Feature","geometry":{"type":"Point","coordinates":[84.8843967,44.3278229]},"properties":{"id":159864,"name":"Dushanzi","state_code":"XJ","country_code":"CN"}},{"type":"Feature","geometry":{"type":"Point","coordinates":[84.078369,46.634351]},"properties":{"id":159948,"name":"Emin","state_code":"XJ","country_code":"CN"}},{"type":"Feature","geometry":{"type":"Point","coordinates":[87.89675,46.32967]},"properties":{"id":159955,"name":"Fuhai","state_code":"XJ","country_code":"CN"}},{"type":"Feature","geometry":{"type":"Point","coordinates":[87.97418,44.15874]},"properties":{"id":19519,"name":"Fukang","state_code":"XJ","country_code":"CN"}},{"type":"Feature","geometry":{"type":"Point","coordinates":[88.275146,44.504341]},"properties":{"id":159875,"name":"Fukang","state_code":"XJ","country_code":"CN"}},{"type":"Feature","geometry":{"type":"Point","coordinates":[89.2188372,46.7504829]},"properties":{"id":159954,"name":"Fuyun","state_code":"XJ","country_code":"CN"}},{"type":"Feature","geometry":{"type":"Point","coordinates":[89.1829954,42.9409742]},"properties":{"id":159868,"name":"Gaochang","state_code":"XJ","country_code":"CN"}},{"type":"Feature","geometry":{"type":"Point","coordinates":[82.2289633,43.4801666]},"properties":{"id":159939,"name":"Gongliu","state_code":"XJ","country_code":"CN"}},{"type":"Feature","geometry":{"type":"Point","coordinates":[86.495361,48.330691]},"properties":{"id":159956,"name":"Habahe","state_code":"XJ","country_code":"CN"}},{"type":"Feature","geometry":{"type":"Point","coordinates":[93.5130464,42.8254995]},"properties":{"id":19593,"name":"Hami","state_code":"XJ","country_code":"CN"}},{"type":"Feature","geometry":{"type":"Point","coordinates":[79.1881801,35.9834211]},"properties":{"id":159930,"name":"He'an","state_code":"XJ","country_code":"CN"}},{"type":"Feature","geometry":{"type":"Point","coordinates":[86.3817516,42.3219766]},"properties":{"id":159892,"name":"Hejing","state_code":"XJ","country_code":"CN"}},{"type":"Feature","geometry":{"type":"Point","coordinates":[78.0277912,36.3517941]},"properties":{"id":159931,"name":"Hekang","state_code":"XJ","country_code":"CN"}},{"type":"Feature","geometry":{"type":"Point","coordinates":[86.4954309,46.1869945]},"properties":{"id":159951,"name":"Hoboksar","state_code":"XJ","country_code":"CN"}},{"type":"Feature","geometry":{"type":"Point","coordinates":[79.9200157,37.1144827]},"properties":{"id":19631,"name":"Hotan","state_code":"XJ","country_code":"CN"}},{"type":"Feature","geometry":{"type":"Point","coordinates":[86.00214,46.51872]},"properties":{"id":19633,"name":"Hoxtolgay","state_code":"XJ","country_code":"CN"}},{"type":"Feature","geometry":{"type":"Point","coordinates":[86.861767,42.26659]},"properties":{"id":159893,"name":"Hoxud","state_code":"XJ","country_code":"CN"}},{"type":"Feature","geometry":{"type":"Point","coordinates":[80.87173,44.05305]},"properties":{"id":19683,"name":"Huocheng","state_code":"XJ","country_code":"CN"}},{"type":"Feature","geometry":{"type":"Point","coordinates":[80.9801647,44.3037058]},"properties":{"id":159938,"name":"Huocheng","state_code":"XJ","country_code":"CN"}},{"type":"Feature","geometry":{"type":"Point","coordinates":[86.779052,44.3646574]},"properties":{"id":159876,"name":"Hutubi","state_code":"XJ","country_code":"CN"}},{"type":"Feature","geometry":{"type":"Point","coordinates":[84.7218796,44.7662531]},"properties":{"id":159969,"name":"Huyanghe","state_code":"XJ","country_code":"CN"}},{"type":"Feature","geometry":{"type":"Point","coordinates":[81.3271885,43.913814]},"properties":{"id":159932,"name":"Ili","state_code":"XJ","country_code":"CN"}},{"type":"Feature","geometry":{"type":"Point","coordinates":[82.27102,43.31211]},"properties":{"id":19690,"name":"Ili Kazak Zizhizhou","state_code":"XJ","country_code":"CN"}},{"type":"Feature","geometry":{"type":"Point","coordinates":[86.2593295,47.3862282]},"properties":{"id":159958,"name":"Jeminay","state_code":"XJ","country_code":"CN"}},{"type":"Feature","geometry":{"type":"Point","coordinates":[77.2571513,39.6003856]},"properties":{"id":159919,"name":"Jiashi","state_code":"XJ","country_code":"CN"}},{"type":"Feature","geometry":{"type":"Point","coordinates":[89.029684,44.294504]},"properties":{"id":159879,"name":"Jimsar","state_code":"XJ","country_code":"CN"}},{"type":"Feature","geometry":{"type":"Point","coordinates":[82.9829879,44.5803733]},"properties":{"id":159884,"name":"Jinghe","state_code":"XJ","country_code":"CN"}},{"type":"Feature","geometry":{"type":"Point","coordinates":[78.9467083,40.4273557]},"properties":{"id":159903,"name":"Kalpin","state_code":"XJ","country_code":"CN"}},{"type":"Feature","geometry":{"type":"Point","coordinates":[84.8867252,45.5778068]},"properties":{"id":19773,"name":"Karamay","state_code":"XJ","country_code":"CN"}},{"type":"Feature","geometry":{"type":"Point","coordinates":[84.91683,45.49989]},"properties":{"id":19774,"name":"Karamay","state_code":"XJ","country_code":"CN"}},{"type":"Feature","geometry":{"type":"Point","coordinates":[75.9900135,39.4665981]},"properties":{"id":19775,"name":"Kashgar","state_code":"XJ","country_code":"CN"}},{"type":"Feature","geometry":{"type":"Point","coordinates":[75.9900135,39.4665981]},"properties":{"id":159909,"name":"Kashi","state_code":"XJ","country_code":"CN"}},{"type":"Feature","geometry":{"type":"Point","coordinates":[75.98968,39.47543]},"properties":{"id":19776,"name":"Kaxgar","state_code":"XJ","country_code":"CN"}},{"type":"Feature","geometry":{"type":"Point","coordinates":[76.1645911,39.7141576]},"properties":{"id":159904,"name":"Kizilsu","state_code":"XJ","country_code":"CN"}},{"type":"Feature","geometry":{"type":"Point","coordinates":[80.9989088,43.9313812]},"properties":{"id":159967,"name":"Kokdala","state_code":"XJ","country_code":"CN"}},{"type":"Feature","geometry":{"type":"Point","coordinates":[80.9801647,44.3037058]},"properties":{"id":159935,"name":"Korgas","state_code":"XJ","country_code":"CN"}},{"type":"Feature","geometry":{"type":"Point","coordinates":[86.15231,41.76055]},"properties":{"id":19779,"name":"Korla","state_code":"XJ","country_code":"CN"}},{"type":"Feature","geometry":{"type":"Point","coordinates":[85.716234,41.673238]},"properties":{"id":159886,"name":"Korla","state_code":"XJ","country_code":"CN"}},{"type":"Feature","geometry":{"type":"Point","coordinates":[79.267547,37.2141513]},"properties":{"id":159968,"name":"Kunyu","state_code":"XJ","country_code":"CN"}},{"type":"Feature","geometry":{"type":"Point","coordinates":[82.93064,41.71707]},"properties":{"id":19786,"name":"Kuqa","state_code":"XJ","country_code":"CN"}},{"type":"Feature","geometry":{"type":"Point","coordinates":[83.4531594,41.8196873]},"properties":{"id":159896,"name":"Kuqa","state_code":"XJ","country_code":"CN"}},{"type":"Feature","geometry":{"type":"Point","coordinates":[84.90069,44.42707]},"properties":{"id":19788,"name":"Kuytun","state_code":"XJ","country_code":"CN"}},{"type":"Feature","geometry":{"type":"Point","coordinates":[85.01358,44.551335]},"properties":{"id":159934,"name":"Kuytun","state_code":"XJ","country_code":"CN"}},{"type":"Feature","geometry":{"type":"Point","coordinates":[80.4378355,37.4321186]},"properties":{"id":159926,"name":"Lop","state_code":"XJ","country_code":"CN"}},{"type":"Feature","geometry":{"type":"Point","coordinates":[84.6148344,41.7680825]},"properties":{"id":159887,"name":"Luntai","state_code":"XJ","country_code":"CN"}},{"type":"Feature","geometry":{"type":"Point","coordinates":[78.2272673,38.8312397]},"properties":{"id":159917,"name":"Makit","state_code":"XJ","country_code":"CN"}},{"type":"Feature","geometry":{"type":"Point","coordinates":[86.3171176,44.3813954]},"properties":{"id":159877,"name":"Manas","state_code":"XJ","country_code":"CN"}},{"type":"Feature","geometry":{"type":"Point","coordinates":[87.7395034,44.4199514]},"properties":{"id":159862,"name":"Midong","state_code":"XJ","country_code":"CN"}},{"type":"Feature","geometry":{"type":"Point","coordinates":[83.217591,37.254283]},"properties":{"id":159929,"name":"Minfeng","state_code":"XJ","country_code":"CN"}},{"type":"Feature","geometry":{"type":"Point","coordinates":[90.7796352,43.9852673]},"properties":{"id":159880,"name":"Mori","state_code":"XJ","country_code":"CN"}},{"type":"Feature","geometry":{"type":"Point","coordinates":[79.7377057,37.2714124]},"properties":{"id":159924,"name":"Moyu","state_code":"XJ","country_code":"CN"}},{"type":"Feature","geometry":{"type":"Point","coordinates":[83.3566091,43.8336466]},"properties":{"id":159943,"name":"Nilka","state_code":"XJ","country_code":"CN"}},{"type":"Feature","geometry":{"type":"Point","coordinates":[85.57663,45.976924]},"properties":{"id":159867,"name":"Orku","state_code":"XJ","country_code":"CN"}},{"type":"Feature","geometry":{"type":"Point","coordinates":[78.5941767,37.2435049]},"properties":{"id":159925,"name":"Pishan","state_code":"XJ","country_code":"CN"}},{"type":"Feature","geometry":{"type":"Point","coordinates":[81.08722,43.80194]},"properties":{"id":20005,"name":"Qapqal","state_code":"XJ","country_code":"CN"}},{"type":"Feature","geometry":{"type":"Point","coordinates":[81.1974919,43.6205113]},"properties":{"id":159937,"name":"Qapqal","state_code":"XJ","country_code":"CN"}},{"type":"Feature","geometry":{"type":"Point","coordinates":[85.812932,37.998243]},"properties":{"id":159890,"name":"Qiemo","state_code":"XJ","country_code":"CN"}},{"type":"Feature","geometry":{"type":"Point","coordinates":[90.4354502,46.1684358]},"properties":{"id":159957,"name":"Qinghe","state_code":"XJ","country_code":"CN"}},{"type":"Feature","geometry":{"type":"Point","coordinates":[80.9113362,37.247554]},"properties":{"id":159927,"name":"Qira","state_code":"XJ","country_code":"CN"}},{"type":"Feature","geometry":{"type":"Point","coordinates":[89.8779149,44.4254459]},"properties":{"id":159878,"name":"Qitai","state_code":"XJ","country_code":"CN"}},{"type":"Feature","geometry":{"type":"Point","coordinates":[89.6970091,39.0959814]},"properties":{"id":159889,"name":"Ruoqiang","state_code":"XJ","country_code":"CN"}},{"type":"Feature","geometry":{"type":"Point","coordinates":[75.8249005,39.3519873]},"properties":{"id":159857,"name":"Saybag","state_code":"XJ","country_code":"CN"}},{"type":"Feature","geometry":{"type":"Point","coordinates":[77.24056,38.41667]},"properties":{"id":20059,"name":"Shache","state_code":"XJ","country_code":"CN"}},{"type":"Feature","geometry":{"type":"Point","coordinates":[77.033982,38.3446426]},"properties":{"id":159915,"name":"Shache","state_code":"XJ","country_code":"CN"}},{"type":"Feature","geometry":{"type":"Point","coordinates":[90.642302,42.291403]},"properties":{"id":159869,"name":"Shanshan","state_code":"XJ","country_code":"CN"}},{"type":"Feature","geometry":{"type":"Point","coordinates":[85.53523,44.419301]},"properties":{"id":159947,"name":"Shawan","state_code":"XJ","country_code":"CN"}},{"type":"Feature","geometry":{"type":"Point","coordinates":[86.03694,44.3023]},"properties":{"id":20093,"name":"Shihezi","state_code":"XJ","country_code":"CN"}},{"type":"Feature","geometry":{"type":"Point","coordinates":[86.0775574,44.3017013]},"properties":{"id":159960,"name":"Shihezi","state_code":"XJ","country_code":"CN"}},{"type":"Feature","geometry":{"type":"Point","coordinates":[82.361049,44.842326]},"properties":{"id":159966,"name":"Shuanghe","state_code":"XJ","country_code":"CN"}},{"type":"Feature","geometry":{"type":"Point","coordinates":[75.667933,39.4318194]},"properties":{"id":159911,"name":"Shufu","state_code":"XJ","country_code":"CN"}},{"type":"Feature","geometry":{"type":"Point","coordinates":[87.7674515,43.8293237]},"properties":{"id":159859,"name":"Shuimogou","state_code":"XJ","country_code":"CN"}},{"type":"Feature","geometry":{"type":"Point","coordinates":[75.9900135,39.4665981]},"properties":{"id":159912,"name":"Shule","state_code":"XJ","country_code":"CN"}},{"type":"Feature","geometry":{"type":"Point","coordinates":[86.47667,41.96194]},"properties":{"id":20130,"name":"Sishilichengzi","state_code":"XJ","country_code":"CN"}},{"type":"Feature","geometry":{"type":"Point","coordinates":[83.2079658,46.7907169]},"properties":{"id":20152,"name":"Tacheng","state_code":"XJ","country_code":"CN"}},{"type":"Feature","geometry":{"type":"Point","coordinates":[82.95,46.75]},"properties":{"id":20153,"name":"Tacheng","state_code":"XJ","country_code":"CN"}},{"type":"Feature","geometry":{"type":"Point","coordinates":[75.2298859,37.7720982]},"properties":{"id":159921,"name":"Taxkorgan","state_code":"XJ","country_code":"CN"}},{"type":"Feature","geometry":{"type":"Point","coordinates":[82.102568,42.890384]},"properties":{"id":159942,"name":"Tekes","state_code":"XJ","country_code":"CN"}},{"type":"Feature","geometry":{"type":"Point","coordinates":[87.6301682,43.7924631]},"properties":{"id":159856,"name":"Tianshan","state_code":"XJ","country_code":"CN"}},{"type":"Feature","geometry":{"type":"Point","coordinates":[85.6682293,41.8628528]},"properties":{"id":159965,"name":"Tiemenguan","state_code":"XJ","country_code":"CN"}},{"type":"Feature","geometry":{"type":"Point","coordinates":[88.448316,42.427899]},"properties":{"id":159870,"name":"Toksun","state_code":"XJ","country_code":"CN"}},{"type":"Feature","geometry":{"type":"Point","coordinates":[83.8881577,45.6921312]},"properties":{"id":159949,"name":"Toli","state_code":"XJ","country_code":"CN"}},{"type":"Feature","geometry":{"type":"Point","coordinates":[87.3609531,43.9205532]},"properties":{"id":159860,"name":"Toutunhe","state_code":"XJ","country_code":"CN"}},{"type":"Feature","geometry":{"type":"Point","coordinates":[79.0724013,39.8664885]},"properties":{"id":159962,"name":"Tumxuk","state_code":"XJ","country_code":"CN"}},{"type":"Feature","geometry":{"type":"Point","coordinates":[89.7283163,42.4561611]},"properties":{"id":20200,"name":"Turpan","state_code":"XJ","country_code":"CN"}},{"type":"Feature","geometry":{"type":"Point","coordinates":[89.16667,42.93333]},"properties":{"id":20201,"name":"Turpan","state_code":"XJ","country_code":"CN"}},{"type":"Feature","geometry":{"type":"Point","coordinates":[87.6139038,43.8244074]},"properties":{"id":20204,"name":"Urumqi","state_code":"XJ","country_code":"CN"}},{"type":"Feature","geometry":{"type":"Point","coordinates":[87.60046,43.80096]},"properties":{"id":20484,"name":"Ürümqi","state_code":"XJ","country_code":"CN"}},{"type":"Feature","geometry":{"type":"Point","coordinates":[84.2593635,44.4733877]},"properties":{"id":159946,"name":"Usu","state_code":"XJ","country_code":"CN"}},{"type":"Feature","geometry":{"type":"Point","coordinates":[80.8916497,44.9736609]},"properties":{"id":159885,"name":"Wenquan","state_code":"XJ","country_code":"CN"}},{"type":"Feature","geometry":{"type":"Point","coordinates":[80.4732683,41.5909412]},"properties":{"id":159897,"name":"Wensu","state_code":"XJ","country_code":"CN"}},{"type":"Feature","geometry":{"type":"Point","coordinates":[87.5402182,44.1654232]},"properties":{"id":159963,"name":"Wujiaqu","state_code":"XJ","country_code":"CN"}},{"type":"Feature","geometry":{"type":"Point","coordinates":[74.9835652,39.8157795]},"properties":{"id":159908,"name":"Wuqia","state_code":"XJ","country_code":"CN"}},{"type":"Feature","geometry":{"type":"Point","coordinates":[79.2314076,41.2181307]},"properties":{"id":159901,"name":"Wushi","state_code":"XJ","country_code":"CN"}},{"type":"Feature","geometry":{"type":"Point","coordinates":[83.010053,40.3992134]},"properties":{"id":159898,"name":"Xayar","state_code":"XJ","country_code":"CN"}},{"type":"Feature","geometry":{"type":"Point","coordinates":[82.0081497,41.3706748]},"properties":{"id":159899,"name":"Xinhe","state_code":"XJ","country_code":"CN"}},{"type":"Feature","geometry":{"type":"Point","coordinates":[87.5222953,43.9303857]},"properties":{"id":159858,"name":"Xinshi","state_code":"XJ","country_code":"CN"}},{"type":"Feature","geometry":{"type":"Point","coordinates":[93.7410858,42.7962707]},"properties":{"id":159970,"name":"Xinxing","state_code":"XJ","country_code":"CN"}},{"type":"Feature","geometry":{"type":"Point","coordinates":[83.24959,43.42649]},"properties":{"id":20314,"name":"Xinyuan","state_code":"XJ","country_code":"CN"}},{"type":"Feature","geometry":{"type":"Point","coordinates":[83.6324476,43.3506314]},"properties":{"id":159940,"name":"Xinyuan","state_code":"XJ","country_code":"CN"}},{"type":"Feature","geometry":{"type":"Point","coordinates":[86.5716709,42.0581739]},"properties":{"id":159891,"name":"Yanqi","state_code":"XJ","country_code":"CN"}},{"type":"Feature","geometry":{"type":"Point","coordinates":[77.0475105,37.1764805]},"properties":{"id":159916,"name":"Yecheng","state_code":"XJ","country_code":"CN"}},{"type":"Feature","geometry":{"type":"Point","coordinates":[76.3704599,38.8174624]},"properties":{"id":159913,"name":"Yengisar","state_code":"XJ","country_code":"CN"}},{"type":"Feature","geometry":{"type":"Point","coordinates":[81.2747797,43.9052027]},"properties":{"id":159933,"name":"Yining","state_code":"XJ","country_code":"CN"}},{"type":"Feature","geometry":{"type":"Point","coordinates":[94.8774974,43.6273426]},"properties":{"id":159873,"name":"Yiwu","state_code":"XJ","country_code":"CN"}},{"type":"Feature","geometry":{"type":"Point","coordinates":[93.5130464,42.8254995]},"properties":{"id":159871,"name":"Yizhou","state_code":"XJ","country_code":"CN"}},{"type":"Feature","geometry":{"type":"Point","coordinates":[76.9344444,39.1442244]},"properties":{"id":159918,"name":"Yopurga","state_code":"XJ","country_code":"CN"}},{"type":"Feature","geometry":{"type":"Point","coordinates":[86.3711345,40.8045418]},"properties":{"id":159888,"name":"Yuli","state_code":"XJ","country_code":"CN"}},{"type":"Feature","geometry":{"type":"Point","coordinates":[82.7308754,45.937769]},"properties":{"id":159950,"name":"Yumin","state_code":"XJ","country_code":"CN"}},{"type":"Feature","geometry":{"type":"Point","coordinates":[81.8122035,37.0882497]},"properties":{"id":159928,"name":"Yutian","state_code":"XJ","country_code":"CN"}},{"type":"Feature","geometry":{"type":"Point","coordinates":[78.76667,37.28333]},"properties":{"id":20413,"name":"Zangguy","state_code":"XJ","country_code":"CN"}},{"type":"Feature","geometry":{"type":"Point","coordinates":[77.245562,38.127428]},"properties":{"id":159914,"name":"Zepu","state_code":"XJ","country_code":"CN"}},{"type":"Feature","geometry":{"type":"Point","coordinates":[81.002154,42.775629]},"properties":{"id":159941,"name":"Zhaosu","state_code":"XJ","country_code":"CN"}}]}