{"type":"FeatureCollection","features":[{"type":"Feature","geometry":{"type":"Point","coordinates":[119.6755006,30.6383107]},"properties":{"id":159493,"name":"Anji","state_code":"ZJ","country_code":"CN"}},{"type":"Feature","geometry":{"type":"Point","coordinates":[121.8405972,29.9023893]},"properties":{"id":159462,"name":"Beilun","state_code":"ZJ","country_code":"CN"}},{"type":"Feature","geometry":{"type":"Point","coordinates":[120.2072296,30.2109815]},"properties":{"id":159450,"name":"Binjiang","state_code":"ZJ","country_code":"CN"}},{"type":"Feature","geometry":{"type":"Point","coordinates":[120.4232915,27.5184046]},"properties":{"id":159476,"name":"Cangnan","state_code":"ZJ","country_code":"CN"}},{"type":"Feature","geometry":{"type":"Point","coordinates":[118.5063585,28.9060233]},"properties":{"id":159511,"name":"Changshan","state_code":"ZJ","country_code":"CN"}},{"type":"Feature","geometry":{"type":"Point","coordinates":[119.9066473,31.0278566]},"properties":{"id":159492,"name":"Changxing","state_code":"ZJ","country_code":"CN"}},{"type":"Feature","geometry":{"type":"Point","coordinates":[119.0367741,29.6118467]},"properties":{"id":159458,"name":"Chun'an","state_code":"ZJ","country_code":"CN"}},{"type":"Feature","geometry":{"type":"Point","coordinates":[121.2623259,30.1730437]},"properties":{"id":159469,"name":"Cixi","state_code":"ZJ","country_code":"CN"}},{"type":"Feature","geometry":{"type":"Point","coordinates":[122.2230072,30.2652069]},"properties":{"id":159517,"name":"Daishan","state_code":"ZJ","country_code":"CN"}},{"type":"Feature","geometry":{"type":"Point","coordinates":[119.9599,30.54485]},"properties":{"id":19453,"name":"Deqing","state_code":"ZJ","country_code":"CN"}},{"type":"Feature","geometry":{"type":"Point","coordinates":[120.0500594,30.5625691]},"properties":{"id":159491,"name":"Deqing","state_code":"ZJ","country_code":"CN"}},{"type":"Feature","geometry":{"type":"Point","coordinates":[122.1025956,30.0215992]},"properties":{"id":159515,"name":"Dinghai","state_code":"ZJ","country_code":"CN"}},{"type":"Feature","geometry":{"type":"Point","coordinates":[121.1526719,27.838944]},"properties":{"id":159473,"name":"Dongtou","state_code":"ZJ","country_code":"CN"}},{"type":"Feature","geometry":{"type":"Point","coordinates":[120.22528,29.26778]},"properties":{"id":19481,"name":"Dongyang","state_code":"ZJ","country_code":"CN"}},{"type":"Feature","geometry":{"type":"Point","coordinates":[120.2372669,29.2924528]},"properties":{"id":159507,"name":"Dongyang","state_code":"ZJ","country_code":"CN"}},{"type":"Feature","geometry":{"type":"Point","coordinates":[121.4064,29.65628]},"properties":{"id":19505,"name":"Fenghua","state_code":"ZJ","country_code":"CN"}},{"type":"Feature","geometry":{"type":"Point","coordinates":[121.4017136,29.6575869]},"properties":{"id":159465,"name":"Fenghua","state_code":"ZJ","country_code":"CN"}},{"type":"Feature","geometry":{"type":"Point","coordinates":[119.95194,30.05333]},"properties":{"id":19526,"name":"Fuyang","state_code":"ZJ","country_code":"CN"}},{"type":"Feature","geometry":{"type":"Point","coordinates":[119.9559051,30.0504847]},"properties":{"id":159455,"name":"Fuyang","state_code":"ZJ","country_code":"CN"}},{"type":"Feature","geometry":{"type":"Point","coordinates":[120.136706,30.3213481]},"properties":{"id":159448,"name":"Gongshu","state_code":"ZJ","country_code":"CN"}},{"type":"Feature","geometry":{"type":"Point","coordinates":[120.03308,28.88162]},"properties":{"id":19576,"name":"Guli","state_code":"ZJ","country_code":"CN"}},{"type":"Feature","geometry":{"type":"Point","coordinates":[120.68638,30.53629]},"properties":{"id":19591,"name":"Haining","state_code":"ZJ","country_code":"CN"}},{"type":"Feature","geometry":{"type":"Point","coordinates":[120.6759733,30.5142256]},"properties":{"id":159486,"name":"Haining","state_code":"ZJ","country_code":"CN"}},{"type":"Feature","geometry":{"type":"Point","coordinates":[121.5464883,29.8765412]},"properties":{"id":159460,"name":"Haishu","state_code":"ZJ","country_code":"CN"}},{"type":"Feature","geometry":{"type":"Point","coordinates":[120.9972525,30.4532113]},"properties":{"id":159485,"name":"Haiyan","state_code":"ZJ","country_code":"CN"}},{"type":"Feature","geometry":{"type":"Point","coordinates":[120.2052342,30.2489634]},"properties":{"id":19598,"name":"Hangzhou","state_code":"ZJ","country_code":"CN"}},{"type":"Feature","geometry":{"type":"Point","coordinates":[121.26591,28.6501]},"properties":{"id":19662,"name":"Huangyan","state_code":"ZJ","country_code":"CN"}},{"type":"Feature","geometry":{"type":"Point","coordinates":[121.2576325,28.65319]},"properties":{"id":159520,"name":"Huangyan","state_code":"ZJ","country_code":"CN"}},{"type":"Feature","geometry":{"type":"Point","coordinates":[120.0851114,30.8942995]},"properties":{"id":19689,"name":"Huzhou","state_code":"ZJ","country_code":"CN"}},{"type":"Feature","geometry":{"type":"Point","coordinates":[119.2749876,29.4755882]},"properties":{"id":159459,"name":"Jiande","state_code":"ZJ","country_code":"CN"}},{"type":"Feature","geometry":{"type":"Point","coordinates":[121.5517142,29.890276]},"properties":{"id":159461,"name":"Jiangbei","state_code":"ZJ","country_code":"CN"}},{"type":"Feature","geometry":{"type":"Point","coordinates":[118.6226466,28.7417596]},"properties":{"id":159514,"name":"Jiangshan","state_code":"ZJ","country_code":"CN"}},{"type":"Feature","geometry":{"type":"Point","coordinates":[121.47331,28.69844]},"properties":{"id":19710,"name":"Jiaojiang","state_code":"ZJ","country_code":"CN"}},{"type":"Feature","geometry":{"type":"Point","coordinates":[121.4385711,28.6758042]},"properties":{"id":159519,"name":"Jiaojiang","state_code":"ZJ","country_code":"CN"}},{"type":"Feature","geometry":{"type":"Point","coordinates":[120.92583,30.84918]},"properties":{"id":19713,"name":"Jiashan","state_code":"ZJ","country_code":"CN"}},{"type":"Feature","geometry":{"type":"Point","coordinates":[120.9218024,30.8327446]},"properties":{"id":159484,"name":"Jiashan","state_code":"ZJ","country_code":"CN"}},{"type":"Feature","geometry":{"type":"Point","coordinates":[120.7510971,30.7474425]},"properties":{"id":19714,"name":"Jiaxing","state_code":"ZJ","country_code":"CN"}},{"type":"Feature","geometry":{"type":"Point","coordinates":[120.75238,30.7707]},"properties":{"id":19715,"name":"Jiaxing","state_code":"ZJ","country_code":"CN"}},{"type":"Feature","geometry":{"type":"Point","coordinates":[119.688078,29.102852]},"properties":{"id":159501,"name":"Jindong","state_code":"ZJ","country_code":"CN"}},{"type":"Feature","geometry":{"type":"Point","coordinates":[119.6338226,27.9971163]},"properties":{"id":159535,"name":"Jingning","state_code":"ZJ","country_code":"CN"}},{"type":"Feature","geometry":{"type":"Point","coordinates":[119.6486487,29.1080344]},"properties":{"id":19740,"name":"Jinhua","state_code":"ZJ","country_code":"CN"}},{"type":"Feature","geometry":{"type":"Point","coordinates":[120.60625,27.43265]},"properties":{"id":19750,"name":"Jinxiang","state_code":"ZJ","country_code":"CN"}},{"type":"Feature","geometry":{"type":"Point","coordinates":[120.0869565,28.6615529]},"properties":{"id":159530,"name":"Jinyun","state_code":"ZJ","country_code":"CN"}},{"type":"Feature","geometry":{"type":"Point","coordinates":[118.4108029,29.1399083]},"properties":{"id":159512,"name":"Kaihua","state_code":"ZJ","country_code":"CN"}},{"type":"Feature","geometry":{"type":"Point","coordinates":[118.868824,28.9406274]},"properties":{"id":159509,"name":"Kecheng","state_code":"ZJ","country_code":"CN"}},{"type":"Feature","geometry":{"type":"Point","coordinates":[120.4908065,30.0847959]},"properties":{"id":159495,"name":"Keqiao","state_code":"ZJ","country_code":"CN"}},{"type":"Feature","geometry":{"type":"Point","coordinates":[120.56583,27.66583]},"properties":{"id":19785,"name":"Kunyang","state_code":"ZJ","country_code":"CN"}},{"type":"Feature","geometry":{"type":"Point","coordinates":[119.47156,29.21588]},"properties":{"id":19801,"name":"Lanxi","state_code":"ZJ","country_code":"CN"}},{"type":"Feature","geometry":{"type":"Point","coordinates":[119.455345,29.2117769]},"properties":{"id":159505,"name":"Lanxi","state_code":"ZJ","country_code":"CN"}},{"type":"Feature","geometry":{"type":"Point","coordinates":[119.9079603,28.4495941]},"properties":{"id":159528,"name":"Liandu","state_code":"ZJ","country_code":"CN"}},{"type":"Feature","geometry":{"type":"Point","coordinates":[120.89845,29.99152]},"properties":{"id":19814,"name":"Lianghu","state_code":"ZJ","country_code":"CN"}},{"type":"Feature","geometry":{"type":"Point","coordinates":[119.7192631,30.2371364]},"properties":{"id":159456,"name":"Lin'an","state_code":"ZJ","country_code":"CN"}},{"type":"Feature","geometry":{"type":"Point","coordinates":[121.1447,28.85535]},"properties":{"id":19844,"name":"Linhai","state_code":"ZJ","country_code":"CN"}},{"type":"Feature","geometry":{"type":"Point","coordinates":[121.1402223,28.8616886]},"properties":{"id":159526,"name":"Linhai","state_code":"ZJ","country_code":"CN"}},{"type":"Feature","geometry":{"type":"Point","coordinates":[120.29722,30.4225]},"properties":{"id":19848,"name":"Linping","state_code":"ZJ","country_code":"CN"}},{"type":"Feature","geometry":{"type":"Point","coordinates":[120.2946532,30.4217049]},"properties":{"id":159453,"name":"Linping","state_code":"ZJ","country_code":"CN"}},{"type":"Feature","geometry":{"type":"Point","coordinates":[119.9184297,28.4704064]},"properties":{"id":19858,"name":"Lishui","state_code":"ZJ","country_code":"CN"}},{"type":"Feature","geometry":{"type":"Point","coordinates":[120.549134,27.5815252]},"properties":{"id":159481,"name":"Longgang","state_code":"ZJ","country_code":"CN"}},{"type":"Feature","geometry":{"type":"Point","coordinates":[119.1370006,28.0760972]},"properties":{"id":159536,"name":"Longquan","state_code":"ZJ","country_code":"CN"}},{"type":"Feature","geometry":{"type":"Point","coordinates":[120.8081747,27.9363908]},"properties":{"id":159471,"name":"Longwan","state_code":"ZJ","country_code":"CN"}},{"type":"Feature","geometry":{"type":"Point","coordinates":[119.1673661,29.0309691]},"properties":{"id":159513,"name":"Longyou","state_code":"ZJ","country_code":"CN"}},{"type":"Feature","geometry":{"type":"Point","coordinates":[120.6507202,28.0187987]},"properties":{"id":159470,"name":"Lucheng","state_code":"ZJ","country_code":"CN"}},{"type":"Feature","geometry":{"type":"Point","coordinates":[121.37491,28.58023]},"properties":{"id":19891,"name":"Luqiao","state_code":"ZJ","country_code":"CN"}},{"type":"Feature","geometry":{"type":"Point","coordinates":[121.3338807,28.5818718]},"properties":{"id":159521,"name":"Luqiao","state_code":"ZJ","country_code":"CN"}},{"type":"Feature","geometry":{"type":"Point","coordinates":[120.7786275,30.7502821]},"properties":{"id":159482,"name":"Nanhu","state_code":"ZJ","country_code":"CN"}},{"type":"Feature","geometry":{"type":"Point","coordinates":[120.291283,30.7792424]},"properties":{"id":159490,"name":"Nanxun","state_code":"ZJ","country_code":"CN"}},{"type":"Feature","geometry":{"type":"Point","coordinates":[121.6203873,29.8622194]},"properties":{"id":19959,"name":"Ningbo","state_code":"ZJ","country_code":"CN"}},{"type":"Feature","geometry":{"type":"Point","coordinates":[121.42472,29.28917]},"properties":{"id":19961,"name":"Ninghai","state_code":"ZJ","country_code":"CN"}},{"type":"Feature","geometry":{"type":"Point","coordinates":[121.4252252,29.2907774]},"properties":{"id":159467,"name":"Ninghai","state_code":"ZJ","country_code":"CN"}},{"type":"Feature","geometry":{"type":"Point","coordinates":[120.6114239,27.9696586]},"properties":{"id":159472,"name":"Ouhai","state_code":"ZJ","country_code":"CN"}},{"type":"Feature","geometry":{"type":"Point","coordinates":[120.4455893,29.0573079]},"properties":{"id":159504,"name":"Pan'an","state_code":"ZJ","country_code":"CN"}},{"type":"Feature","geometry":{"type":"Point","coordinates":[121.0116196,30.6782402]},"properties":{"id":159487,"name":"Pinghu","state_code":"ZJ","country_code":"CN"}},{"type":"Feature","geometry":{"type":"Point","coordinates":[120.5623712,27.6652861]},"properties":{"id":159475,"name":"Pingyang","state_code":"ZJ","country_code":"CN"}},{"type":"Feature","geometry":{"type":"Point","coordinates":[119.8869538,29.4558211]},"properties":{"id":159503,"name":"Pujiang","state_code":"ZJ","country_code":"CN"}},{"type":"Feature","geometry":{"type":"Point","coordinates":[122.319433,29.9735195]},"properties":{"id":159516,"name":"Putuo","state_code":"ZJ","country_code":"CN"}},{"type":"Feature","geometry":{"type":"Point","coordinates":[119.88872,29.45679]},"properties":{"id":19999,"name":"Puyang","state_code":"ZJ","country_code":"CN"}},{"type":"Feature","geometry":{"type":"Point","coordinates":[120.051615,30.0469686]},"properties":{"id":159454,"name":"Qiantang","state_code":"ZJ","country_code":"CN"}},{"type":"Feature","geometry":{"type":"Point","coordinates":[120.134806,28.205331]},"properties":{"id":159529,"name":"Qingtian","state_code":"ZJ","country_code":"CN"}},{"type":"Feature","geometry":{"type":"Point","coordinates":[119.0567627,27.6232278]},"properties":{"id":159534,"name":"Qingyuan","state_code":"ZJ","country_code":"CN"}},{"type":"Feature","geometry":{"type":"Point","coordinates":[118.954019,28.9839098]},"properties":{"id":159510,"name":"Qujiang","state_code":"ZJ","country_code":"CN"}},{"type":"Feature","geometry":{"type":"Point","coordinates":[118.8540924,28.973887]},"properties":{"id":20039,"name":"Quzhou","state_code":"ZJ","country_code":"CN"}},{"type":"Feature","geometry":{"type":"Point","coordinates":[120.6512652,27.7809047]},"properties":{"id":159479,"name":"Rui'an","state_code":"ZJ","country_code":"CN"}},{"type":"Feature","geometry":{"type":"Point","coordinates":[121.3911493,29.1074946]},"properties":{"id":159522,"name":"Sanmen","state_code":"ZJ","country_code":"CN"}},{"type":"Feature","geometry":{"type":"Point","coordinates":[117.39553,39.90518]},"properties":{"id":149194,"name":"Shangcang","state_code":"ZJ","country_code":"CN"}},{"type":"Feature","geometry":{"type":"Point","coordinates":[120.1930825,30.228678]},"properties":{"id":159447,"name":"Shangcheng","state_code":"ZJ","country_code":"CN"}},{"type":"Feature","geometry":{"type":"Point","coordinates":[120.87111,30.01556]},"properties":{"id":20069,"name":"Shangyu","state_code":"ZJ","country_code":"CN"}},{"type":"Feature","geometry":{"type":"Point","coordinates":[120.8640628,30.0357]},"properties":{"id":159496,"name":"Shangyu","state_code":"ZJ","country_code":"CN"}},{"type":"Feature","geometry":{"type":"Point","coordinates":[120.576854,29.9992425]},"properties":{"id":20082,"name":"Shaoxing","state_code":"ZJ","country_code":"CN"}},{"type":"Feature","geometry":{"type":"Point","coordinates":[122.4469287,30.7278516]},"properties":{"id":159518,"name":"Shengsi","state_code":"ZJ","country_code":"CN"}},{"type":"Feature","geometry":{"type":"Point","coordinates":[120.8266704,29.5644007]},"properties":{"id":159499,"name":"Shengzhou","state_code":"ZJ","country_code":"CN"}},{"type":"Feature","geometry":{"type":"Point","coordinates":[122.29802,29.95763]},"properties":{"id":20088,"name":"Shenjiamen","state_code":"ZJ","country_code":"CN"}},{"type":"Feature","geometry":{"type":"Point","coordinates":[119.4388359,28.4200564]},"properties":{"id":159532,"name":"Songyang","state_code":"ZJ","country_code":"CN"}},{"type":"Feature","geometry":{"type":"Point","coordinates":[119.2686475,28.595012]},"properties":{"id":159531,"name":"Suichang","state_code":"ZJ","country_code":"CN"}},{"type":"Feature","geometry":{"type":"Point","coordinates":[119.7126369,27.5594965]},"properties":{"id":159478,"name":"Taishun","state_code":"ZJ","country_code":"CN"}},{"type":"Feature","geometry":{"type":"Point","coordinates":[121.4163876,28.6581723]},"properties":{"id":20164,"name":"Taizhou","state_code":"ZJ","country_code":"CN"}},{"type":"Feature","geometry":{"type":"Point","coordinates":[121.0024612,29.1467362]},"properties":{"id":159523,"name":"Tiantai","state_code":"ZJ","country_code":"CN"}},{"type":"Feature","geometry":{"type":"Point","coordinates":[119.6876858,29.7965627]},"properties":{"id":159457,"name":"Tonglu","state_code":"ZJ","country_code":"CN"}},{"type":"Feature","geometry":{"type":"Point","coordinates":[120.5610365,30.6316971]},"properties":{"id":159488,"name":"Tongxiang","state_code":"ZJ","country_code":"CN"}},{"type":"Feature","geometry":{"type":"Point","coordinates":[120.0870883,27.7904852]},"properties":{"id":159477,"name":"Wencheng","state_code":"ZJ","country_code":"CN"}},{"type":"Feature","geometry":{"type":"Point","coordinates":[121.38416,28.37524]},"properties":{"id":20219,"name":"Wenling","state_code":"ZJ","country_code":"CN"}},{"type":"Feature","geometry":{"type":"Point","coordinates":[121.3808408,28.3761941]},"properties":{"id":159525,"name":"Wenling","state_code":"ZJ","country_code":"CN"}},{"type":"Feature","geometry":{"type":"Point","coordinates":[120.695345,27.9963899]},"properties":{"id":20226,"name":"Wenzhou","state_code":"ZJ","country_code":"CN"}},{"type":"Feature","geometry":{"type":"Point","coordinates":[119.566654,29.0896589]},"properties":{"id":159500,"name":"Wucheng","state_code":"ZJ","country_code":"CN"}},{"type":"Feature","geometry":{"type":"Point","coordinates":[120.1809276,30.8588131]},"properties":{"id":159489,"name":"Wuxing","state_code":"ZJ","country_code":"CN"}},{"type":"Feature","geometry":{"type":"Point","coordinates":[119.8115928,28.8965355]},"properties":{"id":159502,"name":"Wuyi","state_code":"ZJ","country_code":"CN"}},{"type":"Feature","geometry":{"type":"Point","coordinates":[120.4851,30.74536]},"properties":{"id":20245,"name":"Wuzhen","state_code":"ZJ","country_code":"CN"}},{"type":"Feature","geometry":{"type":"Point","coordinates":[121.864941,29.4798365]},"properties":{"id":159466,"name":"Xiangshan","state_code":"ZJ","country_code":"CN"}},{"type":"Feature","geometry":{"type":"Point","coordinates":[120.73168,28.8547]},"properties":{"id":20260,"name":"Xianju","state_code":"ZJ","country_code":"CN"}},{"type":"Feature","geometry":{"type":"Point","coordinates":[120.7251018,28.8499577]},"properties":{"id":159524,"name":"Xianju","state_code":"ZJ","country_code":"CN"}},{"type":"Feature","geometry":{"type":"Point","coordinates":[120.25883,30.16746]},"properties":{"id":20274,"name":"Xiaoshan","state_code":"ZJ","country_code":"CN"}},{"type":"Feature","geometry":{"type":"Point","coordinates":[120.2597528,30.1861821]},"properties":{"id":159451,"name":"Xiaoshan","state_code":"ZJ","country_code":"CN"}},{"type":"Feature","geometry":{"type":"Point","coordinates":[120.1256628,30.2616958]},"properties":{"id":159449,"name":"Xihu","state_code":"ZJ","country_code":"CN"}},{"type":"Feature","geometry":{"type":"Point","coordinates":[120.8986631,29.5031469]},"properties":{"id":159497,"name":"Xinchang","state_code":"ZJ","country_code":"CN"}},{"type":"Feature","geometry":{"type":"Point","coordinates":[120.704931,30.7668311]},"properties":{"id":159483,"name":"Xiuzhou","state_code":"ZJ","country_code":"CN"}},{"type":"Feature","geometry":{"type":"Point","coordinates":[121.5452899,29.8155706]},"properties":{"id":159464,"name":"Yinzhou","state_code":"ZJ","country_code":"CN"}},{"type":"Feature","geometry":{"type":"Point","coordinates":[120.07676,29.31506]},"properties":{"id":20383,"name":"Yiwu","state_code":"ZJ","country_code":"CN"}},{"type":"Feature","geometry":{"type":"Point","coordinates":[120.0703805,29.3093002]},"properties":{"id":159506,"name":"Yiwu","state_code":"ZJ","country_code":"CN"}},{"type":"Feature","geometry":{"type":"Point","coordinates":[120.6879204,28.156278]},"properties":{"id":159474,"name":"Yongjia","state_code":"ZJ","country_code":"CN"}},{"type":"Feature","geometry":{"type":"Point","coordinates":[120.0427838,28.8918967]},"properties":{"id":159508,"name":"Yongkang","state_code":"ZJ","country_code":"CN"}},{"type":"Feature","geometry":{"type":"Point","coordinates":[120.6126616,29.9833038]},"properties":{"id":159494,"name":"Yuecheng","state_code":"ZJ","country_code":"CN"}},{"type":"Feature","geometry":{"type":"Point","coordinates":[120.9795761,28.1178498]},"properties":{"id":159480,"name":"Yueqing","state_code":"ZJ","country_code":"CN"}},{"type":"Feature","geometry":{"type":"Point","coordinates":[119.9746471,30.2762431]},"properties":{"id":159452,"name":"Yuhang","state_code":"ZJ","country_code":"CN"}},{"type":"Feature","geometry":{"type":"Point","coordinates":[121.2276288,28.1395469]},"properties":{"id":159527,"name":"Yuhuan","state_code":"ZJ","country_code":"CN"}},{"type":"Feature","geometry":{"type":"Point","coordinates":[119.5684002,28.1185318]},"properties":{"id":159533,"name":"Yunhe","state_code":"ZJ","country_code":"CN"}},{"type":"Feature","geometry":{"type":"Point","coordinates":[121.14944,30.05]},"properties":{"id":20411,"name":"Yuyao","state_code":"ZJ","country_code":"CN"}},{"type":"Feature","geometry":{"type":"Point","coordinates":[121.1500882,30.0403094]},"properties":{"id":159468,"name":"Yuyao","state_code":"ZJ","country_code":"CN"}},{"type":"Feature","geometry":{"type":"Point","coordinates":[121.68753,29.9695]},"properties":{"id":20430,"name":"Zhaobaoshan","state_code":"ZJ","country_code":"CN"}},{"type":"Feature","geometry":{"type":"Point","coordinates":[121.5925117,29.9673857]},"properties":{"id":159463,"name":"Zhenhai","state_code":"ZJ","country_code":"CN"}},{"type":"Feature","geometry":{"type":"Point","coordinates":[119.90851,31.00751]},"properties":{"id":20444,"name":"Zhicheng","state_code":"ZJ","country_code":"CN"}},{"type":"Feature","geometry":{"type":"Point","coordinates":[122.2030363,29.9873344]},"properties":{"id":20461,"name":"Zhoushan","state_code":"ZJ","country_code":"CN"}},{"type":"Feature","geometry":{"type":"Point","coordinates":[120.24233,29.71877]},"properties":{"id":20467,"name":"Zhuji","state_code":"ZJ","country_code":"CN"}},{"type":"Feature","geometry":{"type":"Point","coordinates":[120.2419855,29.7112121]},"properties":{"id":159498,"name":"Zhuji","state_code":"ZJ","country_code":"CN"}}]}