{"type":"FeatureCollection","features":[{"type":"Feature","geometry":{"type":"Point","coordinates":[-76.85482,1.91472]},"properties":{"id":20506,"name":"Almaguer","state_code":"CAU","country_code":"CO"}},{"type":"Feature","geometry":{"type":"Point","coordinates":[-77.257,2.31728]},"properties":{"id":20545,"name":"Argelia","state_code":"CAU","country_code":"CO"}},{"type":"Feature","geometry":{"type":"Point","coordinates":[-77.20781,2.08436]},"properties":{"id":20562,"name":"Balboa","state_code":"CAU","country_code":"CO"}},{"type":"Feature","geometry":{"type":"Point","coordinates":[-76.98292,1.8467]},"properties":{"id":20599,"name":"Bolívar","state_code":"CAU","country_code":"CO"}},{"type":"Feature","geometry":{"type":"Point","coordinates":[-76.63066,3.04825]},"properties":{"id":20610,"name":"Buenos Aires","state_code":"CAU","country_code":"CO"}},{"type":"Feature","geometry":{"type":"Point","coordinates":[-76.57039,2.62271]},"properties":{"id":20625,"name":"Cajibío","state_code":"CAU","country_code":"CO"}},{"type":"Feature","geometry":{"type":"Point","coordinates":[-76.48316,2.79739]},"properties":{"id":20633,"name":"Caldono","state_code":"CAU","country_code":"CO"}},{"type":"Feature","geometry":{"type":"Point","coordinates":[-76.40788,3.03586]},"properties":{"id":20637,"name":"Caloto","state_code":"CAU","country_code":"CO"}},{"type":"Feature","geometry":{"type":"Point","coordinates":[-76.20646,3.13598]},"properties":{"id":20737,"name":"Corinto","state_code":"CAU","country_code":"CO"}},{"type":"Feature","geometry":{"type":"Point","coordinates":[-76.81029,2.45199]},"properties":{"id":20831,"name":"El Tambo","state_code":"CAU","country_code":"CO"}},{"type":"Feature","geometry":{"type":"Point","coordinates":[-77.07331,1.68318]},"properties":{"id":20848,"name":"Florencia","state_code":"CAU","country_code":"CO"}},{"type":"Feature","geometry":{"type":"Point","coordinates":[-76.39255555,3.13361111]},"properties":{"id":149241,"name":"Guachené","state_code":"CAU","country_code":"CO"}},{"type":"Feature","geometry":{"type":"Point","coordinates":[-77.87865,2.5521]},"properties":{"id":20909,"name":"Guapi","state_code":"CAU","country_code":"CO"}},{"type":"Feature","geometry":{"type":"Point","coordinates":[-76.06722,2.55452]},"properties":{"id":20948,"name":"Inzá","state_code":"CAU","country_code":"CO"}},{"type":"Feature","geometry":{"type":"Point","coordinates":[-76.32506,2.85065]},"properties":{"id":20957,"name":"Jambaló","state_code":"CAU","country_code":"CO"}},{"type":"Feature","geometry":{"type":"Point","coordinates":[-76.7859,2.19665]},"properties":{"id":21003,"name":"La Sierra","state_code":"CAU","country_code":"CO"}},{"type":"Feature","geometry":{"type":"Point","coordinates":[-76.76808,2.06201]},"properties":{"id":21011,"name":"La Vega","state_code":"CAU","country_code":"CO"}},{"type":"Feature","geometry":{"type":"Point","coordinates":[-77.25,3]},"properties":{"id":21041,"name":"López de Micay","state_code":"CAU","country_code":"CO"}},{"type":"Feature","geometry":{"type":"Point","coordinates":[-77.17032,1.80175]},"properties":{"id":21080,"name":"Mercaderes","state_code":"CAU","country_code":"CO"}},{"type":"Feature","geometry":{"type":"Point","coordinates":[-76.22093,3.23773]},"properties":{"id":21085,"name":"Miranda","state_code":"CAU","country_code":"CO"}},{"type":"Feature","geometry":{"type":"Point","coordinates":[-76.62791,2.75446]},"properties":{"id":21103,"name":"Morales","state_code":"CAU","country_code":"CO"}},{"type":"Feature","geometry":{"type":"Point","coordinates":[-76.31385,3.22038]},"properties":{"id":21161,"name":"Padilla","state_code":"CAU","country_code":"CO"}},{"type":"Feature","geometry":{"type":"Point","coordinates":[-75.97269,2.64644]},"properties":{"id":21163,"name":"Páez","state_code":"CAU","country_code":"CO"}},{"type":"Feature","geometry":{"type":"Point","coordinates":[-77.01744,2.14018]},"properties":{"id":21185,"name":"Patía","state_code":"CAU","country_code":"CO"}},{"type":"Feature","geometry":{"type":"Point","coordinates":[-76.32611111,1.11583333]},"properties":{"id":149245,"name":"Piamonte","state_code":"CAU","country_code":"CO"}},{"type":"Feature","geometry":{"type":"Point","coordinates":[-76.53055,2.63918]},"properties":{"id":21202,"name":"Piendamo","state_code":"CAU","country_code":"CO"}},{"type":"Feature","geometry":{"type":"Point","coordinates":[-76.61316,2.43823]},"properties":{"id":21219,"name":"Popayán","state_code":"CAU","country_code":"CO"}},{"type":"Feature","geometry":{"type":"Point","coordinates":[-76.41935,3.23393]},"properties":{"id":21257,"name":"Puerto Tejada","state_code":"CAU","country_code":"CO"}},{"type":"Feature","geometry":{"type":"Point","coordinates":[-76.38759,2.33851]},"properties":{"id":21263,"name":"Puracé","state_code":"CAU","country_code":"CO"}},{"type":"Feature","geometry":{"type":"Point","coordinates":[-76.73986,2.26093]},"properties":{"id":21301,"name":"Rosas","state_code":"CAU","country_code":"CO"}},{"type":"Feature","geometry":{"type":"Point","coordinates":[-76.66667,1.91667]},"properties":{"id":21404,"name":"San Sebastián","state_code":"CAU","country_code":"CO"}},{"type":"Feature","geometry":{"type":"Point","coordinates":[-76.57277888,1.70055666]},"properties":{"id":149250,"name":"Santa Rosa","state_code":"CAU","country_code":"CO"}},{"type":"Feature","geometry":{"type":"Point","coordinates":[-76.48494,3.00945]},"properties":{"id":21434,"name":"Santander de Quilichao","state_code":"CAU","country_code":"CO"}},{"type":"Feature","geometry":{"type":"Point","coordinates":[-76.38261,2.61557]},"properties":{"id":21457,"name":"Silvia","state_code":"CAU","country_code":"CO"}},{"type":"Feature","geometry":{"type":"Point","coordinates":[-76.58333,2.25]},"properties":{"id":21482,"name":"Sotará","state_code":"CAU","country_code":"CO"}},{"type":"Feature","geometry":{"type":"Point","coordinates":[-76.69644,2.95395]},"properties":{"id":21499,"name":"Suárez","state_code":"CAU","country_code":"CO"}},{"type":"Feature","geometry":{"type":"Point","coordinates":[-76.91438,2.06182]},"properties":{"id":21489,"name":"Sucre","state_code":"CAU","country_code":"CO"}},{"type":"Feature","geometry":{"type":"Point","coordinates":[-76.68194444,2.35277888]},"properties":{"id":149257,"name":"Timbío","state_code":"CAU","country_code":"CO"}},{"type":"Feature","geometry":{"type":"Point","coordinates":[-77.66536,2.7717]},"properties":{"id":21528,"name":"Timbiquí","state_code":"CAU","country_code":"CO"}},{"type":"Feature","geometry":{"type":"Point","coordinates":[-76.16667,3]},"properties":{"id":21542,"name":"Toribio","state_code":"CAU","country_code":"CO"}},{"type":"Feature","geometry":{"type":"Point","coordinates":[-76.39254,2.50518]},"properties":{"id":21546,"name":"Totoró","state_code":"CAU","country_code":"CO"}},{"type":"Feature","geometry":{"type":"Point","coordinates":[-76.84939,2.5142]},"properties":{"id":21597,"name":"Villa Rica","state_code":"CAU","country_code":"CO"}}]}