{"type":"FeatureCollection","features":[{"type":"Feature","geometry":{"type":"Point","coordinates":[-77.70103,0.88283]},"properties":{"id":20503,"name":"Aldana","state_code":"NAR","country_code":"CO"}},{"type":"Feature","geometry":{"type":"Point","coordinates":[-77.51376,1.2633]},"properties":{"id":20517,"name":"Ancuya","state_code":"NAR","country_code":"CO"}},{"type":"Feature","geometry":{"type":"Point","coordinates":[-77.13613,1.4983]},"properties":{"id":20539,"name":"Arboleda","state_code":"NAR","country_code":"CO"}},{"type":"Feature","geometry":{"type":"Point","coordinates":[-78.13978,1.67154]},"properties":{"id":20565,"name":"Barbacoas","state_code":"NAR","country_code":"CO"}},{"type":"Feature","geometry":{"type":"Point","coordinates":[-77.05408,1.59477]},"properties":{"id":20582,"name":"Belén","state_code":"NAR","country_code":"CO"}},{"type":"Feature","geometry":{"type":"Point","coordinates":[-77.15622,1.38364]},"properties":{"id":20611,"name":"Buesaco","state_code":"NAR","country_code":"CO"}},{"type":"Feature","geometry":{"type":"Point","coordinates":[-77.28367,1.35943]},"properties":{"id":20674,"name":"Chachagüí","state_code":"NAR","country_code":"CO"}},{"type":"Feature","geometry":{"type":"Point","coordinates":[-77.02927,1.6285]},"properties":{"id":20722,"name":"Colón","state_code":"NAR","country_code":"CO"}},{"type":"Feature","geometry":{"type":"Point","coordinates":[-77.46323,1.20841]},"properties":{"id":20730,"name":"Consaca","state_code":"NAR","country_code":"CO"}},{"type":"Feature","geometry":{"type":"Point","coordinates":[-77.53333,0.93072]},"properties":{"id":20732,"name":"Contadero","state_code":"NAR","country_code":"CO"}},{"type":"Feature","geometry":{"type":"Point","coordinates":[-77.51817,0.85362]},"properties":{"id":20769,"name":"Córdoba","state_code":"NAR","country_code":"CO"}},{"type":"Feature","geometry":{"type":"Point","coordinates":[-77.7364,0.8757]},"properties":{"id":20748,"name":"Cuaspud","state_code":"NAR","country_code":"CO"}},{"type":"Feature","geometry":{"type":"Point","coordinates":[-77.79145,0.90875]},"properties":{"id":20756,"name":"Cumbal","state_code":"NAR","country_code":"CO"}},{"type":"Feature","geometry":{"type":"Point","coordinates":[-77.57819,1.64786]},"properties":{"id":20757,"name":"Cumbitara","state_code":"NAR","country_code":"CO"}},{"type":"Feature","geometry":{"type":"Point","coordinates":[-78.10972,2.47926]},"properties":{"id":20801,"name":"El Charco","state_code":"NAR","country_code":"CO"}},{"type":"Feature","geometry":{"type":"Point","coordinates":[-77.44017,1.45365]},"properties":{"id":20816,"name":"El Peñol","state_code":"NAR","country_code":"CO"}},{"type":"Feature","geometry":{"type":"Point","coordinates":[-77.4062,1.84593]},"properties":{"id":20827,"name":"El Rosario","state_code":"NAR","country_code":"CO"}},{"type":"Feature","geometry":{"type":"Point","coordinates":[-77.09693,1.42717]},"properties":{"id":20829,"name":"El Tablón de Gómez","state_code":"NAR","country_code":"CO"}},{"type":"Feature","geometry":{"type":"Point","coordinates":[-77.38326,1.43049]},"properties":{"id":20832,"name":"El Tambo","state_code":"NAR","country_code":"CO"}},{"type":"Feature","geometry":{"type":"Point","coordinates":[-78.65877,2.0406]},"properties":{"id":20858,"name":"Francisco Pizarro","state_code":"NAR","country_code":"CO"}},{"type":"Feature","geometry":{"type":"Point","coordinates":[-77.44918,1.00075]},"properties":{"id":20865,"name":"Funes","state_code":"NAR","country_code":"CO"}},{"type":"Feature","geometry":{"type":"Point","coordinates":[-77.73161,0.96093]},"properties":{"id":20899,"name":"Guachucal","state_code":"NAR","country_code":"CO"}},{"type":"Feature","geometry":{"type":"Point","coordinates":[-77.54815,1.13103]},"properties":{"id":20904,"name":"Guaitarilla","state_code":"NAR","country_code":"CO"}},{"type":"Feature","geometry":{"type":"Point","coordinates":[-77.56738,0.91992]},"properties":{"id":20905,"name":"Gualmatán","state_code":"NAR","country_code":"CO"}},{"type":"Feature","geometry":{"type":"Point","coordinates":[-77.52146,0.9704]},"properties":{"id":20946,"name":"Iles","state_code":"NAR","country_code":"CO"}},{"type":"Feature","geometry":{"type":"Point","coordinates":[-77.49669,1.05516]},"properties":{"id":20947,"name":"Imués","state_code":"NAR","country_code":"CO"}},{"type":"Feature","geometry":{"type":"Point","coordinates":[-77.63966,0.82501]},"properties":{"id":20950,"name":"Ipiales","state_code":"NAR","country_code":"CO"}},{"type":"Feature","geometry":{"type":"Point","coordinates":[-76.9713,1.60221]},"properties":{"id":20978,"name":"La Cruz","state_code":"NAR","country_code":"CO"}},{"type":"Feature","geometry":{"type":"Point","coordinates":[-77.41271,1.35693]},"properties":{"id":20984,"name":"La Florida","state_code":"NAR","country_code":"CO"}},{"type":"Feature","geometry":{"type":"Point","coordinates":[-77.58024,1.4731]},"properties":{"id":20989,"name":"La Llanada","state_code":"NAR","country_code":"CO"}},{"type":"Feature","geometry":{"type":"Point","coordinates":[-78.18923,2.39949]},"properties":{"id":21005,"name":"La Tola","state_code":"NAR","country_code":"CO"}},{"type":"Feature","geometry":{"type":"Point","coordinates":[-77.13152,1.6045]},"properties":{"id":21008,"name":"La Unión","state_code":"NAR","country_code":"CO"}},{"type":"Feature","geometry":{"type":"Point","coordinates":[-77.30634,1.93497]},"properties":{"id":21024,"name":"Leiva","state_code":"NAR","country_code":"CO"}},{"type":"Feature","geometry":{"type":"Point","coordinates":[-77.52339,1.35078]},"properties":{"id":21029,"name":"Linares","state_code":"NAR","country_code":"CO"}},{"type":"Feature","geometry":{"type":"Point","coordinates":[-77.52136,1.49474]},"properties":{"id":21032,"name":"Los Andes","state_code":"NAR","country_code":"CO"}},{"type":"Feature","geometry":{"type":"Point","coordinates":[-78.18326,1.76645]},"properties":{"id":21189,"name":"Magüí Payán","state_code":"NAR","country_code":"CO"}},{"type":"Feature","geometry":{"type":"Point","coordinates":[-77.86479,1.14109]},"properties":{"id":21054,"name":"Mallama","state_code":"NAR","country_code":"CO"}},{"type":"Feature","geometry":{"type":"Point","coordinates":[-78.44307,2.49139]},"properties":{"id":21108,"name":"Mosquera","state_code":"NAR","country_code":"CO"}},{"type":"Feature","geometry":{"type":"Point","coordinates":[-77.35721,1.28995]},"properties":{"id":21125,"name":"Nariño","state_code":"NAR","country_code":"CO"}},{"type":"Feature","geometry":{"type":"Point","coordinates":[-77.49085,1.24803]},"properties":{"id":21150,"name":"Olaya Herrera","state_code":"NAR","country_code":"CO"}},{"type":"Feature","geometry":{"type":"Point","coordinates":[-77.55252,1.02962]},"properties":{"id":21155,"name":"Ospina","state_code":"NAR","country_code":"CO"}},{"type":"Feature","geometry":{"type":"Point","coordinates":[-77.27865,1.21467]},"properties":{"id":21184,"name":"Pasto","state_code":"NAR","country_code":"CO"}},{"type":"Feature","geometry":{"type":"Point","coordinates":[-77.45956,1.62843]},"properties":{"id":21216,"name":"Policarpa","state_code":"NAR","country_code":"CO"}},{"type":"Feature","geometry":{"type":"Point","coordinates":[-77.57216,0.80739]},"properties":{"id":21221,"name":"Potosí","state_code":"NAR","country_code":"CO"}},{"type":"Feature","geometry":{"type":"Point","coordinates":[-77.59755555,1.23888999]},"properties":{"id":149246,"name":"Providencia","state_code":"NAR","country_code":"CO"}},{"type":"Feature","geometry":{"type":"Point","coordinates":[-77.26661,1.19374]},"properties":{"id":21230,"name":"Puerres","state_code":"NAR","country_code":"CO"}},{"type":"Feature","geometry":{"type":"Point","coordinates":[-77.64027,0.87136]},"properties":{"id":21262,"name":"Pupiales","state_code":"NAR","country_code":"CO"}},{"type":"Feature","geometry":{"type":"Point","coordinates":[-77.99801,1.21474]},"properties":{"id":21288,"name":"Ricaurte","state_code":"NAR","country_code":"CO"}},{"type":"Feature","geometry":{"type":"Point","coordinates":[-78.38191,1.91757]},"properties":{"id":21297,"name":"Roberto Payán","state_code":"NAR","country_code":"CO"}},{"type":"Feature","geometry":{"type":"Point","coordinates":[-77.5957,1.33849]},"properties":{"id":21325,"name":"Samaniego","state_code":"NAR","country_code":"CO"}},{"type":"Feature","geometry":{"type":"Point","coordinates":[-77.04679,1.51525]},"properties":{"id":21341,"name":"San Bernardo","state_code":"NAR","country_code":"CO"}},{"type":"Feature","geometry":{"type":"Point","coordinates":[-77.08083333,1.47388999]},"properties":{"id":21365,"name":"San José de Albán","state_code":"NAR","country_code":"CO"}},{"type":"Feature","geometry":{"type":"Point","coordinates":[-77.24599,1.55731]},"properties":{"id":21378,"name":"San Lorenzo","state_code":"NAR","country_code":"CO"}},{"type":"Feature","geometry":{"type":"Point","coordinates":[-77.01389,1.6725]},"properties":{"id":21392,"name":"San Pablo","state_code":"NAR","country_code":"CO"}},{"type":"Feature","geometry":{"type":"Point","coordinates":[-77.11948,1.55151]},"properties":{"id":21398,"name":"San Pedro de Cartago","state_code":"NAR","country_code":"CO"}},{"type":"Feature","geometry":{"type":"Point","coordinates":[-77.46921,1.28626]},"properties":{"id":21410,"name":"Sandoná","state_code":"NAR","country_code":"CO"}},{"type":"Feature","geometry":{"type":"Point","coordinates":[-77.91487,2.30185]},"properties":{"id":21413,"name":"Santa Bárbara","state_code":"NAR","country_code":"CO"}},{"type":"Feature","geometry":{"type":"Point","coordinates":[-77.26206,1.5209]},"properties":{"id":21431,"name":"Santacruz","state_code":"NAR","country_code":"CO"}},{"type":"Feature","geometry":{"type":"Point","coordinates":[-77.62094,1.03728]},"properties":{"id":21443,"name":"Sapuyes","state_code":"NAR","country_code":"CO"}},{"type":"Feature","geometry":{"type":"Point","coordinates":[-77.28043,1.57032]},"properties":{"id":21509,"name":"Taminango","state_code":"NAR","country_code":"CO"}},{"type":"Feature","geometry":{"type":"Point","coordinates":[-77.38645,1.09189]},"properties":{"id":21510,"name":"Tangua","state_code":"NAR","country_code":"CO"}},{"type":"Feature","geometry":{"type":"Point","coordinates":[-78.79275,1.79112]},"properties":{"id":21552,"name":"Tumaco","state_code":"NAR","country_code":"CO"}},{"type":"Feature","geometry":{"type":"Point","coordinates":[-77.61858,1.08647]},"properties":{"id":21564,"name":"Túquerres","state_code":"NAR","country_code":"CO"}},{"type":"Feature","geometry":{"type":"Point","coordinates":[-77.40169,1.11577]},"properties":{"id":21620,"name":"Yacuanquer","state_code":"NAR","country_code":"CO"}}]}