{"type":"FeatureCollection","features":[{"type":"Feature","geometry":{"type":"Point","coordinates":[-75.70438,4.53307]},"properties":{"id":20550,"name":"Armenia","state_code":"QUI","country_code":"CO"}},{"type":"Feature","geometry":{"type":"Point","coordinates":[-75.73888,4.35969]},"properties":{"id":20607,"name":"Buenavista","state_code":"QUI","country_code":"CO"}},{"type":"Feature","geometry":{"type":"Point","coordinates":[-75.63333,4.5]},"properties":{"id":20629,"name":"Calarca","state_code":"QUI","country_code":"CO"}},{"type":"Feature","geometry":{"type":"Point","coordinates":[-75.68536,4.5994]},"properties":{"id":20709,"name":"Circasia","state_code":"QUI","country_code":"CO"}},{"type":"Feature","geometry":{"type":"Point","coordinates":[-75.66685,4.38055]},"properties":{"id":20771,"name":"Córdoba","state_code":"QUI","country_code":"CO"}},{"type":"Feature","geometry":{"type":"Point","coordinates":[-75.67142,4.67525]},"properties":{"id":20845,"name":"Filandia","state_code":"QUI","country_code":"CO"}},{"type":"Feature","geometry":{"type":"Point","coordinates":[-75.7548,4.22743]},"properties":{"id":20930,"name":"Génova","state_code":"QUI","country_code":"CO"}},{"type":"Feature","geometry":{"type":"Point","coordinates":[-75.81476,4.43353]},"properties":{"id":21004,"name":"La Tebaida","state_code":"QUI","country_code":"CO"}},{"type":"Feature","geometry":{"type":"Point","coordinates":[-75.82265,4.52676]},"properties":{"id":21100,"name":"Montenegro","state_code":"QUI","country_code":"CO"}},{"type":"Feature","geometry":{"type":"Point","coordinates":[-75.70463,4.3335]},"properties":{"id":21204,"name":"Pijao","state_code":"QUI","country_code":"CO"}},{"type":"Feature","geometry":{"type":"Point","coordinates":[-75.83758,4.59342]},"properties":{"id":21273,"name":"Quimbaya","state_code":"QUI","country_code":"CO"}},{"type":"Feature","geometry":{"type":"Point","coordinates":[-75.5674,4.63643]},"properties":{"id":21322,"name":"Salento","state_code":"QUI","country_code":"CO"}}]}