{"type":"FeatureCollection","features":[{"type":"Feature","geometry":{"type":"Point","coordinates":[-69.79897,4.44552]},"properties":{"id":20755,"name":"Cumaribo","state_code":"VID","country_code":"CO"}},{"type":"Feature","geometry":{"type":"Point","coordinates":[-70.40917,5.49056]},"properties":{"id":21002,"name":"La Primavera","state_code":"VID","country_code":"CO"}},{"type":"Feature","geometry":{"type":"Point","coordinates":[-67.48588,6.18903]},"properties":{"id":21237,"name":"Puerto Carreño","state_code":"VID","country_code":"CO"}},{"type":"Feature","geometry":{"type":"Point","coordinates":[-70.86233,5.13356]},"properties":{"id":21428,"name":"Santa Rosalia","state_code":"VID","country_code":"CO"}}]}