{"type":"FeatureCollection","features":[{"type":"Feature","geometry":{"type":"Point","coordinates":[-84.2,9.8]},"properties":{"id":21642,"name":"Acosta","state_code":"SJ","country_code":"CR"}},{"type":"Feature","geometry":{"type":"Point","coordinates":[-84.1,9.9]},"properties":{"id":21644,"name":"Alajuelita","state_code":"SJ","country_code":"CR"}},{"type":"Feature","geometry":{"type":"Point","coordinates":[-84.1,9.86667]},"properties":{"id":21646,"name":"Aserrí","state_code":"SJ","country_code":"CR"}},{"type":"Feature","geometry":{"type":"Point","coordinates":[-84.06667,9.95]},"properties":{"id":21655,"name":"Calle Blancos","state_code":"SJ","country_code":"CR"}},{"type":"Feature","geometry":{"type":"Point","coordinates":[-84.08503,9.95091]},"properties":{"id":21663,"name":"Colima","state_code":"SJ","country_code":"CR"}},{"type":"Feature","geometry":{"type":"Point","coordinates":[-84.2417,9.91491]},"properties":{"id":21664,"name":"Colón","state_code":"SJ","country_code":"CR"}},{"type":"Feature","geometry":{"type":"Point","coordinates":[-84.03333,9.91667]},"properties":{"id":21670,"name":"Curridabat","state_code":"SJ","country_code":"CR"}},{"type":"Feature","geometry":{"type":"Point","coordinates":[-83.6694,9.33554]},"properties":{"id":21671,"name":"Daniel Flores","state_code":"SJ","country_code":"CR"}},{"type":"Feature","geometry":{"type":"Point","coordinates":[-84.06667,9.9]},"properties":{"id":21673,"name":"Desamparados","state_code":"SJ","country_code":"CR"}},{"type":"Feature","geometry":{"type":"Point","coordinates":[-83.95,9.65]},"properties":{"id":21674,"name":"Dota","state_code":"SJ","country_code":"CR"}},{"type":"Feature","geometry":{"type":"Point","coordinates":[-84.13333,9.93333]},"properties":{"id":21676,"name":"Escazú","state_code":"SJ","country_code":"CR"}},{"type":"Feature","geometry":{"type":"Point","coordinates":[-84.06365,9.94848]},"properties":{"id":21682,"name":"Goicoechea","state_code":"SJ","country_code":"CR"}},{"type":"Feature","geometry":{"type":"Point","coordinates":[-84.01688,9.93491]},"properties":{"id":21684,"name":"Granadilla","state_code":"SJ","country_code":"CR"}},{"type":"Feature","geometry":{"type":"Point","coordinates":[-84.05665,9.94805]},"properties":{"id":21686,"name":"Guadalupe","state_code":"SJ","country_code":"CR"}},{"type":"Feature","geometry":{"type":"Point","coordinates":[-84.01326,9.96745]},"properties":{"id":21692,"name":"Ipís","state_code":"SJ","country_code":"CR"}},{"type":"Feature","geometry":{"type":"Point","coordinates":[-84.04781,9.683]},"properties":{"id":21701,"name":"León Cortés","state_code":"SJ","country_code":"CR"}},{"type":"Feature","geometry":{"type":"Point","coordinates":[-83.58202,9.2627]},"properties":{"id":21707,"name":"Mercedes","state_code":"SJ","country_code":"CR"}},{"type":"Feature","geometry":{"type":"Point","coordinates":[-84.03013,9.9396]},"properties":{"id":21710,"name":"Montes de Oca","state_code":"SJ","country_code":"CR"}},{"type":"Feature","geometry":{"type":"Point","coordinates":[-84.25,9.91667]},"properties":{"id":21712,"name":"Mora","state_code":"SJ","country_code":"CR"}},{"type":"Feature","geometry":{"type":"Point","coordinates":[-84,10.04]},"properties":{"id":21713,"name":"Moravia","state_code":"SJ","country_code":"CR"}},{"type":"Feature","geometry":{"type":"Point","coordinates":[-84.20478,9.83778]},"properties":{"id":21723,"name":"Palmichal","state_code":"SJ","country_code":"CR"}},{"type":"Feature","geometry":{"type":"Point","coordinates":[-84.03501,9.88071]},"properties":{"id":21727,"name":"Patarrá","state_code":"SJ","country_code":"CR"}},{"type":"Feature","geometry":{"type":"Point","coordinates":[-83.63484,9.35473]},"properties":{"id":21737,"name":"Pérez Zeledón","state_code":"SJ","country_code":"CR"}},{"type":"Feature","geometry":{"type":"Point","coordinates":[-84.41667,9.75]},"properties":{"id":21735,"name":"Puriscal","state_code":"SJ","country_code":"CR"}},{"type":"Feature","geometry":{"type":"Point","coordinates":[-84.0305,9.95808]},"properties":{"id":21736,"name":"Purral","state_code":"SJ","country_code":"CR"}},{"type":"Feature","geometry":{"type":"Point","coordinates":[-84.03927,9.94522]},"properties":{"id":21743,"name":"Sabanilla","state_code":"SJ","country_code":"CR"}},{"type":"Feature","geometry":{"type":"Point","coordinates":[-84.17835,9.91163]},"properties":{"id":21744,"name":"Salitral","state_code":"SJ","country_code":"CR"}},{"type":"Feature","geometry":{"type":"Point","coordinates":[-84.09062,9.85259]},"properties":{"id":21745,"name":"Salitrillos","state_code":"SJ","country_code":"CR"}},{"type":"Feature","geometry":{"type":"Point","coordinates":[-84.10551,9.90488]},"properties":{"id":21749,"name":"San Felipe","state_code":"SJ","country_code":"CR"}},{"type":"Feature","geometry":{"type":"Point","coordinates":[-84.16173,9.79853]},"properties":{"id":21751,"name":"San Ignacio","state_code":"SJ","country_code":"CR"}},{"type":"Feature","geometry":{"type":"Point","coordinates":[-83.69713,9.3674]},"properties":{"id":21752,"name":"San Isidro","state_code":"SJ","country_code":"CR"}},{"type":"Feature","geometry":{"type":"Point","coordinates":[-84.08333,9.93333]},"properties":{"id":21756,"name":"San José","state_code":"SJ","country_code":"CR"}},{"type":"Feature","geometry":{"type":"Point","coordinates":[-84.08165,9.95974]},"properties":{"id":21757,"name":"San Juan","state_code":"SJ","country_code":"CR"}},{"type":"Feature","geometry":{"type":"Point","coordinates":[-84.0847,9.8773]},"properties":{"id":21759,"name":"San Juan de Dios","state_code":"SJ","country_code":"CR"}},{"type":"Feature","geometry":{"type":"Point","coordinates":[-84.02026,9.6601]},"properties":{"id":21760,"name":"San Marcos","state_code":"SJ","country_code":"CR"}},{"type":"Feature","geometry":{"type":"Point","coordinates":[-84.06084,9.87121]},"properties":{"id":21762,"name":"San Miguel","state_code":"SJ","country_code":"CR"}},{"type":"Feature","geometry":{"type":"Point","coordinates":[-84.05074,9.92829]},"properties":{"id":21764,"name":"San Pedro","state_code":"SJ","country_code":"CR"}},{"type":"Feature","geometry":{"type":"Point","coordinates":[-84.13722,9.92787]},"properties":{"id":21765,"name":"San Rafael","state_code":"SJ","country_code":"CR"}},{"type":"Feature","geometry":{"type":"Point","coordinates":[-84.29008,9.831]},"properties":{"id":21768,"name":"San Rafael Abajo","state_code":"SJ","country_code":"CR"}},{"type":"Feature","geometry":{"type":"Point","coordinates":[-84.07661,9.87556]},"properties":{"id":21769,"name":"San Rafael Arriba","state_code":"SJ","country_code":"CR"}},{"type":"Feature","geometry":{"type":"Point","coordinates":[-84.04762,9.96016]},"properties":{"id":21771,"name":"San Vicente","state_code":"SJ","country_code":"CR"}},{"type":"Feature","geometry":{"type":"Point","coordinates":[-84.0488,9.96164]},"properties":{"id":21772,"name":"San Vicente de Moravia","state_code":"SJ","country_code":"CR"}},{"type":"Feature","geometry":{"type":"Point","coordinates":[-84.18255,9.9326]},"properties":{"id":21774,"name":"Santa Ana","state_code":"SJ","country_code":"CR"}},{"type":"Feature","geometry":{"type":"Point","coordinates":[-84.31428,9.84636]},"properties":{"id":21778,"name":"Santiago","state_code":"SJ","country_code":"CR"}},{"type":"Feature","geometry":{"type":"Point","coordinates":[-84.02138,9.65965]},"properties":{"id":21786,"name":"Tarrazú","state_code":"SJ","country_code":"CR"}},{"type":"Feature","geometry":{"type":"Point","coordinates":[-84.23368,9.74622]},"properties":{"id":21787,"name":"Tejar","state_code":"SJ","country_code":"CR"}},{"type":"Feature","geometry":{"type":"Point","coordinates":[-84.08333,9.96667]},"properties":{"id":21788,"name":"Tibás","state_code":"SJ","country_code":"CR"}},{"type":"Feature","geometry":{"type":"Point","coordinates":[-84.5,9.75]},"properties":{"id":21794,"name":"Turrubares","state_code":"SJ","country_code":"CR"}},{"type":"Feature","geometry":{"type":"Point","coordinates":[-84,10.06]},"properties":{"id":21797,"name":"Vázquez de Coronado","state_code":"SJ","country_code":"CR"}}]}