{"type":"FeatureCollection","features":[{"type":"Feature","geometry":{"type":"Point","coordinates":[-79.49726,22.07874]},"properties":{"id":21819,"name":"Cabaiguán","state_code":"07","country_code":"CU"}},{"type":"Feature","geometry":{"type":"Point","coordinates":[-79.84014,21.8767]},"properties":{"id":21839,"name":"Condado","state_code":"07","country_code":"CU"}},{"type":"Feature","geometry":{"type":"Point","coordinates":[-79.72141,22.10475]},"properties":{"id":21855,"name":"Fomento","state_code":"07","country_code":"CU"}},{"type":"Feature","geometry":{"type":"Point","coordinates":[-79.46106,22.04956]},"properties":{"id":21861,"name":"Guayos","state_code":"07","country_code":"CU"}},{"type":"Feature","geometry":{"type":"Point","coordinates":[-79.16906,21.94333]},"properties":{"id":21873,"name":"Jatibonico","state_code":"07","country_code":"CU"}},{"type":"Feature","geometry":{"type":"Point","coordinates":[-79.26832,21.77241]},"properties":{"id":21882,"name":"La Sierpe","state_code":"07","country_code":"CU"}},{"type":"Feature","geometry":{"type":"Point","coordinates":[-79.5,22.08333]},"properties":{"id":21908,"name":"Municipio de Cabaiguán","state_code":"07","country_code":"CU"}},{"type":"Feature","geometry":{"type":"Point","coordinates":[-79.16667,21.93333]},"properties":{"id":21919,"name":"Municipio de Jatibonico","state_code":"07","country_code":"CU"}},{"type":"Feature","geometry":{"type":"Point","coordinates":[-79.51036,21.82176]},"properties":{"id":21932,"name":"Municipio de Sancti Spíritus","state_code":"07","country_code":"CU"}},{"type":"Feature","geometry":{"type":"Point","coordinates":[-79.88362,21.83195]},"properties":{"id":21935,"name":"Municipio de Trinidad","state_code":"07","country_code":"CU"}},{"type":"Feature","geometry":{"type":"Point","coordinates":[-79.4425,21.92972]},"properties":{"id":21968,"name":"Sancti Spíritus","state_code":"07","country_code":"CU"}},{"type":"Feature","geometry":{"type":"Point","coordinates":[-80.01929,21.91524]},"properties":{"id":21977,"name":"Topes de Collantes","state_code":"07","country_code":"CU"}},{"type":"Feature","geometry":{"type":"Point","coordinates":[-79.98467,21.80224]},"properties":{"id":21978,"name":"Trinidad","state_code":"07","country_code":"CU"}},{"type":"Feature","geometry":{"type":"Point","coordinates":[-79.23567,22.32691]},"properties":{"id":21984,"name":"Yaguajay","state_code":"07","country_code":"CU"}},{"type":"Feature","geometry":{"type":"Point","coordinates":[-79.36678,21.99712]},"properties":{"id":21986,"name":"Zaza del Medio","state_code":"07","country_code":"CU"}}]}