{"type":"FeatureCollection","features":[{"type":"Feature","geometry":{"type":"Point","coordinates":[-77.91694,21.38083]},"properties":{"id":21825,"name":"Camagüey","state_code":"09","country_code":"CU"}},{"type":"Feature","geometry":{"type":"Point","coordinates":[-78.48333,21.3]},"properties":{"id":21848,"name":"El Caney","state_code":"09","country_code":"CU"}},{"type":"Feature","geometry":{"type":"Point","coordinates":[-78.11725,21.85139]},"properties":{"id":21851,"name":"Esmeralda","state_code":"09","country_code":"CU"}},{"type":"Feature","geometry":{"type":"Point","coordinates":[-78.22579,21.52536]},"properties":{"id":21854,"name":"Florida","state_code":"09","country_code":"CU"}},{"type":"Feature","geometry":{"type":"Point","coordinates":[-77.3499,21.05222]},"properties":{"id":21863,"name":"Guáimaro","state_code":"09","country_code":"CU"}},{"type":"Feature","geometry":{"type":"Point","coordinates":[-77.82625,21.24224]},"properties":{"id":21876,"name":"Jimaguayú","state_code":"09","country_code":"CU"}},{"type":"Feature","geometry":{"type":"Point","coordinates":[-77.61033,21.48802]},"properties":{"id":21899,"name":"Minas","state_code":"09","country_code":"CU"}},{"type":"Feature","geometry":{"type":"Point","coordinates":[-78.34848,21.46582]},"properties":{"id":21913,"name":"Municipio de Florida","state_code":"09","country_code":"CU"}},{"type":"Feature","geometry":{"type":"Point","coordinates":[-77.26667,21.55]},"properties":{"id":21928,"name":"Municipio de Nuevitas","state_code":"09","country_code":"CU"}},{"type":"Feature","geometry":{"type":"Point","coordinates":[-77.26504,21.54585]},"properties":{"id":21938,"name":"Nuevitas","state_code":"09","country_code":"CU"}},{"type":"Feature","geometry":{"type":"Point","coordinates":[-77.99816,20.71633]},"properties":{"id":21971,"name":"Santa Cruz del Sur","state_code":"09","country_code":"CU"}},{"type":"Feature","geometry":{"type":"Point","coordinates":[-77.52561,21.23631]},"properties":{"id":21975,"name":"Sibanicú","state_code":"09","country_code":"CU"}},{"type":"Feature","geometry":{"type":"Point","coordinates":[-78.14979,21.25817]},"properties":{"id":21982,"name":"Vertientes","state_code":"09","country_code":"CU"}}]}