{"type":"FeatureCollection","features":[{"type":"Feature","geometry":{"type":"Point","coordinates":[-77.57958,20.81914]},"properties":{"id":21805,"name":"Amancio","state_code":"10","country_code":"CU"}},{"type":"Feature","geometry":{"type":"Point","coordinates":[-77.42598,20.98812]},"properties":{"id":21837,"name":"Colombia","state_code":"10","country_code":"CU"}},{"type":"Feature","geometry":{"type":"Point","coordinates":[-76.47919,21.16139]},"properties":{"id":21874,"name":"Jesús Menéndez","state_code":"10","country_code":"CU"}},{"type":"Feature","geometry":{"type":"Point","coordinates":[-77.28194,20.90748]},"properties":{"id":21878,"name":"Jobabo","state_code":"10","country_code":"CU"}},{"type":"Feature","geometry":{"type":"Point","coordinates":[-76.95111,20.96167]},"properties":{"id":21884,"name":"Las Tunas","state_code":"10","country_code":"CU"}},{"type":"Feature","geometry":{"type":"Point","coordinates":[-76.93403,21.3107]},"properties":{"id":21890,"name":"Manatí","state_code":"10","country_code":"CU"}},{"type":"Feature","geometry":{"type":"Point","coordinates":[-76.60358,21.19517]},"properties":{"id":21947,"name":"Puerto Padre","state_code":"10","country_code":"CU"}}]}