{"type":"FeatureCollection","features":[{"type":"Feature","geometry":{"type":"Point","coordinates":[-23.64,15.08]},"properties":{"id":160036,"name":"Achada Leitão","state_code":"SS","country_code":"CV"}},{"type":"Feature","geometry":{"type":"Point","coordinates":[-23.645,15.075]},"properties":{"id":160038,"name":"Leitão Grande","state_code":"SS","country_code":"CV"}},{"type":"Feature","geometry":{"type":"Point","coordinates":[-23.632,15.083]},"properties":{"id":160035,"name":"Picos","state_code":"SS","country_code":"CV"}},{"type":"Feature","geometry":{"type":"Point","coordinates":[-23.63,15.09]},"properties":{"id":160037,"name":"Picos Acima","state_code":"SS","country_code":"CV"}}]}