{"type":"FeatureCollection","features":[{"type":"Feature","geometry":{"type":"Point","coordinates":[16.06437,50.13979]},"properties":{"id":22109,"name":"Albrechtice nad Orlicí","state_code":"52","country_code":"CZ"}},{"type":"Feature","geometry":{"type":"Point","coordinates":[15.74101,50.44465]},"properties":{"id":22198,"name":"Bílá Třemešná","state_code":"52","country_code":"CZ"}},{"type":"Feature","geometry":{"type":"Point","coordinates":[16.09326,50.09777]},"properties":{"id":22148,"name":"Borohrádek","state_code":"52","country_code":"CZ"}},{"type":"Feature","geometry":{"type":"Point","coordinates":[16.33181,50.58566]},"properties":{"id":22169,"name":"Broumov","state_code":"52","country_code":"CZ"}},{"type":"Feature","geometry":{"type":"Point","coordinates":[16.18128,50.1291]},"properties":{"id":23362,"name":"Častolovice","state_code":"52","country_code":"CZ"}},{"type":"Feature","geometry":{"type":"Point","coordinates":[15.92254,50.26265]},"properties":{"id":23370,"name":"Černilov","state_code":"52","country_code":"CZ"}},{"type":"Feature","geometry":{"type":"Point","coordinates":[15.87403,50.31863]},"properties":{"id":23374,"name":"Černožice","state_code":"52","country_code":"CZ"}},{"type":"Feature","geometry":{"type":"Point","coordinates":[16.09289,50.47626]},"properties":{"id":23381,"name":"Červený Kostelec","state_code":"52","country_code":"CZ"}},{"type":"Feature","geometry":{"type":"Point","coordinates":[16.04276,50.39467]},"properties":{"id":23385,"name":"Česká Skalice","state_code":"52","country_code":"CZ"}},{"type":"Feature","geometry":{"type":"Point","coordinates":[16.04428,50.2868]},"properties":{"id":23389,"name":"České Meziříčí","state_code":"52","country_code":"CZ"}},{"type":"Feature","geometry":{"type":"Point","coordinates":[15.46026,50.1544]},"properties":{"id":22221,"name":"Chlumec nad Cidlinou","state_code":"52","country_code":"CZ"}},{"type":"Feature","geometry":{"type":"Point","coordinates":[16.16001,50.29201]},"properties":{"id":22261,"name":"Dobruška","state_code":"52","country_code":"CZ"}},{"type":"Feature","geometry":{"type":"Point","coordinates":[15.96107,50.2611]},"properties":{"id":22298,"name":"Dolní Černilov","state_code":"52","country_code":"CZ"}},{"type":"Feature","geometry":{"type":"Point","coordinates":[16.26131,50.10742]},"properties":{"id":22306,"name":"Doudleby nad Orlicí","state_code":"52","country_code":"CZ"}},{"type":"Feature","geometry":{"type":"Point","coordinates":[15.81402,50.43172]},"properties":{"id":22319,"name":"Dvůr Králové nad Labem","state_code":"52","country_code":"CZ"}},{"type":"Feature","geometry":{"type":"Point","coordinates":[15.63183,50.36609]},"properties":{"id":22407,"name":"Hořice","state_code":"52","country_code":"CZ"}},{"type":"Feature","geometry":{"type":"Point","coordinates":[15.72334,50.54066]},"properties":{"id":22398,"name":"Hostinné","state_code":"52","country_code":"CZ"}},{"type":"Feature","geometry":{"type":"Point","coordinates":[15.83277,50.20923]},"properties":{"id":22412,"name":"Hradec Králové","state_code":"52","country_code":"CZ"}},{"type":"Feature","geometry":{"type":"Point","coordinates":[16.1823,50.47968]},"properties":{"id":22422,"name":"Hronov","state_code":"52","country_code":"CZ"}},{"type":"Feature","geometry":{"type":"Point","coordinates":[15.92136,50.3562]},"properties":{"id":22456,"name":"Jaroměř","state_code":"52","country_code":"CZ"}},{"type":"Feature","geometry":{"type":"Point","coordinates":[15.35162,50.43723]},"properties":{"id":22481,"name":"Jičín","state_code":"52","country_code":"CZ"}},{"type":"Feature","geometry":{"type":"Point","coordinates":[15.27029,50.33085]},"properties":{"id":22533,"name":"Kopidlno","state_code":"52","country_code":"CZ"}},{"type":"Feature","geometry":{"type":"Point","coordinates":[16.21319,50.12267]},"properties":{"id":22540,"name":"Kostelec nad Orlicí","state_code":"52","country_code":"CZ"}},{"type":"Feature","geometry":{"type":"Point","coordinates":[16.26323,50.2125]},"properties":{"id":22579,"name":"Kvasiny","state_code":"52","country_code":"CZ"}},{"type":"Feature","geometry":{"type":"Point","coordinates":[15.58269,50.42874]},"properties":{"id":22663,"name":"Lázně Bělohrad","state_code":"52","country_code":"CZ"}},{"type":"Feature","geometry":{"type":"Point","coordinates":[15.21684,50.37542]},"properties":{"id":22611,"name":"Libáň","state_code":"52","country_code":"CZ"}},{"type":"Feature","geometry":{"type":"Point","coordinates":[16.2769,50.49927]},"properties":{"id":22668,"name":"Machov","state_code":"52","country_code":"CZ"}},{"type":"Feature","geometry":{"type":"Point","coordinates":[16.04978,50.53395]},"properties":{"id":22673,"name":"Malé Svatoňovice","state_code":"52","country_code":"CZ"}},{"type":"Feature","geometry":{"type":"Point","coordinates":[16.24207,50.62461]},"properties":{"id":22684,"name":"Meziměstí","state_code":"52","country_code":"CZ"}},{"type":"Feature","geometry":{"type":"Point","coordinates":[15.83348,50.60643]},"properties":{"id":22703,"name":"Mladé Buky","state_code":"52","country_code":"CZ"}},{"type":"Feature","geometry":{"type":"Point","coordinates":[15.69622,50.48623]},"properties":{"id":22726,"name":"Mostek","state_code":"52","country_code":"CZ"}},{"type":"Feature","geometry":{"type":"Point","coordinates":[16.16289,50.4167]},"properties":{"id":22792,"name":"Náchod","state_code":"52","country_code":"CZ"}},{"type":"Feature","geometry":{"type":"Point","coordinates":[15.63276,50.23737]},"properties":{"id":22752,"name":"Nechanice","state_code":"52","country_code":"CZ"}},{"type":"Feature","geometry":{"type":"Point","coordinates":[15.51503,50.49449]},"properties":{"id":22774,"name":"Nová Paka","state_code":"52","country_code":"CZ"}},{"type":"Feature","geometry":{"type":"Point","coordinates":[16.15147,50.34456]},"properties":{"id":22779,"name":"Nové Město nad Metují","state_code":"52","country_code":"CZ"}},{"type":"Feature","geometry":{"type":"Point","coordinates":[15.49082,50.2415]},"properties":{"id":22786,"name":"Nový Bydžov","state_code":"52","country_code":"CZ"}},{"type":"Feature","geometry":{"type":"Point","coordinates":[15.66667,50.25]},"properties":{"id":22820,"name":"Okres Hradec Králové","state_code":"52","country_code":"CZ"}},{"type":"Feature","geometry":{"type":"Point","coordinates":[15.41667,50.41667]},"properties":{"id":22825,"name":"Okres Jičín","state_code":"52","country_code":"CZ"}},{"type":"Feature","geometry":{"type":"Point","coordinates":[16.16667,50.41667]},"properties":{"id":22841,"name":"Okres Náchod","state_code":"52","country_code":"CZ"}},{"type":"Feature","geometry":{"type":"Point","coordinates":[16.28333,50.23333]},"properties":{"id":22859,"name":"Okres Rychnov nad Kněžnou","state_code":"52","country_code":"CZ"}},{"type":"Feature","geometry":{"type":"Point","coordinates":[15.83333,50.58333]},"properties":{"id":22866,"name":"Okres Trutnov","state_code":"52","country_code":"CZ"}},{"type":"Feature","geometry":{"type":"Point","coordinates":[16.1148,50.26742]},"properties":{"id":22894,"name":"Opočno","state_code":"52","country_code":"CZ"}},{"type":"Feature","geometry":{"type":"Point","coordinates":[15.54949,50.37246]},"properties":{"id":22906,"name":"Ostroměř","state_code":"52","country_code":"CZ"}},{"type":"Feature","geometry":{"type":"Point","coordinates":[15.60822,50.48034]},"properties":{"id":22924,"name":"Pecka","state_code":"52","country_code":"CZ"}},{"type":"Feature","geometry":{"type":"Point","coordinates":[15.8202,50.53247]},"properties":{"id":22933,"name":"Pilníkov","state_code":"52","country_code":"CZ"}},{"type":"Feature","geometry":{"type":"Point","coordinates":[16.2335,50.53687]},"properties":{"id":22951,"name":"Police nad Metují","state_code":"52","country_code":"CZ"}},{"type":"Feature","geometry":{"type":"Point","coordinates":[15.81556,50.25633]},"properties":{"id":22998,"name":"Předměřice nad Labem","state_code":"52","country_code":"CZ"}},{"type":"Feature","geometry":{"type":"Point","coordinates":[16.10797,50.38711]},"properties":{"id":22983,"name":"Provodov-Šonov","state_code":"52","country_code":"CZ"}},{"type":"Feature","geometry":{"type":"Point","coordinates":[16.06172,50.56745]},"properties":{"id":23016,"name":"Radvanice","state_code":"52","country_code":"CZ"}},{"type":"Feature","geometry":{"type":"Point","coordinates":[16.46567,50.16473]},"properties":{"id":23031,"name":"Rokytnice v Orlických Horách","state_code":"52","country_code":"CZ"}},{"type":"Feature","geometry":{"type":"Point","coordinates":[16.07187,50.50523]},"properties":{"id":23045,"name":"Rtyně v Podkrkonoší","state_code":"52","country_code":"CZ"}},{"type":"Feature","geometry":{"type":"Point","coordinates":[15.73362,50.59517]},"properties":{"id":23048,"name":"Rudník","state_code":"52","country_code":"CZ"}},{"type":"Feature","geometry":{"type":"Point","coordinates":[16.27488,50.16284]},"properties":{"id":23053,"name":"Rychnov nad Kněžnou","state_code":"52","country_code":"CZ"}},{"type":"Feature","geometry":{"type":"Point","coordinates":[16.2923,50.22946]},"properties":{"id":23075,"name":"Skuhrov nad Bělou","state_code":"52","country_code":"CZ"}},{"type":"Feature","geometry":{"type":"Point","coordinates":[15.47725,50.29146]},"properties":{"id":23086,"name":"Smidary","state_code":"52","country_code":"CZ"}},{"type":"Feature","geometry":{"type":"Point","coordinates":[15.86508,50.29978]},"properties":{"id":23087,"name":"Smiřice","state_code":"52","country_code":"CZ"}},{"type":"Feature","geometry":{"type":"Point","coordinates":[15.17619,50.46741]},"properties":{"id":23090,"name":"Sobotka","state_code":"52","country_code":"CZ"}},{"type":"Feature","geometry":{"type":"Point","coordinates":[16.23762,50.20366]},"properties":{"id":23095,"name":"Solnice","state_code":"52","country_code":"CZ"}},{"type":"Feature","geometry":{"type":"Point","coordinates":[15.60944,50.72615]},"properties":{"id":23419,"name":"Špindlerův Mlýn","state_code":"52","country_code":"CZ"}},{"type":"Feature","geometry":{"type":"Point","coordinates":[15.49444,50.51032]},"properties":{"id":23101,"name":"Stará Paka","state_code":"52","country_code":"CZ"}},{"type":"Feature","geometry":{"type":"Point","coordinates":[15.61787,50.24298]},"properties":{"id":23109,"name":"Staré Nechanice","state_code":"52","country_code":"CZ"}},{"type":"Feature","geometry":{"type":"Point","coordinates":[15.74831,50.21572]},"properties":{"id":23136,"name":"Stěžery","state_code":"52","country_code":"CZ"}},{"type":"Feature","geometry":{"type":"Point","coordinates":[15.81648,50.62596]},"properties":{"id":23151,"name":"Svoboda nad Úpou","state_code":"52","country_code":"CZ"}},{"type":"Feature","geometry":{"type":"Point","coordinates":[16.17026,50.59332]},"properties":{"id":23161,"name":"Teplice nad Metují","state_code":"52","country_code":"CZ"}},{"type":"Feature","geometry":{"type":"Point","coordinates":[15.99223,50.20097]},"properties":{"id":23197,"name":"Třebechovice pod Orebem","state_code":"52","country_code":"CZ"}},{"type":"Feature","geometry":{"type":"Point","coordinates":[15.9127,50.56101]},"properties":{"id":23181,"name":"Trutnov","state_code":"52","country_code":"CZ"}},{"type":"Feature","geometry":{"type":"Point","coordinates":[16.0777,50.15136]},"properties":{"id":23194,"name":"Týniště nad Orlicí","state_code":"52","country_code":"CZ"}},{"type":"Feature","geometry":{"type":"Point","coordinates":[16.01607,50.51237]},"properties":{"id":23357,"name":"Úpice","state_code":"52","country_code":"CZ"}},{"type":"Feature","geometry":{"type":"Point","coordinates":[15.38488,50.45501]},"properties":{"id":23219,"name":"Valdice","state_code":"52","country_code":"CZ"}},{"type":"Feature","geometry":{"type":"Point","coordinates":[16.29067,50.11756]},"properties":{"id":23222,"name":"Vamberk","state_code":"52","country_code":"CZ"}},{"type":"Feature","geometry":{"type":"Point","coordinates":[16.18931,50.46177]},"properties":{"id":23248,"name":"Velké Poříčí","state_code":"52","country_code":"CZ"}},{"type":"Feature","geometry":{"type":"Point","coordinates":[16.02853,50.53164]},"properties":{"id":23250,"name":"Velké Svatoňovice","state_code":"52","country_code":"CZ"}},{"type":"Feature","geometry":{"type":"Point","coordinates":[15.60937,50.62697]},"properties":{"id":23300,"name":"Vrchlabí","state_code":"52","country_code":"CZ"}},{"type":"Feature","geometry":{"type":"Point","coordinates":[15.75983,50.2566]},"properties":{"id":23320,"name":"Všestary","state_code":"52","country_code":"CZ"}},{"type":"Feature","geometry":{"type":"Point","coordinates":[15.91063,50.66329]},"properties":{"id":23436,"name":"Žacléř","state_code":"52","country_code":"CZ"}},{"type":"Feature","geometry":{"type":"Point","coordinates":[15.69804,50.4967]},"properties":{"id":23323,"name":"Zadní Mostek","state_code":"52","country_code":"CZ"}},{"type":"Feature","geometry":{"type":"Point","coordinates":[15.38459,50.47274]},"properties":{"id":23443,"name":"Železnice","state_code":"52","country_code":"CZ"}}]}