{"type":"FeatureCollection","features":[{"type":"Feature","geometry":{"type":"Point","coordinates":[15.54816,50.66633]},"properties":{"id":22120,"name":"Benecko","state_code":"51","country_code":"CZ"}},{"type":"Feature","geometry":{"type":"Point","coordinates":[14.70338,50.72919]},"properties":{"id":22165,"name":"Brniště","state_code":"51","country_code":"CZ"}},{"type":"Feature","geometry":{"type":"Point","coordinates":[14.53764,50.68551]},"properties":{"id":23384,"name":"Česká Lípa","state_code":"51","country_code":"CZ"}},{"type":"Feature","geometry":{"type":"Point","coordinates":[14.99617,50.66054]},"properties":{"id":23392,"name":"Český Dub","state_code":"51","country_code":"CZ"}},{"type":"Feature","geometry":{"type":"Point","coordinates":[14.96884,50.81693]},"properties":{"id":22232,"name":"Chrastava","state_code":"51","country_code":"CZ"}},{"type":"Feature","geometry":{"type":"Point","coordinates":[14.63298,50.77668]},"properties":{"id":22245,"name":"Cvikov","state_code":"51","country_code":"CZ"}},{"type":"Feature","geometry":{"type":"Point","coordinates":[15.30284,50.75987]},"properties":{"id":22254,"name":"Desná","state_code":"51","country_code":"CZ"}},{"type":"Feature","geometry":{"type":"Point","coordinates":[14.65553,50.56471]},"properties":{"id":22269,"name":"Doksy","state_code":"51","country_code":"CZ"}},{"type":"Feature","geometry":{"type":"Point","coordinates":[14.54023,50.54034]},"properties":{"id":22314,"name":"Dubá","state_code":"51","country_code":"CZ"}},{"type":"Feature","geometry":{"type":"Point","coordinates":[15.07974,50.92139]},"properties":{"id":22332,"name":"Frýdlant","state_code":"51","country_code":"CZ"}},{"type":"Feature","geometry":{"type":"Point","coordinates":[15.43141,50.77209]},"properties":{"id":22342,"name":"Harrachov","state_code":"51","country_code":"CZ"}},{"type":"Feature","geometry":{"type":"Point","coordinates":[15.18168,50.8772]},"properties":{"id":22348,"name":"Hejnice","state_code":"51","country_code":"CZ"}},{"type":"Feature","geometry":{"type":"Point","coordinates":[15.08985,50.66586]},"properties":{"id":22362,"name":"Hodkovice nad Mohelkou","state_code":"51","country_code":"CZ"}},{"type":"Feature","geometry":{"type":"Point","coordinates":[15.57146,50.60826]},"properties":{"id":22377,"name":"Horní Branná","state_code":"51","country_code":"CZ"}},{"type":"Feature","geometry":{"type":"Point","coordinates":[14.84455,50.85279]},"properties":{"id":22431,"name":"Hrádek nad Nisou","state_code":"51","country_code":"CZ"}},{"type":"Feature","geometry":{"type":"Point","coordinates":[15.42959,50.70347]},"properties":{"id":22445,"name":"Jablonec nad Jizerou","state_code":"51","country_code":"CZ"}},{"type":"Feature","geometry":{"type":"Point","coordinates":[15.17108,50.72431]},"properties":{"id":22446,"name":"Jablonec nad Nisou","state_code":"51","country_code":"CZ"}},{"type":"Feature","geometry":{"type":"Point","coordinates":[14.76052,50.76528]},"properties":{"id":22448,"name":"Jablonné v Podještědí","state_code":"51","country_code":"CZ"}},{"type":"Feature","geometry":{"type":"Point","coordinates":[15.16913,50.77204]},"properties":{"id":22453,"name":"Janov nad Nisou","state_code":"51","country_code":"CZ"}},{"type":"Feature","geometry":{"type":"Point","coordinates":[15.50653,50.6089]},"properties":{"id":22472,"name":"Jilemnice","state_code":"51","country_code":"CZ"}},{"type":"Feature","geometry":{"type":"Point","coordinates":[15.23146,50.78191]},"properties":{"id":22483,"name":"Josefův Důl","state_code":"51","country_code":"CZ"}},{"type":"Feature","geometry":{"type":"Point","coordinates":[14.47287,50.77359]},"properties":{"id":22491,"name":"Kamenický Šenov","state_code":"51","country_code":"CZ"}},{"type":"Feature","geometry":{"type":"Point","coordinates":[15.36532,50.75926]},"properties":{"id":22549,"name":"Kořenov","state_code":"51","country_code":"CZ"}},{"type":"Feature","geometry":{"type":"Point","coordinates":[15.40403,50.57165]},"properties":{"id":22551,"name":"Košťálov","state_code":"51","country_code":"CZ"}},{"type":"Feature","geometry":{"type":"Point","coordinates":[15.05619,50.76711]},"properties":{"id":22604,"name":"Liberec","state_code":"51","country_code":"CZ"}},{"type":"Feature","geometry":{"type":"Point","coordinates":[15.37341,50.53062]},"properties":{"id":22635,"name":"Lomnice nad Popelkou","state_code":"51","country_code":"CZ"}},{"type":"Feature","geometry":{"type":"Point","coordinates":[15.22046,50.74136]},"properties":{"id":22652,"name":"Lučany nad Nisou","state_code":"51","country_code":"CZ"}},{"type":"Feature","geometry":{"type":"Point","coordinates":[15.19543,50.64631]},"properties":{"id":22671,"name":"Malá Skála","state_code":"51","country_code":"CZ"}},{"type":"Feature","geometry":{"type":"Point","coordinates":[14.72474,50.65869]},"properties":{"id":22694,"name":"Mimoň","state_code":"51","country_code":"CZ"}},{"type":"Feature","geometry":{"type":"Point","coordinates":[15.0563,50.83163]},"properties":{"id":22706,"name":"Mníšek","state_code":"51","country_code":"CZ"}},{"type":"Feature","geometry":{"type":"Point","coordinates":[15.22943,50.92491]},"properties":{"id":22780,"name":"Nové Město pod Smrkem","state_code":"51","country_code":"CZ"}},{"type":"Feature","geometry":{"type":"Point","coordinates":[14.55555,50.75761]},"properties":{"id":22785,"name":"Nový Bor","state_code":"51","country_code":"CZ"}},{"type":"Feature","geometry":{"type":"Point","coordinates":[15.12596,50.59765]},"properties":{"id":22805,"name":"Ohrazenice","state_code":"51","country_code":"CZ"}},{"type":"Feature","geometry":{"type":"Point","coordinates":[14.66667,50.66667]},"properties":{"id":22876,"name":"Okres Česká Lípa","state_code":"51","country_code":"CZ"}},{"type":"Feature","geometry":{"type":"Point","coordinates":[15.25,50.75]},"properties":{"id":22821,"name":"Okres Jablonec nad Nisou","state_code":"51","country_code":"CZ"}},{"type":"Feature","geometry":{"type":"Point","coordinates":[15.08333,50.83333]},"properties":{"id":22833,"name":"Okres Liberec","state_code":"51","country_code":"CZ"}},{"type":"Feature","geometry":{"type":"Point","coordinates":[15.41667,50.61667]},"properties":{"id":22860,"name":"Okres Semily","state_code":"51","country_code":"CZ"}},{"type":"Feature","geometry":{"type":"Point","coordinates":[14.92138,50.69489]},"properties":{"id":22899,"name":"Osečná","state_code":"51","country_code":"CZ"}},{"type":"Feature","geometry":{"type":"Point","coordinates":[15.23593,50.68769]},"properties":{"id":22996,"name":"Pěnčín","state_code":"51","country_code":"CZ"}},{"type":"Feature","geometry":{"type":"Point","coordinates":[15.31736,50.70324]},"properties":{"id":22938,"name":"Plavy","state_code":"51","country_code":"CZ"}},{"type":"Feature","geometry":{"type":"Point","coordinates":[15.46329,50.66152]},"properties":{"id":22955,"name":"Poniklá","state_code":"51","country_code":"CZ"}},{"type":"Feature","geometry":{"type":"Point","coordinates":[15.0839,50.57813]},"properties":{"id":23010,"name":"Příšovice","state_code":"51","country_code":"CZ"}},{"type":"Feature","geometry":{"type":"Point","coordinates":[15.11465,50.90415]},"properties":{"id":23022,"name":"Raspenava","state_code":"51","country_code":"CZ"}},{"type":"Feature","geometry":{"type":"Point","coordinates":[15.43357,50.72561]},"properties":{"id":23030,"name":"Rokytnice nad Jizerou","state_code":"51","country_code":"CZ"}},{"type":"Feature","geometry":{"type":"Point","coordinates":[15.25941,50.53532]},"properties":{"id":23040,"name":"Rovensko pod Troskami","state_code":"51","country_code":"CZ"}},{"type":"Feature","geometry":{"type":"Point","coordinates":[15.33552,50.60191]},"properties":{"id":23067,"name":"Semily","state_code":"51","country_code":"CZ"}},{"type":"Feature","geometry":{"type":"Point","coordinates":[15.24639,50.7382]},"properties":{"id":23089,"name":"Smržovka","state_code":"51","country_code":"CZ"}},{"type":"Feature","geometry":{"type":"Point","coordinates":[15.02683,50.79099]},"properties":{"id":23127,"name":"Stráž nad Nisou","state_code":"51","country_code":"CZ"}},{"type":"Feature","geometry":{"type":"Point","coordinates":[14.80102,50.7028]},"properties":{"id":23128,"name":"Stráž pod Ralskem","state_code":"51","country_code":"CZ"}},{"type":"Feature","geometry":{"type":"Point","coordinates":[15.54936,50.55344]},"properties":{"id":23132,"name":"Studenec","state_code":"51","country_code":"CZ"}},{"type":"Feature","geometry":{"type":"Point","coordinates":[15.30585,50.73735]},"properties":{"id":23156,"name":"Tanvald","state_code":"51","country_code":"CZ"}},{"type":"Feature","geometry":{"type":"Point","coordinates":[15.15186,50.58356]},"properties":{"id":23186,"name":"Turnov","state_code":"51","country_code":"CZ"}},{"type":"Feature","geometry":{"type":"Point","coordinates":[15.41248,50.5835]},"properties":{"id":23220,"name":"Valdice","state_code":"51","country_code":"CZ"}},{"type":"Feature","geometry":{"type":"Point","coordinates":[15.31539,50.71373]},"properties":{"id":23238,"name":"Velké Hamry","state_code":"51","country_code":"CZ"}},{"type":"Feature","geometry":{"type":"Point","coordinates":[15.02495,50.96663]},"properties":{"id":23276,"name":"Višňova","state_code":"51","country_code":"CZ"}},{"type":"Feature","geometry":{"type":"Point","coordinates":[15.40152,50.68559]},"properties":{"id":23306,"name":"Vysoké nad Jizerou","state_code":"51","country_code":"CZ"}},{"type":"Feature","geometry":{"type":"Point","coordinates":[14.64522,50.68475]},"properties":{"id":23350,"name":"Zákupy","state_code":"51","country_code":"CZ"}},{"type":"Feature","geometry":{"type":"Point","coordinates":[14.39623,50.71394]},"properties":{"id":23438,"name":"Žandov","state_code":"51","country_code":"CZ"}},{"type":"Feature","geometry":{"type":"Point","coordinates":[15.25408,50.64274]},"properties":{"id":23445,"name":"Železný Brod","state_code":"51","country_code":"CZ"}}]}