{"type":"FeatureCollection","features":[{"type":"Feature","geometry":{"type":"Point","coordinates":[15.39465,49.31425]},"properties":{"id":22114,"name":"Batelov","state_code":"63","country_code":"CZ"}},{"type":"Feature","geometry":{"type":"Point","coordinates":[15.87582,49.47921]},"properties":{"id":22138,"name":"Bohdalov","state_code":"63","country_code":"CZ"}},{"type":"Feature","geometry":{"type":"Point","coordinates":[15.67642,49.30695]},"properties":{"id":22170,"name":"Brtnice","state_code":"63","country_code":"CZ"}},{"type":"Feature","geometry":{"type":"Point","coordinates":[16.00383,49.27138]},"properties":{"id":22175,"name":"Budišov","state_code":"63","country_code":"CZ"}},{"type":"Feature","geometry":{"type":"Point","coordinates":[16.26147,49.52295]},"properties":{"id":22187,"name":"Bystřice nad Pernštejnem","state_code":"63","country_code":"CZ"}},{"type":"Feature","geometry":{"type":"Point","coordinates":[14.96089,49.37265]},"properties":{"id":23371,"name":"Černovice","state_code":"63","country_code":"CZ"}},{"type":"Feature","geometry":{"type":"Point","coordinates":[15.67018,49.72072]},"properties":{"id":22228,"name":"Chotěboř","state_code":"63","country_code":"CZ"}},{"type":"Feature","geometry":{"type":"Point","coordinates":[15.64992,49.47833]},"properties":{"id":22259,"name":"Dobronín","state_code":"63","country_code":"CZ"}},{"type":"Feature","geometry":{"type":"Point","coordinates":[15.45655,49.34449]},"properties":{"id":22279,"name":"Dolní Cerekev","state_code":"63","country_code":"CZ"}},{"type":"Feature","geometry":{"type":"Point","coordinates":[15.47686,49.81626]},"properties":{"id":22335,"name":"Golčův Jeníkov","state_code":"63","country_code":"CZ"}},{"type":"Feature","geometry":{"type":"Point","coordinates":[15.48486,49.75603]},"properties":{"id":22338,"name":"Habry","state_code":"63","country_code":"CZ"}},{"type":"Feature","geometry":{"type":"Point","coordinates":[15.57937,49.6069]},"properties":{"id":22344,"name":"Havlíčkův Brod","state_code":"63","country_code":"CZ"}},{"type":"Feature","geometry":{"type":"Point","coordinates":[15.99431,49.68891]},"properties":{"id":22349,"name":"Herálec","state_code":"63","country_code":"CZ"}},{"type":"Feature","geometry":{"type":"Point","coordinates":[15.32769,49.32026]},"properties":{"id":22379,"name":"Horní Cerekev","state_code":"63","country_code":"CZ"}},{"type":"Feature","geometry":{"type":"Point","coordinates":[16.06067,49.1077]},"properties":{"id":22423,"name":"Hrotovice","state_code":"63","country_code":"CZ"}},{"type":"Feature","geometry":{"type":"Point","coordinates":[15.35932,49.54152]},"properties":{"id":22435,"name":"Humpolec","state_code":"63","country_code":"CZ"}},{"type":"Feature","geometry":{"type":"Point","coordinates":[15.89331,49.09408]},"properties":{"id":22458,"name":"Jaroměřice nad Rokytnou","state_code":"63","country_code":"CZ"}},{"type":"Feature","geometry":{"type":"Point","coordinates":[15.56994,49.01898]},"properties":{"id":22464,"name":"Jemnice","state_code":"63","country_code":"CZ"}},{"type":"Feature","geometry":{"type":"Point","coordinates":[15.59124,49.3961]},"properties":{"id":22471,"name":"Jihlava","state_code":"63","country_code":"CZ"}},{"type":"Feature","geometry":{"type":"Point","coordinates":[16.22632,49.63719]},"properties":{"id":22473,"name":"Jimramov","state_code":"63","country_code":"CZ"}},{"type":"Feature","geometry":{"type":"Point","coordinates":[15.78023,49.36659]},"properties":{"id":22488,"name":"Kamenice","state_code":"63","country_code":"CZ"}},{"type":"Feature","geometry":{"type":"Point","coordinates":[15.07519,49.30303]},"properties":{"id":22490,"name":"Kamenice nad Lipou","state_code":"63","country_code":"CZ"}},{"type":"Feature","geometry":{"type":"Point","coordinates":[15.67216,49.27078]},"properties":{"id":22521,"name":"Kněžice","state_code":"63","country_code":"CZ"}},{"type":"Feature","geometry":{"type":"Point","coordinates":[16.1096,49.38858]},"properties":{"id":22588,"name":"Křižanov","state_code":"63","country_code":"CZ"}},{"type":"Feature","geometry":{"type":"Point","coordinates":[15.85207,49.68841]},"properties":{"id":22589,"name":"Křížová","state_code":"63","country_code":"CZ"}},{"type":"Feature","geometry":{"type":"Point","coordinates":[15.27772,49.69517]},"properties":{"id":22593,"name":"Ledeč nad Sázavou","state_code":"63","country_code":"CZ"}},{"type":"Feature","geometry":{"type":"Point","coordinates":[15.54465,49.55418]},"properties":{"id":22667,"name":"Lípa","state_code":"63","country_code":"CZ"}},{"type":"Feature","geometry":{"type":"Point","coordinates":[15.70194,49.37403]},"properties":{"id":22647,"name":"Luka nad Jihlavou","state_code":"63","country_code":"CZ"}},{"type":"Feature","geometry":{"type":"Point","coordinates":[14.99041,49.56541]},"properties":{"id":22648,"name":"Lukavec","state_code":"63","country_code":"CZ"}},{"type":"Feature","geometry":{"type":"Point","coordinates":[15.88381,49.39321]},"properties":{"id":22746,"name":"Měřín","state_code":"63","country_code":"CZ"}},{"type":"Feature","geometry":{"type":"Point","coordinates":[16.19022,49.11412]},"properties":{"id":22711,"name":"Mohelno","state_code":"63","country_code":"CZ"}},{"type":"Feature","geometry":{"type":"Point","coordinates":[15.80864,49.05209]},"properties":{"id":22719,"name":"Moravské Budějovice","state_code":"63","country_code":"CZ"}},{"type":"Feature","geometry":{"type":"Point","coordinates":[16.15849,49.20726]},"properties":{"id":22795,"name":"Náměšť nad Oslavou","state_code":"63","country_code":"CZ"}},{"type":"Feature","geometry":{"type":"Point","coordinates":[15.11675,49.41723]},"properties":{"id":22773,"name":"Nová Cerekev","state_code":"63","country_code":"CZ"}},{"type":"Feature","geometry":{"type":"Point","coordinates":[16.07418,49.56144]},"properties":{"id":22778,"name":"Nové Město na Moravě","state_code":"63","country_code":"CZ"}},{"type":"Feature","geometry":{"type":"Point","coordinates":[15.77345,49.01763]},"properties":{"id":22783,"name":"Nové Syrovice","state_code":"63","country_code":"CZ"}},{"type":"Feature","geometry":{"type":"Point","coordinates":[15.90853,49.51976]},"properties":{"id":22784,"name":"Nové Veselí","state_code":"63","country_code":"CZ"}},{"type":"Feature","geometry":{"type":"Point","coordinates":[15.58333,49.66667]},"properties":{"id":22818,"name":"Okres Havlíčkův Brod","state_code":"63","country_code":"CZ"}},{"type":"Feature","geometry":{"type":"Point","coordinates":[15.58333,49.33333]},"properties":{"id":22823,"name":"Okres Jihlava","state_code":"63","country_code":"CZ"}},{"type":"Feature","geometry":{"type":"Point","coordinates":[15.16667,49.41667]},"properties":{"id":22846,"name":"Okres Pelhřimov","state_code":"63","country_code":"CZ"}},{"type":"Feature","geometry":{"type":"Point","coordinates":[15.93333,49.13333]},"properties":{"id":22868,"name":"Okres Třebíč","state_code":"63","country_code":"CZ"}},{"type":"Feature","geometry":{"type":"Point","coordinates":[16.03333,49.5]},"properties":{"id":22880,"name":"Okres Žďár nad Sázavou","state_code":"63","country_code":"CZ"}},{"type":"Feature","geometry":{"type":"Point","coordinates":[15.76959,49.24539]},"properties":{"id":22882,"name":"Okříšky","state_code":"63","country_code":"CZ"}},{"type":"Feature","geometry":{"type":"Point","coordinates":[15.49083,49.62991]},"properties":{"id":22881,"name":"Okrouhlice","state_code":"63","country_code":"CZ"}},{"type":"Feature","geometry":{"type":"Point","coordinates":[15.00168,49.47076]},"properties":{"id":22917,"name":"Pacov","state_code":"63","country_code":"CZ"}},{"type":"Feature","geometry":{"type":"Point","coordinates":[15.22336,49.43134]},"properties":{"id":22925,"name":"Pelhřimov","state_code":"63","country_code":"CZ"}},{"type":"Feature","geometry":{"type":"Point","coordinates":[15.24022,49.2602]},"properties":{"id":22965,"name":"Počátky","state_code":"63","country_code":"CZ"}},{"type":"Feature","geometry":{"type":"Point","coordinates":[15.71881,49.487]},"properties":{"id":22953,"name":"Polná","state_code":"63","country_code":"CZ"}},{"type":"Feature","geometry":{"type":"Point","coordinates":[15.73855,49.57684]},"properties":{"id":23004,"name":"Přibyslav","state_code":"63","country_code":"CZ"}},{"type":"Feature","geometry":{"type":"Point","coordinates":[16.1076,49.07036]},"properties":{"id":23037,"name":"Rouchovany","state_code":"63","country_code":"CZ"}},{"type":"Feature","geometry":{"type":"Point","coordinates":[15.82791,49.19783]},"properties":{"id":23115,"name":"Stařeč","state_code":"63","country_code":"CZ"}},{"type":"Feature","geometry":{"type":"Point","coordinates":[15.58863,49.50249]},"properties":{"id":23421,"name":"Štoky","state_code":"63","country_code":"CZ"}},{"type":"Feature","geometry":{"type":"Point","coordinates":[15.40393,49.66801]},"properties":{"id":23153,"name":"Světlá nad Sázavou","state_code":"63","country_code":"CZ"}},{"type":"Feature","geometry":{"type":"Point","coordinates":[16.03214,49.71066]},"properties":{"id":23152,"name":"Svratka","state_code":"63","country_code":"CZ"}},{"type":"Feature","geometry":{"type":"Point","coordinates":[15.45275,49.18418]},"properties":{"id":23159,"name":"Telč","state_code":"63","country_code":"CZ"}},{"type":"Feature","geometry":{"type":"Point","coordinates":[15.88166,49.21492]},"properties":{"id":23201,"name":"Třebíč","state_code":"63","country_code":"CZ"}},{"type":"Feature","geometry":{"type":"Point","coordinates":[15.48211,49.29092]},"properties":{"id":23204,"name":"Třešť","state_code":"63","country_code":"CZ"}},{"type":"Feature","geometry":{"type":"Point","coordinates":[16.22742,49.28838]},"properties":{"id":23231,"name":"Velká Bíteš","state_code":"63","country_code":"CZ"}},{"type":"Feature","geometry":{"type":"Point","coordinates":[16.01224,49.35522]},"properties":{"id":23243,"name":"Velké Meziříčí","state_code":"63","country_code":"CZ"}},{"type":"Feature","geometry":{"type":"Point","coordinates":[15.667,49.40504]},"properties":{"id":23251,"name":"Velký Beranov","state_code":"63","country_code":"CZ"}},{"type":"Feature","geometry":{"type":"Point","coordinates":[15.53584,49.81566]},"properties":{"id":23270,"name":"Vilémov","state_code":"63","country_code":"CZ"}},{"type":"Feature","geometry":{"type":"Point","coordinates":[15.9883,49.21017]},"properties":{"id":23280,"name":"Vladislav","state_code":"63","country_code":"CZ"}},{"type":"Feature","geometry":{"type":"Point","coordinates":[15.93924,49.56263]},"properties":{"id":23459,"name":"Žďár nad Sázavou","state_code":"63","country_code":"CZ"}},{"type":"Feature","geometry":{"type":"Point","coordinates":[15.93215,49.58726]},"properties":{"id":23460,"name":"Žďár nad Sázavou Druhy","state_code":"63","country_code":"CZ"}},{"type":"Feature","geometry":{"type":"Point","coordinates":[15.673,49.14187]},"properties":{"id":23442,"name":"Želetava","state_code":"63","country_code":"CZ"}},{"type":"Feature","geometry":{"type":"Point","coordinates":[15.22181,49.52984]},"properties":{"id":23447,"name":"Želiv","state_code":"63","country_code":"CZ"}},{"type":"Feature","geometry":{"type":"Point","coordinates":[15.18824,49.25318]},"properties":{"id":23451,"name":"Žirovnice","state_code":"63","country_code":"CZ"}}]}