{"type":"FeatureCollection","features":[{"type":"Feature","geometry":{"type":"Point","coordinates":[17.48075,49.12167]},"properties":{"id":22111,"name":"Babice","state_code":"724","country_code":"CZ"}},{"type":"Feature","geometry":{"type":"Point","coordinates":[17.71752,48.98801]},"properties":{"id":22191,"name":"Bánov","state_code":"724","country_code":"CZ"}},{"type":"Feature","geometry":{"type":"Point","coordinates":[17.54961,49.09965]},"properties":{"id":22195,"name":"Bílovice","state_code":"724","country_code":"CZ"}},{"type":"Feature","geometry":{"type":"Point","coordinates":[17.81487,49.03864]},"properties":{"id":22144,"name":"Bojkovice","state_code":"724","country_code":"CZ"}},{"type":"Feature","geometry":{"type":"Point","coordinates":[17.35084,49.06254]},"properties":{"id":22151,"name":"Boršice","state_code":"724","country_code":"CZ"}},{"type":"Feature","geometry":{"type":"Point","coordinates":[17.66277,49.18643]},"properties":{"id":22205,"name":"Březnice","state_code":"724","country_code":"CZ"}},{"type":"Feature","geometry":{"type":"Point","coordinates":[17.58034,49.12138]},"properties":{"id":22208,"name":"Březolupy","state_code":"724","country_code":"CZ"}},{"type":"Feature","geometry":{"type":"Point","coordinates":[17.73986,48.92543]},"properties":{"id":22211,"name":"Březová","state_code":"724","country_code":"CZ"}},{"type":"Feature","geometry":{"type":"Point","coordinates":[17.33852,49.08627]},"properties":{"id":22174,"name":"Buchlovice","state_code":"724","country_code":"CZ"}},{"type":"Feature","geometry":{"type":"Point","coordinates":[17.67401,49.39924]},"properties":{"id":22188,"name":"Bystřice pod Hostýnem","state_code":"724","country_code":"CZ"}},{"type":"Feature","geometry":{"type":"Point","coordinates":[17.36451,49.35644]},"properties":{"id":22233,"name":"Chropyně","state_code":"724","country_code":"CZ"}},{"type":"Feature","geometry":{"type":"Point","coordinates":[17.71149,49.38918]},"properties":{"id":22239,"name":"Chvalčov","state_code":"724","country_code":"CZ"}},{"type":"Feature","geometry":{"type":"Point","coordinates":[18.19419,49.45498]},"properties":{"id":22272,"name":"Dolní Bečva","state_code":"724","country_code":"CZ"}},{"type":"Feature","geometry":{"type":"Point","coordinates":[17.58585,48.96837]},"properties":{"id":22287,"name":"Dolní Němčí","state_code":"724","country_code":"CZ"}},{"type":"Feature","geometry":{"type":"Point","coordinates":[18.11175,49.20174]},"properties":{"id":22325,"name":"Francova Lhota","state_code":"724","country_code":"CZ"}},{"type":"Feature","geometry":{"type":"Point","coordinates":[17.68346,49.2852]},"properties":{"id":22330,"name":"Fryšták","state_code":"724","country_code":"CZ"}},{"type":"Feature","geometry":{"type":"Point","coordinates":[18.14749,49.3174]},"properties":{"id":22339,"name":"Halenkov","state_code":"724","country_code":"CZ"}},{"type":"Feature","geometry":{"type":"Point","coordinates":[17.47156,49.17102]},"properties":{"id":22340,"name":"Halenkovice","state_code":"724","country_code":"CZ"}},{"type":"Feature","geometry":{"type":"Point","coordinates":[17.52744,48.98805]},"properties":{"id":22357,"name":"Hluk","state_code":"724","country_code":"CZ"}},{"type":"Feature","geometry":{"type":"Point","coordinates":[17.57832,49.33331]},"properties":{"id":22368,"name":"Holešov","state_code":"724","country_code":"CZ"}},{"type":"Feature","geometry":{"type":"Point","coordinates":[18.28859,49.43216]},"properties":{"id":22375,"name":"Horní Bečva","state_code":"724","country_code":"CZ"}},{"type":"Feature","geometry":{"type":"Point","coordinates":[18.06099,49.18121]},"properties":{"id":22382,"name":"Horní Lideč","state_code":"724","country_code":"CZ"}},{"type":"Feature","geometry":{"type":"Point","coordinates":[17.86944,49.35467]},"properties":{"id":22410,"name":"Hošťálková","state_code":"724","country_code":"CZ"}},{"type":"Feature","geometry":{"type":"Point","coordinates":[18.06062,49.30365]},"properties":{"id":22406,"name":"Hovězí","state_code":"724","country_code":"CZ"}},{"type":"Feature","geometry":{"type":"Point","coordinates":[17.46374,49.31689]},"properties":{"id":22434,"name":"Hulín","state_code":"724","country_code":"CZ"}},{"type":"Feature","geometry":{"type":"Point","coordinates":[17.75163,49.24848]},"properties":{"id":22439,"name":"Hvozdná","state_code":"724","country_code":"CZ"}},{"type":"Feature","geometry":{"type":"Point","coordinates":[17.95021,49.38355]},"properties":{"id":22450,"name":"Jablůnka","state_code":"724","country_code":"CZ"}},{"type":"Feature","geometry":{"type":"Point","coordinates":[17.42788,49.11626]},"properties":{"id":22452,"name":"Jalubí","state_code":"724","country_code":"CZ"}},{"type":"Feature","geometry":{"type":"Point","coordinates":[18.24006,49.35128]},"properties":{"id":22500,"name":"Karolinka","state_code":"724","country_code":"CZ"}},{"type":"Feature","geometry":{"type":"Point","coordinates":[17.81533,49.47844]},"properties":{"id":22509,"name":"Kelč","state_code":"724","country_code":"CZ"}},{"type":"Feature","geometry":{"type":"Point","coordinates":[17.51671,49.09855]},"properties":{"id":22523,"name":"Kněžpole","state_code":"724","country_code":"CZ"}},{"type":"Feature","geometry":{"type":"Point","coordinates":[17.16433,49.10639]},"properties":{"id":22535,"name":"Koryčany","state_code":"724","country_code":"CZ"}},{"type":"Feature","geometry":{"type":"Point","coordinates":[17.39312,49.29785]},"properties":{"id":22560,"name":"Kroměříž","state_code":"724","country_code":"CZ"}},{"type":"Feature","geometry":{"type":"Point","coordinates":[17.47011,49.04499]},"properties":{"id":22569,"name":"Kunovice","state_code":"724","country_code":"CZ"}},{"type":"Feature","geometry":{"type":"Point","coordinates":[17.46974,49.24223]},"properties":{"id":22578,"name":"Kvasice","state_code":"724","country_code":"CZ"}},{"type":"Feature","geometry":{"type":"Point","coordinates":[17.93004,49.52055]},"properties":{"id":22601,"name":"Lešná","state_code":"724","country_code":"CZ"}},{"type":"Feature","geometry":{"type":"Point","coordinates":[18.0513,49.20303]},"properties":{"id":22616,"name":"Lidečko","state_code":"724","country_code":"CZ"}},{"type":"Feature","geometry":{"type":"Point","coordinates":[17.92177,49.29051]},"properties":{"id":22620,"name":"Liptál","state_code":"724","country_code":"CZ"}},{"type":"Feature","geometry":{"type":"Point","coordinates":[17.75747,49.09982]},"properties":{"id":22646,"name":"Luhačovice","state_code":"724","country_code":"CZ"}},{"type":"Feature","geometry":{"type":"Point","coordinates":[17.72959,49.29027]},"properties":{"id":22650,"name":"Lukov","state_code":"724","country_code":"CZ"}},{"type":"Feature","geometry":{"type":"Point","coordinates":[17.53597,49.08668]},"properties":{"id":22699,"name":"Mistřice","state_code":"724","country_code":"CZ"}},{"type":"Feature","geometry":{"type":"Point","coordinates":[17.51194,49.17156]},"properties":{"id":22749,"name":"Napajedla","state_code":"724","country_code":"CZ"}},{"type":"Feature","geometry":{"type":"Point","coordinates":[17.38141,49.03159]},"properties":{"id":22753,"name":"Nedakonice","state_code":"724","country_code":"CZ"}},{"type":"Feature","geometry":{"type":"Point","coordinates":[18.07036,49.10778]},"properties":{"id":22754,"name":"Nedašov","state_code":"724","country_code":"CZ"}},{"type":"Feature","geometry":{"type":"Point","coordinates":[17.64757,48.97465]},"properties":{"id":22767,"name":"Nivnice","state_code":"724","country_code":"CZ"}},{"type":"Feature","geometry":{"type":"Point","coordinates":[18.19793,49.33697]},"properties":{"id":22787,"name":"Nový Hrozenkov","state_code":"724","country_code":"CZ"}},{"type":"Feature","geometry":{"type":"Point","coordinates":[17.5,49.33333]},"properties":{"id":22831,"name":"Okres Kroměříž","state_code":"724","country_code":"CZ"}},{"type":"Feature","geometry":{"type":"Point","coordinates":[17.55,49.01667]},"properties":{"id":22869,"name":"Okres Uherské Hradiště","state_code":"724","country_code":"CZ"}},{"type":"Feature","geometry":{"type":"Point","coordinates":[18.08333,49.36667]},"properties":{"id":22870,"name":"Okres Vsetín","state_code":"724","country_code":"CZ"}},{"type":"Feature","geometry":{"type":"Point","coordinates":[17.78333,49.21667]},"properties":{"id":22872,"name":"Okres Zlín","state_code":"724","country_code":"CZ"}},{"type":"Feature","geometry":{"type":"Point","coordinates":[17.46751,48.97559]},"properties":{"id":22909,"name":"Ostrožská Lhota","state_code":"724","country_code":"CZ"}},{"type":"Feature","geometry":{"type":"Point","coordinates":[17.43632,49.00434]},"properties":{"id":22910,"name":"Ostrožská Nová Ves","state_code":"724","country_code":"CZ"}},{"type":"Feature","geometry":{"type":"Point","coordinates":[17.53944,49.20934]},"properties":{"id":22915,"name":"Otrokovice","state_code":"724","country_code":"CZ"}},{"type":"Feature","geometry":{"type":"Point","coordinates":[17.34064,49.0339]},"properties":{"id":22950,"name":"Polešovice","state_code":"724","country_code":"CZ"}},{"type":"Feature","geometry":{"type":"Point","coordinates":[17.52712,49.05255]},"properties":{"id":22956,"name":"Popovice","state_code":"724","country_code":"CZ"}},{"type":"Feature","geometry":{"type":"Point","coordinates":[17.76925,49.12921]},"properties":{"id":22963,"name":"Pozlovice","state_code":"724","country_code":"CZ"}},{"type":"Feature","geometry":{"type":"Point","coordinates":[18.252,49.43609]},"properties":{"id":22980,"name":"Prostřední Bečva","state_code":"724","country_code":"CZ"}},{"type":"Feature","geometry":{"type":"Point","coordinates":[17.5871,49.37898]},"properties":{"id":22984,"name":"Prusinovice","state_code":"724","country_code":"CZ"}},{"type":"Feature","geometry":{"type":"Point","coordinates":[17.33555,49.2713]},"properties":{"id":23023,"name":"Rataje","state_code":"724","country_code":"CZ"}},{"type":"Feature","geometry":{"type":"Point","coordinates":[17.91499,49.36769]},"properties":{"id":23024,"name":"Ratiboř","state_code":"724","country_code":"CZ"}},{"type":"Feature","geometry":{"type":"Point","coordinates":[18.14302,49.45853]},"properties":{"id":23043,"name":"Rožnov pod Radhoštěm","state_code":"724","country_code":"CZ"}},{"type":"Feature","geometry":{"type":"Point","coordinates":[17.87349,49.08799]},"properties":{"id":23080,"name":"Slavičín","state_code":"724","country_code":"CZ"}},{"type":"Feature","geometry":{"type":"Point","coordinates":[17.8015,49.24782]},"properties":{"id":23084,"name":"Slušovice","state_code":"724","country_code":"CZ"}},{"type":"Feature","geometry":{"type":"Point","coordinates":[17.49808,49.14115]},"properties":{"id":23096,"name":"Spytihněv","state_code":"724","country_code":"CZ"}},{"type":"Feature","geometry":{"type":"Point","coordinates":[17.43338,49.07515]},"properties":{"id":23107,"name":"Staré Město","state_code":"724","country_code":"CZ"}},{"type":"Feature","geometry":{"type":"Point","coordinates":[17.98274,49.06881]},"properties":{"id":23424,"name":"Štítná nad Vláří","state_code":"724","country_code":"CZ"}},{"type":"Feature","geometry":{"type":"Point","coordinates":[17.70671,48.90216]},"properties":{"id":23125,"name":"Strání","state_code":"724","country_code":"CZ"}},{"type":"Feature","geometry":{"type":"Point","coordinates":[17.71379,48.97001]},"properties":{"id":23143,"name":"Suchá Loz","state_code":"724","country_code":"CZ"}},{"type":"Feature","geometry":{"type":"Point","coordinates":[17.72205,49.02858]},"properties":{"id":23431,"name":"Šumice","state_code":"724","country_code":"CZ"}},{"type":"Feature","geometry":{"type":"Point","coordinates":[17.58733,49.22107]},"properties":{"id":23163,"name":"Tečovice","state_code":"724","country_code":"CZ"}},{"type":"Feature","geometry":{"type":"Point","coordinates":[17.49559,49.25351]},"properties":{"id":23167,"name":"Tlumačov","state_code":"724","country_code":"CZ"}},{"type":"Feature","geometry":{"type":"Point","coordinates":[17.54434,49.12187]},"properties":{"id":23169,"name":"Topolná","state_code":"724","country_code":"CZ"}},{"type":"Feature","geometry":{"type":"Point","coordinates":[17.43622,49.13088]},"properties":{"id":23172,"name":"Traplice","state_code":"724","country_code":"CZ"}},{"type":"Feature","geometry":{"type":"Point","coordinates":[17.84191,49.29603]},"properties":{"id":23176,"name":"Trnava","state_code":"724","country_code":"CZ"}},{"type":"Feature","geometry":{"type":"Point","coordinates":[17.36983,49.08427]},"properties":{"id":23185,"name":"Tupesy","state_code":"724","country_code":"CZ"}},{"type":"Feature","geometry":{"type":"Point","coordinates":[17.45969,49.06975]},"properties":{"id":23206,"name":"Uherské Hradiště","state_code":"724","country_code":"CZ"}},{"type":"Feature","geometry":{"type":"Point","coordinates":[17.64715,49.02513]},"properties":{"id":23207,"name":"Uherský Brod","state_code":"724","country_code":"CZ"}},{"type":"Feature","geometry":{"type":"Point","coordinates":[17.38984,48.98556]},"properties":{"id":23208,"name":"Uherský Ostroh","state_code":"724","country_code":"CZ"}},{"type":"Feature","geometry":{"type":"Point","coordinates":[17.9061,49.16809]},"properties":{"id":23354,"name":"Újezd","state_code":"724","country_code":"CZ"}},{"type":"Feature","geometry":{"type":"Point","coordinates":[18.10977,49.41507]},"properties":{"id":23215,"name":"Valašská Bystřice","state_code":"724","country_code":"CZ"}},{"type":"Feature","geometry":{"type":"Point","coordinates":[17.99667,49.26215]},"properties":{"id":23216,"name":"Valašská Polanka","state_code":"724","country_code":"CZ"}},{"type":"Feature","geometry":{"type":"Point","coordinates":[18.0076,49.14064]},"properties":{"id":23217,"name":"Valašské Klobouky","state_code":"724","country_code":"CZ"}},{"type":"Feature","geometry":{"type":"Point","coordinates":[17.97113,49.47181]},"properties":{"id":23218,"name":"Valašské Meziříčí","state_code":"724","country_code":"CZ"}},{"type":"Feature","geometry":{"type":"Point","coordinates":[17.39426,49.10543]},"properties":{"id":23226,"name":"Velehrad","state_code":"724","country_code":"CZ"}},{"type":"Feature","geometry":{"type":"Point","coordinates":[18.28355,49.36064]},"properties":{"id":23241,"name":"Velké Karlovice","state_code":"724","country_code":"CZ"}},{"type":"Feature","geometry":{"type":"Point","coordinates":[18.09473,49.44151]},"properties":{"id":23267,"name":"Vidče","state_code":"724","country_code":"CZ"}},{"type":"Feature","geometry":{"type":"Point","coordinates":[17.85455,49.22287]},"properties":{"id":23275,"name":"Vizovice","state_code":"724","country_code":"CZ"}},{"type":"Feature","geometry":{"type":"Point","coordinates":[17.94001,49.12377]},"properties":{"id":23278,"name":"Vlachovice","state_code":"724","country_code":"CZ"}},{"type":"Feature","geometry":{"type":"Point","coordinates":[17.58183,49.0099]},"properties":{"id":23284,"name":"Vlčnov","state_code":"724","country_code":"CZ"}},{"type":"Feature","geometry":{"type":"Point","coordinates":[17.87682,49.281]},"properties":{"id":23317,"name":"Všemina","state_code":"724","country_code":"CZ"}},{"type":"Feature","geometry":{"type":"Point","coordinates":[17.99619,49.33871]},"properties":{"id":23303,"name":"Vsetín","state_code":"724","country_code":"CZ"}},{"type":"Feature","geometry":{"type":"Point","coordinates":[17.77922,49.02266]},"properties":{"id":23349,"name":"Záhorovice","state_code":"724","country_code":"CZ"}},{"type":"Feature","geometry":{"type":"Point","coordinates":[18.04436,49.4741]},"properties":{"id":23327,"name":"Zašová","state_code":"724","country_code":"CZ"}},{"type":"Feature","geometry":{"type":"Point","coordinates":[17.28464,49.24889]},"properties":{"id":23329,"name":"Zborovice","state_code":"724","country_code":"CZ"}},{"type":"Feature","geometry":{"type":"Point","coordinates":[17.31899,49.22771]},"properties":{"id":23336,"name":"Zdounky","state_code":"724","country_code":"CZ"}},{"type":"Feature","geometry":{"type":"Point","coordinates":[17.37938,49.07396]},"properties":{"id":23340,"name":"Zlechov","state_code":"724","country_code":"CZ"}},{"type":"Feature","geometry":{"type":"Point","coordinates":[17.67065,49.22645]},"properties":{"id":23343,"name":"Zlín","state_code":"724","country_code":"CZ"}},{"type":"Feature","geometry":{"type":"Point","coordinates":[17.49037,49.19976]},"properties":{"id":23455,"name":"Žlutava","state_code":"724","country_code":"CZ"}},{"type":"Feature","geometry":{"type":"Point","coordinates":[18.09249,49.46603]},"properties":{"id":23346,"name":"Zubří","state_code":"724","country_code":"CZ"}}]}