{"type":"FeatureCollection","features":[{"type":"Feature","geometry":{"type":"Point","coordinates":[42.7125,11.15583]},"properties":{"id":30561,"name":"Ali Sabieh","state_code":"AS","country_code":"DJ"}},{"type":"Feature","geometry":{"type":"Point","coordinates":[43.00028,11.42389]},"properties":{"id":30567,"name":"Goubétto","state_code":"AS","country_code":"DJ"}},{"type":"Feature","geometry":{"type":"Point","coordinates":[42.92944,11.31028]},"properties":{"id":30569,"name":"Holhol","state_code":"AS","country_code":"DJ"}}]}