{"type":"FeatureCollection","features":[{"type":"Feature","geometry":{"type":"Point","coordinates":[9.41741,55.04434]},"properties":{"id":30573,"name":"Aabenraa","state_code":"83","country_code":"DK"}},{"type":"Feature","geometry":{"type":"Point","coordinates":[9.31282,54.9898]},"properties":{"id":30574,"name":"Aabenraa Kommune","state_code":"83","country_code":"DK"}},{"type":"Feature","geometry":{"type":"Point","coordinates":[10.46428,55.30353]},"properties":{"id":30995,"name":"Årslev","state_code":"83","country_code":"DK"}},{"type":"Feature","geometry":{"type":"Point","coordinates":[10.04131,55.37315]},"properties":{"id":30996,"name":"Årup","state_code":"83","country_code":"DK"}},{"type":"Feature","geometry":{"type":"Point","coordinates":[9.90081,55.27023]},"properties":{"id":30583,"name":"Assens","state_code":"83","country_code":"DK"}},{"type":"Feature","geometry":{"type":"Point","coordinates":[10.07952,55.29958]},"properties":{"id":30584,"name":"Assens Kommune","state_code":"83","country_code":"DK"}},{"type":"Feature","geometry":{"type":"Point","coordinates":[9.87216,54.95201]},"properties":{"id":30586,"name":"Augustenborg","state_code":"83","country_code":"DK"}},{"type":"Feature","geometry":{"type":"Point","coordinates":[10.43333,54.85833]},"properties":{"id":30997,"name":"Ærø Kommune","state_code":"83","country_code":"DK"}},{"type":"Feature","geometry":{"type":"Point","coordinates":[10.41117,54.88803]},"properties":{"id":30998,"name":"Ærøskøbing","state_code":"83","country_code":"DK"}},{"type":"Feature","geometry":{"type":"Point","coordinates":[10.32045,55.33535]},"properties":{"id":30592,"name":"Bellinge","state_code":"83","country_code":"DK"}},{"type":"Feature","geometry":{"type":"Point","coordinates":[9.10785,55.73349]},"properties":{"id":30593,"name":"Billund","state_code":"83","country_code":"DK"}},{"type":"Feature","geometry":{"type":"Point","coordinates":[8.96844,55.73079]},"properties":{"id":30594,"name":"Billund Kommune","state_code":"83","country_code":"DK"}},{"type":"Feature","geometry":{"type":"Point","coordinates":[10.08863,55.56691]},"properties":{"id":30599,"name":"Bogense","state_code":"83","country_code":"DK"}},{"type":"Feature","geometry":{"type":"Point","coordinates":[9.64958,55.64195]},"properties":{"id":30615,"name":"Børkop","state_code":"83","country_code":"DK"}},{"type":"Feature","geometry":{"type":"Point","coordinates":[8.70007,55.46946]},"properties":{"id":30603,"name":"Bramming","state_code":"83","country_code":"DK"}},{"type":"Feature","geometry":{"type":"Point","coordinates":[9.67217,55.66594]},"properties":{"id":30605,"name":"Brejning","state_code":"83","country_code":"DK"}},{"type":"Feature","geometry":{"type":"Point","coordinates":[9.97908,55.48407]},"properties":{"id":30606,"name":"Brenderup","state_code":"83","country_code":"DK"}},{"type":"Feature","geometry":{"type":"Point","coordinates":[9.67465,54.8894]},"properties":{"id":30607,"name":"Broager","state_code":"83","country_code":"DK"}},{"type":"Feature","geometry":{"type":"Point","coordinates":[9.01756,55.48194]},"properties":{"id":30613,"name":"Brørup","state_code":"83","country_code":"DK"}},{"type":"Feature","geometry":{"type":"Point","coordinates":[10.47137,55.42686]},"properties":{"id":30614,"name":"Bullerup","state_code":"83","country_code":"DK"}},{"type":"Feature","geometry":{"type":"Point","coordinates":[9.48701,55.35817]},"properties":{"id":30617,"name":"Christiansfeld","state_code":"83","country_code":"DK"}},{"type":"Feature","geometry":{"type":"Point","coordinates":[9.73601,54.91079]},"properties":{"id":30625,"name":"Dybbøl","state_code":"83","country_code":"DK"}},{"type":"Feature","geometry":{"type":"Point","coordinates":[9.30763,55.61613]},"properties":{"id":30628,"name":"Egtved","state_code":"83","country_code":"DK"}},{"type":"Feature","geometry":{"type":"Point","coordinates":[9.92973,55.4301]},"properties":{"id":30629,"name":"Ejby","state_code":"83","country_code":"DK"}},{"type":"Feature","geometry":{"type":"Point","coordinates":[8.45187,55.47028]},"properties":{"id":30631,"name":"Esbjerg","state_code":"83","country_code":"DK"}},{"type":"Feature","geometry":{"type":"Point","coordinates":[8.46222,55.46893]},"properties":{"id":30632,"name":"Esbjerg Kommune","state_code":"83","country_code":"DK"}},{"type":"Feature","geometry":{"type":"Point","coordinates":[10.24226,55.0951]},"properties":{"id":30634,"name":"Faaborg","state_code":"83","country_code":"DK"}},{"type":"Feature","geometry":{"type":"Point","coordinates":[10.40667,55.22667]},"properties":{"id":30635,"name":"Faaborg-Midtfyn Kommune","state_code":"83","country_code":"DK"}},{"type":"Feature","geometry":{"type":"Point","coordinates":[8.41667,55.41667]},"properties":{"id":30636,"name":"Fanø Kommune","state_code":"83","country_code":"DK"}},{"type":"Feature","geometry":{"type":"Point","coordinates":[9.75257,55.56568]},"properties":{"id":30650,"name":"Fredericia","state_code":"83","country_code":"DK"}},{"type":"Feature","geometry":{"type":"Point","coordinates":[9.69489,55.57271]},"properties":{"id":30651,"name":"Fredericia Kommune","state_code":"83","country_code":"DK"}},{"type":"Feature","geometry":{"type":"Point","coordinates":[9.23769,55.84523]},"properties":{"id":30668,"name":"Give","state_code":"83","country_code":"DK"}},{"type":"Feature","geometry":{"type":"Point","coordinates":[10.10483,55.27237]},"properties":{"id":30671,"name":"Glamsbjerg","state_code":"83","country_code":"DK"}},{"type":"Feature","geometry":{"type":"Point","coordinates":[9.04913,55.28948]},"properties":{"id":30674,"name":"Gram","state_code":"83","country_code":"DK"}},{"type":"Feature","geometry":{"type":"Point","coordinates":[9.59523,54.91918]},"properties":{"id":30680,"name":"Gråsten","state_code":"83","country_code":"DK"}},{"type":"Feature","geometry":{"type":"Point","coordinates":[8.9275,55.75726]},"properties":{"id":30679,"name":"Grindsted","state_code":"83","country_code":"DK"}},{"type":"Feature","geometry":{"type":"Point","coordinates":[9.87174,54.98978]},"properties":{"id":30682,"name":"Guderup","state_code":"83","country_code":"DK"}},{"type":"Feature","geometry":{"type":"Point","coordinates":[9.48771,55.24943]},"properties":{"id":30686,"name":"Haderslev","state_code":"83","country_code":"DK"}},{"type":"Feature","geometry":{"type":"Point","coordinates":[9.32261,55.24441]},"properties":{"id":30687,"name":"Haderslev Kommune","state_code":"83","country_code":"DK"}},{"type":"Feature","geometry":{"type":"Point","coordinates":[10.12268,55.22357]},"properties":{"id":30733,"name":"Hårby","state_code":"83","country_code":"DK"}},{"type":"Feature","geometry":{"type":"Point","coordinates":[8.91872,55.51086]},"properties":{"id":30721,"name":"Holsted","state_code":"83","country_code":"DK"}},{"type":"Feature","geometry":{"type":"Point","coordinates":[10.43725,55.33177]},"properties":{"id":30735,"name":"Højby","state_code":"83","country_code":"DK"}},{"type":"Feature","geometry":{"type":"Point","coordinates":[9.89872,54.91017]},"properties":{"id":30741,"name":"Høruphav","state_code":"83","country_code":"DK"}},{"type":"Feature","geometry":{"type":"Point","coordinates":[9.4258,55.75588]},"properties":{"id":30748,"name":"Jelling","state_code":"83","country_code":"DK"}},{"type":"Feature","geometry":{"type":"Point","coordinates":[10.65769,55.44903]},"properties":{"id":30756,"name":"Kerteminde","state_code":"83","country_code":"DK"}},{"type":"Feature","geometry":{"type":"Point","coordinates":[10.6222,55.45498]},"properties":{"id":30757,"name":"Kerteminde Kommune","state_code":"83","country_code":"DK"}},{"type":"Feature","geometry":{"type":"Point","coordinates":[9.47216,55.4904]},"properties":{"id":30763,"name":"Kolding","state_code":"83","country_code":"DK"}},{"type":"Feature","geometry":{"type":"Point","coordinates":[9.45807,55.45006]},"properties":{"id":30764,"name":"Kolding Kommune","state_code":"83","country_code":"DK"}},{"type":"Feature","geometry":{"type":"Point","coordinates":[9.40129,54.85097]},"properties":{"id":30768,"name":"Kruså","state_code":"83","country_code":"DK"}},{"type":"Feature","geometry":{"type":"Point","coordinates":[10.77222,54.9]},"properties":{"id":30773,"name":"Langeland Kommune","state_code":"83","country_code":"DK"}},{"type":"Feature","geometry":{"type":"Point","coordinates":[10.58447,55.35655]},"properties":{"id":30774,"name":"Langeskov","state_code":"83","country_code":"DK"}},{"type":"Feature","geometry":{"type":"Point","coordinates":[8.95508,55.05941]},"properties":{"id":30791,"name":"Løgumkloster","state_code":"83","country_code":"DK"}},{"type":"Feature","geometry":{"type":"Point","coordinates":[9.46084,55.08959]},"properties":{"id":30792,"name":"Løjt Kirkeby","state_code":"83","country_code":"DK"}},{"type":"Feature","geometry":{"type":"Point","coordinates":[9.29917,55.48375]},"properties":{"id":30784,"name":"Lunderskov","state_code":"83","country_code":"DK"}},{"type":"Feature","geometry":{"type":"Point","coordinates":[10.51726,54.85621]},"properties":{"id":30798,"name":"Marstal","state_code":"83","country_code":"DK"}},{"type":"Feature","geometry":{"type":"Point","coordinates":[9.73054,55.50591]},"properties":{"id":30799,"name":"Middelfart","state_code":"83","country_code":"DK"}},{"type":"Feature","geometry":{"type":"Point","coordinates":[9.881,55.45782]},"properties":{"id":30800,"name":"Middelfart Kommune","state_code":"83","country_code":"DK"}},{"type":"Feature","geometry":{"type":"Point","coordinates":[10.55433,55.45553]},"properties":{"id":30802,"name":"Munkebo","state_code":"83","country_code":"DK"}},{"type":"Feature","geometry":{"type":"Point","coordinates":[10.44824,55.36451]},"properties":{"id":30806,"name":"Neder Holluf","state_code":"83","country_code":"DK"}},{"type":"Feature","geometry":{"type":"Point","coordinates":[9.7408,55.05732]},"properties":{"id":30811,"name":"Nordborg","state_code":"83","country_code":"DK"}},{"type":"Feature","geometry":{"type":"Point","coordinates":[8.39786,55.44603]},"properties":{"id":30812,"name":"Nordby","state_code":"83","country_code":"DK"}},{"type":"Feature","geometry":{"type":"Point","coordinates":[10.22222,55.52222]},"properties":{"id":30814,"name":"Nordfyns Kommune","state_code":"83","country_code":"DK"}},{"type":"Feature","geometry":{"type":"Point","coordinates":[9.8794,55.46107]},"properties":{"id":30825,"name":"Nørre Åby","state_code":"83","country_code":"DK"}},{"type":"Feature","geometry":{"type":"Point","coordinates":[10.78964,55.31274]},"properties":{"id":30815,"name":"Nyborg","state_code":"83","country_code":"DK"}},{"type":"Feature","geometry":{"type":"Point","coordinates":[10.7031,55.29473]},"properties":{"id":30816,"name":"Nyborg Kommune","state_code":"83","country_code":"DK"}},{"type":"Feature","geometry":{"type":"Point","coordinates":[10.38831,55.39594]},"properties":{"id":30829,"name":"Odense","state_code":"83","country_code":"DK"}},{"type":"Feature","geometry":{"type":"Point","coordinates":[10.37761,55.3957]},"properties":{"id":30830,"name":"Odense Kommune","state_code":"83","country_code":"DK"}},{"type":"Feature","geometry":{"type":"Point","coordinates":[8.28757,55.6268]},"properties":{"id":30832,"name":"Oksbøl","state_code":"83","country_code":"DK"}},{"type":"Feature","geometry":{"type":"Point","coordinates":[10.39756,55.51527]},"properties":{"id":30834,"name":"Otterup","state_code":"83","country_code":"DK"}},{"type":"Feature","geometry":{"type":"Point","coordinates":[8.62859,55.80682]},"properties":{"id":30999,"name":"Ølgod","state_code":"83","country_code":"DK"}},{"type":"Feature","geometry":{"type":"Point","coordinates":[9.36247,54.82657]},"properties":{"id":30835,"name":"Padborg","state_code":"83","country_code":"DK"}},{"type":"Feature","geometry":{"type":"Point","coordinates":[8.76966,55.33051]},"properties":{"id":30841,"name":"Ribe","state_code":"83","country_code":"DK"}},{"type":"Feature","geometry":{"type":"Point","coordinates":[10.4786,55.23828]},"properties":{"id":30842,"name":"Ringe","state_code":"83","country_code":"DK"}},{"type":"Feature","geometry":{"type":"Point","coordinates":[9.06316,55.36569]},"properties":{"id":30855,"name":"Rødding","state_code":"83","country_code":"DK"}},{"type":"Feature","geometry":{"type":"Point","coordinates":[9.33531,55.07076]},"properties":{"id":30856,"name":"Rødekro","state_code":"83","country_code":"DK"}},{"type":"Feature","geometry":{"type":"Point","coordinates":[10.71019,54.93639]},"properties":{"id":30850,"name":"Rudkøbing","state_code":"83","country_code":"DK"}},{"type":"Feature","geometry":{"type":"Point","coordinates":[10.44265,55.42648]},"properties":{"id":30866,"name":"Seden","state_code":"83","country_code":"DK"}},{"type":"Feature","geometry":{"type":"Point","coordinates":[8.76901,55.15735]},"properties":{"id":30870,"name":"Skaerbaek","state_code":"83","country_code":"DK"}},{"type":"Feature","geometry":{"type":"Point","coordinates":[9.72125,55.52253]},"properties":{"id":30887,"name":"Snoghøj","state_code":"83","country_code":"DK"}},{"type":"Feature","geometry":{"type":"Point","coordinates":[9.56741,55.45272]},"properties":{"id":30926,"name":"Sønder Bjert","state_code":"83","country_code":"DK"}},{"type":"Feature","geometry":{"type":"Point","coordinates":[9.78917,54.90896]},"properties":{"id":30927,"name":"Sønderborg","state_code":"83","country_code":"DK"}},{"type":"Feature","geometry":{"type":"Point","coordinates":[9.8,54.91667]},"properties":{"id":30928,"name":"Sønderborg Kommune","state_code":"83","country_code":"DK"}},{"type":"Feature","geometry":{"type":"Point","coordinates":[10.2554,55.48526]},"properties":{"id":30929,"name":"Søndersø","state_code":"83","country_code":"DK"}},{"type":"Feature","geometry":{"type":"Point","coordinates":[9.53503,55.24097]},"properties":{"id":30895,"name":"Starup","state_code":"83","country_code":"DK"}},{"type":"Feature","geometry":{"type":"Point","coordinates":[10.4094,55.43941]},"properties":{"id":30902,"name":"Stige","state_code":"83","country_code":"DK"}},{"type":"Feature","geometry":{"type":"Point","coordinates":[9.76748,55.54021]},"properties":{"id":30908,"name":"Strib","state_code":"83","country_code":"DK"}},{"type":"Feature","geometry":{"type":"Point","coordinates":[10.60677,55.05982]},"properties":{"id":30918,"name":"Svendborg","state_code":"83","country_code":"DK"}},{"type":"Feature","geometry":{"type":"Point","coordinates":[10.61391,55.0841]},"properties":{"id":30919,"name":"Svendborg Kommune","state_code":"83","country_code":"DK"}},{"type":"Feature","geometry":{"type":"Point","coordinates":[9.61553,55.54582]},"properties":{"id":30932,"name":"Taulov","state_code":"83","country_code":"DK"}},{"type":"Feature","geometry":{"type":"Point","coordinates":[10.66385,55.0474]},"properties":{"id":30935,"name":"Thurø By","state_code":"83","country_code":"DK"}},{"type":"Feature","geometry":{"type":"Point","coordinates":[9.25547,54.93788]},"properties":{"id":30937,"name":"Tinglev","state_code":"83","country_code":"DK"}},{"type":"Feature","geometry":{"type":"Point","coordinates":[8.57968,55.46457]},"properties":{"id":30938,"name":"Tjæreborg","state_code":"83","country_code":"DK"}},{"type":"Feature","geometry":{"type":"Point","coordinates":[9.06925,55.18858]},"properties":{"id":30939,"name":"Toftlund","state_code":"83","country_code":"DK"}},{"type":"Feature","geometry":{"type":"Point","coordinates":[10.20659,55.31952]},"properties":{"id":30940,"name":"Tommerup","state_code":"83","country_code":"DK"}},{"type":"Feature","geometry":{"type":"Point","coordinates":[10.17594,55.34535]},"properties":{"id":30941,"name":"Tommerup Stationsby","state_code":"83","country_code":"DK"}},{"type":"Feature","geometry":{"type":"Point","coordinates":[8.86674,54.93306]},"properties":{"id":30950,"name":"Tønder","state_code":"83","country_code":"DK"}},{"type":"Feature","geometry":{"type":"Point","coordinates":[8.87214,55.07304]},"properties":{"id":30951,"name":"Tønder Kommune","state_code":"83","country_code":"DK"}},{"type":"Feature","geometry":{"type":"Point","coordinates":[10.6519,55.36172]},"properties":{"id":30954,"name":"Ullerslev","state_code":"83","country_code":"DK"}},{"type":"Feature","geometry":{"type":"Point","coordinates":[9.28435,55.42764]},"properties":{"id":30959,"name":"Vamdrup","state_code":"83","country_code":"DK"}},{"type":"Feature","geometry":{"type":"Point","coordinates":[8.48069,55.62112]},"properties":{"id":30961,"name":"Varde","state_code":"83","country_code":"DK"}},{"type":"Feature","geometry":{"type":"Point","coordinates":[8.5,55.61667]},"properties":{"id":30962,"name":"Varde Kommune","state_code":"83","country_code":"DK"}},{"type":"Feature","geometry":{"type":"Point","coordinates":[9.13795,55.48117]},"properties":{"id":30963,"name":"Vejen","state_code":"83","country_code":"DK"}},{"type":"Feature","geometry":{"type":"Point","coordinates":[9.05004,55.46312]},"properties":{"id":30964,"name":"Vejen Kommune","state_code":"83","country_code":"DK"}},{"type":"Feature","geometry":{"type":"Point","coordinates":[9.5357,55.70927]},"properties":{"id":30965,"name":"Vejle","state_code":"83","country_code":"DK"}},{"type":"Feature","geometry":{"type":"Point","coordinates":[9.40421,55.74874]},"properties":{"id":30966,"name":"Vejle Kommune","state_code":"83","country_code":"DK"}},{"type":"Feature","geometry":{"type":"Point","coordinates":[10.45536,55.07322]},"properties":{"id":30970,"name":"Vester-Skerninge","state_code":"83","country_code":"DK"}},{"type":"Feature","geometry":{"type":"Point","coordinates":[10.61309,55.04489]},"properties":{"id":30977,"name":"Vindeby","state_code":"83","country_code":"DK"}},{"type":"Feature","geometry":{"type":"Point","coordinates":[10.13784,55.38482]},"properties":{"id":30982,"name":"Vissenbjerg","state_code":"83","country_code":"DK"}},{"type":"Feature","geometry":{"type":"Point","coordinates":[9.30603,55.24639]},"properties":{"id":30984,"name":"Vojens","state_code":"83","country_code":"DK"}}]}