{"type":"FeatureCollection","features":[{"type":"Feature","geometry":{"type":"Point","coordinates":[-69.9454,18.45539]},"properties":{"id":31029,"name":"Bella Vista","state_code":"01","country_code":"DO"}},{"type":"Feature","geometry":{"type":"Point","coordinates":[-69.89339,18.46707]},"properties":{"id":31047,"name":"Ciudad Nueva","state_code":"01","country_code":"DO"}},{"type":"Feature","geometry":{"type":"Point","coordinates":[-69.9261343,18.5016872]},"properties":{"id":31051,"name":"Cristo Rey","state_code":"01","country_code":"DO"}},{"type":"Feature","geometry":{"type":"Point","coordinates":[-69.9,18.5]},"properties":{"id":31067,"name":"Ensanche Luperón","state_code":"01","country_code":"DO"}},{"type":"Feature","geometry":{"type":"Point","coordinates":[-69.93251,18.4920297]},"properties":{"id":31101,"name":"La Agustina","state_code":"01","country_code":"DO"}},{"type":"Feature","geometry":{"type":"Point","coordinates":[-69.93333,18.46667]},"properties":{"id":31107,"name":"La Julia","state_code":"01","country_code":"DO"}},{"type":"Feature","geometry":{"type":"Point","coordinates":[-69.8949563,18.4787324]},"properties":{"id":31182,"name":"San Carlos","state_code":"01","country_code":"DO"}},{"type":"Feature","geometry":{"type":"Point","coordinates":[-69.89232,18.47186]},"properties":{"id":31197,"name":"Santo Domingo","state_code":"01","country_code":"DO"}},{"type":"Feature","geometry":{"type":"Point","coordinates":[-69.899887,18.4842583]},"properties":{"id":31213,"name":"Villa Consuelo","state_code":"01","country_code":"DO"}},{"type":"Feature","geometry":{"type":"Point","coordinates":[-69.88914,18.48278]},"properties":{"id":31215,"name":"Villa Francisca","state_code":"01","country_code":"DO"}}]}