{"type":"FeatureCollection","features":[{"type":"Feature","geometry":{"type":"Point","coordinates":[-70.52956,19.22207]},"properties":{"id":31048,"name":"Concepción de La Vega","state_code":"13","country_code":"DO"}},{"type":"Feature","geometry":{"type":"Point","coordinates":[-70.74499,18.90919]},"properties":{"id":31049,"name":"Constanza","state_code":"13","country_code":"DO"}},{"type":"Feature","geometry":{"type":"Point","coordinates":[-70.63595,19.11683]},"properties":{"id":31091,"name":"Jarabacoa","state_code":"13","country_code":"DO"}},{"type":"Feature","geometry":{"type":"Point","coordinates":[-70.37607,19.13292]},"properties":{"id":31093,"name":"Jima Abajo","state_code":"13","country_code":"DO"}},{"type":"Feature","geometry":{"type":"Point","coordinates":[-70.40632,19.11938]},"properties":{"id":31166,"name":"Rincón","state_code":"13","country_code":"DO"}},{"type":"Feature","geometry":{"type":"Point","coordinates":[-70.56643,19.31583]},"properties":{"id":31169,"name":"Río Verde Arriba","state_code":"13","country_code":"DO"}},{"type":"Feature","geometry":{"type":"Point","coordinates":[-70.6885,18.93537]},"properties":{"id":31206,"name":"Tireo Arriba","state_code":"13","country_code":"DO"}}]}