{"type":"FeatureCollection","features":[{"type":"Feature","geometry":{"type":"Point","coordinates":[-70.33185,18.27964]},"properties":{"id":31027,"name":"Baní","state_code":"17","country_code":"DO"}},{"type":"Feature","geometry":{"type":"Point","coordinates":[-70.41768,18.24297]},"properties":{"id":31128,"name":"Matanzas","state_code":"17","country_code":"DO"}},{"type":"Feature","geometry":{"type":"Point","coordinates":[-70.21053,18.24697]},"properties":{"id":31139,"name":"Nizao","state_code":"17","country_code":"DO"}},{"type":"Feature","geometry":{"type":"Point","coordinates":[-70.2956,18.26196]},"properties":{"id":31147,"name":"Paya","state_code":"17","country_code":"DO"}},{"type":"Feature","geometry":{"type":"Point","coordinates":[-70.22648,18.29935]},"properties":{"id":31157,"name":"Pizarrete","state_code":"17","country_code":"DO"}},{"type":"Feature","geometry":{"type":"Point","coordinates":[-70.52352,18.27351]},"properties":{"id":31170,"name":"Sabana Buey","state_code":"17","country_code":"DO"}}]}