{"type":"FeatureCollection","features":[{"type":"Feature","geometry":{"type":"Point","coordinates":[-71.29311,17.85782]},"properties":{"id":31099,"name":"Juancho","state_code":"16","country_code":"DO"}},{"type":"Feature","geometry":{"type":"Point","coordinates":[-71.401,17.80136]},"properties":{"id":31141,"name":"Oviedo","state_code":"16","country_code":"DO"}},{"type":"Feature","geometry":{"type":"Point","coordinates":[-71.6,18.08333]},"properties":{"id":31148,"name":"Pedernales","state_code":"16","country_code":"DO"}}]}