{"type":"FeatureCollection","features":[{"type":"Feature","geometry":{"type":"Point","coordinates":[-69.6,18.78333]},"properties":{"id":31028,"name":"Bayaguana","state_code":"29","country_code":"DO"}},{"type":"Feature","geometry":{"type":"Point","coordinates":[-69.94629,18.82774]},"properties":{"id":31054,"name":"Don Juan","state_code":"29","country_code":"DO"}},{"type":"Feature","geometry":{"type":"Point","coordinates":[-70.03557,18.81509]},"properties":{"id":31068,"name":"Esperalvillo","state_code":"29","country_code":"DO"}},{"type":"Feature","geometry":{"type":"Point","coordinates":[-69.75114,18.95147]},"properties":{"id":31076,"name":"Gonzalo","state_code":"29","country_code":"DO"}},{"type":"Feature","geometry":{"type":"Point","coordinates":[-69.99536,18.73226]},"properties":{"id":31119,"name":"Los Botados","state_code":"29","country_code":"DO"}},{"type":"Feature","geometry":{"type":"Point","coordinates":[-69.83616,19.04134]},"properties":{"id":31126,"name":"Majagual","state_code":"29","country_code":"DO"}},{"type":"Feature","geometry":{"type":"Point","coordinates":[-69.78399,18.807]},"properties":{"id":31136,"name":"Monte Plata","state_code":"29","country_code":"DO"}},{"type":"Feature","geometry":{"type":"Point","coordinates":[-69.79331,18.94498]},"properties":{"id":31171,"name":"Sabana Grande de Boyá","state_code":"29","country_code":"DO"}},{"type":"Feature","geometry":{"type":"Point","coordinates":[-70.02583,18.77315]},"properties":{"id":31224,"name":"Yamasá","state_code":"29","country_code":"DO"}}]}