{"type":"FeatureCollection","features":[{"type":"Feature","geometry":{"type":"Point","coordinates":[-69.6,18.45]},"properties":{"id":31031,"name":"Boca Chica","state_code":"32","country_code":"DO"}},{"type":"Feature","geometry":{"type":"Point","coordinates":[-69.85707,18.48847]},"properties":{"id":31198,"name":"Santo Domingo Este","state_code":"32","country_code":"DO"}},{"type":"Feature","geometry":{"type":"Point","coordinates":[-70,18.5]},"properties":{"id":31199,"name":"Santo Domingo Oeste","state_code":"32","country_code":"DO"}}]}