{"type":"FeatureCollection","features":[{"type":"Feature","geometry":{"type":"Point","coordinates":[1.19616,36.41657]},"properties":{"id":31226,"name":"Abou el Hassan","state_code":"02","country_code":"DZ"}},{"type":"Feature","geometry":{"type":"Point","coordinates":[1.12602,36.06629]},"properties":{"id":31291,"name":"Boukadir","state_code":"02","country_code":"DZ"}},{"type":"Feature","geometry":{"type":"Point","coordinates":[1.33452,36.16525]},"properties":{"id":31308,"name":"Chlef","state_code":"02","country_code":"DZ"}},{"type":"Feature","geometry":{"type":"Point","coordinates":[1.25537,36.19591]},"properties":{"id":31324,"name":"Ech Chettia","state_code":"02","country_code":"DZ"}},{"type":"Feature","geometry":{"type":"Point","coordinates":[1.53299,36.18503]},"properties":{"id":31397,"name":"Oued Fodda","state_code":"02","country_code":"DZ"}},{"type":"Feature","geometry":{"type":"Point","coordinates":[1.19949,36.10124]},"properties":{"id":31399,"name":"Oued Sly","state_code":"02","country_code":"DZ"}},{"type":"Feature","geometry":{"type":"Point","coordinates":[1.30258,36.46472]},"properties":{"id":31424,"name":"Sidi Akkacha","state_code":"02","country_code":"DZ"}}]}