{"type":"FeatureCollection","features":[{"type":"Feature","geometry":{"type":"Point","coordinates":[1.54697,34.84218]},"properties":{"id":31472,"name":"’Aïn Deheb","state_code":"14","country_code":"DZ"}},{"type":"Feature","geometry":{"type":"Point","coordinates":[0.83496,34.86375]},"properties":{"id":31317,"name":"Djebilet Rosfa","state_code":"14","country_code":"DZ"}},{"type":"Feature","geometry":{"type":"Point","coordinates":[1.04945,35.06544]},"properties":{"id":31346,"name":"Frenda","state_code":"14","country_code":"DZ"}},{"type":"Feature","geometry":{"type":"Point","coordinates":[2.31889,35.21222]},"properties":{"id":31365,"name":"Ksar Chellala","state_code":"14","country_code":"DZ"}},{"type":"Feature","geometry":{"type":"Point","coordinates":[1.75714,35.43058]},"properties":{"id":31379,"name":"Mehdia daira de meghila","state_code":"14","country_code":"DZ"}},{"type":"Feature","geometry":{"type":"Point","coordinates":[1.49612,35.18568]},"properties":{"id":31436,"name":"Sougueur","state_code":"14","country_code":"DZ"}},{"type":"Feature","geometry":{"type":"Point","coordinates":[1.31699,35.37103]},"properties":{"id":31449,"name":"Tiaret","state_code":"14","country_code":"DZ"}}]}