{"type":"FeatureCollection","features":[{"type":"Feature","geometry":{"type":"Point","coordinates":[7.76667,36.9]},"properties":{"id":31233,"name":"Annaba","state_code":"23","country_code":"DZ"}},{"type":"Feature","geometry":{"type":"Point","coordinates":[7.45333,36.83528]},"properties":{"id":31267,"name":"Berrahal","state_code":"23","country_code":"DZ"}},{"type":"Feature","geometry":{"type":"Point","coordinates":[7.75111,36.68482]},"properties":{"id":31323,"name":"Drean","state_code":"23","country_code":"DZ"}},{"type":"Feature","geometry":{"type":"Point","coordinates":[7.73684,36.80377]},"properties":{"id":31334,"name":"El Hadjar","state_code":"23","country_code":"DZ"}}]}