{"type":"FeatureCollection","features":[{"type":"Feature","geometry":{"type":"Point","coordinates":[7.90641,36.76967]},"properties":{"id":31260,"name":"Ben Mehidi","state_code":"36","country_code":"DZ"}},{"type":"Feature","geometry":{"type":"Point","coordinates":[7.84722,36.70222]},"properties":{"id":31270,"name":"Besbes","state_code":"36","country_code":"DZ"}},{"type":"Feature","geometry":{"type":"Point","coordinates":[8.44333,36.89556]},"properties":{"id":31337,"name":"El Kala","state_code":"36","country_code":"DZ"}},{"type":"Feature","geometry":{"type":"Point","coordinates":[8.31377,36.7672]},"properties":{"id":31342,"name":"El Tarf","state_code":"36","country_code":"DZ"}}]}