{"type":"FeatureCollection","features":[{"type":"Feature","geometry":{"type":"Point","coordinates":[6.16651,36.16286]},"properties":{"id":31302,"name":"Chelghoum el Aïd","state_code":"43","country_code":"DZ"}},{"type":"Feature","geometry":{"type":"Point","coordinates":[6.26444,36.45028]},"properties":{"id":31387,"name":"Mila","state_code":"43","country_code":"DZ"}},{"type":"Feature","geometry":{"type":"Point","coordinates":[6.04267,36.45774]},"properties":{"id":31412,"name":"Rouached","state_code":"43","country_code":"DZ"}},{"type":"Feature","geometry":{"type":"Point","coordinates":[6.26111,36.52056]},"properties":{"id":31429,"name":"Sidi Mérouane","state_code":"43","country_code":"DZ"}},{"type":"Feature","geometry":{"type":"Point","coordinates":[6.35434,36.11653]},"properties":{"id":31446,"name":"Telerghma","state_code":"43","country_code":"DZ"}}]}