{"type":"FeatureCollection","features":[{"type":"Feature","geometry":{"type":"Point","coordinates":[2.92185,36.80277]},"properties":{"id":31470,"name":"’Aïn Benian","state_code":"42","country_code":"DZ"}},{"type":"Feature","geometry":{"type":"Point","coordinates":[3.09606,36.66655]},"properties":{"id":31255,"name":"Baraki","state_code":"42","country_code":"DZ"}},{"type":"Feature","geometry":{"type":"Point","coordinates":[2.69007,36.64262]},"properties":{"id":31283,"name":"Bou Ismaïl","state_code":"42","country_code":"DZ"}},{"type":"Feature","geometry":{"type":"Point","coordinates":[2.95924,36.76775]},"properties":{"id":31304,"name":"Cheraga","state_code":"42","country_code":"DZ"}},{"type":"Feature","geometry":{"type":"Point","coordinates":[2.94444,36.67]},"properties":{"id":31320,"name":"Douera","state_code":"42","country_code":"DZ"}},{"type":"Feature","geometry":{"type":"Point","coordinates":[2.62528,36.4701]},"properties":{"id":31328,"name":"El Affroun","state_code":"42","country_code":"DZ"}},{"type":"Feature","geometry":{"type":"Point","coordinates":[2.41382,36.51257]},"properties":{"id":31349,"name":"Hadjout","state_code":"42","country_code":"DZ"}},{"type":"Feature","geometry":{"type":"Point","coordinates":[2.76845,36.63888]},"properties":{"id":31364,"name":"Kolea","state_code":"42","country_code":"DZ"}},{"type":"Feature","geometry":{"type":"Point","coordinates":[2.68991,36.46695]},"properties":{"id":31389,"name":"Mouzaïa","state_code":"42","country_code":"DZ"}},{"type":"Feature","geometry":{"type":"Point","coordinates":[2.79028,36.55528]},"properties":{"id":31401,"name":"Oued el Alleug","state_code":"42","country_code":"DZ"}},{"type":"Feature","geometry":{"type":"Point","coordinates":[3.02462,36.70456]},"properties":{"id":31418,"name":"Saoula","state_code":"42","country_code":"DZ"}},{"type":"Feature","geometry":{"type":"Point","coordinates":[2.4475,36.58972]},"properties":{"id":31453,"name":"Tipasa","state_code":"42","country_code":"DZ"}},{"type":"Feature","geometry":{"type":"Point","coordinates":[2.84244,36.71169]},"properties":{"id":31465,"name":"Zeralda","state_code":"42","country_code":"DZ"}}]}