{"type":"FeatureCollection","features":[{"type":"Feature","geometry":{"type":"Point","coordinates":[-79.26893,-3.13349]},"properties":{"id":31493,"name":"Cantón San Fernando","state_code":"A","country_code":"EC"}},{"type":"Feature","geometry":{"type":"Point","coordinates":[-79.00453,-2.90055]},"properties":{"id":31501,"name":"Cuenca","state_code":"A","country_code":"EC"}},{"type":"Feature","geometry":{"type":"Point","coordinates":[-78.77814,-2.89264]},"properties":{"id":31507,"name":"Gualaceo","state_code":"A","country_code":"EC"}},{"type":"Feature","geometry":{"type":"Point","coordinates":[-78.78333,-2.85]},"properties":{"id":31519,"name":"La Unión","state_code":"A","country_code":"EC"}},{"type":"Feature","geometry":{"type":"Point","coordinates":[-78.88333,-2.86667]},"properties":{"id":31521,"name":"Llacao","state_code":"A","country_code":"EC"}},{"type":"Feature","geometry":{"type":"Point","coordinates":[-78.85,-2.91667]},"properties":{"id":31535,"name":"Nulti","state_code":"A","country_code":"EC"}}]}