{"type":"FeatureCollection","features":[{"type":"Feature","geometry":{"type":"Point","coordinates":[-77.14083,-0.69832]},"properties":{"id":31490,"name":"Boca Suno","state_code":"D","country_code":"EC"}},{"type":"Feature","geometry":{"type":"Point","coordinates":[-76.96667,-0.46667]},"properties":{"id":31506,"name":"Francisco de Orellana Canton","state_code":"D","country_code":"EC"}},{"type":"Feature","geometry":{"type":"Point","coordinates":[-77.30255,-0.69487]},"properties":{"id":31523,"name":"Loreto Canton","state_code":"D","country_code":"EC"}},{"type":"Feature","geometry":{"type":"Point","coordinates":[-76.98719,-0.46645]},"properties":{"id":31554,"name":"Puerto Francisco de Orellana","state_code":"D","country_code":"EC"}}]}