{"type":"FeatureCollection","features":[{"type":"Feature","geometry":{"type":"Point","coordinates":[-78.8486,-2.73969]},"properties":{"id":31484,"name":"Azogues","state_code":"F","country_code":"EC"}},{"type":"Feature","geometry":{"type":"Point","coordinates":[-78.9394,-2.56062]},"properties":{"id":31496,"name":"Cañar","state_code":"F","country_code":"EC"}},{"type":"Feature","geometry":{"type":"Point","coordinates":[-79.33977,-2.42355]},"properties":{"id":31518,"name":"La Troncal","state_code":"F","country_code":"EC"}}]}