{"type":"FeatureCollection","features":[{"type":"Feature","geometry":{"type":"Point","coordinates":[-78.21371,0.33247]},"properties":{"id":31483,"name":"Atuntaqui","state_code":"I","country_code":"EC"}},{"type":"Feature","geometry":{"type":"Point","coordinates":[-78.26428,0.30107]},"properties":{"id":31500,"name":"Cotacachi","state_code":"I","country_code":"EC"}},{"type":"Feature","geometry":{"type":"Point","coordinates":[-78.12233,0.35171]},"properties":{"id":31513,"name":"Ibarra","state_code":"I","country_code":"EC"}},{"type":"Feature","geometry":{"type":"Point","coordinates":[-78.26248,0.23457]},"properties":{"id":31536,"name":"Otavalo","state_code":"I","country_code":"EC"}},{"type":"Feature","geometry":{"type":"Point","coordinates":[-77.94068,0.39116]},"properties":{"id":31546,"name":"Pimampiro","state_code":"I","country_code":"EC"}}]}