{"type":"FeatureCollection","features":[{"type":"Feature","geometry":{"type":"Point","coordinates":[-79.53443,-1.80217]},"properties":{"id":31485,"name":"Babahoyo","state_code":"R","country_code":"EC"}},{"type":"Feature","geometry":{"type":"Point","coordinates":[-79.45998,-1.57504]},"properties":{"id":31494,"name":"Catarama","state_code":"R","country_code":"EC"}},{"type":"Feature","geometry":{"type":"Point","coordinates":[-79.28759,-1.79008]},"properties":{"id":31529,"name":"Montalvo","state_code":"R","country_code":"EC"}},{"type":"Feature","geometry":{"type":"Point","coordinates":[-79.75647,-1.43795]},"properties":{"id":31538,"name":"Palenque","state_code":"R","country_code":"EC"}},{"type":"Feature","geometry":{"type":"Point","coordinates":[-79.46352,-1.02863]},"properties":{"id":31559,"name":"Quevedo","state_code":"R","country_code":"EC"}},{"type":"Feature","geometry":{"type":"Point","coordinates":[-79.45943,-1.44158]},"properties":{"id":31587,"name":"Ventanas","state_code":"R","country_code":"EC"}},{"type":"Feature","geometry":{"type":"Point","coordinates":[-79.75191,-1.55611]},"properties":{"id":31588,"name":"Vinces","state_code":"R","country_code":"EC"}}]}