{"type":"FeatureCollection","features":[{"type":"Feature","geometry":{"type":"Point","coordinates":[-90.3138,-0.74018]},"properties":{"id":31551,"name":"Puerto Ayora","state_code":"W","country_code":"EC"}},{"type":"Feature","geometry":{"type":"Point","coordinates":[-89.61021,-0.90172]},"properties":{"id":31552,"name":"Puerto Baquerizo Moreno","state_code":"W","country_code":"EC"}},{"type":"Feature","geometry":{"type":"Point","coordinates":[-90.96654,-0.95542]},"properties":{"id":31555,"name":"Puerto Villamil","state_code":"W","country_code":"EC"}}]}