{"type":"FeatureCollection","features":[{"type":"Feature","geometry":{"type":"Point","coordinates":[-79.22506,-0.94094]},"properties":{"id":31517,"name":"La Maná","state_code":"X","country_code":"EC"}},{"type":"Feature","geometry":{"type":"Point","coordinates":[-78.61554,-0.93521]},"properties":{"id":31520,"name":"Latacunga","state_code":"X","country_code":"EC"}},{"type":"Feature","geometry":{"type":"Point","coordinates":[-78.69636,-0.95759]},"properties":{"id":31556,"name":"Pujilí","state_code":"X","country_code":"EC"}},{"type":"Feature","geometry":{"type":"Point","coordinates":[-78.59063,-1.04547]},"properties":{"id":31570,"name":"San Miguel de Salcedo","state_code":"X","country_code":"EC"}},{"type":"Feature","geometry":{"type":"Point","coordinates":[-78.667,-0.8399]},"properties":{"id":31578,"name":"Saquisilí","state_code":"X","country_code":"EC"}}]}