{"type":"FeatureCollection","features":[{"type":"Feature","geometry":{"type":"Point","coordinates":[25.48168,59.27644]},"properties":{"id":31595,"name":"Anija vald","state_code":"37","country_code":"EE"}},{"type":"Feature","geometry":{"type":"Point","coordinates":[25.07618,59.36686]},"properties":{"id":31598,"name":"Aruküla","state_code":"37","country_code":"EE"}},{"type":"Feature","geometry":{"type":"Point","coordinates":[24.82225,59.51358]},"properties":{"id":31602,"name":"Haabneeme","state_code":"37","country_code":"EE"}},{"type":"Feature","geometry":{"type":"Point","coordinates":[24.57176,59.38641]},"properties":{"id":31607,"name":"Harku","state_code":"37","country_code":"EE"}},{"type":"Feature","geometry":{"type":"Point","coordinates":[24.46206,59.39157]},"properties":{"id":31608,"name":"Harku vald","state_code":"37","country_code":"EE"}},{"type":"Feature","geometry":{"type":"Point","coordinates":[25.13535,59.43996]},"properties":{"id":31613,"name":"Jõelähtme vald","state_code":"37","country_code":"EE"}},{"type":"Feature","geometry":{"type":"Point","coordinates":[24.89417,59.35417]},"properties":{"id":31618,"name":"Jüri","state_code":"37","country_code":"EE"}},{"type":"Feature","geometry":{"type":"Point","coordinates":[25.32111,59.33611]},"properties":{"id":31626,"name":"Kehra","state_code":"37","country_code":"EE"}},{"type":"Feature","geometry":{"type":"Point","coordinates":[24.41306,59.30361]},"properties":{"id":31629,"name":"Keila","state_code":"37","country_code":"EE"}},{"type":"Feature","geometry":{"type":"Point","coordinates":[24.83776,59.30775]},"properties":{"id":31631,"name":"Kiili","state_code":"37","country_code":"EE"}},{"type":"Feature","geometry":{"type":"Point","coordinates":[24.85292,59.29672]},"properties":{"id":31632,"name":"Kiili vald","state_code":"37","country_code":"EE"}},{"type":"Feature","geometry":{"type":"Point","coordinates":[24.87824,59.46001]},"properties":{"id":31640,"name":"Kose","state_code":"37","country_code":"EE"}},{"type":"Feature","geometry":{"type":"Point","coordinates":[25.44139,59.44389]},"properties":{"id":31644,"name":"Kuusalu","state_code":"37","country_code":"EE"}},{"type":"Feature","geometry":{"type":"Point","coordinates":[24.61418,59.35083]},"properties":{"id":31647,"name":"Laagri","state_code":"37","country_code":"EE"}},{"type":"Feature","geometry":{"type":"Point","coordinates":[25.72139,59.57639]},"properties":{"id":31651,"name":"Loksa","state_code":"37","country_code":"EE"}},{"type":"Feature","geometry":{"type":"Point","coordinates":[25.71667,59.57844]},"properties":{"id":31652,"name":"Loksa linn","state_code":"37","country_code":"EE"}},{"type":"Feature","geometry":{"type":"Point","coordinates":[24.94949,59.43123]},"properties":{"id":31653,"name":"Loo","state_code":"37","country_code":"EE"}},{"type":"Feature","geometry":{"type":"Point","coordinates":[24.98215,59.46529]},"properties":{"id":31658,"name":"Maardu","state_code":"37","country_code":"EE"}},{"type":"Feature","geometry":{"type":"Point","coordinates":[24.9735,59.46385]},"properties":{"id":31659,"name":"Maardu linn","state_code":"37","country_code":"EE"}},{"type":"Feature","geometry":{"type":"Point","coordinates":[24.05306,59.35667]},"properties":{"id":31676,"name":"Paldiski","state_code":"37","country_code":"EE"}},{"type":"Feature","geometry":{"type":"Point","coordinates":[24.79726,59.53459]},"properties":{"id":31678,"name":"Pringi","state_code":"37","country_code":"EE"}},{"type":"Feature","geometry":{"type":"Point","coordinates":[25.18306,59.36639]},"properties":{"id":31688,"name":"Raasiku","state_code":"37","country_code":"EE"}},{"type":"Feature","geometry":{"type":"Point","coordinates":[24.93932,59.33202]},"properties":{"id":31689,"name":"Rae vald","state_code":"37","country_code":"EE"}},{"type":"Feature","geometry":{"type":"Point","coordinates":[24.31056,59.11417]},"properties":{"id":31695,"name":"Riisipere","state_code":"37","country_code":"EE"}},{"type":"Feature","geometry":{"type":"Point","coordinates":[24.79972,59.53528]},"properties":{"id":31698,"name":"Rummu","state_code":"37","country_code":"EE"}},{"type":"Feature","geometry":{"type":"Point","coordinates":[24.66382,59.30354]},"properties":{"id":31704,"name":"Saku","state_code":"37","country_code":"EE"}},{"type":"Feature","geometry":{"type":"Point","coordinates":[24.71649,59.28069]},"properties":{"id":31705,"name":"Saku vald","state_code":"37","country_code":"EE"}},{"type":"Feature","geometry":{"type":"Point","coordinates":[24.54967,59.32258]},"properties":{"id":31706,"name":"Saue","state_code":"37","country_code":"EE"}},{"type":"Feature","geometry":{"type":"Point","coordinates":[24.52503,59.29255]},"properties":{"id":31707,"name":"Saue vald","state_code":"37","country_code":"EE"}},{"type":"Feature","geometry":{"type":"Point","coordinates":[24.5533,59.42607]},"properties":{"id":31714,"name":"Tabasalu","state_code":"37","country_code":"EE"}},{"type":"Feature","geometry":{"type":"Point","coordinates":[24.75353,59.43696]},"properties":{"id":31716,"name":"Tallinn","state_code":"37","country_code":"EE"}},{"type":"Feature","geometry":{"type":"Point","coordinates":[24.225,59.08306]},"properties":{"id":31727,"name":"Turba","state_code":"37","country_code":"EE"}},{"type":"Feature","geometry":{"type":"Point","coordinates":[24.97897,59.28546]},"properties":{"id":31734,"name":"Vaida","state_code":"37","country_code":"EE"}},{"type":"Feature","geometry":{"type":"Point","coordinates":[24.84807,59.50502]},"properties":{"id":31737,"name":"Viimsi","state_code":"37","country_code":"EE"}},{"type":"Feature","geometry":{"type":"Point","coordinates":[24.84833,59.50204]},"properties":{"id":31738,"name":"Viimsi vald","state_code":"37","country_code":"EE"}}]}