{"type":"FeatureCollection","features":[{"type":"Feature","geometry":{"type":"Point","coordinates":[24.82583,58.77889]},"properties":{"id":31612,"name":"Järvakandi","state_code":"71","country_code":"EE"}},{"type":"Feature","geometry":{"type":"Point","coordinates":[24.87806,58.93028]},"properties":{"id":31627,"name":"Kehtna","state_code":"71","country_code":"EE"}},{"type":"Feature","geometry":{"type":"Point","coordinates":[24.89002,58.84274]},"properties":{"id":31628,"name":"Kehtna vald","state_code":"71","country_code":"EE"}},{"type":"Feature","geometry":{"type":"Point","coordinates":[24.7575,59.16806]},"properties":{"id":31636,"name":"Kohila","state_code":"71","country_code":"EE"}},{"type":"Feature","geometry":{"type":"Point","coordinates":[24.73337,59.15283]},"properties":{"id":31637,"name":"Kohila vald","state_code":"71","country_code":"EE"}},{"type":"Feature","geometry":{"type":"Point","coordinates":[24.43056,58.90389]},"properties":{"id":31662,"name":"Märjamaa","state_code":"71","country_code":"EE"}},{"type":"Feature","geometry":{"type":"Point","coordinates":[24.39423,58.90262]},"properties":{"id":31663,"name":"Märjamaa vald","state_code":"71","country_code":"EE"}},{"type":"Feature","geometry":{"type":"Point","coordinates":[24.79278,59.00722]},"properties":{"id":31693,"name":"Rapla","state_code":"71","country_code":"EE"}},{"type":"Feature","geometry":{"type":"Point","coordinates":[24.71793,59.03309]},"properties":{"id":31694,"name":"Rapla vald","state_code":"71","country_code":"EE"}}]}