{"type":"FeatureCollection","features":[{"type":"Feature","geometry":{"type":"Point","coordinates":[32.47598,26.12467]},"properties":{"id":31809,"name":"Dishnā","state_code":"KN","country_code":"EG"}},{"type":"Feature","geometry":{"type":"Point","coordinates":[32.16329,26.05494]},"properties":{"id":31813,"name":"Farshūţ","state_code":"KN","country_code":"EG"}},{"type":"Feature","geometry":{"type":"Point","coordinates":[32.55402,25.29336]},"properties":{"id":31822,"name":"Isnā","state_code":"KN","country_code":"EG"}},{"type":"Feature","geometry":{"type":"Point","coordinates":[32.76362,25.91407]},"properties":{"id":31831,"name":"Kousa","state_code":"KN","country_code":"EG"}},{"type":"Feature","geometry":{"type":"Point","coordinates":[32.24142,26.04949]},"properties":{"id":31847,"name":"Naja' Ḥammādī","state_code":"KN","country_code":"EG"}},{"type":"Feature","geometry":{"type":"Point","coordinates":[32.72671,26.16418]},"properties":{"id":31853,"name":"Qinā","state_code":"KN","country_code":"EG"}}]}