{"type":"FeatureCollection","features":[{"type":"Feature","geometry":{"type":"Point","coordinates":[31.6141789,30.2993939]},"properties":{"id":149220,"name":"10th of Ramadan","state_code":"SHR","country_code":"EG"}},{"type":"Feature","geometry":{"type":"Point","coordinates":[31.8495035,26.2930066]},"properties":{"id":149228,"name":"Al Qurein","state_code":"SHR","country_code":"EG"}},{"type":"Feature","geometry":{"type":"Point","coordinates":[31.6913238,30.9309623]},"properties":{"id":149223,"name":"Awlad Saqr","state_code":"SHR","country_code":"EG"}},{"type":"Feature","geometry":{"type":"Point","coordinates":[31.5543048,30.4167692]},"properties":{"id":149224,"name":"Bilbeis","state_code":"SHR","country_code":"EG"}},{"type":"Feature","geometry":{"type":"Point","coordinates":[31.3889308,30.7480082]},"properties":{"id":149225,"name":"Diyarb Negm","state_code":"SHR","country_code":"EG"}},{"type":"Feature","geometry":{"type":"Point","coordinates":[32.1494967,31.1393396]},"properties":{"id":149226,"name":"El Husseiniya","state_code":"SHR","country_code":"EG"}},{"type":"Feature","geometry":{"type":"Point","coordinates":[31.7613658,30.7229174]},"properties":{"id":149229,"name":"Faqous","state_code":"SHR","country_code":"EG"}},{"type":"Feature","geometry":{"type":"Point","coordinates":[31.5067157,30.6551621]},"properties":{"id":149230,"name":"Hihya","state_code":"SHR","country_code":"EG"}},{"type":"Feature","geometry":{"type":"Point","coordinates":[31.6177412,30.7795514]},"properties":{"id":149231,"name":"Kafr Saqr","state_code":"SHR","country_code":"EG"}},{"type":"Feature","geometry":{"type":"Point","coordinates":[31.6597023,30.5360443]},"properties":{"id":149221,"name":"Markaz Abū Ḩammād","state_code":"SHR","country_code":"EG"}},{"type":"Feature","geometry":{"type":"Point","coordinates":[31.3627853,30.3557011]},"properties":{"id":149232,"name":"Mashtoul El Souk","state_code":"SHR","country_code":"EG"}},{"type":"Feature","geometry":{"type":"Point","coordinates":[31.2376685,30.5003745]},"properties":{"id":149233,"name":"Minya El Qamh","state_code":"SHR","country_code":"EG"}},{"type":"Feature","geometry":{"type":"Point","coordinates":[31.9209906,30.6286879]},"properties":{"id":149234,"name":"New Salhia","state_code":"SHR","country_code":"EG"}},{"type":"Feature","geometry":{"type":"Point","coordinates":[31.3474779,30.5845623]},"properties":{"id":149235,"name":"Zagazig","state_code":"SHR","country_code":"EG"}}]}