{"type":"FeatureCollection","features":[{"type":"Feature","geometry":{"type":"Point","coordinates":[37.88291,15.54798]},"properties":{"id":31882,"name":"Ak’ordat","state_code":"GB","country_code":"ER"}},{"type":"Feature","geometry":{"type":"Point","coordinates":[37.59067,15.10582]},"properties":{"id":31885,"name":"Barentu","state_code":"GB","country_code":"ER"}},{"type":"Feature","geometry":{"type":"Point","coordinates":[36.6575,15.11]},"properties":{"id":31891,"name":"Teseney","state_code":"GB","country_code":"ER"}}]}