{"type":"FeatureCollection","features":[{"type":"Feature","geometry":{"type":"Point","coordinates":[-2.77808,37.14245]},"properties":{"id":31915,"name":"Abla","state_code":"AL","country_code":"ES"}},{"type":"Feature","geometry":{"type":"Point","coordinates":[-2.79711,37.13226]},"properties":{"id":31918,"name":"Abrucena","state_code":"AL","country_code":"ES"}},{"type":"Feature","geometry":{"type":"Point","coordinates":[-3.02055,36.74961]},"properties":{"id":31936,"name":"Adra","state_code":"AL","country_code":"ES"}},{"type":"Feature","geometry":{"type":"Point","coordinates":[-2.18229,37.28361]},"properties":{"id":32063,"name":"Albánchez","state_code":"AL","country_code":"ES"}},{"type":"Feature","geometry":{"type":"Point","coordinates":[-2.6210982,37.032996]},"properties":{"id":151347,"name":"Alboloduy","state_code":"AL","country_code":"ES"}},{"type":"Feature","geometry":{"type":"Point","coordinates":[-2.14949,37.38856]},"properties":{"id":32056,"name":"Albox","state_code":"AL","country_code":"ES"}},{"type":"Feature","geometry":{"type":"Point","coordinates":[-2.9615,36.97458]},"properties":{"id":32103,"name":"Alcolea","state_code":"AL","country_code":"ES"}},{"type":"Feature","geometry":{"type":"Point","coordinates":[-2.59725,37.33647]},"properties":{"id":32138,"name":"Alcóntar","state_code":"AL","country_code":"ES"}},{"type":"Feature","geometry":{"type":"Point","coordinates":[-2.2665,37.23529]},"properties":{"id":32130,"name":"Alcudia de Monteagud","state_code":"AL","country_code":"ES"}},{"type":"Feature","geometry":{"type":"Point","coordinates":[-2.58655,36.99003]},"properties":{"id":32232,"name":"Alhabia","state_code":"AL","country_code":"ES"}},{"type":"Feature","geometry":{"type":"Point","coordinates":[-2.56861,36.95692]},"properties":{"id":32233,"name":"Alhama de Almería","state_code":"AL","country_code":"ES"}},{"type":"Feature","geometry":{"type":"Point","coordinates":[-2.60212,36.9658]},"properties":{"id":32245,"name":"Alicún","state_code":"AL","country_code":"ES"}},{"type":"Feature","geometry":{"type":"Point","coordinates":[-2.33333,37.16667]},"properties":{"id":32290,"name":"Almería","state_code":"AL","country_code":"ES"}},{"type":"Feature","geometry":{"type":"Point","coordinates":[-2.79051,37.00262]},"properties":{"id":32316,"name":"Almócita","state_code":"AL","country_code":"ES"}},{"type":"Feature","geometry":{"type":"Point","coordinates":[-2.59476,37.00247]},"properties":{"id":32336,"name":"Alsodux","state_code":"AL","country_code":"ES"}},{"type":"Feature","geometry":{"type":"Point","coordinates":[-1.9176,37.24536]},"properties":{"id":32390,"name":"Antas","state_code":"AL","country_code":"ES"}},{"type":"Feature","geometry":{"type":"Point","coordinates":[-2.07384,37.35024]},"properties":{"id":32426,"name":"Arboleas","state_code":"AL","country_code":"ES"}},{"type":"Feature","geometry":{"type":"Point","coordinates":[-2.4115,37.3503]},"properties":{"id":32491,"name":"Armuña de Almanzora","state_code":"AL","country_code":"ES"}},{"type":"Feature","geometry":{"type":"Point","coordinates":[-2.4534614,37.260773]},"properties":{"id":151348,"name":"Bacares","state_code":"AL","country_code":"ES"}},{"type":"Feature","geometry":{"type":"Point","coordinates":[-2.99606,37.03073]},"properties":{"id":32699,"name":"Bayárcal","state_code":"AL","country_code":"ES"}},{"type":"Feature","geometry":{"type":"Point","coordinates":[-2.4361,37.33062]},"properties":{"id":32696,"name":"Bayarque","state_code":"AL","country_code":"ES"}},{"type":"Feature","geometry":{"type":"Point","coordinates":[-1.98166,37.19389]},"properties":{"id":33057,"name":"Bédar","state_code":"AL","country_code":"ES"}},{"type":"Feature","geometry":{"type":"Point","coordinates":[-2.79134,37.01237]},"properties":{"id":32732,"name":"Beires","state_code":"AL","country_code":"ES"}},{"type":"Feature","geometry":{"type":"Point","coordinates":[-2.45941,36.92493]},"properties":{"id":32762,"name":"Benahadux","state_code":"AL","country_code":"ES"}},{"type":"Feature","geometry":{"type":"Point","coordinates":[-2.23935,37.23138]},"properties":{"id":32823,"name":"Benitagla","state_code":"AL","country_code":"ES"}},{"type":"Feature","geometry":{"type":"Point","coordinates":[-2.2418,37.21213]},"properties":{"id":32824,"name":"Benizalón","state_code":"AL","country_code":"ES"}},{"type":"Feature","geometry":{"type":"Point","coordinates":[-2.61991,36.98823]},"properties":{"id":32827,"name":"Bentarique","state_code":"AL","country_code":"ES"}},{"type":"Feature","geometry":{"type":"Point","coordinates":[-2.94966,36.84693]},"properties":{"id":32853,"name":"Berja","state_code":"AL","country_code":"ES"}},{"type":"Feature","geometry":{"type":"Point","coordinates":[-2.73943,37.00959]},"properties":{"id":33245,"name":"Canjáyar","state_code":"AL","country_code":"ES"}},{"type":"Feature","geometry":{"type":"Point","coordinates":[-2.19209,37.35146]},"properties":{"id":33260,"name":"Cantoria","state_code":"AL","country_code":"ES"}},{"type":"Feature","geometry":{"type":"Point","coordinates":[-1.89651,36.99666]},"properties":{"id":33285,"name":"Carboneras","state_code":"AL","country_code":"ES"}},{"type":"Feature","geometry":{"type":"Point","coordinates":[-2.44024,37.18484]},"properties":{"id":33488,"name":"Castro de Filabres","state_code":"AL","country_code":"ES"}},{"type":"Feature","geometry":{"type":"Point","coordinates":[-2.26657,37.2545]},"properties":{"id":33627,"name":"Chercos","state_code":"AL","country_code":"ES"}},{"type":"Feature","geometry":{"type":"Point","coordinates":[-2.26844,37.59527]},"properties":{"id":33643,"name":"Chirivel","state_code":"AL","country_code":"ES"}},{"type":"Feature","geometry":{"type":"Point","coordinates":[-2.21098,37.26166]},"properties":{"id":33902,"name":"Cóbdar","state_code":"AL","country_code":"ES"}},{"type":"Feature","geometry":{"type":"Point","coordinates":[-1.88218,37.29678]},"properties":{"id":33876,"name":"Cuevas del Almanzora","state_code":"AL","country_code":"ES"}},{"type":"Feature","geometry":{"type":"Point","coordinates":[-2.87138,36.82179]},"properties":{"id":33911,"name":"Dalías","state_code":"AL","country_code":"ES"}},{"type":"Feature","geometry":{"type":"Point","coordinates":[-2.797901,36.7707159]},"properties":{"id":151359,"name":"El Ejido","state_code":"AL","country_code":"ES"}},{"type":"Feature","geometry":{"type":"Point","coordinates":[-2.6018,36.87732]},"properties":{"id":34060,"name":"Enix","state_code":"AL","country_code":"ES"}},{"type":"Feature","geometry":{"type":"Point","coordinates":[-2.7083287,36.8696103]},"properties":{"id":151349,"name":"Felix","state_code":"AL","country_code":"ES"}},{"type":"Feature","geometry":{"type":"Point","coordinates":[-2.84011,37.1715]},"properties":{"id":34194,"name":"Fiñana","state_code":"AL","country_code":"ES"}},{"type":"Feature","geometry":{"type":"Point","coordinates":[-2.2581,37.36074]},"properties":{"id":34188,"name":"Fines","state_code":"AL","country_code":"ES"}},{"type":"Feature","geometry":{"type":"Point","coordinates":[-2.85957,36.9802]},"properties":{"id":34205,"name":"Fondón","state_code":"AL","country_code":"ES"}},{"type":"Feature","geometry":{"type":"Point","coordinates":[-2.49254,36.95322]},"properties":{"id":34558,"name":"Gádor","state_code":"AL","country_code":"ES"}},{"type":"Feature","geometry":{"type":"Point","coordinates":[-1.9401524,37.1688999]},"properties":{"id":151350,"name":"Gallardos Los","state_code":"AL","country_code":"ES"}},{"type":"Feature","geometry":{"type":"Point","coordinates":[-1.82252,37.18141]},"properties":{"id":34427,"name":"Garrucha","state_code":"AL","country_code":"ES"}},{"type":"Feature","geometry":{"type":"Point","coordinates":[-2.54012,37.11886]},"properties":{"id":34562,"name":"Gérgal","state_code":"AL","country_code":"ES"}},{"type":"Feature","geometry":{"type":"Point","coordinates":[-2.60941,36.96804]},"properties":{"id":34706,"name":"Huécija","state_code":"AL","country_code":"ES"}},{"type":"Feature","geometry":{"type":"Point","coordinates":[-2.4376,36.88507]},"properties":{"id":34711,"name":"Huércal de Almería","state_code":"AL","country_code":"ES"}},{"type":"Feature","geometry":{"type":"Point","coordinates":[-1.943,37.38918]},"properties":{"id":34712,"name":"Huércal-Overa","state_code":"AL","country_code":"ES"}},{"type":"Feature","geometry":{"type":"Point","coordinates":[-2.63871,36.98562]},"properties":{"id":34746,"name":"Illar","state_code":"AL","country_code":"ES"}},{"type":"Feature","geometry":{"type":"Point","coordinates":[-2.66046,36.99344]},"properties":{"id":34757,"name":"Instinción","state_code":"AL","country_code":"ES"}},{"type":"Feature","geometry":{"type":"Point","coordinates":[-2.6822356,36.7531816]},"properties":{"id":151360,"name":"La Mojonera","state_code":"AL","country_code":"ES"}},{"type":"Feature","geometry":{"type":"Point","coordinates":[-2.33419,37.29771]},"properties":{"id":34977,"name":"Laroya","state_code":"AL","country_code":"ES"}},{"type":"Feature","geometry":{"type":"Point","coordinates":[-2.7182728,37.1591047]},"properties":{"id":151358,"name":"Las Tres Villas","state_code":"AL","country_code":"ES"}},{"type":"Feature","geometry":{"type":"Point","coordinates":[-2.89033,36.99516]},"properties":{"id":35004,"name":"Laujar de Andarax","state_code":"AL","country_code":"ES"}},{"type":"Feature","geometry":{"type":"Point","coordinates":[-2.2184401,37.2948771]},"properties":{"id":151351,"name":"Líjar","state_code":"AL","country_code":"ES"}},{"type":"Feature","geometry":{"type":"Point","coordinates":[-2.06677,37.21538]},"properties":{"id":35147,"name":"Lubrín","state_code":"AL","country_code":"ES"}},{"type":"Feature","geometry":{"type":"Point","coordinates":[-2.20095,37.04037]},"properties":{"id":35148,"name":"Lucainena de las Torres","state_code":"AL","country_code":"ES"}},{"type":"Feature","geometry":{"type":"Point","coordinates":[-2.42496,37.40035]},"properties":{"id":35177,"name":"Lúcar","state_code":"AL","country_code":"ES"}},{"type":"Feature","geometry":{"type":"Point","coordinates":[-2.30087,37.33318]},"properties":{"id":35179,"name":"Macael","state_code":"AL","country_code":"ES"}},{"type":"Feature","geometry":{"type":"Point","coordinates":[-2.16454,37.71023]},"properties":{"id":35312,"name":"María","state_code":"AL","country_code":"ES"}},{"type":"Feature","geometry":{"type":"Point","coordinates":[-1.85102,37.1402]},"properties":{"id":35473,"name":"Mojacar","state_code":"AL","country_code":"ES"}},{"type":"Feature","geometry":{"type":"Point","coordinates":[-2.6483984,37.1061106]},"properties":{"id":151352,"name":"Nacimiento","state_code":"AL","country_code":"ES"}},{"type":"Feature","geometry":{"type":"Point","coordinates":[-2.20595,36.96655]},"properties":{"id":35844,"name":"Níjar","state_code":"AL","country_code":"ES"}},{"type":"Feature","geometry":{"type":"Point","coordinates":[-2.74524,37.03861]},"properties":{"id":35863,"name":"Ohanes","state_code":"AL","country_code":"ES"}},{"type":"Feature","geometry":{"type":"Point","coordinates":[-2.4743,37.17475]},"properties":{"id":35914,"name":"Olula de Castro","state_code":"AL","country_code":"ES"}},{"type":"Feature","geometry":{"type":"Point","coordinates":[-2.29754,37.35445]},"properties":{"id":35915,"name":"Olula del Río","state_code":"AL","country_code":"ES"}},{"type":"Feature","geometry":{"type":"Point","coordinates":[-2.29292,37.4853]},"properties":{"id":35948,"name":"Oria","state_code":"AL","country_code":"ES"}},{"type":"Feature","geometry":{"type":"Point","coordinates":[-2.77367,36.99813]},"properties":{"id":35997,"name":"Padules","state_code":"AL","country_code":"ES"}},{"type":"Feature","geometry":{"type":"Point","coordinates":[-2.22526,37.40764]},"properties":{"id":36072,"name":"Partaloa","state_code":"AL","country_code":"ES"}},{"type":"Feature","geometry":{"type":"Point","coordinates":[-2.95343,37.02222]},"properties":{"id":36081,"name":"Paterna del Río","state_code":"AL","country_code":"ES"}},{"type":"Feature","geometry":{"type":"Point","coordinates":[-2.4403012,36.9163957]},"properties":{"id":151353,"name":"Pechina","state_code":"AL","country_code":"ES"}},{"type":"Feature","geometry":{"type":"Point","coordinates":[-1.74496,37.41154]},"properties":{"id":36469,"name":"Pulpí","state_code":"AL","country_code":"ES"}},{"type":"Feature","geometry":{"type":"Point","coordinates":[-2.3608,37.34744]},"properties":{"id":36475,"name":"Purchena","state_code":"AL","country_code":"ES"}},{"type":"Feature","geometry":{"type":"Point","coordinates":[-2.68178,36.99523]},"properties":{"id":36714,"name":"Rágol","state_code":"AL","country_code":"ES"}},{"type":"Feature","geometry":{"type":"Point","coordinates":[-2.46302,36.94508]},"properties":{"id":36630,"name":"Rioja","state_code":"AL","country_code":"ES"}},{"type":"Feature","geometry":{"type":"Point","coordinates":[-2.61475,36.76419]},"properties":{"id":36675,"name":"Roquetas de Mar","state_code":"AL","country_code":"ES"}},{"type":"Feature","geometry":{"type":"Point","coordinates":[-2.6024935,37.0166391]},"properties":{"id":151354,"name":"Santa Cruz de Marchena","state_code":"AL","country_code":"ES"}},{"type":"Feature","geometry":{"type":"Point","coordinates":[-2.53126,36.97479]},"properties":{"id":37059,"name":"Santa Fe de Mondújar","state_code":"AL","country_code":"ES"}},{"type":"Feature","geometry":{"type":"Point","coordinates":[-2.3462856,37.2041457]},"properties":{"id":151355,"name":"Senés","state_code":"AL","country_code":"ES"}},{"type":"Feature","geometry":{"type":"Point","coordinates":[-2.50913,37.34485]},"properties":{"id":37228,"name":"Serón","state_code":"AL","country_code":"ES"}},{"type":"Feature","geometry":{"type":"Point","coordinates":[-2.39844,37.32237]},"properties":{"id":37248,"name":"Sierro","state_code":"AL","country_code":"ES"}},{"type":"Feature","geometry":{"type":"Point","coordinates":[-2.38828,37.39176]},"properties":{"id":37288,"name":"Somontín","state_code":"AL","country_code":"ES"}},{"type":"Feature","geometry":{"type":"Point","coordinates":[-2.12349,37.09761]},"properties":{"id":37298,"name":"Sorbas","state_code":"AL","country_code":"ES"}},{"type":"Feature","geometry":{"type":"Point","coordinates":[-2.38817,37.33866]},"properties":{"id":37331,"name":"Suflí","state_code":"AL","country_code":"ES"}},{"type":"Feature","geometry":{"type":"Point","coordinates":[-2.39084,37.04992]},"properties":{"id":37343,"name":"Tabernas","state_code":"AL","country_code":"ES"}},{"type":"Feature","geometry":{"type":"Point","coordinates":[-2.0781641,37.469275]},"properties":{"id":151356,"name":"Taberno","state_code":"AL","country_code":"ES"}},{"type":"Feature","geometry":{"type":"Point","coordinates":[-2.2847,37.22797]},"properties":{"id":37350,"name":"Tahal","state_code":"AL","country_code":"ES"}},{"type":"Feature","geometry":{"type":"Point","coordinates":[-2.59679,36.98393]},"properties":{"id":37406,"name":"Terque","state_code":"AL","country_code":"ES"}},{"type":"Feature","geometry":{"type":"Point","coordinates":[-2.43326,37.34606]},"properties":{"id":37667,"name":"Tíjola","state_code":"AL","country_code":"ES"}},{"type":"Feature","geometry":{"type":"Point","coordinates":[-1.89497,37.15224]},"properties":{"id":37656,"name":"Turre","state_code":"AL","country_code":"ES"}},{"type":"Feature","geometry":{"type":"Point","coordinates":[-2.26607,37.02948]},"properties":{"id":37657,"name":"Turrillas","state_code":"AL","country_code":"ES"}},{"type":"Feature","geometry":{"type":"Point","coordinates":[-2.20491,37.1846]},"properties":{"id":37679,"name":"Uleila del Campo","state_code":"AL","country_code":"ES"}},{"type":"Feature","geometry":{"type":"Point","coordinates":[-2.36485,37.3974]},"properties":{"id":37697,"name":"Urrácal","state_code":"AL","country_code":"ES"}},{"type":"Feature","geometry":{"type":"Point","coordinates":[-2.40155,37.19407]},"properties":{"id":37926,"name":"Velefique","state_code":"AL","country_code":"ES"}},{"type":"Feature","geometry":{"type":"Point","coordinates":[-2.09587,37.69178]},"properties":{"id":38415,"name":"Vélez-Blanco","state_code":"AL","country_code":"ES"}},{"type":"Feature","geometry":{"type":"Point","coordinates":[-2.0768203,37.6483501]},"properties":{"id":151357,"name":"Vélez-Rubio","state_code":"AL","country_code":"ES"}},{"type":"Feature","geometry":{"type":"Point","coordinates":[-1.85905,37.24345]},"properties":{"id":37947,"name":"Vera","state_code":"AL","country_code":"ES"}},{"type":"Feature","geometry":{"type":"Point","coordinates":[-2.42695,36.89006]},"properties":{"id":37961,"name":"Viator","state_code":"AL","country_code":"ES"}},{"type":"Feature","geometry":{"type":"Point","coordinates":[-2.64273,36.83155]},"properties":{"id":38417,"name":"Vícar","state_code":"AL","country_code":"ES"}},{"type":"Feature","geometry":{"type":"Point","coordinates":[-2.03985,37.34218]},"properties":{"id":38510,"name":"Zurgena","state_code":"AL","country_code":"ES"}}]}