{"type":"FeatureCollection","features":[{"type":"Feature","geometry":{"type":"Point","coordinates":[-4.52231,38.02674]},"properties":{"id":31929,"name":"Adamuz","state_code":"CO","country_code":"ES"}},{"type":"Feature","geometry":{"type":"Point","coordinates":[-4.6657027,37.4828908]},"properties":{"id":151367,"name":"Aguilar de la Frontera","state_code":"CO","country_code":"ES"}},{"type":"Feature","geometry":{"type":"Point","coordinates":[-4.96667,38.38333]},"properties":{"id":32087,"name":"Alcaracejos","state_code":"CO","country_code":"ES"}},{"type":"Feature","geometry":{"type":"Point","coordinates":[-4.09052,37.43902]},"properties":{"id":32277,"name":"Almedinilla","state_code":"CO","country_code":"ES"}},{"type":"Feature","geometry":{"type":"Point","coordinates":[-5.02037,37.8107]},"properties":{"id":32295,"name":"Almodóvar del Río","state_code":"CO","country_code":"ES"}},{"type":"Feature","geometry":{"type":"Point","coordinates":[-4.9,38.41667]},"properties":{"id":32596,"name":"Añora","state_code":"CO","country_code":"ES"}},{"type":"Feature","geometry":{"type":"Point","coordinates":[-4.32245,37.6167]},"properties":{"id":32607,"name":"Baena","state_code":"CO","country_code":"ES"}},{"type":"Feature","geometry":{"type":"Point","coordinates":[-5.16653,38.57566]},"properties":{"id":32734,"name":"Belalcázar","state_code":"CO","country_code":"ES"}},{"type":"Feature","geometry":{"type":"Point","coordinates":[-5.2,38.26667]},"properties":{"id":33059,"name":"Bélmez","state_code":"CO","country_code":"ES"}},{"type":"Feature","geometry":{"type":"Point","coordinates":[-4.54123,37.26833]},"properties":{"id":32771,"name":"Benamejí","state_code":"CO","country_code":"ES"}},{"type":"Feature","geometry":{"type":"Point","coordinates":[-5.4378177,38.4070654]},"properties":{"id":151368,"name":"Blázquez Los","state_code":"CO","country_code":"ES"}},{"type":"Feature","geometry":{"type":"Point","coordinates":[-4.38074,37.89556]},"properties":{"id":33014,"name":"Bujalance","state_code":"CO","country_code":"ES"}},{"type":"Feature","geometry":{"type":"Point","coordinates":[-4.44206,37.47249]},"properties":{"id":33098,"name":"Cabra","state_code":"CO","country_code":"ES"}},{"type":"Feature","geometry":{"type":"Point","coordinates":[-4.31835,37.86717]},"properties":{"id":33540,"name":"Cañete de las Torres","state_code":"CO","country_code":"ES"}},{"type":"Feature","geometry":{"type":"Point","coordinates":[-4.27471,37.4442]},"properties":{"id":33290,"name":"Carcabuey","state_code":"CO","country_code":"ES"}},{"type":"Feature","geometry":{"type":"Point","coordinates":[-4.32358,38.27023]},"properties":{"id":33298,"name":"Cardeña","state_code":"CO","country_code":"ES"}},{"type":"Feature","geometry":{"type":"Point","coordinates":[-4.48058,37.69125]},"properties":{"id":33491,"name":"Castro del Río","state_code":"CO","country_code":"ES"}},{"type":"Feature","geometry":{"type":"Point","coordinates":[-4.5,38.4]},"properties":{"id":33762,"name":"Conquista","state_code":"CO","country_code":"ES"}},{"type":"Feature","geometry":{"type":"Point","coordinates":[-4.77275,37.89155]},"properties":{"id":33904,"name":"Córdoba","state_code":"CO","country_code":"ES"}},{"type":"Feature","geometry":{"type":"Point","coordinates":[-4.35602,37.55346]},"properties":{"id":33954,"name":"Doña Mencía","state_code":"CO","country_code":"ES"}},{"type":"Feature","geometry":{"type":"Point","coordinates":[-4.9,38.45]},"properties":{"id":33950,"name":"Dos Torres","state_code":"CO","country_code":"ES"}},{"type":"Feature","geometry":{"type":"Point","coordinates":[-4.4963843,37.9411415]},"properties":{"id":151370,"name":"El Carpio","state_code":"CO","country_code":"ES"}},{"type":"Feature","geometry":{"type":"Point","coordinates":[-4.7827516,38.4959178]},"properties":{"id":151372,"name":"El Guijo","state_code":"CO","country_code":"ES"}},{"type":"Feature","geometry":{"type":"Point","coordinates":[-4.9532721,38.4829438]},"properties":{"id":151379,"name":"El Viso","state_code":"CO","country_code":"ES"}},{"type":"Feature","geometry":{"type":"Point","coordinates":[-4.48828,37.27419]},"properties":{"id":34047,"name":"Encinas Reales","state_code":"CO","country_code":"ES"}},{"type":"Feature","geometry":{"type":"Point","coordinates":[-4.55355,37.6798]},"properties":{"id":34112,"name":"Espejo","state_code":"CO","country_code":"ES"}},{"type":"Feature","geometry":{"type":"Point","coordinates":[-5.01667,38.2]},"properties":{"id":34116,"name":"Espiel","state_code":"CO","country_code":"ES"}},{"type":"Feature","geometry":{"type":"Point","coordinates":[-4.7264,37.67044]},"properties":{"id":34175,"name":"Fernán-Núñez","state_code":"CO","country_code":"ES"}},{"type":"Feature","geometry":{"type":"Point","coordinates":[-5.03333,38.41667]},"properties":{"id":34304,"name":"Fuente la Lancha","state_code":"CO","country_code":"ES"}},{"type":"Feature","geometry":{"type":"Point","coordinates":[-5.41667,38.26667]},"properties":{"id":34292,"name":"Fuente Obejuna","state_code":"CO","country_code":"ES"}},{"type":"Feature","geometry":{"type":"Point","coordinates":[-5.09965,37.70494]},"properties":{"id":34293,"name":"Fuente Palmera","state_code":"CO","country_code":"ES"}},{"type":"Feature","geometry":{"type":"Point","coordinates":[-4.14631,37.51095]},"properties":{"id":34306,"name":"Fuente-Tójar","state_code":"CO","country_code":"ES"}},{"type":"Feature","geometry":{"type":"Point","coordinates":[-4.94387,37.75738]},"properties":{"id":34523,"name":"Guadalcázar","state_code":"CO","country_code":"ES"}},{"type":"Feature","geometry":{"type":"Point","coordinates":[-5.14651,38.50057]},"properties":{"id":34627,"name":"Hinojosa del Duque","state_code":"CO","country_code":"ES"}},{"type":"Feature","geometry":{"type":"Point","coordinates":[-5.23333,37.83333]},"properties":{"id":34660,"name":"Hornachuelos","state_code":"CO","country_code":"ES"}},{"type":"Feature","geometry":{"type":"Point","coordinates":[-4.30836,37.25766]},"properties":{"id":34782,"name":"Iznájar","state_code":"CO","country_code":"ES"}},{"type":"Feature","geometry":{"type":"Point","coordinates":[-4.9337946,37.6726446]},"properties":{"id":151369,"name":"La Carlota","state_code":"CO","country_code":"ES"}},{"type":"Feature","geometry":{"type":"Point","coordinates":[-5.3514337,38.3716692]},"properties":{"id":151371,"name":"La Granjuela","state_code":"CO","country_code":"ES"}},{"type":"Feature","geometry":{"type":"Point","coordinates":[-4.7393576,37.6063408]},"properties":{"id":151375,"name":"La Rambla","state_code":"CO","country_code":"ES"}},{"type":"Feature","geometry":{"type":"Point","coordinates":[-4.8572493,37.693062]},"properties":{"id":151377,"name":"La Victoria","state_code":"CO","country_code":"ES"}},{"type":"Feature","geometry":{"type":"Point","coordinates":[-4.48522,37.40881]},"properties":{"id":35149,"name":"Lucena","state_code":"CO","country_code":"ES"}},{"type":"Feature","geometry":{"type":"Point","coordinates":[-4.27974,37.55797]},"properties":{"id":35169,"name":"Luque","state_code":"CO","country_code":"ES"}},{"type":"Feature","geometry":{"type":"Point","coordinates":[-4.74935,37.57996]},"properties":{"id":35533,"name":"Montalbán de Córdoba","state_code":"CO","country_code":"ES"}},{"type":"Feature","geometry":{"type":"Point","coordinates":[-4.69779,37.6479]},"properties":{"id":35558,"name":"Montemayor","state_code":"CO","country_code":"ES"}},{"type":"Feature","geometry":{"type":"Point","coordinates":[-4.63805,37.58627]},"properties":{"id":35577,"name":"Montilla","state_code":"CO","country_code":"ES"}},{"type":"Feature","geometry":{"type":"Point","coordinates":[-4.3834,38.02409]},"properties":{"id":35583,"name":"Montoro","state_code":"CO","country_code":"ES"}},{"type":"Feature","geometry":{"type":"Point","coordinates":[-4.58164,37.47186]},"properties":{"id":35585,"name":"Monturque","state_code":"CO","country_code":"ES"}},{"type":"Feature","geometry":{"type":"Point","coordinates":[-4.60761,37.4367]},"properties":{"id":35629,"name":"Moriles","state_code":"CO","country_code":"ES"}},{"type":"Feature","geometry":{"type":"Point","coordinates":[-4.4677456,37.5856113]},"properties":{"id":151373,"name":"Nueva Carteya","state_code":"CO","country_code":"ES"}},{"type":"Feature","geometry":{"type":"Point","coordinates":[-4.80018,38.13265]},"properties":{"id":35853,"name":"Obejo","state_code":"CO","country_code":"ES"}},{"type":"Feature","geometry":{"type":"Point","coordinates":[-4.58261,37.24851]},"properties":{"id":36024,"name":"Palenciana","state_code":"CO","country_code":"ES"}},{"type":"Feature","geometry":{"type":"Point","coordinates":[-5.28121,37.70024]},"properties":{"id":36029,"name":"Palma del Río","state_code":"CO","country_code":"ES"}},{"type":"Feature","geometry":{"type":"Point","coordinates":[-4.4556,37.96686]},"properties":{"id":36098,"name":"Pedro Abad","state_code":"CO","country_code":"ES"}},{"type":"Feature","geometry":{"type":"Point","coordinates":[-4.76325,38.42848]},"properties":{"id":36102,"name":"Pedroche","state_code":"CO","country_code":"ES"}},{"type":"Feature","geometry":{"type":"Point","coordinates":[-5.26667,38.3]},"properties":{"id":36174,"name":"Peñarroya-Pueblonuevo","state_code":"CO","country_code":"ES"}},{"type":"Feature","geometry":{"type":"Point","coordinates":[-5.10726,37.80205]},"properties":{"id":36303,"name":"Posadas","state_code":"CO","country_code":"ES"}},{"type":"Feature","geometry":{"type":"Point","coordinates":[-4.84827,38.37906]},"properties":{"id":36323,"name":"Pozoblanco","state_code":"CO","country_code":"ES"}},{"type":"Feature","geometry":{"type":"Point","coordinates":[-4.19523,37.43807]},"properties":{"id":36354,"name":"Priego de Córdoba","state_code":"CO","country_code":"ES"}},{"type":"Feature","geometry":{"type":"Point","coordinates":[-4.7650998,37.3887529]},"properties":{"id":151374,"name":"Puente Genil","state_code":"CO","country_code":"ES"}},{"type":"Feature","geometry":{"type":"Point","coordinates":[-4.36827,37.3269]},"properties":{"id":36706,"name":"Rute","state_code":"CO","country_code":"ES"}},{"type":"Feature","geometry":{"type":"Point","coordinates":[-4.82409,37.65376]},"properties":{"id":36921,"name":"San Sebastián de los Ballesteros","state_code":"CO","country_code":"ES"}},{"type":"Feature","geometry":{"type":"Point","coordinates":[-4.9,38.6]},"properties":{"id":37049,"name":"Santa Eufemia","state_code":"CO","country_code":"ES"}},{"type":"Feature","geometry":{"type":"Point","coordinates":[-4.84362,37.56294]},"properties":{"id":37104,"name":"Santaella","state_code":"CO","country_code":"ES"}},{"type":"Feature","geometry":{"type":"Point","coordinates":[-4.66667,38.46667]},"properties":{"id":37513,"name":"Torrecampo","state_code":"CO","country_code":"ES"}},{"type":"Feature","geometry":{"type":"Point","coordinates":[-4.22038,37.7756]},"properties":{"id":37823,"name":"Valenzuela","state_code":"CO","country_code":"ES"}},{"type":"Feature","geometry":{"type":"Point","coordinates":[-5.3730176,38.4670914]},"properties":{"id":151376,"name":"Valsequillo","state_code":"CO","country_code":"ES"}},{"type":"Feature","geometry":{"type":"Point","coordinates":[-4.29003,37.98108]},"properties":{"id":38014,"name":"Villa del Río","state_code":"CO","country_code":"ES"}},{"type":"Feature","geometry":{"type":"Point","coordinates":[-4.54547,37.96257]},"properties":{"id":38056,"name":"Villafranca de Córdoba","state_code":"CO","country_code":"ES"}},{"type":"Feature","geometry":{"type":"Point","coordinates":[-4.9,38.13333]},"properties":{"id":38081,"name":"Villaharta","state_code":"CO","country_code":"ES"}},{"type":"Feature","geometry":{"type":"Point","coordinates":[-4.62873,38.32277]},"properties":{"id":38180,"name":"Villanueva de Córdoba","state_code":"CO","country_code":"ES"}},{"type":"Feature","geometry":{"type":"Point","coordinates":[-5,38.38333]},"properties":{"id":38217,"name":"Villanueva del Duque","state_code":"CO","country_code":"ES"}},{"type":"Feature","geometry":{"type":"Point","coordinates":[-5.1516777,38.1978857]},"properties":{"id":151378,"name":"Villanueva del Rey","state_code":"CO","country_code":"ES"}},{"type":"Feature","geometry":{"type":"Point","coordinates":[-4.98333,38.45]},"properties":{"id":38264,"name":"Villaralto","state_code":"CO","country_code":"ES"}},{"type":"Feature","geometry":{"type":"Point","coordinates":[-5.01667,38.08333]},"properties":{"id":38356,"name":"Villaviciosa de Córdoba","state_code":"CO","country_code":"ES"}},{"type":"Feature","geometry":{"type":"Point","coordinates":[-4.31531,37.54332]},"properties":{"id":38507,"name":"Zuheros","state_code":"CO","country_code":"ES"}}]}