{"type":"FeatureCollection","features":[{"type":"Feature","geometry":{"type":"Point","coordinates":[-2.48526,40.89261]},"properties":{"id":31921,"name":"Abánades","state_code":"GU","country_code":"ES"}},{"type":"Feature","geometry":{"type":"Point","coordinates":[-2.22523,40.89818]},"properties":{"id":31916,"name":"Ablanque","state_code":"GU","country_code":"ES"}},{"type":"Feature","geometry":{"type":"Point","coordinates":[-1.67916,40.67584]},"properties":{"id":31934,"name":"Adobes","state_code":"GU","country_code":"ES"}},{"type":"Feature","geometry":{"type":"Point","coordinates":[-2.72573,40.86303]},"properties":{"id":31998,"name":"Alaminos","state_code":"GU","country_code":"ES"}},{"type":"Feature","geometry":{"type":"Point","coordinates":[-3.1031,40.84711]},"properties":{"id":32006,"name":"Alarilla","state_code":"GU","country_code":"ES"}},{"type":"Feature","geometry":{"type":"Point","coordinates":[-2.84267,40.30812]},"properties":{"id":32023,"name":"Albalate de Zorita","state_code":"GU","country_code":"ES"}},{"type":"Feature","geometry":{"type":"Point","coordinates":[-3.00897,40.3069]},"properties":{"id":32028,"name":"Albares","state_code":"GU","country_code":"ES"}},{"type":"Feature","geometry":{"type":"Point","coordinates":[-3.05171,41.22742]},"properties":{"id":32036,"name":"Albendiego","state_code":"GU","country_code":"ES"}},{"type":"Feature","geometry":{"type":"Point","coordinates":[-2.6094,40.46972]},"properties":{"id":32098,"name":"Alcocer","state_code":"GU","country_code":"ES"}},{"type":"Feature","geometry":{"type":"Point","coordinates":[-2.78483,41.2096]},"properties":{"id":32107,"name":"Alcolea de las Peñas","state_code":"GU","country_code":"ES"}},{"type":"Feature","geometry":{"type":"Point","coordinates":[-2.46645,41.03569]},"properties":{"id":32108,"name":"Alcolea del Pinar","state_code":"GU","country_code":"ES"}},{"type":"Feature","geometry":{"type":"Point","coordinates":[-1.74629,40.62669]},"properties":{"id":32121,"name":"Alcoroches","state_code":"GU","country_code":"ES"}},{"type":"Feature","geometry":{"type":"Point","coordinates":[-3.04438,40.67988]},"properties":{"id":32160,"name":"Aldeanueva de Guadalajara","state_code":"GU","country_code":"ES"}},{"type":"Feature","geometry":{"type":"Point","coordinates":[-1.95964,41.13494]},"properties":{"id":32211,"name":"Algar de Mesa","state_code":"GU","country_code":"ES"}},{"type":"Feature","geometry":{"type":"Point","coordinates":[-2.66688,40.96324]},"properties":{"id":32225,"name":"Algora","state_code":"GU","country_code":"ES"}},{"type":"Feature","geometry":{"type":"Point","coordinates":[-2.82438,40.52669]},"properties":{"id":32241,"name":"Alhóndiga","state_code":"GU","country_code":"ES"}},{"type":"Feature","geometry":{"type":"Point","coordinates":[-2.64441,40.58671]},"properties":{"id":32247,"name":"Alique","state_code":"GU","country_code":"ES"}},{"type":"Feature","geometry":{"type":"Point","coordinates":[-2.77406,40.90096]},"properties":{"id":32260,"name":"Almadrones","state_code":"GU","country_code":"ES"}},{"type":"Feature","geometry":{"type":"Point","coordinates":[-2.9824,40.29713]},"properties":{"id":32296,"name":"Almoguera","state_code":"GU","country_code":"ES"}},{"type":"Feature","geometry":{"type":"Point","coordinates":[-2.8504,40.32932]},"properties":{"id":32301,"name":"Almonacid de Zorita","state_code":"GU","country_code":"ES"}},{"type":"Feature","geometry":{"type":"Point","coordinates":[-2.74993,40.57455]},"properties":{"id":32318,"name":"Alocén","state_code":"GU","country_code":"ES"}},{"type":"Feature","geometry":{"type":"Point","coordinates":[-3.24529,40.59368]},"properties":{"id":32322,"name":"Alovera","state_code":"GU","country_code":"ES"}},{"type":"Feature","geometry":{"type":"Point","coordinates":[-1.6591,40.61442]},"properties":{"id":32343,"name":"Alustante","state_code":"GU","country_code":"ES"}},{"type":"Feature","geometry":{"type":"Point","coordinates":[-2.8542819,41.0674653]},"properties":{"id":152081,"name":"Angón","state_code":"GU","country_code":"ES"}},{"type":"Feature","geometry":{"type":"Point","coordinates":[-2.36849,41.02659]},"properties":{"id":32382,"name":"Anguita","state_code":"GU","country_code":"ES"}},{"type":"Feature","geometry":{"type":"Point","coordinates":[-2.13066,40.97084]},"properties":{"id":32387,"name":"Anquela del Ducado","state_code":"GU","country_code":"ES"}},{"type":"Feature","geometry":{"type":"Point","coordinates":[-1.73697,40.74336]},"properties":{"id":32388,"name":"Anquela del Pedregal","state_code":"GU","country_code":"ES"}},{"type":"Feature","geometry":{"type":"Point","coordinates":[-3.07448,40.49094]},"properties":{"id":32414,"name":"Aranzueque","state_code":"GU","country_code":"ES"}},{"type":"Feature","geometry":{"type":"Point","coordinates":[-3.11505,40.96434]},"properties":{"id":32421,"name":"Arbancón","state_code":"GU","country_code":"ES"}},{"type":"Feature","geometry":{"type":"Point","coordinates":[-2.40236,40.66999]},"properties":{"id":32423,"name":"Arbeteta","state_code":"GU","country_code":"ES"}},{"type":"Feature","geometry":{"type":"Point","coordinates":[-2.82181,40.88151]},"properties":{"id":32467,"name":"Argecilla","state_code":"GU","country_code":"ES"}},{"type":"Feature","geometry":{"type":"Point","coordinates":[-2.30257,40.7358]},"properties":{"id":32485,"name":"Armallones","state_code":"GU","country_code":"ES"}},{"type":"Feature","geometry":{"type":"Point","coordinates":[-3.02819,40.52884]},"properties":{"id":32492,"name":"Armuña de Tajuña","state_code":"GU","country_code":"ES"}},{"type":"Feature","geometry":{"type":"Point","coordinates":[-3.13005,41.10246]},"properties":{"id":32511,"name":"Arroyo de las Fraguas","state_code":"GU","country_code":"ES"}},{"type":"Feature","geometry":{"type":"Point","coordinates":[-2.99686,40.66697]},"properties":{"id":32547,"name":"Atanzón","state_code":"GU","country_code":"ES"}},{"type":"Feature","geometry":{"type":"Point","coordinates":[-2.87129,41.19722]},"properties":{"id":32555,"name":"Atienza","state_code":"GU","country_code":"ES"}},{"type":"Feature","geometry":{"type":"Point","coordinates":[-2.7925,40.51752]},"properties":{"id":32563,"name":"Auñón","state_code":"GU","country_code":"ES"}},{"type":"Feature","geometry":{"type":"Point","coordinates":[-3.26753,40.56566]},"properties":{"id":32591,"name":"Azuqueca de Henares","state_code":"GU","country_code":"ES"}},{"type":"Feature","geometry":{"type":"Point","coordinates":[-2.7762,41.00685]},"properties":{"id":32613,"name":"Baides","state_code":"GU","country_code":"ES"}},{"type":"Feature","geometry":{"type":"Point","coordinates":[-1.96667,40.71667]},"properties":{"id":32707,"name":"Baños de Tajo","state_code":"GU","country_code":"ES"}},{"type":"Feature","geometry":{"type":"Point","coordinates":[-2.91477,41.28601]},"properties":{"id":32710,"name":"Bañuelos","state_code":"GU","country_code":"ES"}},{"type":"Feature","geometry":{"type":"Point","coordinates":[-2.75246,40.79026]},"properties":{"id":32678,"name":"Barriopedro","state_code":"GU","country_code":"ES"}},{"type":"Feature","geometry":{"type":"Point","coordinates":[-2.80121,40.57106]},"properties":{"id":32862,"name":"Berninches","state_code":"GU","country_code":"ES"}},{"type":"Feature","geometry":{"type":"Point","coordinates":[-2.86966,40.76049]},"properties":{"id":32984,"name":"Brihuega","state_code":"GU","country_code":"ES"}},{"type":"Feature","geometry":{"type":"Point","coordinates":[-2.75846,40.62734]},"properties":{"id":32999,"name":"Budia","state_code":"GU","country_code":"ES"}},{"type":"Feature","geometry":{"type":"Point","coordinates":[-2.88333,40.93687]},"properties":{"id":33015,"name":"Bujalaro","state_code":"GU","country_code":"ES"}},{"type":"Feature","geometry":{"type":"Point","coordinates":[-3.06667,41.13333]},"properties":{"id":33037,"name":"Bustares","state_code":"GU","country_code":"ES"}},{"type":"Feature","geometry":{"type":"Point","coordinates":[-3.22937,40.63376]},"properties":{"id":33069,"name":"Cabanillas del Campo","state_code":"GU","country_code":"ES"}},{"type":"Feature","geometry":{"type":"Point","coordinates":[-1.68505,40.88376]},"properties":{"id":33192,"name":"Campillo de Dueñas","state_code":"GU","country_code":"ES"}},{"type":"Feature","geometry":{"type":"Point","coordinates":[-3.31431,41.08601]},"properties":{"id":33194,"name":"Campillo de Ranas","state_code":"GU","country_code":"ES"}},{"type":"Feature","geometry":{"type":"Point","coordinates":[-3.13333,41.26667]},"properties":{"id":33199,"name":"Campisábalos","state_code":"GU","country_code":"ES"}},{"type":"Feature","geometry":{"type":"Point","coordinates":[-3.06399,40.76763]},"properties":{"id":33543,"name":"Cañizar","state_code":"GU","country_code":"ES"}},{"type":"Feature","geometry":{"type":"Point","coordinates":[-2.49377,40.81257]},"properties":{"id":33247,"name":"Canredondo","state_code":"GU","country_code":"ES"}},{"type":"Feature","geometry":{"type":"Point","coordinates":[-3.24629,41.23472]},"properties":{"id":33253,"name":"Cantalojas","state_code":"GU","country_code":"ES"}},{"type":"Feature","geometry":{"type":"Point","coordinates":[-3.36849,40.84115]},"properties":{"id":33342,"name":"Casa de Uceda","state_code":"GU","country_code":"ES"}},{"type":"Feature","geometry":{"type":"Point","coordinates":[-2.9575,40.87234]},"properties":{"id":33371,"name":"Casas de San Galindo","state_code":"GU","country_code":"ES"}},{"type":"Feature","geometry":{"type":"Point","coordinates":[-2.97941,40.69497]},"properties":{"id":33394,"name":"Caspueñas","state_code":"GU","country_code":"ES"}},{"type":"Feature","geometry":{"type":"Point","coordinates":[-2.78665,40.93762]},"properties":{"id":33401,"name":"Castejón de Henares","state_code":"GU","country_code":"ES"}},{"type":"Feature","geometry":{"type":"Point","coordinates":[-1.75932,40.81902]},"properties":{"id":33421,"name":"Castellar de la Muela","state_code":"GU","country_code":"ES"}},{"type":"Feature","geometry":{"type":"Point","coordinates":[-2.43226,40.55735]},"properties":{"id":33450,"name":"Castilforte","state_code":"GU","country_code":"ES"}},{"type":"Feature","geometry":{"type":"Point","coordinates":[-1.85782,40.81431]},"properties":{"id":33469,"name":"Castilnuevo","state_code":"GU","country_code":"ES"}},{"type":"Feature","geometry":{"type":"Point","coordinates":[-2.8732983,40.9829171]},"properties":{"id":152085,"name":"Cendejas de Enmedio","state_code":"GU","country_code":"ES"}},{"type":"Feature","geometry":{"type":"Point","coordinates":[-2.85053,40.97916]},"properties":{"id":33567,"name":"Cendejas de la Torre","state_code":"GU","country_code":"ES"}},{"type":"Feature","geometry":{"type":"Point","coordinates":[-3.0512,40.65064]},"properties":{"id":33574,"name":"Centenera","state_code":"GU","country_code":"ES"}},{"type":"Feature","geometry":{"type":"Point","coordinates":[-1.79056,40.58614]},"properties":{"id":33621,"name":"Checa","state_code":"GU","country_code":"ES"}},{"type":"Feature","geometry":{"type":"Point","coordinates":[-1.82787,40.606]},"properties":{"id":33625,"name":"Chequilla","state_code":"GU","country_code":"ES"}},{"type":"Feature","geometry":{"type":"Point","coordinates":[-2.69126,40.59818]},"properties":{"id":33634,"name":"Chillarón del Rey","state_code":"GU","country_code":"ES"}},{"type":"Feature","geometry":{"type":"Point","coordinates":[-3.16003,40.57038]},"properties":{"id":33636,"name":"Chiloeches","state_code":"GU","country_code":"ES"}},{"type":"Feature","geometry":{"type":"Point","coordinates":[-2.62245,40.78622]},"properties":{"id":33660,"name":"Cifuentes","state_code":"GU","country_code":"ES"}},{"type":"Feature","geometry":{"type":"Point","coordinates":[-2.81834,41.20501]},"properties":{"id":33677,"name":"Cincovillas","state_code":"GU","country_code":"ES"}},{"type":"Feature","geometry":{"type":"Point","coordinates":[-3.0858,40.75021]},"properties":{"id":33685,"name":"Ciruelas","state_code":"GU","country_code":"ES"}},{"type":"Feature","geometry":{"type":"Point","coordinates":[-2.2207556,41.0078185]},"properties":{"id":152086,"name":"Ciruelos del Pinar","state_code":"GU","country_code":"ES"}},{"type":"Feature","geometry":{"type":"Point","coordinates":[-2.14211,40.8656]},"properties":{"id":33708,"name":"Cobeta","state_code":"GU","country_code":"ES"}},{"type":"Feature","geometry":{"type":"Point","coordinates":[-2.74425,40.84818]},"properties":{"id":33721,"name":"Cogollor","state_code":"GU","country_code":"ES"}},{"type":"Feature","geometry":{"type":"Point","coordinates":[-3.0893,40.94691]},"properties":{"id":33724,"name":"Cogolludo","state_code":"GU","country_code":"ES"}},{"type":"Feature","geometry":{"type":"Point","coordinates":[-3.1,41.21667]},"properties":{"id":33754,"name":"Condemios de Abajo","state_code":"GU","country_code":"ES"}},{"type":"Feature","geometry":{"type":"Point","coordinates":[-3.12543,41.21644]},"properties":{"id":33755,"name":"Condemios de Arriba","state_code":"GU","country_code":"ES"}},{"type":"Feature","geometry":{"type":"Point","coordinates":[-2.98569,41.03719]},"properties":{"id":33760,"name":"Congostrina","state_code":"GU","country_code":"ES"}},{"type":"Feature","geometry":{"type":"Point","coordinates":[-3.05396,40.86463]},"properties":{"id":33772,"name":"Copernal","state_code":"GU","country_code":"ES"}},{"type":"Feature","geometry":{"type":"Point","coordinates":[-1.97841,40.84304]},"properties":{"id":33784,"name":"Corduente","state_code":"GU","country_code":"ES"}},{"type":"Feature","geometry":{"type":"Point","coordinates":[-3.04165,40.24498]},"properties":{"id":33958,"name":"Driebes","state_code":"GU","country_code":"ES"}},{"type":"Feature","geometry":{"type":"Point","coordinates":[-2.72662,40.6253]},"properties":{"id":33964,"name":"Durón","state_code":"GU","country_code":"ES"}},{"type":"Feature","geometry":{"type":"Point","coordinates":[-3.4646668,41.0966963]},"properties":{"id":152083,"name":"El Cardoso de la Sierra","state_code":"GU","country_code":"ES"}},{"type":"Feature","geometry":{"type":"Point","coordinates":[-3.427332,40.7058621]},"properties":{"id":152084,"name":"El Casar","state_code":"GU","country_code":"ES"}},{"type":"Feature","geometry":{"type":"Point","coordinates":[-3.4075713,40.8232716]},"properties":{"id":152087,"name":"El Cubillo de Uceda","state_code":"GU","country_code":"ES"}},{"type":"Feature","geometry":{"type":"Point","coordinates":[-2.7499835,40.6065018]},"properties":{"id":152095,"name":"El Olivar","state_code":"GU","country_code":"ES"}},{"type":"Feature","geometry":{"type":"Point","coordinates":[-3.1146216,41.127724]},"properties":{"id":152097,"name":"El Ordial","state_code":"GU","country_code":"ES"}},{"type":"Feature","geometry":{"type":"Point","coordinates":[-1.5699103,40.7793144]},"properties":{"id":152099,"name":"El Pedregal","state_code":"GU","country_code":"ES"}},{"type":"Feature","geometry":{"type":"Point","coordinates":[-1.6475322,40.7782362]},"properties":{"id":152100,"name":"El Pobo de Dueñas","state_code":"GU","country_code":"ES"}},{"type":"Feature","geometry":{"type":"Point","coordinates":[-2.3397292,40.6151948]},"properties":{"id":152102,"name":"El Recuenco","state_code":"GU","country_code":"ES"}},{"type":"Feature","geometry":{"type":"Point","coordinates":[-2.6288523,40.8783276]},"properties":{"id":152104,"name":"El Sotillo","state_code":"GU","country_code":"ES"}},{"type":"Feature","geometry":{"type":"Point","coordinates":[-1.71206,40.97256]},"properties":{"id":34040,"name":"Embid","state_code":"GU","country_code":"ES"}},{"type":"Feature","geometry":{"type":"Point","coordinates":[-2.56292,40.54979]},"properties":{"id":34080,"name":"Escamilla","state_code":"GU","country_code":"ES"}},{"type":"Feature","geometry":{"type":"Point","coordinates":[-3.0531,40.40553]},"properties":{"id":34082,"name":"Escariche","state_code":"GU","country_code":"ES"}},{"type":"Feature","geometry":{"type":"Point","coordinates":[-3.0046,40.41324]},"properties":{"id":34088,"name":"Escopete","state_code":"GU","country_code":"ES"}},{"type":"Feature","geometry":{"type":"Point","coordinates":[-3.06956,40.90053]},"properties":{"id":34120,"name":"Espinosa de Henares","state_code":"GU","country_code":"ES"}},{"type":"Feature","geometry":{"type":"Point","coordinates":[-2.37084,40.8565]},"properties":{"id":34126,"name":"Esplegares","state_code":"GU","country_code":"ES"}},{"type":"Feature","geometry":{"type":"Point","coordinates":[-2.02438,41.00767]},"properties":{"id":34135,"name":"Establés","state_code":"GU","country_code":"ES"}},{"type":"Feature","geometry":{"type":"Point","coordinates":[-2.52363,41.05821]},"properties":{"id":34148,"name":"Estriégana","state_code":"GU","country_code":"ES"}},{"type":"Feature","geometry":{"type":"Point","coordinates":[-3.17309,40.72466]},"properties":{"id":34211,"name":"Fontanar","state_code":"GU","country_code":"ES"}},{"type":"Feature","geometry":{"type":"Point","coordinates":[-1.99861,40.75589]},"properties":{"id":34274,"name":"Fuembellida","state_code":"GU","country_code":"ES"}},{"type":"Feature","geometry":{"type":"Point","coordinates":[-3.09818,40.92063]},"properties":{"id":34278,"name":"Fuencemillán","state_code":"GU","country_code":"ES"}},{"type":"Feature","geometry":{"type":"Point","coordinates":[-3.30492,40.78312]},"properties":{"id":34317,"name":"Fuentelahiguera de Albatages","state_code":"GU","country_code":"ES"}},{"type":"Feature","geometry":{"type":"Point","coordinates":[-2.88226,40.51781]},"properties":{"id":34320,"name":"Fuentelencina","state_code":"GU","country_code":"ES"}},{"type":"Feature","geometry":{"type":"Point","coordinates":[-1.83108,41.07359]},"properties":{"id":34324,"name":"Fuentelsaz","state_code":"GU","country_code":"ES"}},{"type":"Feature","geometry":{"type":"Point","coordinates":[-2.9843,40.52637]},"properties":{"id":34326,"name":"Fuentelviejo","state_code":"GU","country_code":"ES"}},{"type":"Feature","geometry":{"type":"Point","coordinates":[-3.09102,40.36248]},"properties":{"id":34329,"name":"Fuentenovilla","state_code":"GU","country_code":"ES"}},{"type":"Feature","geometry":{"type":"Point","coordinates":[-2.89229,40.84147]},"properties":{"id":34371,"name":"Gajanejos","state_code":"GU","country_code":"ES"}},{"type":"Feature","geometry":{"type":"Point","coordinates":[-3.33537,40.69347]},"properties":{"id":34399,"name":"Galápagos","state_code":"GU","country_code":"ES"}},{"type":"Feature","geometry":{"type":"Point","coordinates":[-3.18333,41.21667]},"properties":{"id":34398,"name":"Galve de Sorbe","state_code":"GU","country_code":"ES"}},{"type":"Feature","geometry":{"type":"Point","coordinates":[-3.01924,41.14243]},"properties":{"id":34432,"name":"Gascueña de Bornova","state_code":"GU","country_code":"ES"}},{"type":"Feature","geometry":{"type":"Point","coordinates":[-3.16185,40.62862]},"properties":{"id":34520,"name":"Guadalajara","state_code":"GU","country_code":"ES"}},{"type":"Feature","geometry":{"type":"Point","coordinates":[-2.70746,40.71474]},"properties":{"id":34578,"name":"Henche","state_code":"GU","country_code":"ES"}},{"type":"Feature","geometry":{"type":"Point","coordinates":[-3.0995816,40.7889517]},"properties":{"id":152088,"name":"Heras de Ayuso","state_code":"GU","country_code":"ES"}},{"type":"Feature","geometry":{"type":"Point","coordinates":[-1.96014,40.88815]},"properties":{"id":34602,"name":"Herrería","state_code":"GU","country_code":"ES"}},{"type":"Feature","geometry":{"type":"Point","coordinates":[-3.00337,41.08373]},"properties":{"id":34606,"name":"Hiendelaencina","state_code":"GU","country_code":"ES"}},{"type":"Feature","geometry":{"type":"Point","coordinates":[-2.99989,41.25139]},"properties":{"id":34618,"name":"Hijes","state_code":"GU","country_code":"ES"}},{"type":"Feature","geometry":{"type":"Point","coordinates":[-3.0454,40.82149]},"properties":{"id":34630,"name":"Hita","state_code":"GU","country_code":"ES"}},{"type":"Feature","geometry":{"type":"Point","coordinates":[-1.68558,40.80118]},"properties":{"id":34632,"name":"Hombrados","state_code":"GU","country_code":"ES"}},{"type":"Feature","geometry":{"type":"Point","coordinates":[-3.03858,40.45385]},"properties":{"id":34645,"name":"Hontoba","state_code":"GU","country_code":"ES"}},{"type":"Feature","geometry":{"type":"Point","coordinates":[-3.0611,40.56399]},"properties":{"id":34655,"name":"Horche","state_code":"GU","country_code":"ES"}},{"type":"Feature","geometry":{"type":"Point","coordinates":[-2.4165483,40.9517494]},"properties":{"id":152089,"name":"Hortezuela de Océn","state_code":"GU","country_code":"ES"}},{"type":"Feature","geometry":{"type":"Point","coordinates":[-2.79711,41.05332]},"properties":{"id":34716,"name":"Huérmeces del Cerro","state_code":"GU","country_code":"ES"}},{"type":"Feature","geometry":{"type":"Point","coordinates":[-2.28697,40.82348]},"properties":{"id":34692,"name":"Huertahernando","state_code":"GU","country_code":"ES"}},{"type":"Feature","geometry":{"type":"Point","coordinates":[-2.96039,40.46221]},"properties":{"id":34698,"name":"Hueva","state_code":"GU","country_code":"ES"}},{"type":"Feature","geometry":{"type":"Point","coordinates":[-3.15257,40.82598]},"properties":{"id":34700,"name":"Humanes","state_code":"GU","country_code":"ES"}},{"type":"Feature","geometry":{"type":"Point","coordinates":[-2.90889,40.18442]},"properties":{"id":34745,"name":"Illana","state_code":"GU","country_code":"ES"}},{"type":"Feature","geometry":{"type":"Point","coordinates":[-2.37063,40.994]},"properties":{"id":34756,"name":"Iniéstola","state_code":"GU","country_code":"ES"}},{"type":"Feature","geometry":{"type":"Point","coordinates":[-2.89072,40.61206]},"properties":{"id":34761,"name":"Irueste","state_code":"GU","country_code":"ES"}},{"type":"Feature","geometry":{"type":"Point","coordinates":[-2.92468,40.92454]},"properties":{"id":34789,"name":"Jadraque","state_code":"GU","country_code":"ES"}},{"type":"Feature","geometry":{"type":"Point","coordinates":[-2.90289,40.96431]},"properties":{"id":34819,"name":"Jirueque","state_code":"GU","country_code":"ES"}},{"type":"Feature","geometry":{"type":"Point","coordinates":[-2.8870198,41.1348925]},"properties":{"id":152082,"name":"La Bodera","state_code":"GU","country_code":"ES"}},{"type":"Feature","geometry":{"type":"Point","coordinates":[-3.1701218,41.1529217]},"properties":{"id":152090,"name":"La Huerce","state_code":"GU","country_code":"ES"}},{"type":"Feature","geometry":{"type":"Point","coordinates":[-3.2360518,40.9383448]},"properties":{"id":152092,"name":"La Mierla","state_code":"GU","country_code":"ES"}},{"type":"Feature","geometry":{"type":"Point","coordinates":[-2.9322663,41.1793052]},"properties":{"id":152093,"name":"La Miñosa","state_code":"GU","country_code":"ES"}},{"type":"Feature","geometry":{"type":"Point","coordinates":[-2.7412977,41.1265186]},"properties":{"id":152096,"name":"La Olmeda de Jadraque","state_code":"GU","country_code":"ES"}},{"type":"Feature","geometry":{"type":"Point","coordinates":[-2.983806,41.0046926]},"properties":{"id":152105,"name":"La Toba","state_code":"GU","country_code":"ES"}},{"type":"Feature","geometry":{"type":"Point","coordinates":[-1.6845731,40.914869]},"properties":{"id":152108,"name":"La Yunta","state_code":"GU","country_code":"ES"}},{"type":"Feature","geometry":{"type":"Point","coordinates":[-2.6704364,40.8716916]},"properties":{"id":152091,"name":"Las Inviernas","state_code":"GU","country_code":"ES"}},{"type":"Feature","geometry":{"type":"Point","coordinates":[-3.088621,41.104858]},"properties":{"id":152094,"name":"Las Navas de Jadraque","state_code":"GU","country_code":"ES"}},{"type":"Feature","geometry":{"type":"Point","coordinates":[-2.8434,40.86881]},"properties":{"id":35014,"name":"Ledanca","state_code":"GU","country_code":"ES"}},{"type":"Feature","geometry":{"type":"Point","coordinates":[-3.11082,40.44368]},"properties":{"id":35112,"name":"Loranca de Tajuña","state_code":"GU","country_code":"ES"}},{"type":"Feature","geometry":{"type":"Point","coordinates":[-3.05118,40.60846]},"properties":{"id":35167,"name":"Lupiana","state_code":"GU","country_code":"ES"}},{"type":"Feature","geometry":{"type":"Point","coordinates":[-2.44497,40.97337]},"properties":{"id":35171,"name":"Luzaga","state_code":"GU","country_code":"ES"}},{"type":"Feature","geometry":{"type":"Point","coordinates":[-2.27691,41.02691]},"properties":{"id":35173,"name":"Luzón","state_code":"GU","country_code":"ES"}},{"type":"Feature","geometry":{"type":"Point","coordinates":[-3.30257,41.1126]},"properties":{"id":35216,"name":"Majaelrayo","state_code":"GU","country_code":"ES"}},{"type":"Feature","geometry":{"type":"Point","coordinates":[-3.24465,40.7874]},"properties":{"id":35704,"name":"Málaga del Fresno","state_code":"GU","country_code":"ES"}},{"type":"Feature","geometry":{"type":"Point","coordinates":[-3.2545,40.81956]},"properties":{"id":35218,"name":"Malaguilla","state_code":"GU","country_code":"ES"}},{"type":"Feature","geometry":{"type":"Point","coordinates":[-2.75021,40.9561]},"properties":{"id":35247,"name":"Mandayona","state_code":"GU","country_code":"ES"}},{"type":"Feature","geometry":{"type":"Point","coordinates":[-2.66324,40.61892]},"properties":{"id":35259,"name":"Mantiel","state_code":"GU","country_code":"ES"}},{"type":"Feature","geometry":{"type":"Point","coordinates":[-2.20482,41.04754]},"properties":{"id":35276,"name":"Maranchón","state_code":"GU","country_code":"ES"}},{"type":"Feature","geometry":{"type":"Point","coordinates":[-3.19914,40.66677]},"properties":{"id":35284,"name":"Marchamalo","state_code":"GU","country_code":"ES"}},{"type":"Feature","geometry":{"type":"Point","coordinates":[-2.69532,40.82552]},"properties":{"id":35322,"name":"Masegoso de Tajuña","state_code":"GU","country_code":"ES"}},{"type":"Feature","geometry":{"type":"Point","coordinates":[-3.28944,40.86463]},"properties":{"id":35339,"name":"Matarrubia","state_code":"GU","country_code":"ES"}},{"type":"Feature","geometry":{"type":"Point","coordinates":[-2.8359,40.94415]},"properties":{"id":35346,"name":"Matillas","state_code":"GU","country_code":"ES"}},{"type":"Feature","geometry":{"type":"Point","coordinates":[-2.15921,41.00086]},"properties":{"id":35353,"name":"Mazarete","state_code":"GU","country_code":"ES"}},{"type":"Feature","geometry":{"type":"Point","coordinates":[-3.00755,40.2602]},"properties":{"id":35358,"name":"Mazuecos","state_code":"GU","country_code":"ES"}},{"type":"Feature","geometry":{"type":"Point","coordinates":[-2.93719,40.98333]},"properties":{"id":35377,"name":"Medranda","state_code":"GU","country_code":"ES"}},{"type":"Feature","geometry":{"type":"Point","coordinates":[-1.87041,40.63911]},"properties":{"id":35380,"name":"Megina","state_code":"GU","country_code":"ES"}},{"type":"Feature","geometry":{"type":"Point","coordinates":[-2.97969,40.94807]},"properties":{"id":35396,"name":"Membrillera","state_code":"GU","country_code":"ES"}},{"type":"Feature","geometry":{"type":"Point","coordinates":[-2.96375,41.26672]},"properties":{"id":35420,"name":"Miedes de Atienza","state_code":"GU","country_code":"ES"}},{"type":"Feature","geometry":{"type":"Point","coordinates":[-2.57116,40.50717]},"properties":{"id":35430,"name":"Millana","state_code":"GU","country_code":"ES"}},{"type":"Feature","geometry":{"type":"Point","coordinates":[-1.87652,41.08622]},"properties":{"id":35435,"name":"Milmarcos","state_code":"GU","country_code":"ES"}},{"type":"Feature","geometry":{"type":"Point","coordinates":[-2.72438,40.94479]},"properties":{"id":35441,"name":"Mirabueno","state_code":"GU","country_code":"ES"}},{"type":"Feature","geometry":{"type":"Point","coordinates":[-2.9434,40.88901]},"properties":{"id":35445,"name":"Miralrío","state_code":"GU","country_code":"ES"}},{"type":"Feature","geometry":{"type":"Point","coordinates":[-2.0156,41.09647]},"properties":{"id":35461,"name":"Mochales","state_code":"GU","country_code":"ES"}},{"type":"Feature","geometry":{"type":"Point","coordinates":[-3.17234,40.80129]},"properties":{"id":35471,"name":"Mohernando","state_code":"GU","country_code":"ES"}},{"type":"Feature","geometry":{"type":"Point","coordinates":[-1.88762,40.84358]},"properties":{"id":35477,"name":"Molina de Aragón","state_code":"GU","country_code":"ES"}},{"type":"Feature","geometry":{"type":"Point","coordinates":[-3.09711,40.98547]},"properties":{"id":35495,"name":"Monasterio","state_code":"GU","country_code":"ES"}},{"type":"Feature","geometry":{"type":"Point","coordinates":[-3.10686,40.32095]},"properties":{"id":35507,"name":"Mondéjar","state_code":"GU","country_code":"ES"}},{"type":"Feature","geometry":{"type":"Point","coordinates":[-3.11495,40.90675]},"properties":{"id":35537,"name":"Montarrón","state_code":"GU","country_code":"ES"}},{"type":"Feature","geometry":{"type":"Point","coordinates":[-2.94276,40.50182]},"properties":{"id":35619,"name":"Moratilla de los Meleros","state_code":"GU","country_code":"ES"}},{"type":"Feature","geometry":{"type":"Point","coordinates":[-1.70717,40.78687]},"properties":{"id":35625,"name":"Morenilla","state_code":"GU","country_code":"ES"}},{"type":"Feature","geometry":{"type":"Point","coordinates":[-2.95899,40.8293]},"properties":{"id":35653,"name":"Muduex","state_code":"GU","country_code":"ES"}},{"type":"Feature","geometry":{"type":"Point","coordinates":[-2.85878,41.02737]},"properties":{"id":35796,"name":"Negredo","state_code":"GU","country_code":"ES"}},{"type":"Feature","geometry":{"type":"Point","coordinates":[-2.39764,40.77234]},"properties":{"id":35856,"name":"Ocentejo","state_code":"GU","country_code":"ES"}},{"type":"Feature","geometry":{"type":"Point","coordinates":[-2.1828,40.85971]},"properties":{"id":35895,"name":"Olmeda de Cobeta","state_code":"GU","country_code":"ES"}},{"type":"Feature","geometry":{"type":"Point","coordinates":[-1.72738,40.55725]},"properties":{"id":35942,"name":"Orea","state_code":"GU","country_code":"ES"}},{"type":"Feature","geometry":{"type":"Point","coordinates":[-2.9106,41.0561]},"properties":{"id":36481,"name":"Pálmaces de Jadraque","state_code":"GU","country_code":"ES"}},{"type":"Feature","geometry":{"type":"Point","coordinates":[-1.9392435,40.9525344]},"properties":{"id":152098,"name":"Pardos","state_code":"GU","country_code":"ES"}},{"type":"Feature","geometry":{"type":"Point","coordinates":[-2.73376,41.24283]},"properties":{"id":36067,"name":"Paredes de Sigüenza","state_code":"GU","country_code":"ES"}},{"type":"Feature","geometry":{"type":"Point","coordinates":[-2.64882,40.55578]},"properties":{"id":36068,"name":"Pareja","state_code":"GU","country_code":"ES"}},{"type":"Feature","geometry":{"type":"Point","coordinates":[-2.92256,40.41902]},"properties":{"id":36076,"name":"Pastrana","state_code":"GU","country_code":"ES"}},{"type":"Feature","geometry":{"type":"Point","coordinates":[-2.06999,40.6656]},"properties":{"id":36169,"name":"Peñalén","state_code":"GU","country_code":"ES"}},{"type":"Feature","geometry":{"type":"Point","coordinates":[-2.8889,40.5814]},"properties":{"id":36168,"name":"Peñalver","state_code":"GU","country_code":"ES"}},{"type":"Feature","geometry":{"type":"Point","coordinates":[-1.90953,40.59336]},"properties":{"id":36137,"name":"Peralejos de las Truchas","state_code":"GU","country_code":"ES"}},{"type":"Feature","geometry":{"type":"Point","coordinates":[-2.44957,40.61078]},"properties":{"id":36144,"name":"Peralveche","state_code":"GU","country_code":"ES"}},{"type":"Feature","geometry":{"type":"Point","coordinates":[-2.94254,41.01988]},"properties":{"id":36201,"name":"Pinilla de Jadraque","state_code":"GU","country_code":"ES"}},{"type":"Feature","geometry":{"type":"Point","coordinates":[-1.88034,40.67969]},"properties":{"id":36202,"name":"Pinilla de Molina","state_code":"GU","country_code":"ES"}},{"type":"Feature","geometry":{"type":"Point","coordinates":[-3.17234,40.46153]},"properties":{"id":36217,"name":"Pioz","state_code":"GU","country_code":"ES"}},{"type":"Feature","geometry":{"type":"Point","coordinates":[-1.72202,40.66367]},"properties":{"id":36218,"name":"Piqueras","state_code":"GU","country_code":"ES"}},{"type":"Feature","geometry":{"type":"Point","coordinates":[-2.02905,40.64329]},"properties":{"id":36307,"name":"Poveda de la Sierra","state_code":"GU","country_code":"ES"}},{"type":"Feature","geometry":{"type":"Point","coordinates":[-3.02638,40.3403]},"properties":{"id":36317,"name":"Pozo de Almoguera","state_code":"GU","country_code":"ES"}},{"type":"Feature","geometry":{"type":"Point","coordinates":[-3.1814,40.49533]},"properties":{"id":36318,"name":"Pozo de Guadalajara","state_code":"GU","country_code":"ES"}},{"type":"Feature","geometry":{"type":"Point","coordinates":[-3.00728,41.17245]},"properties":{"id":36405,"name":"Prádena de Atienza","state_code":"GU","country_code":"ES"}},{"type":"Feature","geometry":{"type":"Point","coordinates":[-1.79329,40.78505]},"properties":{"id":36348,"name":"Prados Redondos","state_code":"GU","country_code":"ES"}},{"type":"Feature","geometry":{"type":"Point","coordinates":[-3.21624,40.88794]},"properties":{"id":36414,"name":"Puebla de Beleña","state_code":"GU","country_code":"ES"}},{"type":"Feature","geometry":{"type":"Point","coordinates":[-3.3027002,40.9276311]},"properties":{"id":152101,"name":"Puebla de Valles","state_code":"GU","country_code":"ES"}},{"type":"Feature","geometry":{"type":"Point","coordinates":[-3.2753,40.60532]},"properties":{"id":36494,"name":"Quer","state_code":"GU","country_code":"ES"}},{"type":"Feature","geometry":{"type":"Point","coordinates":[-2.84201,41.0904]},"properties":{"id":36556,"name":"Rebollosa de Jadraque","state_code":"GU","country_code":"ES"}},{"type":"Feature","geometry":{"type":"Point","coordinates":[-3.01367,40.48976]},"properties":{"id":36578,"name":"Renera","state_code":"GU","country_code":"ES"}},{"type":"Feature","geometry":{"type":"Point","coordinates":[-3.27229,40.96835]},"properties":{"id":36586,"name":"Retiendas","state_code":"GU","country_code":"ES"}},{"type":"Feature","geometry":{"type":"Point","coordinates":[-2.29715,40.91145]},"properties":{"id":36606,"name":"Riba de Saelices","state_code":"GU","country_code":"ES"}},{"type":"Feature","geometry":{"type":"Point","coordinates":[-1.9374,40.86635]},"properties":{"id":36625,"name":"Rillo de Gallo","state_code":"GU","country_code":"ES"}},{"type":"Feature","geometry":{"type":"Point","coordinates":[-2.8246813,41.1389475]},"properties":{"id":152103,"name":"Riofrío del Llano","state_code":"GU","country_code":"ES"}},{"type":"Feature","geometry":{"type":"Point","coordinates":[-3.23162,40.85118]},"properties":{"id":36649,"name":"Robledillo de Mohernando","state_code":"GU","country_code":"ES"}},{"type":"Feature","geometry":{"type":"Point","coordinates":[-2.95,41.11838]},"properties":{"id":36655,"name":"Robledo de Corpes","state_code":"GU","country_code":"ES"}},{"type":"Feature","geometry":{"type":"Point","coordinates":[-2.9,41.26667]},"properties":{"id":36670,"name":"Romanillos de Atienza","state_code":"GU","country_code":"ES"}},{"type":"Feature","geometry":{"type":"Point","coordinates":[-2.99072,40.57149]},"properties":{"id":36671,"name":"Romanones","state_code":"GU","country_code":"ES"}},{"type":"Feature","geometry":{"type":"Point","coordinates":[-1.85439,40.91795]},"properties":{"id":36698,"name":"Rueda de la Sierra","state_code":"GU","country_code":"ES"}},{"type":"Feature","geometry":{"type":"Point","coordinates":[-2.41838,40.8328]},"properties":{"id":36727,"name":"Sacecorbo","state_code":"GU","country_code":"ES"}},{"type":"Feature","geometry":{"type":"Point","coordinates":[-2.73337,40.48076]},"properties":{"id":36729,"name":"Sacedón","state_code":"GU","country_code":"ES"}},{"type":"Feature","geometry":{"type":"Point","coordinates":[-2.32325,40.90723]},"properties":{"id":36735,"name":"Saelices de la Sal","state_code":"GU","country_code":"ES"}},{"type":"Feature","geometry":{"type":"Point","coordinates":[-2.49315,40.54529]},"properties":{"id":36770,"name":"Salmerón","state_code":"GU","country_code":"ES"}},{"type":"Feature","geometry":{"type":"Point","coordinates":[-3.02423,40.99775]},"properties":{"id":36802,"name":"San Andrés del Congosto","state_code":"GU","country_code":"ES"}},{"type":"Feature","geometry":{"type":"Point","coordinates":[-2.8202,40.63837]},"properties":{"id":36804,"name":"San Andrés del Rey","state_code":"GU","country_code":"ES"}},{"type":"Feature","geometry":{"type":"Point","coordinates":[-2.80953,41.08462]},"properties":{"id":37136,"name":"Santiuste","state_code":"GU","country_code":"ES"}},{"type":"Feature","geometry":{"type":"Point","coordinates":[-2.52905,41.03098]},"properties":{"id":37184,"name":"Saúca","state_code":"GU","country_code":"ES"}},{"type":"Feature","geometry":{"type":"Point","coordinates":[-2.85253,40.37635]},"properties":{"id":37183,"name":"Sayatón","state_code":"GU","country_code":"ES"}},{"type":"Feature","geometry":{"type":"Point","coordinates":[-2.10203,40.9515]},"properties":{"id":37201,"name":"Selas","state_code":"GU","country_code":"ES"}},{"type":"Feature","geometry":{"type":"Point","coordinates":[-3.11945,41.05857]},"properties":{"id":37206,"name":"Semillas","state_code":"GU","country_code":"ES"}},{"type":"Feature","geometry":{"type":"Point","coordinates":[-1.6172,40.73419]},"properties":{"id":37237,"name":"Setiles","state_code":"GU","country_code":"ES"}},{"type":"Feature","geometry":{"type":"Point","coordinates":[-2.65332,41.20096]},"properties":{"id":37243,"name":"Sienes","state_code":"GU","country_code":"ES"}},{"type":"Feature","geometry":{"type":"Point","coordinates":[-2.64308,41.06892]},"properties":{"id":37252,"name":"Sigüenza","state_code":"GU","country_code":"ES"}},{"type":"Feature","geometry":{"type":"Point","coordinates":[-2.69799,40.75088]},"properties":{"id":37280,"name":"Solanillos del Extremo","state_code":"GU","country_code":"ES"}},{"type":"Feature","geometry":{"type":"Point","coordinates":[-3.06004,41.24606]},"properties":{"id":37287,"name":"Somolinos","state_code":"GU","country_code":"ES"}},{"type":"Feature","geometry":{"type":"Point","coordinates":[-2.39211,40.92149]},"properties":{"id":37322,"name":"Sotodosos","state_code":"GU","country_code":"ES"}},{"type":"Feature","geometry":{"type":"Point","coordinates":[-3.24743,40.99914]},"properties":{"id":37362,"name":"Tamajón","state_code":"GU","country_code":"ES"}},{"type":"Feature","geometry":{"type":"Point","coordinates":[-3.0768,40.82106]},"properties":{"id":37371,"name":"Taragudo","state_code":"GU","country_code":"ES"}},{"type":"Feature","geometry":{"type":"Point","coordinates":[-1.96817,40.69743]},"properties":{"id":37373,"name":"Taravilla","state_code":"GU","country_code":"ES"}},{"type":"Feature","geometry":{"type":"Point","coordinates":[-1.92459,40.99347]},"properties":{"id":37384,"name":"Tartanedo","state_code":"GU","country_code":"ES"}},{"type":"Feature","geometry":{"type":"Point","coordinates":[-2.95782,40.54379]},"properties":{"id":37402,"name":"Tendilla","state_code":"GU","country_code":"ES"}},{"type":"Feature","geometry":{"type":"Point","coordinates":[-1.90386,40.69508]},"properties":{"id":37416,"name":"Terzaga","state_code":"GU","country_code":"ES"}},{"type":"Feature","geometry":{"type":"Point","coordinates":[-1.93069,40.74925]},"properties":{"id":37424,"name":"Tierzo","state_code":"GU","country_code":"ES"}},{"type":"Feature","geometry":{"type":"Point","coordinates":[-1.67036,40.72165]},"properties":{"id":37456,"name":"Tordellego","state_code":"GU","country_code":"ES"}},{"type":"Feature","geometry":{"type":"Point","coordinates":[-2.75792,41.21827]},"properties":{"id":37457,"name":"Tordelrábano","state_code":"GU","country_code":"ES"}},{"type":"Feature","geometry":{"type":"Point","coordinates":[-1.59372,40.67074]},"properties":{"id":37460,"name":"Tordesilos","state_code":"GU","country_code":"ES"}},{"type":"Feature","geometry":{"type":"Point","coordinates":[-3.0283,40.74251]},"properties":{"id":37465,"name":"Torija","state_code":"GU","country_code":"ES"}},{"type":"Feature","geometry":{"type":"Point","coordinates":[-3.07723,40.79176]},"properties":{"id":37500,"name":"Torre del Burgo","state_code":"GU","country_code":"ES"}},{"type":"Feature","geometry":{"type":"Point","coordinates":[-1.80707,40.74947]},"properties":{"id":37527,"name":"Torrecuadrada de Molina","state_code":"GU","country_code":"ES"}},{"type":"Feature","geometry":{"type":"Point","coordinates":[-2.53215,40.85364]},"properties":{"id":37528,"name":"Torrecuadradilla","state_code":"GU","country_code":"ES"}},{"type":"Feature","geometry":{"type":"Point","coordinates":[-3.33376,40.64325]},"properties":{"id":37541,"name":"Torrejón del Rey","state_code":"GU","country_code":"ES"}},{"type":"Feature","geometry":{"type":"Point","coordinates":[-2.89918,41.01881]},"properties":{"id":37556,"name":"Torremocha de Jadraque","state_code":"GU","country_code":"ES"}},{"type":"Feature","geometry":{"type":"Point","coordinates":[-2.61881,40.97819]},"properties":{"id":37558,"name":"Torremocha del Campo","state_code":"GU","country_code":"ES"}},{"type":"Feature","geometry":{"type":"Point","coordinates":[-2.04497,40.88954]},"properties":{"id":37559,"name":"Torremocha del Pinar","state_code":"GU","country_code":"ES"}},{"type":"Feature","geometry":{"type":"Point","coordinates":[-1.8419,40.76528]},"properties":{"id":37560,"name":"Torremochuela","state_code":"GU","country_code":"ES"}},{"type":"Feature","geometry":{"type":"Point","coordinates":[-1.90064,40.96581]},"properties":{"id":37593,"name":"Torrubia","state_code":"GU","country_code":"ES"}},{"type":"Feature","geometry":{"type":"Point","coordinates":[-3.12316,40.70425]},"properties":{"id":37668,"name":"Tórtola de Henares","state_code":"GU","country_code":"ES"}},{"type":"Feature","geometry":{"type":"Point","coordinates":[-1.79764,40.97181]},"properties":{"id":37598,"name":"Tortuera","state_code":"GU","country_code":"ES"}},{"type":"Feature","geometry":{"type":"Point","coordinates":[-3.35024,40.93414]},"properties":{"id":37599,"name":"Tortuero","state_code":"GU","country_code":"ES"}},{"type":"Feature","geometry":{"type":"Point","coordinates":[-1.8092862,40.6681373]},"properties":{"id":152106,"name":"Traíd","state_code":"GU","country_code":"ES"}},{"type":"Feature","geometry":{"type":"Point","coordinates":[-2.99253,40.77426]},"properties":{"id":37639,"name":"Trijueque","state_code":"GU","country_code":"ES"}},{"type":"Feature","geometry":{"type":"Point","coordinates":[-2.59265,40.70086]},"properties":{"id":37640,"name":"Trillo","state_code":"GU","country_code":"ES"}},{"type":"Feature","geometry":{"type":"Point","coordinates":[-3.4604,40.83944]},"properties":{"id":37671,"name":"Uceda","state_code":"GU","country_code":"ES"}},{"type":"Feature","geometry":{"type":"Point","coordinates":[-3.00482,41.23526]},"properties":{"id":37676,"name":"Ujados","state_code":"GU","country_code":"ES"}},{"type":"Feature","geometry":{"type":"Point","coordinates":[-2.9277,40.84832]},"properties":{"id":37707,"name":"Utande","state_code":"GU","country_code":"ES"}},{"type":"Feature","geometry":{"type":"Point","coordinates":[-3.12652,40.5171]},"properties":{"id":37727,"name":"Valdarachas","state_code":"GU","country_code":"ES"}},{"type":"Feature","geometry":{"type":"Point","coordinates":[-2.99218,40.80939]},"properties":{"id":37732,"name":"Valdearenas","state_code":"GU","country_code":"ES"}},{"type":"Feature","geometry":{"type":"Point","coordinates":[-2.96977,40.6656]},"properties":{"id":37733,"name":"Valdeavellano","state_code":"GU","country_code":"ES"}},{"type":"Feature","geometry":{"type":"Point","coordinates":[-3.31367,40.63473]},"properties":{"id":37736,"name":"Valdeaveruelo","state_code":"GU","country_code":"ES"}},{"type":"Feature","geometry":{"type":"Point","coordinates":[-2.87663,40.45643]},"properties":{"id":37741,"name":"Valdeconcha","state_code":"GU","country_code":"ES"}},{"type":"Feature","geometry":{"type":"Point","coordinates":[-3.01209,40.71125]},"properties":{"id":37749,"name":"Valdegrudas","state_code":"GU","country_code":"ES"}},{"type":"Feature","geometry":{"type":"Point","coordinates":[-2.67588,41.22637]},"properties":{"id":37759,"name":"Valdelcubo","state_code":"GU","country_code":"ES"}},{"type":"Feature","geometry":{"type":"Point","coordinates":[-3.3798359,40.7621338]},"properties":{"id":152107,"name":"Valdenuño Fernández","state_code":"GU","country_code":"ES"}},{"type":"Feature","geometry":{"type":"Point","coordinates":[-3.38414,40.90562]},"properties":{"id":37784,"name":"Valdepeñas de la Sierra","state_code":"GU","country_code":"ES"}},{"type":"Feature","geometry":{"type":"Point","coordinates":[-2.72887,40.81035]},"properties":{"id":37791,"name":"Valderrebollo","state_code":"GU","country_code":"ES"}},{"type":"Feature","geometry":{"type":"Point","coordinates":[-3.32542,40.95546]},"properties":{"id":37801,"name":"Valdesotos","state_code":"GU","country_code":"ES"}},{"type":"Feature","geometry":{"type":"Point","coordinates":[-2.95407,40.61902]},"properties":{"id":37827,"name":"Valfermoso de Tajuña","state_code":"GU","country_code":"ES"}},{"type":"Feature","geometry":{"type":"Point","coordinates":[-1.96121,40.7859]},"properties":{"id":37830,"name":"Valhermoso","state_code":"GU","country_code":"ES"}},{"type":"Feature","geometry":{"type":"Point","coordinates":[-2.40225,40.7142]},"properties":{"id":37876,"name":"Valtablado del Río","state_code":"GU","country_code":"ES"}},{"type":"Feature","geometry":{"type":"Point","coordinates":[-3.23333,41.1293]},"properties":{"id":37892,"name":"Valverde de los Arroyos","state_code":"GU","country_code":"ES"}},{"type":"Feature","geometry":{"type":"Point","coordinates":[-2.76966,41.02577]},"properties":{"id":37959,"name":"Viana de Jadraque","state_code":"GU","country_code":"ES"}},{"type":"Feature","geometry":{"type":"Point","coordinates":[-2.25145,40.67956]},"properties":{"id":38170,"name":"Villanueva de Alcorón","state_code":"GU","country_code":"ES"}},{"type":"Feature","geometry":{"type":"Point","coordinates":[-2.91431,40.90257]},"properties":{"id":38173,"name":"Villanueva de Argecilla","state_code":"GU","country_code":"ES"}},{"type":"Feature","geometry":{"type":"Point","coordinates":[-3.29764,40.58216]},"properties":{"id":38203,"name":"Villanueva de la Torre","state_code":"GU","country_code":"ES"}},{"type":"Feature","geometry":{"type":"Point","coordinates":[-3.02558,41.10169]},"properties":{"id":38278,"name":"Villares de Jadraque","state_code":"GU","country_code":"ES"}},{"type":"Feature","geometry":{"type":"Point","coordinates":[-2.79775,40.9606]},"properties":{"id":38319,"name":"Villaseca de Henares","state_code":"GU","country_code":"ES"}},{"type":"Feature","geometry":{"type":"Point","coordinates":[-3.34904,40.81827]},"properties":{"id":38320,"name":"Villaseca de Uceda","state_code":"GU","country_code":"ES"}},{"type":"Feature","geometry":{"type":"Point","coordinates":[-1.99072,41.12616]},"properties":{"id":38368,"name":"Villel de Mesa","state_code":"GU","country_code":"ES"}},{"type":"Feature","geometry":{"type":"Point","coordinates":[-3.34036,40.79229]},"properties":{"id":38411,"name":"Viñuelas","state_code":"GU","country_code":"ES"}},{"type":"Feature","geometry":{"type":"Point","coordinates":[-3.10782,40.53162]},"properties":{"id":38428,"name":"Yebes","state_code":"GU","country_code":"ES"}},{"type":"Feature","geometry":{"type":"Point","coordinates":[-2.9663,40.35702]},"properties":{"id":38429,"name":"Yebra","state_code":"GU","country_code":"ES"}},{"type":"Feature","geometry":{"type":"Point","coordinates":[-2.85803,40.63092]},"properties":{"id":38444,"name":"Yélamos de Abajo","state_code":"GU","country_code":"ES"}},{"type":"Feature","geometry":{"type":"Point","coordinates":[-2.8434,40.64008]},"properties":{"id":38445,"name":"Yélamos de Arriba","state_code":"GU","country_code":"ES"}},{"type":"Feature","geometry":{"type":"Point","coordinates":[-3.1626,40.75139]},"properties":{"id":38442,"name":"Yunquera de Henares","state_code":"GU","country_code":"ES"}},{"type":"Feature","geometry":{"type":"Point","coordinates":[-2.2012,40.76209]},"properties":{"id":38467,"name":"Zaorejas","state_code":"GU","country_code":"ES"}},{"type":"Feature","geometry":{"type":"Point","coordinates":[-3.04436,41.06838]},"properties":{"id":38485,"name":"Zarzuela de Jadraque","state_code":"GU","country_code":"ES"}},{"type":"Feature","geometry":{"type":"Point","coordinates":[-2.88764,40.33052]},"properties":{"id":38497,"name":"Zorita de los Canes","state_code":"GU","country_code":"ES"}}]}