{"type":"FeatureCollection","features":[{"type":"Feature","geometry":{"type":"Point","coordinates":[1.0919975,42.1615074]},"properties":{"id":151732,"name":"Abella de la Conca","state_code":"L","country_code":"ES"}},{"type":"Feature","geometry":{"type":"Point","coordinates":[0.76667,42]},"properties":{"id":38571,"name":"Àger","state_code":"L","country_code":"ES"}},{"type":"Feature","geometry":{"type":"Point","coordinates":[1.09683,41.78686]},"properties":{"id":31948,"name":"Agramunt","state_code":"L","country_code":"ES"}},{"type":"Feature","geometry":{"type":"Point","coordinates":[0.46667,41.48333]},"properties":{"id":31983,"name":"Aitona","state_code":"L","country_code":"ES"}},{"type":"Feature","geometry":{"type":"Point","coordinates":[0.7402123,41.6150242]},"properties":{"id":151733,"name":"Alamús Els","state_code":"L","country_code":"ES"}},{"type":"Feature","geometry":{"type":"Point","coordinates":[1.51667,42.35]},"properties":{"id":32345,"name":"Alàs i Cerc","state_code":"L","country_code":"ES"}},{"type":"Feature","geometry":{"type":"Point","coordinates":[0.7408063,41.4470074]},"properties":{"id":151734,"name":"Albagés L","state_code":"L","country_code":"ES"}},{"type":"Feature","geometry":{"type":"Point","coordinates":[0.607391,41.5733763]},"properties":{"id":151735,"name":"Albatàrrec","state_code":"L","country_code":"ES"}},{"type":"Feature","geometry":{"type":"Point","coordinates":[0.65936,41.75282]},"properties":{"id":32043,"name":"Albesa","state_code":"L","country_code":"ES"}},{"type":"Feature","geometry":{"type":"Point","coordinates":[0.9360877,41.4230658]},"properties":{"id":151736,"name":"Albi L","state_code":"L","country_code":"ES"}},{"type":"Feature","geometry":{"type":"Point","coordinates":[0.61659,41.48064]},"properties":{"id":32086,"name":"Alcanó","state_code":"L","country_code":"ES"}},{"type":"Feature","geometry":{"type":"Point","coordinates":[0.51667,41.56667]},"properties":{"id":32089,"name":"Alcarràs","state_code":"L","country_code":"ES"}},{"type":"Feature","geometry":{"type":"Point","coordinates":[0.69383,41.64762]},"properties":{"id":32110,"name":"Alcoletge","state_code":"L","country_code":"ES"}},{"type":"Feature","geometry":{"type":"Point","coordinates":[0.58333,41.81667]},"properties":{"id":32201,"name":"Alfarràs","state_code":"L","country_code":"ES"}},{"type":"Feature","geometry":{"type":"Point","coordinates":[0.6205,41.52143]},"properties":{"id":32207,"name":"Alfés","state_code":"L","country_code":"ES"}},{"type":"Feature","geometry":{"type":"Point","coordinates":[0.63633,41.81482]},"properties":{"id":32218,"name":"Algerri","state_code":"L","country_code":"ES"}},{"type":"Feature","geometry":{"type":"Point","coordinates":[0.5845,41.73703]},"properties":{"id":32228,"name":"Alguaire","state_code":"L","country_code":"ES"}},{"type":"Feature","geometry":{"type":"Point","coordinates":[1.3177031,42.5486199]},"properties":{"id":151737,"name":"Alins","state_code":"L","country_code":"ES"}},{"type":"Feature","geometry":{"type":"Point","coordinates":[0.43722,41.73216]},"properties":{"id":32259,"name":"Almacelles","state_code":"L","country_code":"ES"}},{"type":"Feature","geometry":{"type":"Point","coordinates":[0.4237121,41.3057999]},"properties":{"id":151738,"name":"Almatret","state_code":"L","country_code":"ES"}},{"type":"Feature","geometry":{"type":"Point","coordinates":[0.56834,41.79604]},"properties":{"id":32280,"name":"Almenar","state_code":"L","country_code":"ES"}},{"type":"Feature","geometry":{"type":"Point","coordinates":[0.9600662,41.9126559]},"properties":{"id":151739,"name":"Alòs de Balaguer","state_code":"L","country_code":"ES"}},{"type":"Feature","geometry":{"type":"Point","coordinates":[0.55564,41.6657]},"properties":{"id":32331,"name":"Alpicat","state_code":"L","country_code":"ES"}},{"type":"Feature","geometry":{"type":"Point","coordinates":[1.0777723,42.6830031]},"properties":{"id":151740,"name":"Alt Àneu","state_code":"L","country_code":"ES"}},{"type":"Feature","geometry":{"type":"Point","coordinates":[1.08286,41.65649]},"properties":{"id":32378,"name":"Anglesola","state_code":"L","country_code":"ES"}},{"type":"Feature","geometry":{"type":"Point","coordinates":[0.92457,41.54153]},"properties":{"id":32422,"name":"Arbeca","state_code":"L","country_code":"ES"}},{"type":"Feature","geometry":{"type":"Point","coordinates":[0.7105267,42.7591538]},"properties":{"id":151743,"name":"Arres","state_code":"L","country_code":"ES"}},{"type":"Feature","geometry":{"type":"Point","coordinates":[1.5829386,42.3500537]},"properties":{"id":151744,"name":"Arsèguel","state_code":"L","country_code":"ES"}},{"type":"Feature","geometry":{"type":"Point","coordinates":[0.7033745,41.553054]},"properties":{"id":151745,"name":"Artesa de Lleida","state_code":"L","country_code":"ES"}},{"type":"Feature","geometry":{"type":"Point","coordinates":[1.04625,41.89467]},"properties":{"id":32524,"name":"Artesa de Segre","state_code":"L","country_code":"ES"}},{"type":"Feature","geometry":{"type":"Point","coordinates":[0.67277,41.49472]},"properties":{"id":32535,"name":"Aspa","state_code":"L","country_code":"ES"}},{"type":"Feature","geometry":{"type":"Point","coordinates":[1.0394635,42.3301006]},"properties":{"id":151748,"name":"Baix Pallars","state_code":"L","country_code":"ES"}},{"type":"Feature","geometry":{"type":"Point","coordinates":[0.81094,41.79117]},"properties":{"id":32619,"name":"Balaguer","state_code":"L","country_code":"ES"}},{"type":"Feature","geometry":{"type":"Point","coordinates":[1.016083,41.6775914]},"properties":{"id":151749,"name":"Barbens","state_code":"L","country_code":"ES"}},{"type":"Feature","geometry":{"type":"Point","coordinates":[1.2958754,42.0169127]},"properties":{"id":151752,"name":"Bassella","state_code":"L","country_code":"ES"}},{"type":"Feature","geometry":{"type":"Point","coordinates":[0.7167588,42.8344383]},"properties":{"id":151753,"name":"Bausen","state_code":"L","country_code":"ES"}},{"type":"Feature","geometry":{"type":"Point","coordinates":[1.0143426,41.5605304]},"properties":{"id":151754,"name":"Belianes","state_code":"L","country_code":"ES"}},{"type":"Feature","geometry":{"type":"Point","coordinates":[0.7791283,41.6303438]},"properties":{"id":151756,"name":"Bell-lloc d'Urgell","state_code":"L","country_code":"ES"}},{"type":"Feature","geometry":{"type":"Point","coordinates":[0.724773,41.3287569]},"properties":{"id":151828,"name":"Bellaguarda","state_code":"L","country_code":"ES"}},{"type":"Feature","geometry":{"type":"Point","coordinates":[0.9044696,41.7583443]},"properties":{"id":151755,"name":"Bellcaire d'Urgell","state_code":"L","country_code":"ES"}},{"type":"Feature","geometry":{"type":"Point","coordinates":[0.9519708,41.7739942]},"properties":{"id":151757,"name":"Bellmunt d'Urgell","state_code":"L","country_code":"ES"}},{"type":"Feature","geometry":{"type":"Point","coordinates":[1.01144,41.62595]},"properties":{"id":32743,"name":"Bellpuig","state_code":"L","country_code":"ES"}},{"type":"Feature","geometry":{"type":"Point","coordinates":[1.78333,42.36667]},"properties":{"id":32745,"name":"Bellver de Cerdanya","state_code":"L","country_code":"ES"}},{"type":"Feature","geometry":{"type":"Point","coordinates":[0.81768,41.67269]},"properties":{"id":32746,"name":"Bellvís","state_code":"L","country_code":"ES"}},{"type":"Feature","geometry":{"type":"Point","coordinates":[0.6328539,41.697298]},"properties":{"id":151758,"name":"Benavent de Segrià","state_code":"L","country_code":"ES"}},{"type":"Feature","geometry":{"type":"Point","coordinates":[1.3855161,41.8914698]},"properties":{"id":151759,"name":"Biosca","state_code":"L","country_code":"ES"}},{"type":"Feature","geometry":{"type":"Point","coordinates":[0.7235077,42.7386916]},"properties":{"id":151761,"name":"Bòrdes Es","state_code":"L","country_code":"ES"}},{"type":"Feature","geometry":{"type":"Point","coordinates":[0.6921325,42.7855045]},"properties":{"id":151763,"name":"Bossòst","state_code":"L","country_code":"ES"}},{"type":"Feature","geometry":{"type":"Point","coordinates":[0.6387778,41.32613]},"properties":{"id":151760,"name":"Bovera","state_code":"L","country_code":"ES"}},{"type":"Feature","geometry":{"type":"Point","coordinates":[1.2166383,41.8508626]},"properties":{"id":151764,"name":"Cabanabona","state_code":"L","country_code":"ES"}},{"type":"Feature","geometry":{"type":"Point","coordinates":[1.2471427,42.2388889]},"properties":{"id":151765,"name":"Cabó","state_code":"L","country_code":"ES"}},{"type":"Feature","geometry":{"type":"Point","coordinates":[0.87814,41.87486]},"properties":{"id":33163,"name":"Camarasa","state_code":"L","country_code":"ES"}},{"type":"Feature","geometry":{"type":"Point","coordinates":[0.8008388,42.8122428]},"properties":{"id":151766,"name":"Canejan","state_code":"L","country_code":"ES"}},{"type":"Feature","geometry":{"type":"Point","coordinates":[0.8579818,42.1046566]},"properties":{"id":151884,"name":"Castell de Mur","state_code":"L","country_code":"ES"}},{"type":"Feature","geometry":{"type":"Point","coordinates":[1.4155391,42.0223125]},"properties":{"id":151767,"name":"Castellar de la Ribera","state_code":"L","country_code":"ES"}},{"type":"Feature","geometry":{"type":"Point","coordinates":[0.7663538,41.4974858]},"properties":{"id":151768,"name":"Castelldans","state_code":"L","country_code":"ES"}},{"type":"Feature","geometry":{"type":"Point","coordinates":[0.97093,41.64802]},"properties":{"id":33429,"name":"Castellnou de Seana","state_code":"L","country_code":"ES"}},{"type":"Feature","geometry":{"type":"Point","coordinates":[0.7265542,41.8174163]},"properties":{"id":151769,"name":"Castelló de Farfanya","state_code":"L","country_code":"ES"}},{"type":"Feature","geometry":{"type":"Point","coordinates":[1,41.75]},"properties":{"id":33434,"name":"Castellserà","state_code":"L","country_code":"ES"}},{"type":"Feature","geometry":{"type":"Point","coordinates":[1.6055202,42.3252871]},"properties":{"id":151770,"name":"Cava","state_code":"L","country_code":"ES"}},{"type":"Feature","geometry":{"type":"Point","coordinates":[1.2721,41.67003]},"properties":{"id":33595,"name":"Cervera","state_code":"L","country_code":"ES"}},{"type":"Feature","geometry":{"type":"Point","coordinates":[0.8609602,41.4274049]},"properties":{"id":151771,"name":"Cervià de les Garrigues","state_code":"L","country_code":"ES"}},{"type":"Feature","geometry":{"type":"Point","coordinates":[1.13935,41.56113]},"properties":{"id":33700,"name":"Ciutadilla","state_code":"L","country_code":"ES"}},{"type":"Feature","geometry":{"type":"Point","coordinates":[1.626142,41.9331297]},"properties":{"id":151772,"name":"Clariana de Cardener","state_code":"L","country_code":"ES"}},{"type":"Feature","geometry":{"type":"Point","coordinates":[1.31694,42.17473]},"properties":{"id":33730,"name":"Coll de Nargó","state_code":"L","country_code":"ES"}},{"type":"Feature","geometry":{"type":"Point","coordinates":[1.0011902,42.2121579]},"properties":{"id":151820,"name":"Conca de Dalt","state_code":"L","country_code":"ES"}},{"type":"Feature","geometry":{"type":"Point","coordinates":[0.7,41.68333]},"properties":{"id":33777,"name":"Corbins","state_code":"L","country_code":"ES"}},{"type":"Feature","geometry":{"type":"Point","coordinates":[0.959,41.85062]},"properties":{"id":33848,"name":"Cubells","state_code":"L","country_code":"ES"}},{"type":"Feature","geometry":{"type":"Point","coordinates":[0.6897597,41.4673371]},"properties":{"id":151773,"name":"El Cogul","state_code":"L","country_code":"ES"}},{"type":"Feature","geometry":{"type":"Point","coordinates":[0.8812324,41.6501468]},"properties":{"id":151819,"name":"El Palau d'Anglesola","state_code":"L","country_code":"ES"}},{"type":"Feature","geometry":{"type":"Point","coordinates":[0.8561949,41.678418]},"properties":{"id":151826,"name":"El Poal","state_code":"L","country_code":"ES"}},{"type":"Feature","geometry":{"type":"Point","coordinates":[1.605217,42.3720357]},"properties":{"id":151742,"name":"El Pont de Bar","state_code":"L","country_code":"ES"}},{"type":"Feature","geometry":{"type":"Point","coordinates":[0.7408063,42.4080464]},"properties":{"id":151830,"name":"El Pont de Suert","state_code":"L","country_code":"ES"}},{"type":"Feature","geometry":{"type":"Point","coordinates":[0.6802698,41.4135907]},"properties":{"id":151854,"name":"El Soleràs","state_code":"L","country_code":"ES"}},{"type":"Feature","geometry":{"type":"Point","coordinates":[0.9471299,41.3825979]},"properties":{"id":151879,"name":"El Vilosell","state_code":"L","country_code":"ES"}},{"type":"Feature","geometry":{"type":"Point","coordinates":[1.004179,41.4950371]},"properties":{"id":151774,"name":"Espluga Calba L","state_code":"L","country_code":"ES"}},{"type":"Feature","geometry":{"type":"Point","coordinates":[1.08666,42.57838]},"properties":{"id":34132,"name":"Espot","state_code":"L","country_code":"ES"}},{"type":"Feature","geometry":{"type":"Point","coordinates":[1.5228293,42.3731557]},"properties":{"id":151778,"name":"Estamariu","state_code":"L","country_code":"ES"}},{"type":"Feature","geometry":{"type":"Point","coordinates":[1.3903425,41.6975038]},"properties":{"id":151775,"name":"Estaràs","state_code":"L","country_code":"ES"}},{"type":"Feature","geometry":{"type":"Point","coordinates":[1.1227106,42.6269227]},"properties":{"id":151776,"name":"Esterri d'Àneu","state_code":"L","country_code":"ES"}},{"type":"Feature","geometry":{"type":"Point","coordinates":[1.2617265,42.5927358]},"properties":{"id":151777,"name":"Esterri de Cardós","state_code":"L","country_code":"ES"}},{"type":"Feature","geometry":{"type":"Point","coordinates":[1.27216,42.49654]},"properties":{"id":34166,"name":"Farrera","state_code":"L","country_code":"ES"}},{"type":"Feature","geometry":{"type":"Point","coordinates":[1.3951694,42.1981887]},"properties":{"id":151888,"name":"Fígols i Alinyà","state_code":"L","country_code":"ES"}},{"type":"Feature","geometry":{"type":"Point","coordinates":[0.8740871,41.634355]},"properties":{"id":151780,"name":"Fondarella","state_code":"L","country_code":"ES"}},{"type":"Feature","geometry":{"type":"Point","coordinates":[1.0129973,41.8768861]},"properties":{"id":151781,"name":"Foradada","state_code":"L","country_code":"ES"}},{"type":"Feature","geometry":{"type":"Point","coordinates":[1.02395,41.46334]},"properties":{"id":34364,"name":"Fulleda","state_code":"L","country_code":"ES"}},{"type":"Feature","geometry":{"type":"Point","coordinates":[0.9210213,42.122861]},"properties":{"id":151783,"name":"Gavet de la Conca","state_code":"L","country_code":"ES"}},{"type":"Feature","geometry":{"type":"Point","coordinates":[0.3936722,41.6603639]},"properties":{"id":151892,"name":"Gimenells i el Pla de la Font","state_code":"L","country_code":"ES"}},{"type":"Feature","geometry":{"type":"Point","coordinates":[0.93125,41.63354]},"properties":{"id":34479,"name":"Golmés","state_code":"L","country_code":"ES"}},{"type":"Feature","geometry":{"type":"Point","coordinates":[1.6601,42.23697]},"properties":{"id":34565,"name":"Gósol","state_code":"L","country_code":"ES"}},{"type":"Feature","geometry":{"type":"Point","coordinates":[1.2232482,41.6480072]},"properties":{"id":151786,"name":"Granyanella","state_code":"L","country_code":"ES"}},{"type":"Feature","geometry":{"type":"Point","coordinates":[0.6491468,41.432857]},"properties":{"id":151788,"name":"Granyena de les Garrigues","state_code":"L","country_code":"ES"}},{"type":"Feature","geometry":{"type":"Point","coordinates":[1.2463911,41.6237612]},"properties":{"id":151787,"name":"Granyena de Segarra","state_code":"L","country_code":"ES"}},{"type":"Feature","geometry":{"type":"Point","coordinates":[1.18528,41.5645]},"properties":{"id":34549,"name":"Guimerà","state_code":"L","country_code":"ES"}},{"type":"Feature","geometry":{"type":"Point","coordinates":[1.2903074,41.784519]},"properties":{"id":151789,"name":"Guissona","state_code":"L","country_code":"ES"}},{"type":"Feature","geometry":{"type":"Point","coordinates":[1.6422975,42.1374541]},"properties":{"id":151790,"name":"Guixers","state_code":"L","country_code":"ES"}},{"type":"Feature","geometry":{"type":"Point","coordinates":[1.0465938,42.1184861]},"properties":{"id":151793,"name":"Isona i Conca Dellà","state_code":"L","country_code":"ES"}},{"type":"Feature","geometry":{"type":"Point","coordinates":[0.9880419,41.6804785]},"properties":{"id":151792,"name":"Ivars d'Urgell","state_code":"L","country_code":"ES"}},{"type":"Feature","geometry":{"type":"Point","coordinates":[0.5865375,41.8498111]},"properties":{"id":151791,"name":"Ivars de Noguera","state_code":"L","country_code":"ES"}},{"type":"Feature","geometry":{"type":"Point","coordinates":[1.4,41.76667]},"properties":{"id":34777,"name":"Ivorra","state_code":"L","country_code":"ES"}},{"type":"Feature","geometry":{"type":"Point","coordinates":[1.6080974,42.2545949]},"properties":{"id":151890,"name":"Josa i Tuixén","state_code":"L","country_code":"ES"}},{"type":"Feature","geometry":{"type":"Point","coordinates":[0.7765,41.37033]},"properties":{"id":34831,"name":"Juncosa","state_code":"L","country_code":"ES"}},{"type":"Feature","geometry":{"type":"Point","coordinates":[0.82451,41.54847]},"properties":{"id":34832,"name":"Juneda","state_code":"L","country_code":"ES"}},{"type":"Feature","geometry":{"type":"Point","coordinates":[1.1929114,42.0126088]},"properties":{"id":151750,"name":"La Baronia de Rialb","state_code":"L","country_code":"ES"}},{"type":"Feature","geometry":{"type":"Point","coordinates":[1.5886966,42.175938]},"properties":{"id":151821,"name":"La Coma i la Pedra","state_code":"L","country_code":"ES"}},{"type":"Feature","geometry":{"type":"Point","coordinates":[0.9205739,41.5107312]},"properties":{"id":151779,"name":"La Floresta","state_code":"L","country_code":"ES"}},{"type":"Feature","geometry":{"type":"Point","coordinates":[1.0059724,41.7114576]},"properties":{"id":151782,"name":"La Fuliola","state_code":"L","country_code":"ES"}},{"type":"Feature","geometry":{"type":"Point","coordinates":[0.6660391,41.3548062]},"properties":{"id":151784,"name":"La Granadella","state_code":"L","country_code":"ES"}},{"type":"Feature","geometry":{"type":"Point","coordinates":[0.3530666,41.4188099]},"properties":{"id":151785,"name":"La Granja d'Escarp","state_code":"L","country_code":"ES"}},{"type":"Feature","geometry":{"type":"Point","coordinates":[1.131854,42.5945468]},"properties":{"id":151883,"name":"La Guingueta d'Àneu","state_code":"L","country_code":"ES"}},{"type":"Feature","geometry":{"type":"Point","coordinates":[1.5305465,41.7803369]},"properties":{"id":151804,"name":"La Molsosa","state_code":"L","country_code":"ES"}},{"type":"Feature","geometry":{"type":"Point","coordinates":[0.9155523,41.3669665]},"properties":{"id":151827,"name":"La Pobla de Cérvoles","state_code":"L","country_code":"ES"}},{"type":"Feature","geometry":{"type":"Point","coordinates":[0.9675847,42.2477193]},"properties":{"id":151829,"name":"La Pobla de Segur","state_code":"L","country_code":"ES"}},{"type":"Feature","geometry":{"type":"Point","coordinates":[0.6399627,41.7395861]},"properties":{"id":151831,"name":"La Portella","state_code":"L","country_code":"ES"}},{"type":"Feature","geometry":{"type":"Point","coordinates":[0.8788352,41.8051712]},"properties":{"id":151746,"name":"La Sentiu de Sió","state_code":"L","country_code":"ES"}},{"type":"Feature","geometry":{"type":"Point","coordinates":[1.4555525,42.3575784]},"properties":{"id":151853,"name":"La Seu d'Urgell","state_code":"L","country_code":"ES"}},{"type":"Feature","geometry":{"type":"Point","coordinates":[0.9629523,42.4487836]},"properties":{"id":151866,"name":"La Torre de Cabdella","state_code":"L","country_code":"ES"}},{"type":"Feature","geometry":{"type":"Point","coordinates":[0.8484524,42.5282162]},"properties":{"id":151751,"name":"La Vall de Boí","state_code":"L","country_code":"ES"}},{"type":"Feature","geometry":{"type":"Point","coordinates":[1.5015009,42.2461755]},"properties":{"id":151889,"name":"La Vansa i Fórnols","state_code":"L","country_code":"ES"}},{"type":"Feature","geometry":{"type":"Point","coordinates":[0.7105,42.81076]},"properties":{"id":35034,"name":"Les","state_code":"L","country_code":"ES"}},{"type":"Feature","geometry":{"type":"Point","coordinates":[0.810357,41.9366402]},"properties":{"id":151747,"name":"Les Avellanes i Santa Linya","state_code":"L","country_code":"ES"}},{"type":"Feature","geometry":{"type":"Point","coordinates":[0.8735607,41.5223705]},"properties":{"id":151762,"name":"Les Borges Blanques","state_code":"L","country_code":"ES"}},{"type":"Feature","geometry":{"type":"Point","coordinates":[1.3199536,41.6972928]},"properties":{"id":151815,"name":"Les Oluges","state_code":"L","country_code":"ES"}},{"type":"Feature","geometry":{"type":"Point","coordinates":[1.2313618,42.2888095]},"properties":{"id":151886,"name":"Les Valls d'Aguilar","state_code":"L","country_code":"ES"}},{"type":"Feature","geometry":{"type":"Point","coordinates":[1.4628042,42.4042042]},"properties":{"id":151870,"name":"Les Valls de Valira","state_code":"L","country_code":"ES"}},{"type":"Feature","geometry":{"type":"Point","coordinates":[0.91667,41.7]},"properties":{"id":35056,"name":"Linyola","state_code":"L","country_code":"ES"}},{"type":"Feature","geometry":{"type":"Point","coordinates":[1.2698475,42.6810417]},"properties":{"id":151794,"name":"Lladorre","state_code":"L","country_code":"ES"}},{"type":"Feature","geometry":{"type":"Point","coordinates":[1.5066874,42.0443899]},"properties":{"id":151795,"name":"Lladurs","state_code":"L","country_code":"ES"}},{"type":"Feature","geometry":{"type":"Point","coordinates":[0.5500109,41.3742112]},"properties":{"id":151796,"name":"Llardecans","state_code":"L","country_code":"ES"}},{"type":"Feature","geometry":{"type":"Point","coordinates":[1.2100295,42.495852]},"properties":{"id":151797,"name":"Llavorsí","state_code":"L","country_code":"ES"}},{"type":"Feature","geometry":{"type":"Point","coordinates":[0.62218,41.61674]},"properties":{"id":35074,"name":"Lleida","state_code":"L","country_code":"ES"}},{"type":"Feature","geometry":{"type":"Point","coordinates":[1.68692,42.39025]},"properties":{"id":35078,"name":"Lles de Cerdanya","state_code":"L","country_code":"ES"}},{"type":"Feature","geometry":{"type":"Point","coordinates":[0.91621,42.07476]},"properties":{"id":35079,"name":"Llimiana","state_code":"L","country_code":"ES"}},{"type":"Feature","geometry":{"type":"Point","coordinates":[1.472324,41.9497629]},"properties":{"id":151798,"name":"Llobera","state_code":"L","country_code":"ES"}},{"type":"Feature","geometry":{"type":"Point","coordinates":[0.5033397,41.3637747]},"properties":{"id":151802,"name":"Maials","state_code":"L","country_code":"ES"}},{"type":"Feature","geometry":{"type":"Point","coordinates":[1.0386088,41.5503729]},"properties":{"id":151799,"name":"Maldà","state_code":"L","country_code":"ES"}},{"type":"Feature","geometry":{"type":"Point","coordinates":[0.3595372,41.4569554]},"properties":{"id":151800,"name":"Massalcoreig","state_code":"L","country_code":"ES"}},{"type":"Feature","geometry":{"type":"Point","coordinates":[1.310175,41.7973476]},"properties":{"id":151801,"name":"Massoteres","state_code":"L","country_code":"ES"}},{"type":"Feature","geometry":{"type":"Point","coordinates":[0.7424595,41.7279365]},"properties":{"id":151803,"name":"Menàrguens","state_code":"L","country_code":"ES"}},{"type":"Feature","geometry":{"type":"Point","coordinates":[0.87987,41.60516]},"properties":{"id":35444,"name":"Miralcamp","state_code":"L","country_code":"ES"}},{"type":"Feature","geometry":{"type":"Point","coordinates":[0.9,41.63333]},"properties":{"id":35486,"name":"Mollerussa","state_code":"L","country_code":"ES"}},{"type":"Feature","geometry":{"type":"Point","coordinates":[1.7045499,42.3542129]},"properties":{"id":151806,"name":"Montellà i Martinet","state_code":"L","country_code":"ES"}},{"type":"Feature","geometry":{"type":"Point","coordinates":[1.3469247,42.3662806]},"properties":{"id":151807,"name":"Montferrer i Castellbò","state_code":"L","country_code":"ES"}},{"type":"Feature","geometry":{"type":"Point","coordinates":[0.9607869,41.7997352]},"properties":{"id":151805,"name":"Montgai","state_code":"L","country_code":"ES"}},{"type":"Feature","geometry":{"type":"Point","coordinates":[0.5884523,41.5609907]},"properties":{"id":151809,"name":"Montoliu de Lleida","state_code":"L","country_code":"ES"}},{"type":"Feature","geometry":{"type":"Point","coordinates":[1.2707499,41.5901296]},"properties":{"id":151808,"name":"Montoliu de Segarra","state_code":"L","country_code":"ES"}},{"type":"Feature","geometry":{"type":"Point","coordinates":[1.2310613,41.6011643]},"properties":{"id":151810,"name":"Montornès de Segarra","state_code":"L","country_code":"ES"}},{"type":"Feature","geometry":{"type":"Point","coordinates":[1.1155172,41.5602211]},"properties":{"id":151811,"name":"Nalec","state_code":"L","country_code":"ES"}},{"type":"Feature","geometry":{"type":"Point","coordinates":[0.9438468,42.7428241]},"properties":{"id":151741,"name":"Naut Aran","state_code":"L","country_code":"ES"}},{"type":"Feature","geometry":{"type":"Point","coordinates":[1.6178011,42.0470275]},"properties":{"id":151812,"name":"Navès","state_code":"L","country_code":"ES"}},{"type":"Feature","geometry":{"type":"Point","coordinates":[1.4547922,42.1327713]},"properties":{"id":151813,"name":"Odèn","state_code":"L","country_code":"ES"}},{"type":"Feature","geometry":{"type":"Point","coordinates":[1.31353,42.06895]},"properties":{"id":35880,"name":"Oliana","state_code":"L","country_code":"ES"}},{"type":"Feature","geometry":{"type":"Point","coordinates":[1.1745998,41.8761283]},"properties":{"id":151814,"name":"Oliola","state_code":"L","country_code":"ES"}},{"type":"Feature","geometry":{"type":"Point","coordinates":[1.5646,42.01035]},"properties":{"id":35883,"name":"Olius","state_code":"L","country_code":"ES"}},{"type":"Feature","geometry":{"type":"Point","coordinates":[0.9599665,41.5016625]},"properties":{"id":151816,"name":"Omellons Els","state_code":"L","country_code":"ES"}},{"type":"Feature","geometry":{"type":"Point","coordinates":[1.0759758,41.5006395]},"properties":{"id":151817,"name":"Omells de na Gaia Els","state_code":"L","country_code":"ES"}},{"type":"Feature","geometry":{"type":"Point","coordinates":[1.3278062,42.211946]},"properties":{"id":151818,"name":"Organyà","state_code":"L","country_code":"ES"}},{"type":"Feature","geometry":{"type":"Point","coordinates":[0.72017,41.87314]},"properties":{"id":35968,"name":"Os de Balaguer","state_code":"L","country_code":"ES"}},{"type":"Feature","geometry":{"type":"Point","coordinates":[1.159,41.75485]},"properties":{"id":35974,"name":"Ossó de Sió","state_code":"L","country_code":"ES"}},{"type":"Feature","geometry":{"type":"Point","coordinates":[0.9659384,41.7572239]},"properties":{"id":151822,"name":"Penelles","state_code":"L","country_code":"ES"}},{"type":"Feature","geometry":{"type":"Point","coordinates":[1.2728243,42.0618588]},"properties":{"id":151823,"name":"Peramola","state_code":"L","country_code":"ES"}},{"type":"Feature","geometry":{"type":"Point","coordinates":[1.4001478,41.9707994]},"properties":{"id":151824,"name":"Pinell de Solsonès","state_code":"L","country_code":"ES"}},{"type":"Feature","geometry":{"type":"Point","coordinates":[1.5418977,41.8272543]},"properties":{"id":151825,"name":"Pinós","state_code":"L","country_code":"ES"}},{"type":"Feature","geometry":{"type":"Point","coordinates":[1.2025207,41.7444247]},"properties":{"id":151891,"name":"Plans de Sió Els","state_code":"L","country_code":"ES"}},{"type":"Feature","geometry":{"type":"Point","coordinates":[1.18515,41.91607]},"properties":{"id":36275,"name":"Ponts","state_code":"L","country_code":"ES"}},{"type":"Feature","geometry":{"type":"Point","coordinates":[1.83671,42.3644228]},"properties":{"id":151832,"name":"Prats i Sansor","state_code":"L","country_code":"ES"}},{"type":"Feature","geometry":{"type":"Point","coordinates":[1.0382669,41.607738]},"properties":{"id":151833,"name":"Preixana","state_code":"L","country_code":"ES"}},{"type":"Feature","geometry":{"type":"Point","coordinates":[1.0505472,41.7939095]},"properties":{"id":151834,"name":"Preixens","state_code":"L","country_code":"ES"}},{"type":"Feature","geometry":{"type":"Point","coordinates":[1.738673,42.378856]},"properties":{"id":151835,"name":"Prullans","state_code":"L","country_code":"ES"}},{"type":"Feature","geometry":{"type":"Point","coordinates":[0.8818151,41.5628676]},"properties":{"id":151836,"name":"Puiggròs","state_code":"L","country_code":"ES"}},{"type":"Feature","geometry":{"type":"Point","coordinates":[1.1215116,41.7769591]},"properties":{"id":151837,"name":"Puigverd d'Agramunt","state_code":"L","country_code":"ES"}},{"type":"Feature","geometry":{"type":"Point","coordinates":[0.7329377,41.5433639]},"properties":{"id":151838,"name":"Puigverd de Lleida","state_code":"L","country_code":"ES"}},{"type":"Feature","geometry":{"type":"Point","coordinates":[1.1347024,42.4429196]},"properties":{"id":151839,"name":"Rialp","state_code":"L","country_code":"ES"}},{"type":"Feature","geometry":{"type":"Point","coordinates":[1.3180042,41.6235887]},"properties":{"id":151885,"name":"Ribera d'Ondara","state_code":"L","country_code":"ES"}},{"type":"Feature","geometry":{"type":"Point","coordinates":[1.4241426,42.2865854]},"properties":{"id":151840,"name":"Ribera d'Urgellet","state_code":"L","country_code":"ES"}},{"type":"Feature","geometry":{"type":"Point","coordinates":[1.5637763,41.9413535]},"properties":{"id":151841,"name":"Riner","state_code":"L","country_code":"ES"}},{"type":"Feature","geometry":{"type":"Point","coordinates":[1.8259132,42.3451094]},"properties":{"id":151893,"name":"Riu de Cerdanya","state_code":"L","country_code":"ES"}},{"type":"Feature","geometry":{"type":"Point","coordinates":[0.5949571,41.6938394]},"properties":{"id":151842,"name":"Rosselló","state_code":"L","country_code":"ES"}},{"type":"Feature","geometry":{"type":"Point","coordinates":[0.9316119,42.2130504]},"properties":{"id":151843,"name":"Salàs de Pallars","state_code":"L","country_code":"ES"}},{"type":"Feature","geometry":{"type":"Point","coordinates":[1.3095351,41.875609]},"properties":{"id":151844,"name":"Sanaüja","state_code":"L","country_code":"ES"}},{"type":"Feature","geometry":{"type":"Point","coordinates":[0.764211,42.0797879]},"properties":{"id":151848,"name":"Sant Esteve de la Sarga","state_code":"L","country_code":"ES"}},{"type":"Feature","geometry":{"type":"Point","coordinates":[1.4205199,41.6560285]},"properties":{"id":151845,"name":"Sant Guim de Freixenet","state_code":"L","country_code":"ES"}},{"type":"Feature","geometry":{"type":"Point","coordinates":[1.3243289,41.7626828]},"properties":{"id":151849,"name":"Sant Guim de la Plana","state_code":"L","country_code":"ES"}},{"type":"Feature","geometry":{"type":"Point","coordinates":[1.5880904,42.1358217]},"properties":{"id":151846,"name":"Sant Llorenç de Morunys","state_code":"L","country_code":"ES"}},{"type":"Feature","geometry":{"type":"Point","coordinates":[1.0681918,41.5662864]},"properties":{"id":151882,"name":"Sant Martí de Riucorb","state_code":"L","country_code":"ES"}},{"type":"Feature","geometry":{"type":"Point","coordinates":[1.364407,41.7258237]},"properties":{"id":151847,"name":"Sant Ramon","state_code":"L","country_code":"ES"}},{"type":"Feature","geometry":{"type":"Point","coordinates":[0.8809211,42.3600301]},"properties":{"id":151851,"name":"Sarroca de Bellera","state_code":"L","country_code":"ES"}},{"type":"Feature","geometry":{"type":"Point","coordinates":[0.5606525,41.4592812]},"properties":{"id":151850,"name":"Sarroca de Lleida","state_code":"L","country_code":"ES"}},{"type":"Feature","geometry":{"type":"Point","coordinates":[0.9365927,42.3243687]},"properties":{"id":151852,"name":"Senterada","state_code":"L","country_code":"ES"}},{"type":"Feature","geometry":{"type":"Point","coordinates":[0.41667,41.46667]},"properties":{"id":37227,"name":"Seròs","state_code":"L","country_code":"ES"}},{"type":"Feature","geometry":{"type":"Point","coordinates":[0.83333,41.63333]},"properties":{"id":37242,"name":"Sidamon","state_code":"L","country_code":"ES"}},{"type":"Feature","geometry":{"type":"Point","coordinates":[1.51706,41.99395]},"properties":{"id":37285,"name":"Solsona","state_code":"L","country_code":"ES"}},{"type":"Feature","geometry":{"type":"Point","coordinates":[1.181053,42.3704086]},"properties":{"id":151855,"name":"Soriguera","state_code":"L","country_code":"ES"}},{"type":"Feature","geometry":{"type":"Point","coordinates":[1.13045,42.41319]},"properties":{"id":37304,"name":"Sort","state_code":"L","country_code":"ES"}},{"type":"Feature","geometry":{"type":"Point","coordinates":[0.48333,41.53333]},"properties":{"id":37308,"name":"Soses","state_code":"L","country_code":"ES"}},{"type":"Feature","geometry":{"type":"Point","coordinates":[0.5671571,41.5561031]},"properties":{"id":151856,"name":"Sudanell","state_code":"L","country_code":"ES"}},{"type":"Feature","geometry":{"type":"Point","coordinates":[0.5908192,41.5235105]},"properties":{"id":151857,"name":"Sunyer","state_code":"L","country_code":"ES"}},{"type":"Feature","geometry":{"type":"Point","coordinates":[0.8999973,42.1861584]},"properties":{"id":151858,"name":"Talarn","state_code":"L","country_code":"ES"}},{"type":"Feature","geometry":{"type":"Point","coordinates":[1.3375836,41.5818876]},"properties":{"id":151859,"name":"Talavera","state_code":"L","country_code":"ES"}},{"type":"Feature","geometry":{"type":"Point","coordinates":[1.13957,41.64704]},"properties":{"id":37661,"name":"Tàrrega","state_code":"L","country_code":"ES"}},{"type":"Feature","geometry":{"type":"Point","coordinates":[1.0194254,41.422673]},"properties":{"id":151860,"name":"Tarrés","state_code":"L","country_code":"ES"}},{"type":"Feature","geometry":{"type":"Point","coordinates":[1.2761649,41.731501]},"properties":{"id":151861,"name":"Tarroja de Segarra","state_code":"L","country_code":"ES"}},{"type":"Feature","geometry":{"type":"Point","coordinates":[0.76667,41.71667]},"properties":{"id":37665,"name":"Térmens","state_code":"L","country_code":"ES"}},{"type":"Feature","geometry":{"type":"Point","coordinates":[1.2361706,42.5197977]},"properties":{"id":151862,"name":"Tírvia","state_code":"L","country_code":"ES"}},{"type":"Feature","geometry":{"type":"Point","coordinates":[1.25608,41.97527]},"properties":{"id":37432,"name":"Tiurana","state_code":"L","country_code":"ES"}},{"type":"Feature","geometry":{"type":"Point","coordinates":[1.4036179,41.81054]},"properties":{"id":151863,"name":"Torà","state_code":"L","country_code":"ES"}},{"type":"Feature","geometry":{"type":"Point","coordinates":[0.7203205,41.3942541]},"properties":{"id":151864,"name":"Torms Els","state_code":"L","country_code":"ES"}},{"type":"Feature","geometry":{"type":"Point","coordinates":[1.05384,41.70117]},"properties":{"id":37472,"name":"Tornabous","state_code":"L","country_code":"ES"}},{"type":"Feature","geometry":{"type":"Point","coordinates":[0.6293675,41.6717741]},"properties":{"id":151869,"name":"Torre-serona","state_code":"L","country_code":"ES"}},{"type":"Feature","geometry":{"type":"Point","coordinates":[0.5937779,41.4265847]},"properties":{"id":151865,"name":"Torrebesses","state_code":"L","country_code":"ES"}},{"type":"Feature","geometry":{"type":"Point","coordinates":[0.60671,41.67318]},"properties":{"id":37531,"name":"Torrefarrera","state_code":"L","country_code":"ES"}},{"type":"Feature","geometry":{"type":"Point","coordinates":[1.2602228,41.7637122]},"properties":{"id":151887,"name":"Torrefeta i Florejacs","state_code":"L","country_code":"ES"}},{"type":"Feature","geometry":{"type":"Point","coordinates":[0.8292647,41.5803917]},"properties":{"id":151867,"name":"Torregrossa","state_code":"L","country_code":"ES"}},{"type":"Feature","geometry":{"type":"Point","coordinates":[0.7039987,41.7043576]},"properties":{"id":151868,"name":"Torrelameu","state_code":"L","country_code":"ES"}},{"type":"Feature","geometry":{"type":"Point","coordinates":[0.5142,41.53399]},"properties":{"id":37576,"name":"Torres de Segre","state_code":"L","country_code":"ES"}},{"type":"Feature","geometry":{"type":"Point","coordinates":[0.89487,42.16703]},"properties":{"id":37628,"name":"Tremp","state_code":"L","country_code":"ES"}},{"type":"Feature","geometry":{"type":"Point","coordinates":[1.2260973,42.5624409]},"properties":{"id":151881,"name":"Vall de Cardós","state_code":"L","country_code":"ES"}},{"type":"Feature","geometry":{"type":"Point","coordinates":[1.08872,41.52631]},"properties":{"id":37840,"name":"Vallbona de les Monges","state_code":"L","country_code":"ES"}},{"type":"Feature","geometry":{"type":"Point","coordinates":[0.81385,41.75211]},"properties":{"id":37858,"name":"Vallfogona de Balaguer","state_code":"L","country_code":"ES"}},{"type":"Feature","geometry":{"type":"Point","coordinates":[1.14284,41.61057]},"properties":{"id":37950,"name":"Verdú","state_code":"L","country_code":"ES"}},{"type":"Feature","geometry":{"type":"Point","coordinates":[0.7722974,42.7245643]},"properties":{"id":151871,"name":"Vielha e Mijaran","state_code":"L","country_code":"ES"}},{"type":"Feature","geometry":{"type":"Point","coordinates":[0.9282789,41.6633202]},"properties":{"id":151878,"name":"Vila-sana","state_code":"L","country_code":"ES"}},{"type":"Feature","geometry":{"type":"Point","coordinates":[1.105928,41.64888]},"properties":{"id":151872,"name":"Vilagrassa","state_code":"L","country_code":"ES"}},{"type":"Feature","geometry":{"type":"Point","coordinates":[0.7170556,42.4769739]},"properties":{"id":151873,"name":"Vilaller","state_code":"L","country_code":"ES"}},{"type":"Feature","geometry":{"type":"Point","coordinates":[0.7263609,42.7476961]},"properties":{"id":151874,"name":"Vilamòs","state_code":"L","country_code":"ES"}},{"type":"Feature","geometry":{"type":"Point","coordinates":[0.96432,41.61379]},"properties":{"id":37995,"name":"Vilanova de Bellpuig","state_code":"L","country_code":"ES"}},{"type":"Feature","geometry":{"type":"Point","coordinates":[0.7283354,41.6898845]},"properties":{"id":151880,"name":"Vilanova de la Barca","state_code":"L","country_code":"ES"}},{"type":"Feature","geometry":{"type":"Point","coordinates":[1.2521036,41.9100546]},"properties":{"id":151875,"name":"Vilanova de lAguda","state_code":"L","country_code":"ES"}},{"type":"Feature","geometry":{"type":"Point","coordinates":[1.0197244,41.9938401]},"properties":{"id":151876,"name":"Vilanova de Meià","state_code":"L","country_code":"ES"}},{"type":"Feature","geometry":{"type":"Point","coordinates":[0.6167922,41.7123804]},"properties":{"id":151877,"name":"Vilanova de Segrià","state_code":"L","country_code":"ES"}},{"type":"Feature","geometry":{"type":"Point","coordinates":[0.98333,41.43333]},"properties":{"id":38389,"name":"Vinaixa","state_code":"L","country_code":"ES"}}]}