{"type":"FeatureCollection","features":[{"type":"Feature","geometry":{"type":"Point","coordinates":[-8.0206104,42.7617021]},"properties":{"id":151151,"name":"Agolada","state_code":"PO","country_code":"ES"}},{"type":"Feature","geometry":{"type":"Point","coordinates":[-8.31667,42.11667]},"properties":{"id":32425,"name":"Arbo","state_code":"PO","country_code":"ES"}},{"type":"Feature","geometry":{"type":"Point","coordinates":[-8.85,42.11667]},"properties":{"id":32616,"name":"Baiona","state_code":"PO","country_code":"ES"}},{"type":"Feature","geometry":{"type":"Point","coordinates":[-8.6220959,42.5541451]},"properties":{"id":151142,"name":"Barro","state_code":"PO","country_code":"ES"}},{"type":"Feature","geometry":{"type":"Point","coordinates":[-8.78497,42.32458]},"properties":{"id":33007,"name":"Bueu","state_code":"PO","country_code":"ES"}},{"type":"Feature","geometry":{"type":"Point","coordinates":[-8.6423,42.60473]},"properties":{"id":33137,"name":"Caldas de Reis","state_code":"PO","country_code":"ES"}},{"type":"Feature","geometry":{"type":"Point","coordinates":[-8.8131,42.51222]},"properties":{"id":33174,"name":"Cambados","state_code":"PO","country_code":"ES"}},{"type":"Feature","geometry":{"type":"Point","coordinates":[-8.5440075,42.5399785]},"properties":{"id":151143,"name":"Campo Lameiro","state_code":"PO","country_code":"ES"}},{"type":"Feature","geometry":{"type":"Point","coordinates":[-8.7809282,42.2645845]},"properties":{"id":151144,"name":"Cangas","state_code":"PO","country_code":"ES"}},{"type":"Feature","geometry":{"type":"Point","coordinates":[-8.272978,42.2128861]},"properties":{"id":151145,"name":"Cañiza A","state_code":"PO","country_code":"ES"}},{"type":"Feature","geometry":{"type":"Point","coordinates":[-8.72323,42.66748]},"properties":{"id":33515,"name":"Catoira","state_code":"PO","country_code":"ES"}},{"type":"Feature","geometry":{"type":"Point","coordinates":[-8.3894965,42.5321938]},"properties":{"id":151146,"name":"Cerdedo","state_code":"PO","country_code":"ES"}},{"type":"Feature","geometry":{"type":"Point","coordinates":[-8.4931262,42.21893]},"properties":{"id":151147,"name":"Cotobade","state_code":"PO","country_code":"ES"}},{"type":"Feature","geometry":{"type":"Point","coordinates":[-8.35,42.23333]},"properties":{"id":33828,"name":"Covelo","state_code":"PO","country_code":"ES"}},{"type":"Feature","geometry":{"type":"Point","coordinates":[-8.2236904,42.1503497]},"properties":{"id":151148,"name":"Crecente","state_code":"PO","country_code":"ES"}},{"type":"Feature","geometry":{"type":"Point","coordinates":[-8.56256,42.63396]},"properties":{"id":33885,"name":"Cuntis","state_code":"PO","country_code":"ES"}},{"type":"Feature","geometry":{"type":"Point","coordinates":[-8.01667,42.58333]},"properties":{"id":33953,"name":"Dozón","state_code":"PO","country_code":"ES"}},{"type":"Feature","geometry":{"type":"Point","coordinates":[-8.4909667,42.6898712]},"properties":{"id":151149,"name":"Estrada A","state_code":"PO","country_code":"ES"}},{"type":"Feature","geometry":{"type":"Point","coordinates":[-8.3519713,42.5879109]},"properties":{"id":151150,"name":"Forcarei","state_code":"PO","country_code":"ES"}},{"type":"Feature","geometry":{"type":"Point","coordinates":[-8.45291,42.34126]},"properties":{"id":34226,"name":"Fornelos de Montes","state_code":"PO","country_code":"ES"}},{"type":"Feature","geometry":{"type":"Point","coordinates":[-8.74971,42.11155]},"properties":{"id":34483,"name":"Gondomar","state_code":"PO","country_code":"ES"}},{"type":"Feature","geometry":{"type":"Point","coordinates":[-8.8651418,42.4959962]},"properties":{"id":151152,"name":"Grove O","state_code":"PO","country_code":"ES"}},{"type":"Feature","geometry":{"type":"Point","coordinates":[-8.5721016,42.6208401]},"properties":{"id":151153,"name":"Guarda A","state_code":"PO","country_code":"ES"}},{"type":"Feature","geometry":{"type":"Point","coordinates":[-8.8681527,42.5617975]},"properties":{"id":151166,"name":"Illa de Arousa A","state_code":"PO","country_code":"ES"}},{"type":"Feature","geometry":{"type":"Point","coordinates":[-8.11285,42.66085]},"properties":{"id":34956,"name":"Lalín","state_code":"PO","country_code":"ES"}},{"type":"Feature","geometry":{"type":"Point","coordinates":[-8.3745717,42.4211498]},"properties":{"id":151154,"name":"Lama A","state_code":"PO","country_code":"ES"}},{"type":"Feature","geometry":{"type":"Point","coordinates":[-8.70136,42.39145]},"properties":{"id":35314,"name":"Marín","state_code":"PO","country_code":"ES"}},{"type":"Feature","geometry":{"type":"Point","coordinates":[-8.78122,42.44661]},"properties":{"id":35364,"name":"Meaño","state_code":"PO","country_code":"ES"}},{"type":"Feature","geometry":{"type":"Point","coordinates":[-8.75,42.5]},"properties":{"id":35382,"name":"Meis","state_code":"PO","country_code":"ES"}},{"type":"Feature","geometry":{"type":"Point","coordinates":[-8.73921,42.27807]},"properties":{"id":35459,"name":"Moaña","state_code":"PO","country_code":"ES"}},{"type":"Feature","geometry":{"type":"Point","coordinates":[-8.45839,42.2311]},"properties":{"id":35504,"name":"Mondariz","state_code":"PO","country_code":"ES"}},{"type":"Feature","geometry":{"type":"Point","coordinates":[-8.46728,42.22686]},"properties":{"id":35505,"name":"Mondariz-Balneario","state_code":"PO","country_code":"ES"}},{"type":"Feature","geometry":{"type":"Point","coordinates":[-8.58333,42.55]},"properties":{"id":35621,"name":"Moraña","state_code":"PO","country_code":"ES"}},{"type":"Feature","geometry":{"type":"Point","coordinates":[-7.55047,43.15667]},"properties":{"id":35637,"name":"Mos","state_code":"PO","country_code":"ES"}},{"type":"Feature","geometry":{"type":"Point","coordinates":[-8.4074573,42.1152044]},"properties":{"id":151155,"name":"Neves As","state_code":"PO","country_code":"ES"}},{"type":"Feature","geometry":{"type":"Point","coordinates":[-8.80656,42.14153]},"properties":{"id":35808,"name":"Nigrán","state_code":"PO","country_code":"ES"}},{"type":"Feature","geometry":{"type":"Point","coordinates":[-8.86502,42.49444]},"properties":{"id":35848,"name":"O Grove","state_code":"PO","country_code":"ES"}},{"type":"Feature","geometry":{"type":"Point","coordinates":[-8.83677,41.93536]},"properties":{"id":35851,"name":"O Rosal","state_code":"PO","country_code":"ES"}},{"type":"Feature","geometry":{"type":"Point","coordinates":[-8.86667,42]},"properties":{"id":35864,"name":"Oia","state_code":"PO","country_code":"ES"}},{"type":"Feature","geometry":{"type":"Point","coordinates":[-8.539144,42.2818941]},"properties":{"id":151156,"name":"Pazos de Borbén","state_code":"PO","country_code":"ES"}},{"type":"Feature","geometry":{"type":"Point","coordinates":[-8.68594,42.44775]},"properties":{"id":36256,"name":"Poio","state_code":"PO","country_code":"ES"}},{"type":"Feature","geometry":{"type":"Point","coordinates":[-8.50277,42.3903179]},"properties":{"id":151158,"name":"Ponte Caldelas","state_code":"PO","country_code":"ES"}},{"type":"Feature","geometry":{"type":"Point","coordinates":[-8.50398,42.17476]},"properties":{"id":36272,"name":"Ponteareas","state_code":"PO","country_code":"ES"}},{"type":"Feature","geometry":{"type":"Point","coordinates":[-8.6517072,42.7178484]},"properties":{"id":151159,"name":"Pontecesures","state_code":"PO","country_code":"ES"}},{"type":"Feature","geometry":{"type":"Point","coordinates":[-8.64435,42.431]},"properties":{"id":36273,"name":"Pontevedra","state_code":"PO","country_code":"ES"}},{"type":"Feature","geometry":{"type":"Point","coordinates":[-8.6192316,42.161161]},"properties":{"id":151157,"name":"Porriño O","state_code":"PO","country_code":"ES"}},{"type":"Feature","geometry":{"type":"Point","coordinates":[-8.65573,42.58531]},"properties":{"id":36286,"name":"Portas","state_code":"PO","country_code":"ES"}},{"type":"Feature","geometry":{"type":"Point","coordinates":[-8.6096,42.28337]},"properties":{"id":36561,"name":"Redondela","state_code":"PO","country_code":"ES"}},{"type":"Feature","geometry":{"type":"Point","coordinates":[-8.75,42.51667]},"properties":{"id":36609,"name":"Ribadumia","state_code":"PO","country_code":"ES"}},{"type":"Feature","geometry":{"type":"Point","coordinates":[-7.95519,42.65193]},"properties":{"id":36663,"name":"Rodeiro","state_code":"PO","country_code":"ES"}},{"type":"Feature","geometry":{"type":"Point","coordinates":[-8.836373,41.9372462]},"properties":{"id":151160,"name":"Rosal O","state_code":"PO","country_code":"ES"}},{"type":"Feature","geometry":{"type":"Point","coordinates":[-8.560052,42.0999333]},"properties":{"id":151161,"name":"Salceda de Caselas","state_code":"PO","country_code":"ES"}},{"type":"Feature","geometry":{"type":"Point","coordinates":[-8.5002777,42.0833836]},"properties":{"id":151162,"name":"Salvaterra de Miño","state_code":"PO","country_code":"ES"}},{"type":"Feature","geometry":{"type":"Point","coordinates":[-8.80698,42.39996]},"properties":{"id":37157,"name":"Sanxenxo","state_code":"PO","country_code":"ES"}},{"type":"Feature","geometry":{"type":"Point","coordinates":[-8.24653,42.69605]},"properties":{"id":37256,"name":"Silleda","state_code":"PO","country_code":"ES"}},{"type":"Feature","geometry":{"type":"Point","coordinates":[-8.5666077,42.3336359]},"properties":{"id":151163,"name":"Soutomaior","state_code":"PO","country_code":"ES"}},{"type":"Feature","geometry":{"type":"Point","coordinates":[-8.75502,41.98772]},"properties":{"id":37451,"name":"Tomiño","state_code":"PO","country_code":"ES"}},{"type":"Feature","geometry":{"type":"Point","coordinates":[-8.64435,42.04713]},"properties":{"id":37651,"name":"Tui","state_code":"PO","country_code":"ES"}},{"type":"Feature","geometry":{"type":"Point","coordinates":[-8.63959,42.69792]},"properties":{"id":37828,"name":"Valga","state_code":"PO","country_code":"ES"}},{"type":"Feature","geometry":{"type":"Point","coordinates":[-8.72264,42.23282]},"properties":{"id":37970,"name":"Vigo","state_code":"PO","country_code":"ES"}},{"type":"Feature","geometry":{"type":"Point","coordinates":[-8.1693991,42.7936883]},"properties":{"id":151165,"name":"Vila de Cruces","state_code":"PO","country_code":"ES"}},{"type":"Feature","geometry":{"type":"Point","coordinates":[-8.6437497,42.3489369]},"properties":{"id":151164,"name":"Vilaboa","state_code":"PO","country_code":"ES"}},{"type":"Feature","geometry":{"type":"Point","coordinates":[-8.76426,42.59631]},"properties":{"id":37985,"name":"Vilagarcía de Arousa","state_code":"PO","country_code":"ES"}},{"type":"Feature","geometry":{"type":"Point","coordinates":[-8.82797,42.564]},"properties":{"id":37994,"name":"Vilanova de Arousa","state_code":"PO","country_code":"ES"}},{"type":"Feature","geometry":{"type":"Point","coordinates":[-8.79353,42.58353]},"properties":{"id":38005,"name":"Vilaxoán","state_code":"PO","country_code":"ES"}}]}