{"type":"FeatureCollection","features":[{"type":"Feature","geometry":{"type":"Point","coordinates":[-6.14074,40.709]},"properties":{"id":31919,"name":"Abusejo","state_code":"SA","country_code":"ES"}},{"type":"Feature","geometry":{"type":"Point","coordinates":[-6.44176,40.44867]},"properties":{"id":31945,"name":"Agallas","state_code":"SA","country_code":"ES"}},{"type":"Feature","geometry":{"type":"Point","coordinates":[-6.74702,40.87231]},"properties":{"id":31976,"name":"Ahigal de los Aceiteros","state_code":"SA","country_code":"ES"}},{"type":"Feature","geometry":{"type":"Point","coordinates":[-6.38037,41.15819]},"properties":{"id":31975,"name":"Ahigal de Villarino","state_code":"SA","country_code":"ES"}},{"type":"Feature","geometry":{"type":"Point","coordinates":[-5.28781,40.74886]},"properties":{"id":32003,"name":"Alaraz","state_code":"SA","country_code":"ES"}},{"type":"Feature","geometry":{"type":"Point","coordinates":[-5.51237,40.82664]},"properties":{"id":32011,"name":"Alba de Tormes","state_code":"SA","country_code":"ES"}},{"type":"Feature","geometry":{"type":"Point","coordinates":[-6.3166,40.6718]},"properties":{"id":32012,"name":"Alba de Yeltes","state_code":"SA","country_code":"ES"}},{"type":"Feature","geometry":{"type":"Point","coordinates":[-5.36305,40.91092]},"properties":{"id":32113,"name":"Alconada","state_code":"SA","country_code":"ES"}},{"type":"Feature","geometry":{"type":"Point","coordinates":[-6.79253,40.70677]},"properties":{"id":32145,"name":"Aldea del Obispo","state_code":"SA","country_code":"ES"}},{"type":"Feature","geometry":{"type":"Point","coordinates":[-5.89754,40.3809]},"properties":{"id":32148,"name":"Aldeacipreste","state_code":"SA","country_code":"ES"}},{"type":"Feature","geometry":{"type":"Point","coordinates":[-6.61786,41.21769]},"properties":{"id":32149,"name":"Aldeadávila de la Ribera","state_code":"SA","country_code":"ES"}},{"type":"Feature","geometry":{"type":"Point","coordinates":[-5.54922,40.9809]},"properties":{"id":32152,"name":"Aldealengua","state_code":"SA","country_code":"ES"}},{"type":"Feature","geometry":{"type":"Point","coordinates":[-5.52404,41.14809]},"properties":{"id":32159,"name":"Aldeanueva de Figueroa","state_code":"SA","country_code":"ES"}},{"type":"Feature","geometry":{"type":"Point","coordinates":[-6.10023,40.6162]},"properties":{"id":32163,"name":"Aldeanueva de la Sierra","state_code":"SA","country_code":"ES"}},{"type":"Feature","geometry":{"type":"Point","coordinates":[-5.80726,41.10966]},"properties":{"id":32168,"name":"Aldearrodrigo","state_code":"SA","country_code":"ES"}},{"type":"Feature","geometry":{"type":"Point","coordinates":[-5.49829,41.00807]},"properties":{"id":32169,"name":"Aldearrubia","state_code":"SA","country_code":"ES"}},{"type":"Feature","geometry":{"type":"Point","coordinates":[-5.44699,40.81909]},"properties":{"id":32171,"name":"Aldeaseca de Alba","state_code":"SA","country_code":"ES"}},{"type":"Feature","geometry":{"type":"Point","coordinates":[-5.20719,40.94161]},"properties":{"id":32172,"name":"Aldeaseca de la Frontera","state_code":"SA","country_code":"ES"}},{"type":"Feature","geometry":{"type":"Point","coordinates":[-5.69273,40.92168]},"properties":{"id":32174,"name":"Aldeatejada","state_code":"SA","country_code":"ES"}},{"type":"Feature","geometry":{"type":"Point","coordinates":[-5.61705,40.58307]},"properties":{"id":32175,"name":"Aldeavieja de Tormes","state_code":"SA","country_code":"ES"}},{"type":"Feature","geometry":{"type":"Point","coordinates":[-6.0526,40.85077]},"properties":{"id":32178,"name":"Aldehuela de la Bóveda","state_code":"SA","country_code":"ES"}},{"type":"Feature","geometry":{"type":"Point","coordinates":[-6.24332,40.66254]},"properties":{"id":32177,"name":"Aldehuela de Yeltes","state_code":"SA","country_code":"ES"}},{"type":"Feature","geometry":{"type":"Point","coordinates":[-5.8235,41.0639]},"properties":{"id":32284,"name":"Almenara de Tormes","state_code":"SA","country_code":"ES"}},{"type":"Feature","geometry":{"type":"Point","coordinates":[-6.34068,41.22922]},"properties":{"id":32285,"name":"Almendra","state_code":"SA","country_code":"ES"}},{"type":"Feature","geometry":{"type":"Point","coordinates":[-5.49266,40.72828]},"properties":{"id":32367,"name":"Anaya de Alba","state_code":"SA","country_code":"ES"}},{"type":"Feature","geometry":{"type":"Point","coordinates":[-5.91585,41.13658]},"properties":{"id":32599,"name":"Añover de Tormes","state_code":"SA","country_code":"ES"}},{"type":"Feature","geometry":{"type":"Point","coordinates":[-5.3874113,41.0484291]},"properties":{"id":152505,"name":"Arabayona de Mógica","state_code":"SA","country_code":"ES"}},{"type":"Feature","geometry":{"type":"Point","coordinates":[-5.64494,40.89366]},"properties":{"id":32415,"name":"Arapiles","state_code":"SA","country_code":"ES"}},{"type":"Feature","geometry":{"type":"Point","coordinates":[-5.56055,41.09379]},"properties":{"id":32428,"name":"Arcediano","state_code":"SA","country_code":"ES"}},{"type":"Feature","geometry":{"type":"Point","coordinates":[-5.44806,40.5932]},"properties":{"id":32487,"name":"Armenteros","state_code":"SA","country_code":"ES"}},{"type":"Feature","geometry":{"type":"Point","coordinates":[-5.42554,40.97704]},"properties":{"id":32600,"name":"Babilafuente","state_code":"SA","country_code":"ES"}},{"type":"Feature","geometry":{"type":"Point","coordinates":[-6.61311,40.84825]},"properties":{"id":32702,"name":"Bañobárez","state_code":"SA","country_code":"ES"}},{"type":"Feature","geometry":{"type":"Point","coordinates":[-5.8808955,40.9319017]},"properties":{"id":152509,"name":"Barbadillo","state_code":"SA","country_code":"ES"}},{"type":"Feature","geometry":{"type":"Point","coordinates":[-5.94258,40.67678]},"properties":{"id":32644,"name":"Barbalos","state_code":"SA","country_code":"ES"}},{"type":"Feature","geometry":{"type":"Point","coordinates":[-6.45175,41.06108]},"properties":{"id":32654,"name":"Barceo","state_code":"SA","country_code":"ES"}},{"type":"Feature","geometry":{"type":"Point","coordinates":[-6.66423,41.07215]},"properties":{"id":32681,"name":"Barruecopardo","state_code":"SA","country_code":"ES"}},{"type":"Feature","geometry":{"type":"Point","coordinates":[-5.76341,40.38641]},"properties":{"id":33058,"name":"Béjar","state_code":"SA","country_code":"ES"}},{"type":"Feature","geometry":{"type":"Point","coordinates":[-5.62713,40.75067]},"properties":{"id":32738,"name":"Beleña","state_code":"SA","country_code":"ES"}},{"type":"Feature","geometry":{"type":"Point","coordinates":[-6.67014,40.99918]},"properties":{"id":32858,"name":"Bermellar","state_code":"SA","country_code":"ES"}},{"type":"Feature","geometry":{"type":"Point","coordinates":[-6.00054,40.71864]},"properties":{"id":32869,"name":"Berrocal de Huebra","state_code":"SA","country_code":"ES"}},{"type":"Feature","geometry":{"type":"Point","coordinates":[-5.69005,40.63331]},"properties":{"id":32870,"name":"Berrocal de Salvatierra","state_code":"SA","country_code":"ES"}},{"type":"Feature","geometry":{"type":"Point","coordinates":[-6.30611,40.81569]},"properties":{"id":32914,"name":"Boada","state_code":"SA","country_code":"ES"}},{"type":"Feature","geometry":{"type":"Point","coordinates":[-6.53065,40.9071]},"properties":{"id":32929,"name":"Bogajo","state_code":"SA","country_code":"ES"}},{"type":"Feature","geometry":{"type":"Point","coordinates":[-5.2103,40.85719]},"properties":{"id":33063,"name":"Bóveda del Río Almar","state_code":"SA","country_code":"ES"}},{"type":"Feature","geometry":{"type":"Point","coordinates":[-6.34865,41.11339]},"properties":{"id":32987,"name":"Brincones","state_code":"SA","country_code":"ES"}},{"type":"Feature","geometry":{"type":"Point","coordinates":[-6.24987,40.85705]},"properties":{"id":33001,"name":"Buenamadre","state_code":"SA","country_code":"ES"}},{"type":"Feature","geometry":{"type":"Point","coordinates":[-5.61139,40.76763]},"properties":{"id":33003,"name":"Buenavista","state_code":"SA","country_code":"ES"}},{"type":"Feature","geometry":{"type":"Point","coordinates":[-6.55742,41.12982]},"properties":{"id":33078,"name":"Cabeza del Caballo","state_code":"SA","country_code":"ES"}},{"type":"Feature","geometry":{"type":"Point","coordinates":[-5.48866,41.04395]},"properties":{"id":33081,"name":"Cabezabellosa de la Calzada","state_code":"SA","country_code":"ES"}},{"type":"Feature","geometry":{"type":"Point","coordinates":[-5.60907,40.97808]},"properties":{"id":33105,"name":"Cabrerizos","state_code":"SA","country_code":"ES"}},{"type":"Feature","geometry":{"type":"Point","coordinates":[-6.17873,40.73977]},"properties":{"id":33110,"name":"Cabrillas","state_code":"SA","country_code":"ES"}},{"type":"Feature","geometry":{"type":"Point","coordinates":[-5.55258,40.94638]},"properties":{"id":33153,"name":"Calvarrasa de Abajo","state_code":"SA","country_code":"ES"}},{"type":"Feature","geometry":{"type":"Point","coordinates":[-5.59199,40.90672]},"properties":{"id":33154,"name":"Calvarrasa de Arriba","state_code":"SA","country_code":"ES"}},{"type":"Feature","geometry":{"type":"Point","coordinates":[-5.90279,40.905]},"properties":{"id":33157,"name":"Calzada de Don Diego","state_code":"SA","country_code":"ES"}},{"type":"Feature","geometry":{"type":"Point","coordinates":[-5.70219,41.08663]},"properties":{"id":33158,"name":"Calzada de Valdunciel","state_code":"SA","country_code":"ES"}},{"type":"Feature","geometry":{"type":"Point","coordinates":[-6.68705,40.50951]},"properties":{"id":33190,"name":"Campillo de Azaba","state_code":"SA","country_code":"ES"}},{"type":"Feature","geometry":{"type":"Point","coordinates":[-5.74499,40.36806]},"properties":{"id":33227,"name":"Candelario","state_code":"SA","country_code":"ES"}},{"type":"Feature","geometry":{"type":"Point","coordinates":[-5.92905,40.92266]},"properties":{"id":33240,"name":"Canillas de Abajo","state_code":"SA","country_code":"ES"}},{"type":"Feature","geometry":{"type":"Point","coordinates":[-5.8189,40.37239]},"properties":{"id":33249,"name":"Cantagallo","state_code":"SA","country_code":"ES"}},{"type":"Feature","geometry":{"type":"Point","coordinates":[-5.18351,41.1263]},"properties":{"id":33250,"name":"Cantalapiedra","state_code":"SA","country_code":"ES"}},{"type":"Feature","geometry":{"type":"Point","coordinates":[-5.33045,41.05341]},"properties":{"id":33254,"name":"Cantalpino","state_code":"SA","country_code":"ES"}},{"type":"Feature","geometry":{"type":"Point","coordinates":[-5.16291,40.90376]},"properties":{"id":33255,"name":"Cantaracillo","state_code":"SA","country_code":"ES"}},{"type":"Feature","geometry":{"type":"Point","coordinates":[-5.65026,40.93305]},"properties":{"id":33281,"name":"Carbajosa de la Sagrada","state_code":"SA","country_code":"ES"}},{"type":"Feature","geometry":{"type":"Point","coordinates":[-6.6468,40.59602]},"properties":{"id":33314,"name":"Carpio de Azaba","state_code":"SA","country_code":"ES"}},{"type":"Feature","geometry":{"type":"Point","coordinates":[-5.76227,40.97868]},"properties":{"id":33318,"name":"Carrascal de Barregas","state_code":"SA","country_code":"ES"}},{"type":"Feature","geometry":{"type":"Point","coordinates":[-5.99913,40.76376]},"properties":{"id":33319,"name":"Carrascal del Obispo","state_code":"SA","country_code":"ES"}},{"type":"Feature","geometry":{"type":"Point","coordinates":[-5.76039,40.59267]},"properties":{"id":33344,"name":"Casafranca","state_code":"SA","country_code":"ES"}},{"type":"Feature","geometry":{"type":"Point","coordinates":[-6.75602,40.38108]},"properties":{"id":33390,"name":"Casillas de Flores","state_code":"SA","country_code":"ES"}},{"type":"Feature","geometry":{"type":"Point","coordinates":[-5.59065,41.01917]},"properties":{"id":33415,"name":"Castellanos de Moriscos","state_code":"SA","country_code":"ES"}},{"type":"Feature","geometry":{"type":"Point","coordinates":[-5.69477,41.05139]},"properties":{"id":33416,"name":"Castellanos de Villiquera","state_code":"SA","country_code":"ES"}},{"type":"Feature","geometry":{"type":"Point","coordinates":[-6.63763,40.69728]},"properties":{"id":33458,"name":"Castillejo de Martín Viejo","state_code":"SA","country_code":"ES"}},{"type":"Feature","geometry":{"type":"Point","coordinates":[-6.33383,40.70517]},"properties":{"id":33471,"name":"Castraz","state_code":"SA","country_code":"ES"}},{"type":"Feature","geometry":{"type":"Point","coordinates":[-6.041,40.466]},"properties":{"id":33576,"name":"Cepeda","state_code":"SA","country_code":"ES"}},{"type":"Feature","geometry":{"type":"Point","coordinates":[-6.0914,40.56627]},"properties":{"id":33583,"name":"Cereceda de la Sierra","state_code":"SA","country_code":"ES"}},{"type":"Feature","geometry":{"type":"Point","coordinates":[-6.65357,41.13071]},"properties":{"id":33586,"name":"Cerezal de Peñahorcada","state_code":"SA","country_code":"ES"}},{"type":"Feature","geometry":{"type":"Point","coordinates":[-6.5871,40.97347]},"properties":{"id":33591,"name":"Cerralbo","state_code":"SA","country_code":"ES"}},{"type":"Feature","geometry":{"type":"Point","coordinates":[-5.5807638,40.5439394]},"properties":{"id":152519,"name":"Cespedosa de Tormes","state_code":"SA","country_code":"ES"}},{"type":"Feature","geometry":{"type":"Point","coordinates":[-5.3815225,40.6496254]},"properties":{"id":152521,"name":"Chagarcía Medianero","state_code":"SA","country_code":"ES"}},{"type":"Feature","geometry":{"type":"Point","coordinates":[-6.06094,40.57614]},"properties":{"id":33668,"name":"Cilleros de la Bastida","state_code":"SA","country_code":"ES"}},{"type":"Feature","geometry":{"type":"Point","coordinates":[-6.26552,40.9621]},"properties":{"id":33680,"name":"Cipérez","state_code":"SA","country_code":"ES"}},{"type":"Feature","geometry":{"type":"Point","coordinates":[-6.53333,40.6]},"properties":{"id":33698,"name":"Ciudad Rodrigo","state_code":"SA","country_code":"ES"}},{"type":"Feature","geometry":{"type":"Point","coordinates":[-5.36537,40.87833]},"properties":{"id":33715,"name":"Coca de Alba","state_code":"SA","country_code":"ES"}},{"type":"Feature","geometry":{"type":"Point","coordinates":[-5.95618,40.39957]},"properties":{"id":33743,"name":"Colmenar de Montemayor","state_code":"SA","country_code":"ES"}},{"type":"Feature","geometry":{"type":"Point","coordinates":[-5.40725,40.95095]},"properties":{"id":33781,"name":"Cordovilla","state_code":"SA","country_code":"ES"}},{"type":"Feature","geometry":{"type":"Point","coordinates":[-5.88967,40.46923]},"properties":{"id":33837,"name":"Cristóbal","state_code":"SA","country_code":"ES"}},{"type":"Feature","geometry":{"type":"Point","coordinates":[-6.31511,40.64283]},"properties":{"id":33935,"name":"Dios le Guarde","state_code":"SA","country_code":"ES"}},{"type":"Feature","geometry":{"type":"Point","coordinates":[-6.03412,41.01251]},"properties":{"id":33955,"name":"Doñinos de Ledesma","state_code":"SA","country_code":"ES"}},{"type":"Feature","geometry":{"type":"Point","coordinates":[-5.74349,40.95978]},"properties":{"id":33956,"name":"Doñinos de Salamanca","state_code":"SA","country_code":"ES"}},{"type":"Feature","geometry":{"type":"Point","coordinates":[-5.53828,40.76685]},"properties":{"id":33975,"name":"Ejeme","state_code":"SA","country_code":"ES"}},{"type":"Feature","geometry":{"type":"Point","coordinates":[-5.8254944,41.1131295]},"properties":{"id":152506,"name":"El Arco","state_code":"SA","country_code":"ES"}},{"type":"Feature","geometry":{"type":"Point","coordinates":[-6.5750022,40.487851]},"properties":{"id":152511,"name":"El Bodón","state_code":"SA","country_code":"ES"}},{"type":"Feature","geometry":{"type":"Point","coordinates":[-5.6635397,40.9701039]},"properties":{"id":152513,"name":"El Cabaco","state_code":"SA","country_code":"ES"}},{"type":"Feature","geometry":{"type":"Point","coordinates":[-5.257344,40.9846487]},"properties":{"id":152516,"name":"El Campo de Peñaranda","state_code":"SA","country_code":"ES"}},{"type":"Feature","geometry":{"type":"Point","coordinates":[-5.9165375,40.326682]},"properties":{"id":152518,"name":"El Cerro","state_code":"SA","country_code":"ES"}},{"type":"Feature","geometry":{"type":"Point","coordinates":[-6.3053297,40.8912294]},"properties":{"id":152520,"name":"El Cubo de Don Sancho","state_code":"SA","country_code":"ES"}},{"type":"Feature","geometry":{"type":"Point","coordinates":[-6.1808738,40.5662866]},"properties":{"id":152531,"name":"El Maíllo","state_code":"SA","country_code":"ES"}},{"type":"Feature","geometry":{"type":"Point","coordinates":[-6.2887211,41.17401]},"properties":{"id":152532,"name":"El Manzano","state_code":"SA","country_code":"ES"}},{"type":"Feature","geometry":{"type":"Point","coordinates":[-6.5990288,41.0927377]},"properties":{"id":152535,"name":"El Milano","state_code":"SA","country_code":"ES"}},{"type":"Feature","geometry":{"type":"Point","coordinates":[-6.7273229,40.2874549]},"properties":{"id":152538,"name":"El Payo","state_code":"SA","country_code":"ES"}},{"type":"Feature","geometry":{"type":"Point","coordinates":[-5.3998452,41.0798798]},"properties":{"id":152539,"name":"El Pedroso de la Armuña","state_code":"SA","country_code":"ES"}},{"type":"Feature","geometry":{"type":"Point","coordinates":[-5.7925419,41.0394708]},"properties":{"id":152542,"name":"El Pino de Tormes","state_code":"SA","country_code":"ES"}},{"type":"Feature","geometry":{"type":"Point","coordinates":[-6.541647,40.4149409]},"properties":{"id":152547,"name":"El Sahugo","state_code":"SA","country_code":"ES"}},{"type":"Feature","geometry":{"type":"Point","coordinates":[-5.5393278,40.4423467]},"properties":{"id":152552,"name":"El Tejado","state_code":"SA","country_code":"ES"}},{"type":"Feature","geometry":{"type":"Point","coordinates":[-5.8914539,40.5424618]},"properties":{"id":152553,"name":"El Tornadizo","state_code":"SA","country_code":"ES"}},{"type":"Feature","geometry":{"type":"Point","coordinates":[-6.09268,41.01442]},"properties":{"id":34044,"name":"Encina de San Silvestre","state_code":"SA","country_code":"ES"}},{"type":"Feature","geometry":{"type":"Point","coordinates":[-5.47037,40.93493]},"properties":{"id":34048,"name":"Encinas de Abajo","state_code":"SA","country_code":"ES"}},{"type":"Feature","geometry":{"type":"Point","coordinates":[-5.55661,40.7712]},"properties":{"id":34049,"name":"Encinas de Arriba","state_code":"SA","country_code":"ES"}},{"type":"Feature","geometry":{"type":"Point","coordinates":[-6.53261,41.03089]},"properties":{"id":34052,"name":"Encinasola de los Comendadores","state_code":"SA","country_code":"ES"}},{"type":"Feature","geometry":{"type":"Point","coordinates":[-5.80411,40.59109]},"properties":{"id":34057,"name":"Endrinal","state_code":"SA","country_code":"ES"}},{"type":"Feature","geometry":{"type":"Point","coordinates":[-5.9552,40.61731]},"properties":{"id":34093,"name":"Escurial de la Sierra","state_code":"SA","country_code":"ES"}},{"type":"Feature","geometry":{"type":"Point","coordinates":[-6.28457,41.06085]},"properties":{"id":34101,"name":"Espadaña","state_code":"SA","country_code":"ES"}},{"type":"Feature","geometry":{"type":"Point","coordinates":[-6.71582,40.56565]},"properties":{"id":34110,"name":"Espeja","state_code":"SA","country_code":"ES"}},{"type":"Feature","geometry":{"type":"Point","coordinates":[-5.42515,41.10693]},"properties":{"id":34117,"name":"Espino de la Orbada","state_code":"SA","country_code":"ES"}},{"type":"Feature","geometry":{"type":"Point","coordinates":[-5.76252,41.02361]},"properties":{"id":34197,"name":"Florida de Liébana","state_code":"SA","country_code":"ES"}},{"type":"Feature","geometry":{"type":"Point","coordinates":[-5.74979,41.09779]},"properties":{"id":34221,"name":"Forfoleda","state_code":"SA","country_code":"ES"}},{"type":"Feature","geometry":{"type":"Point","coordinates":[-5.78223,40.65687]},"properties":{"id":34236,"name":"Frades de la Sierra","state_code":"SA","country_code":"ES"}},{"type":"Feature","geometry":{"type":"Point","coordinates":[-5.70969,40.43619]},"properties":{"id":34250,"name":"Fresnedoso","state_code":"SA","country_code":"ES"}},{"type":"Feature","geometry":{"type":"Point","coordinates":[-5.6152021,40.7130793]},"properties":{"id":152524,"name":"Fresno Alhándiga","state_code":"SA","country_code":"ES"}},{"type":"Feature","geometry":{"type":"Point","coordinates":[-6.67528,40.42876]},"properties":{"id":34315,"name":"Fuenteguinaldo","state_code":"SA","country_code":"ES"}},{"type":"Feature","geometry":{"type":"Point","coordinates":[-6.5676625,40.8425929]},"properties":{"id":152526,"name":"Fuenteliante","state_code":"SA","country_code":"ES"}},{"type":"Feature","geometry":{"type":"Point","coordinates":[-5.73379,40.56466]},"properties":{"id":34333,"name":"Fuenterroble de Salvatierra","state_code":"SA","country_code":"ES"}},{"type":"Feature","geometry":{"type":"Point","coordinates":[-5.6927,40.50815]},"properties":{"id":34341,"name":"Fuentes de Béjar","state_code":"SA","country_code":"ES"}},{"type":"Feature","geometry":{"type":"Point","coordinates":[-6.81144,40.59102]},"properties":{"id":34348,"name":"Fuentes de Oñoro","state_code":"SA","country_code":"ES"}},{"type":"Feature","geometry":{"type":"Point","coordinates":[-5.36506,40.78254]},"properties":{"id":34372,"name":"Gajates","state_code":"SA","country_code":"ES"}},{"type":"Feature","geometry":{"type":"Point","coordinates":[-5.8741,40.94397]},"properties":{"id":34382,"name":"Galindo y Perahuy","state_code":"SA","country_code":"ES"}},{"type":"Feature","geometry":{"type":"Point","coordinates":[-5.54003,40.66266]},"properties":{"id":34383,"name":"Galinduste","state_code":"SA","country_code":"ES"}},{"type":"Feature","geometry":{"type":"Point","coordinates":[-5.55471,40.74418]},"properties":{"id":34384,"name":"Galisancho","state_code":"SA","country_code":"ES"}},{"type":"Feature","geometry":{"type":"Point","coordinates":[-6.70246,40.63146]},"properties":{"id":34387,"name":"Gallegos de Argañán","state_code":"SA","country_code":"ES"}},{"type":"Feature","geometry":{"type":"Point","coordinates":[-5.4672962,40.5360513]},"properties":{"id":152527,"name":"Gallegos de Solmirón","state_code":"SA","country_code":"ES"}},{"type":"Feature","geometry":{"type":"Point","coordinates":[-5.99439,40.51552]},"properties":{"id":34409,"name":"Garcibuey","state_code":"SA","country_code":"ES"}},{"type":"Feature","geometry":{"type":"Point","coordinates":[-5.43567,40.86096]},"properties":{"id":34410,"name":"Garcihernández","state_code":"SA","country_code":"ES"}},{"type":"Feature","geometry":{"type":"Point","coordinates":[-6.1312,40.90049]},"properties":{"id":34412,"name":"Garcirrey","state_code":"SA","country_code":"ES"}},{"type":"Feature","geometry":{"type":"Point","coordinates":[-6.12332,41.07633]},"properties":{"id":34444,"name":"Gejuelo del Barro","state_code":"SA","country_code":"ES"}},{"type":"Feature","geometry":{"type":"Point","coordinates":[-5.90687,40.99981]},"properties":{"id":34481,"name":"Golpejas","state_code":"SA","country_code":"ES"}},{"type":"Feature","geometry":{"type":"Point","coordinates":[-5.53585,41.0428]},"properties":{"id":34482,"name":"Gomecello","state_code":"SA","country_code":"ES"}},{"type":"Feature","geometry":{"type":"Point","coordinates":[-6.49369,41.01703]},"properties":{"id":34532,"name":"Guadramiro","state_code":"SA","country_code":"ES"}},{"type":"Feature","geometry":{"type":"Point","coordinates":[-5.6397,40.53078]},"properties":{"id":34546,"name":"Guijo de Ávila","state_code":"SA","country_code":"ES"}},{"type":"Feature","geometry":{"type":"Point","coordinates":[-5.67067,40.55757]},"properties":{"id":34547,"name":"Guijuelo","state_code":"SA","country_code":"ES"}},{"type":"Feature","geometry":{"type":"Point","coordinates":[-6.52075,40.4586]},"properties":{"id":34583,"name":"Herguijuela de Ciudad Rodrigo","state_code":"SA","country_code":"ES"}},{"type":"Feature","geometry":{"type":"Point","coordinates":[-6.07445,40.44535]},"properties":{"id":34584,"name":"Herguijuela de la Sierra","state_code":"SA","country_code":"ES"}},{"type":"Feature","geometry":{"type":"Point","coordinates":[-5.86398,40.63102]},"properties":{"id":34585,"name":"Herguijuela del Campo","state_code":"SA","country_code":"ES"}},{"type":"Feature","geometry":{"type":"Point","coordinates":[-6.79529,40.98674]},"properties":{"id":34623,"name":"Hinojosa de Duero","state_code":"SA","country_code":"ES"}},{"type":"Feature","geometry":{"type":"Point","coordinates":[-5.89427,40.42265]},"properties":{"id":34650,"name":"Horcajo de Montemayor","state_code":"SA","country_code":"ES"}},{"type":"Feature","geometry":{"type":"Point","coordinates":[-5.4057358,40.6390051]},"properties":{"id":152528,"name":"Horcajo Medianero","state_code":"SA","country_code":"ES"}},{"type":"Feature","geometry":{"type":"Point","coordinates":[-5.4677769,40.9683841]},"properties":{"id":152530,"name":"Huerta","state_code":"SA","country_code":"ES"}},{"type":"Feature","geometry":{"type":"Point","coordinates":[-6.32808,41.14135]},"properties":{"id":34760,"name":"Iruelos","state_code":"SA","country_code":"ES"}},{"type":"Feature","geometry":{"type":"Point","coordinates":[-6.69272,40.48487]},"properties":{"id":34772,"name":"Ituero de Azaba","state_code":"SA","country_code":"ES"}},{"type":"Feature","geometry":{"type":"Point","coordinates":[-5.8614,41.07791]},"properties":{"id":34835,"name":"Juzbado","state_code":"SA","country_code":"ES"}},{"type":"Feature","geometry":{"type":"Point","coordinates":[-6.7580981,40.6506005]},"properties":{"id":152501,"name":"La Alameda de Gardón","state_code":"SA","country_code":"ES"}},{"type":"Feature","geometry":{"type":"Point","coordinates":[-6.8280655,40.4722179]},"properties":{"id":152502,"name":"La Alamedilla","state_code":"SA","country_code":"ES"}},{"type":"Feature","geometry":{"type":"Point","coordinates":[-6.1208926,40.4830125]},"properties":{"id":152503,"name":"La Alberca","state_code":"SA","country_code":"ES"}},{"type":"Feature","geometry":{"type":"Point","coordinates":[-6.8143339,40.4131345]},"properties":{"id":152504,"name":"La Alberguería de Argañán","state_code":"SA","country_code":"ES"}},{"type":"Feature","geometry":{"type":"Point","coordinates":[-6.3970884,40.508609]},"properties":{"id":152508,"name":"La Atalaya","state_code":"SA","country_code":"ES"}},{"type":"Feature","geometry":{"type":"Point","coordinates":[-6.0589847,40.5854018]},"properties":{"id":152510,"name":"La Bastida","state_code":"SA","country_code":"ES"}},{"type":"Feature","geometry":{"type":"Point","coordinates":[-6.7955832,40.8363088]},"properties":{"id":152512,"name":"La Bouza","state_code":"SA","country_code":"ES"}},{"type":"Feature","geometry":{"type":"Point","coordinates":[-5.661571,40.5013455]},"properties":{"id":152514,"name":"La Cabeza de Béjar","state_code":"SA","country_code":"ES"}},{"type":"Feature","geometry":{"type":"Point","coordinates":[-5.8175842,40.4117535]},"properties":{"id":152515,"name":"La Calzada de Béjar","state_code":"SA","country_code":"ES"}},{"type":"Feature","geometry":{"type":"Point","coordinates":[-6.5303102,40.516355]},"properties":{"id":152522,"name":"La Encina","state_code":"SA","country_code":"ES"}},{"type":"Feature","geometry":{"type":"Point","coordinates":[-6.8665965,40.9880112]},"properties":{"id":152523,"name":"La Fregeneda","state_code":"SA","country_code":"ES"}},{"type":"Feature","geometry":{"type":"Point","coordinates":[-6.2575091,40.8006156]},"properties":{"id":152525,"name":"La Fuente de San Esteban","state_code":"SA","country_code":"ES"}},{"type":"Feature","geometry":{"type":"Point","coordinates":[-5.6987269,40.4071921]},"properties":{"id":152529,"name":"La Hoya","state_code":"SA","country_code":"ES"}},{"type":"Feature","geometry":{"type":"Point","coordinates":[-5.9710311,41.0005245]},"properties":{"id":152533,"name":"La Mata de Ledesma","state_code":"SA","country_code":"ES"}},{"type":"Feature","geometry":{"type":"Point","coordinates":[-5.6168834,40.688381]},"properties":{"id":152534,"name":"La Maya","state_code":"SA","country_code":"ES"}},{"type":"Feature","geometry":{"type":"Point","coordinates":[-5.4836797,41.1035444]},"properties":{"id":152537,"name":"La Orbada","state_code":"SA","country_code":"ES"}},{"type":"Feature","geometry":{"type":"Point","coordinates":[-6.5187545,41.1737664]},"properties":{"id":152540,"name":"La Peña","state_code":"SA","country_code":"ES"}},{"type":"Feature","geometry":{"type":"Point","coordinates":[-6.7487302,40.9082704]},"properties":{"id":152543,"name":"La Redonda","state_code":"SA","country_code":"ES"}},{"type":"Feature","geometry":{"type":"Point","coordinates":[-6.020944,40.6130162]},"properties":{"id":152544,"name":"La Rinconada de la Sierra","state_code":"SA","country_code":"ES"}},{"type":"Feature","geometry":{"type":"Point","coordinates":[-6.0712289,40.7443377]},"properties":{"id":152545,"name":"La Sagrada","state_code":"SA","country_code":"ES"}},{"type":"Feature","geometry":{"type":"Point","coordinates":[-5.85121,40.6438749]},"properties":{"id":152549,"name":"La Sierpe","state_code":"SA","country_code":"ES"}},{"type":"Feature","geometry":{"type":"Point","coordinates":[-5.5368354,40.5898276]},"properties":{"id":152551,"name":"La Tala","state_code":"SA","country_code":"ES"}},{"type":"Feature","geometry":{"type":"Point","coordinates":[-5.5774814,41.0707974]},"properties":{"id":152555,"name":"La Vellés","state_code":"SA","country_code":"ES"}},{"type":"Feature","geometry":{"type":"Point","coordinates":[-6.4869823,41.1542438]},"properties":{"id":152556,"name":"La Vídola","state_code":"SA","country_code":"ES"}},{"type":"Feature","geometry":{"type":"Point","coordinates":[-6.6276542,41.1612726]},"properties":{"id":152558,"name":"La Zarza de Pumareda","state_code":"SA","country_code":"ES"}},{"type":"Feature","geometry":{"type":"Point","coordinates":[-5.97132,40.32491]},"properties":{"id":34952,"name":"Lagunilla","state_code":"SA","country_code":"ES"}},{"type":"Feature","geometry":{"type":"Point","coordinates":[-5.44895,40.73722]},"properties":{"id":34981,"name":"Larrodrigo","state_code":"SA","country_code":"ES"}},{"type":"Feature","geometry":{"type":"Point","coordinates":[-6.0415885,40.5075983]},"properties":{"id":152517,"name":"Las Casas del Conde","state_code":"SA","country_code":"ES"}},{"type":"Feature","geometry":{"type":"Point","coordinates":[-5.8320871,40.7149943]},"properties":{"id":152554,"name":"Las Veguillas","state_code":"SA","country_code":"ES"}},{"type":"Feature","geometry":{"type":"Point","coordinates":[-6.00178,41.08829]},"properties":{"id":35016,"name":"Ledesma","state_code":"SA","country_code":"ES"}},{"type":"Feature","geometry":{"type":"Point","coordinates":[-5.72038,40.46878]},"properties":{"id":35019,"name":"Ledrada","state_code":"SA","country_code":"ES"}},{"type":"Feature","geometry":{"type":"Point","coordinates":[-5.92091,40.58338]},"properties":{"id":35054,"name":"Linares de Riofrío","state_code":"SA","country_code":"ES"}},{"type":"Feature","geometry":{"type":"Point","coordinates":[-6.71948,40.93501]},"properties":{"id":35163,"name":"Lumbrales","state_code":"SA","country_code":"ES"}},{"type":"Feature","geometry":{"type":"Point","coordinates":[-5.5243,40.92623]},"properties":{"id":35182,"name":"Machacón","state_code":"SA","country_code":"ES"}},{"type":"Feature","geometry":{"type":"Point","coordinates":[-5.28526,40.83105]},"properties":{"id":35183,"name":"Macotera","state_code":"SA","country_code":"ES"}},{"type":"Feature","geometry":{"type":"Point","coordinates":[-6.06271,40.46407]},"properties":{"id":35195,"name":"Madroñal","state_code":"SA","country_code":"ES"}},{"type":"Feature","geometry":{"type":"Point","coordinates":[-5.23149,40.76269]},"properties":{"id":35225,"name":"Malpartida","state_code":"SA","country_code":"ES"}},{"type":"Feature","geometry":{"type":"Point","coordinates":[-5.19933,40.83974]},"properties":{"id":35240,"name":"Mancera de Abajo","state_code":"SA","country_code":"ES"}},{"type":"Feature","geometry":{"type":"Point","coordinates":[-6.4901,40.4542]},"properties":{"id":35298,"name":"Martiago","state_code":"SA","country_code":"ES"}},{"type":"Feature","geometry":{"type":"Point","coordinates":[-6.29162,40.77594]},"properties":{"id":35306,"name":"Martín de Yeltes","state_code":"SA","country_code":"ES"}},{"type":"Feature","geometry":{"type":"Point","coordinates":[-5.59913,40.80676]},"properties":{"id":35300,"name":"Martinamor","state_code":"SA","country_code":"ES"}},{"type":"Feature","geometry":{"type":"Point","coordinates":[-6.58938,41.20352]},"properties":{"id":35328,"name":"Masueco","state_code":"SA","country_code":"ES"}},{"type":"Feature","geometry":{"type":"Point","coordinates":[-5.94276,40.82539]},"properties":{"id":35344,"name":"Matilla de los Caños del Río","state_code":"SA","country_code":"ES"}},{"type":"Feature","geometry":{"type":"Point","coordinates":[-5.80568,40.69123]},"properties":{"id":35394,"name":"Membribe de la Sierra","state_code":"SA","country_code":"ES"}},{"type":"Feature","geometry":{"type":"Point","coordinates":[-6.69137,41.16424]},"properties":{"id":35422,"name":"Mieza","state_code":"SA","country_code":"ES"}},{"type":"Feature","geometry":{"type":"Point","coordinates":[-5.68182,40.88752]},"properties":{"id":35449,"name":"Miranda de Azán","state_code":"SA","country_code":"ES"}},{"type":"Feature","geometry":{"type":"Point","coordinates":[-5.99581,40.48448]},"properties":{"id":35451,"name":"Miranda del Castañar","state_code":"SA","country_code":"ES"}},{"type":"Feature","geometry":{"type":"Point","coordinates":[-6.05327,40.49264]},"properties":{"id":35466,"name":"Mogarraz","state_code":"SA","country_code":"ES"}},{"type":"Feature","geometry":{"type":"Point","coordinates":[-5.94493,40.46898]},"properties":{"id":35481,"name":"Molinillo","state_code":"SA","country_code":"ES"}},{"type":"Feature","geometry":{"type":"Point","coordinates":[-6.05671,40.48264]},"properties":{"id":35515,"name":"Monforte de la Sierra","state_code":"SA","country_code":"ES"}},{"type":"Feature","geometry":{"type":"Point","coordinates":[-5.84312,40.58192]},"properties":{"id":35519,"name":"Monleón","state_code":"SA","country_code":"ES"}},{"type":"Feature","geometry":{"type":"Point","coordinates":[-6.22622,41.18704]},"properties":{"id":35518,"name":"Monleras","state_code":"SA","country_code":"ES"}},{"type":"Feature","geometry":{"type":"Point","coordinates":[-6.2711,40.50343]},"properties":{"id":35525,"name":"Monsagro","state_code":"SA","country_code":"ES"}},{"type":"Feature","geometry":{"type":"Point","coordinates":[-5.62287,40.63246]},"properties":{"id":35552,"name":"Montejo","state_code":"SA","country_code":"ES"}},{"type":"Feature","geometry":{"type":"Point","coordinates":[-5.89427,40.34836]},"properties":{"id":35560,"name":"Montemayor del Río","state_code":"SA","country_code":"ES"}},{"type":"Feature","geometry":{"type":"Point","coordinates":[-5.64389,41.02651]},"properties":{"id":35567,"name":"Monterrubio de Armuña","state_code":"SA","country_code":"ES"}},{"type":"Feature","geometry":{"type":"Point","coordinates":[-5.69329,40.75592]},"properties":{"id":35569,"name":"Monterrubio de la Sierra","state_code":"SA","country_code":"ES"}},{"type":"Feature","geometry":{"type":"Point","coordinates":[-6.27503,40.60019]},"properties":{"id":35613,"name":"Morasverdes","state_code":"SA","country_code":"ES"}},{"type":"Feature","geometry":{"type":"Point","coordinates":[-5.69833,40.80693]},"properties":{"id":35630,"name":"Morille","state_code":"SA","country_code":"ES"}},{"type":"Feature","geometry":{"type":"Point","coordinates":[-5.4142456,40.9698448]},"properties":{"id":152536,"name":"Moríñigo","state_code":"SA","country_code":"ES"}},{"type":"Feature","geometry":{"type":"Point","coordinates":[-5.58184,41.00818]},"properties":{"id":35631,"name":"Moriscos","state_code":"SA","country_code":"ES"}},{"type":"Feature","geometry":{"type":"Point","coordinates":[-6.43103,40.97688]},"properties":{"id":35632,"name":"Moronta","state_code":"SA","country_code":"ES"}},{"type":"Feature","geometry":{"type":"Point","coordinates":[-5.65144,40.85652]},"properties":{"id":35651,"name":"Mozárbez","state_code":"SA","country_code":"ES"}},{"type":"Feature","geometry":{"type":"Point","coordinates":[-5.92658,40.6988]},"properties":{"id":35716,"name":"Narros de Matalayegua","state_code":"SA","country_code":"ES"}},{"type":"Feature","geometry":{"type":"Point","coordinates":[-5.67856,40.47518]},"properties":{"id":35722,"name":"Nava de Béjar","state_code":"SA","country_code":"ES"}},{"type":"Feature","geometry":{"type":"Point","coordinates":[-6.11628,40.53572]},"properties":{"id":35723,"name":"Nava de Francia","state_code":"SA","country_code":"ES"}},{"type":"Feature","geometry":{"type":"Point","coordinates":[-5.28562,40.89039]},"properties":{"id":35725,"name":"Nava de Sotrobal","state_code":"SA","country_code":"ES"}},{"type":"Feature","geometry":{"type":"Point","coordinates":[-5.71425,40.39776]},"properties":{"id":35729,"name":"Navacarros","state_code":"SA","country_code":"ES"}},{"type":"Feature","geometry":{"type":"Point","coordinates":[-5.47863,40.78857]},"properties":{"id":35747,"name":"Navales","state_code":"SA","country_code":"ES"}},{"type":"Feature","geometry":{"type":"Point","coordinates":[-5.7831,40.42264]},"properties":{"id":35751,"name":"Navalmoral de Béjar","state_code":"SA","country_code":"ES"}},{"type":"Feature","geometry":{"type":"Point","coordinates":[-5.47893,40.47618]},"properties":{"id":35762,"name":"Navamorales","state_code":"SA","country_code":"ES"}},{"type":"Feature","geometry":{"type":"Point","coordinates":[-6.01169,40.60657]},"properties":{"id":35772,"name":"Navarredonda de la Rinconada","state_code":"SA","country_code":"ES"}},{"type":"Feature","geometry":{"type":"Point","coordinates":[-6.81975,40.29679]},"properties":{"id":35785,"name":"Navasfrías","state_code":"SA","country_code":"ES"}},{"type":"Feature","geometry":{"type":"Point","coordinates":[-5.59165,41.09185]},"properties":{"id":35798,"name":"Negrilla de Palencia","state_code":"SA","country_code":"ES"}},{"type":"Feature","geometry":{"type":"Point","coordinates":[-6.6236,40.87967]},"properties":{"id":35902,"name":"Olmedo de Camaces","state_code":"SA","country_code":"ES"}},{"type":"Feature","geometry":{"type":"Point","coordinates":[-5.50888,41.08754]},"properties":{"id":36001,"name":"Pajares de la Laguna","state_code":"SA","country_code":"ES"}},{"type":"Feature","geometry":{"type":"Point","coordinates":[-5.88933,41.16655]},"properties":{"id":36010,"name":"Palacios del Arzobispo","state_code":"SA","country_code":"ES"}},{"type":"Feature","geometry":{"type":"Point","coordinates":[-5.19507,41.05238]},"properties":{"id":36013,"name":"Palaciosrubios","state_code":"SA","country_code":"ES"}},{"type":"Feature","geometry":{"type":"Point","coordinates":[-5.60168,41.09439]},"properties":{"id":36023,"name":"Palencia de Negrilla","state_code":"SA","country_code":"ES"}},{"type":"Feature","geometry":{"type":"Point","coordinates":[-5.79332,40.98655]},"properties":{"id":36056,"name":"Parada de Arriba","state_code":"SA","country_code":"ES"}},{"type":"Feature","geometry":{"type":"Point","coordinates":[-5.43638,41.14818]},"properties":{"id":36057,"name":"Parada de Rubiales","state_code":"SA","country_code":"ES"}},{"type":"Feature","geometry":{"type":"Point","coordinates":[-5.15418,40.98325]},"properties":{"id":36060,"name":"Paradinas de San Juan","state_code":"SA","country_code":"ES"}},{"type":"Feature","geometry":{"type":"Point","coordinates":[-6.51018,40.51508]},"properties":{"id":36074,"name":"Pastores","state_code":"SA","country_code":"ES"}},{"type":"Feature","geometry":{"type":"Point","coordinates":[-5.37524,40.75502]},"properties":{"id":36093,"name":"Pedraza de Alba","state_code":"SA","country_code":"ES"}},{"type":"Feature","geometry":{"type":"Point","coordinates":[-5.39506,40.82277]},"properties":{"id":36109,"name":"Pedrosillo de Alba","state_code":"SA","country_code":"ES"}},{"type":"Feature","geometry":{"type":"Point","coordinates":[-5.70511,40.71524]},"properties":{"id":36110,"name":"Pedrosillo de los Aires","state_code":"SA","country_code":"ES"}},{"type":"Feature","geometry":{"type":"Point","coordinates":[-5.54794,41.06305]},"properties":{"id":36111,"name":"Pedrosillo el Ralo","state_code":"SA","country_code":"ES"}},{"type":"Feature","geometry":{"type":"Point","coordinates":[-5.57916,40.93658]},"properties":{"id":36118,"name":"Pelabravo","state_code":"SA","country_code":"ES"}},{"type":"Feature","geometry":{"type":"Point","coordinates":[-6.21271,40.88723]},"properties":{"id":36120,"name":"Pelarrodríguez","state_code":"SA","country_code":"ES"}},{"type":"Feature","geometry":{"type":"Point","coordinates":[-5.5758,40.64985]},"properties":{"id":36121,"name":"Pelayos","state_code":"SA","country_code":"ES"}},{"type":"Feature","geometry":{"type":"Point","coordinates":[-5.86121,40.34353]},"properties":{"id":36161,"name":"Peñacaballera","state_code":"SA","country_code":"ES"}},{"type":"Feature","geometry":{"type":"Point","coordinates":[-6.66948,40.32093]},"properties":{"id":36170,"name":"Peñaparda","state_code":"SA","country_code":"ES"}},{"type":"Feature","geometry":{"type":"Point","coordinates":[-5.20026,40.90108]},"properties":{"id":36171,"name":"Peñaranda de Bracamonte","state_code":"SA","country_code":"ES"}},{"type":"Feature","geometry":{"type":"Point","coordinates":[-5.3936,40.88348]},"properties":{"id":36173,"name":"Peñarandilla","state_code":"SA","country_code":"ES"}},{"type":"Feature","geometry":{"type":"Point","coordinates":[-6.36238,41.00469]},"properties":{"id":36135,"name":"Peralejos de Abajo","state_code":"SA","country_code":"ES"}},{"type":"Feature","geometry":{"type":"Point","coordinates":[-6.33362,41.0041]},"properties":{"id":36136,"name":"Peralejos de Arriba","state_code":"SA","country_code":"ES"}},{"type":"Feature","geometry":{"type":"Point","coordinates":[-6.5236424,41.2379075]},"properties":{"id":152541,"name":"Pereña de la Ribera","state_code":"SA","country_code":"ES"}},{"type":"Feature","geometry":{"type":"Point","coordinates":[-5.77238,40.46386]},"properties":{"id":36151,"name":"Peromingo","state_code":"SA","country_code":"ES"}},{"type":"Feature","geometry":{"type":"Point","coordinates":[-5.96025,40.44493]},"properties":{"id":36199,"name":"Pinedas","state_code":"SA","country_code":"ES"}},{"type":"Feature","geometry":{"type":"Point","coordinates":[-5.46647,41.0621]},"properties":{"id":36222,"name":"Pitiegua","state_code":"SA","country_code":"ES"}},{"type":"Feature","geometry":{"type":"Point","coordinates":[-5.65238,40.6145]},"properties":{"id":36225,"name":"Pizarral","state_code":"SA","country_code":"ES"}},{"type":"Feature","geometry":{"type":"Point","coordinates":[-5.26019,41.04596]},"properties":{"id":36308,"name":"Poveda de las Cintas","state_code":"SA","country_code":"ES"}},{"type":"Feature","geometry":{"type":"Point","coordinates":[-6.41144,40.91303]},"properties":{"id":36327,"name":"Pozos de Hinojo","state_code":"SA","country_code":"ES"}},{"type":"Feature","geometry":{"type":"Point","coordinates":[-6.74616,40.44732]},"properties":{"id":36413,"name":"Puebla de Azaba","state_code":"SA","country_code":"ES"}},{"type":"Feature","geometry":{"type":"Point","coordinates":[-5.73673,40.51073]},"properties":{"id":36421,"name":"Puebla de San Medel","state_code":"SA","country_code":"ES"}},{"type":"Feature","geometry":{"type":"Point","coordinates":[-6.1815,40.62528]},"properties":{"id":36425,"name":"Puebla de Yeltes","state_code":"SA","country_code":"ES"}},{"type":"Feature","geometry":{"type":"Point","coordinates":[-5.52628,40.49041]},"properties":{"id":36438,"name":"Puente del Congosto","state_code":"SA","country_code":"ES"}},{"type":"Feature","geometry":{"type":"Point","coordinates":[-6.28752,41.09681]},"properties":{"id":36443,"name":"Puertas","state_code":"SA","country_code":"ES"}},{"type":"Feature","geometry":{"type":"Point","coordinates":[-5.83756,40.35052]},"properties":{"id":36451,"name":"Puerto de Béjar","state_code":"SA","country_code":"ES"}},{"type":"Feature","geometry":{"type":"Point","coordinates":[-6.76109,40.82718]},"properties":{"id":36449,"name":"Puerto Seguro","state_code":"SA","country_code":"ES"}},{"type":"Feature","geometry":{"type":"Point","coordinates":[-5.12724,40.99768]},"properties":{"id":36713,"name":"Rágama","state_code":"SA","country_code":"ES"}},{"type":"Feature","geometry":{"type":"Point","coordinates":[-6.35951,40.80132]},"properties":{"id":36588,"name":"Retortillo","state_code":"SA","country_code":"ES"}},{"type":"Feature","geometry":{"type":"Point","coordinates":[-6.60726,40.38469]},"properties":{"id":36646,"name":"Robleda","state_code":"SA","country_code":"ES"}},{"type":"Feature","geometry":{"type":"Point","coordinates":[-5.97786,40.86766]},"properties":{"id":36657,"name":"Robliza de Cojos","state_code":"SA","country_code":"ES"}},{"type":"Feature","geometry":{"type":"Point","coordinates":[-5.91753,40.9623]},"properties":{"id":36668,"name":"Rollán","state_code":"SA","country_code":"ES"}},{"type":"Feature","geometry":{"type":"Point","coordinates":[-6.63271,40.66998]},"properties":{"id":36736,"name":"Saelices el Chico","state_code":"SA","country_code":"ES"}},{"type":"Feature","geometry":{"type":"Point","coordinates":[-5.66388,40.96882]},"properties":{"id":36744,"name":"Salamanca","state_code":"SA","country_code":"ES"}},{"type":"Feature","geometry":{"type":"Point","coordinates":[-6.64015,41.02068]},"properties":{"id":36756,"name":"Saldeana","state_code":"SA","country_code":"ES"}},{"type":"Feature","geometry":{"type":"Point","coordinates":[-5.2191,40.80137]},"properties":{"id":36771,"name":"Salmoral","state_code":"SA","country_code":"ES"}},{"type":"Feature","geometry":{"type":"Point","coordinates":[-5.59763,40.59007]},"properties":{"id":36787,"name":"Salvatierra de Tormes","state_code":"SA","country_code":"ES"}},{"type":"Feature","geometry":{"type":"Point","coordinates":[-5.61771,41.02919]},"properties":{"id":36823,"name":"San Cristóbal de la Cuesta","state_code":"SA","country_code":"ES"}},{"type":"Feature","geometry":{"type":"Point","coordinates":[-5.90619,40.5068]},"properties":{"id":36830,"name":"San Esteban de la Sierra","state_code":"SA","country_code":"ES"}},{"type":"Feature","geometry":{"type":"Point","coordinates":[-6.70804,40.84954]},"properties":{"id":36834,"name":"San Felices de los Gallegos","state_code":"SA","country_code":"ES"}},{"type":"Feature","geometry":{"type":"Point","coordinates":[-6.06387,40.52264]},"properties":{"id":36875,"name":"San Martín del Castañar","state_code":"SA","country_code":"ES"}},{"type":"Feature","geometry":{"type":"Point","coordinates":[-5.9228,40.54361]},"properties":{"id":36885,"name":"San Miguel de Valero","state_code":"SA","country_code":"ES"}},{"type":"Feature","geometry":{"type":"Point","coordinates":[-6.0452542,40.5368948]},"properties":{"id":152507,"name":"San Miguel del Robledo","state_code":"SA","country_code":"ES"}},{"type":"Feature","geometry":{"type":"Point","coordinates":[-5.50234,40.99358]},"properties":{"id":36893,"name":"San Morales","state_code":"SA","country_code":"ES"}},{"type":"Feature","geometry":{"type":"Point","coordinates":[-6.12758,40.78334]},"properties":{"id":36894,"name":"San Muñoz","state_code":"SA","country_code":"ES"}},{"type":"Feature","geometry":{"type":"Point","coordinates":[-5.73716,40.79008]},"properties":{"id":36908,"name":"San Pedro de Rozados","state_code":"SA","country_code":"ES"}},{"type":"Feature","geometry":{"type":"Point","coordinates":[-5.86025,41.03332]},"properties":{"id":36912,"name":"San Pedro del Valle","state_code":"SA","country_code":"ES"}},{"type":"Feature","geometry":{"type":"Point","coordinates":[-5.85702,41.11579]},"properties":{"id":36914,"name":"San Pelayo de Guareña","state_code":"SA","country_code":"ES"}},{"type":"Feature","geometry":{"type":"Point","coordinates":[-6.41314,41.08844]},"properties":{"id":36939,"name":"Sanchón de la Ribera","state_code":"SA","country_code":"ES"}},{"type":"Feature","geometry":{"type":"Point","coordinates":[-6.02502,40.74287]},"properties":{"id":36940,"name":"Sanchón de la Sagrada","state_code":"SA","country_code":"ES"}},{"type":"Feature","geometry":{"type":"Point","coordinates":[-5.75394,40.43812]},"properties":{"id":36938,"name":"Sanchotello","state_code":"SA","country_code":"ES"}},{"type":"Feature","geometry":{"type":"Point","coordinates":[-6.3984192,40.7070962]},"properties":{"id":151187,"name":"Sancti-Spíritus","state_code":"SA","country_code":"ES"}},{"type":"Feature","geometry":{"type":"Point","coordinates":[-6.11136,40.96773]},"properties":{"id":36941,"name":"Sando","state_code":"SA","country_code":"ES"}},{"type":"Feature","geometry":{"type":"Point","coordinates":[-6.12904,40.97909]},"properties":{"id":37077,"name":"Santa María de Sando","state_code":"SA","country_code":"ES"}},{"type":"Feature","geometry":{"type":"Point","coordinates":[-5.62723,40.95065]},"properties":{"id":37072,"name":"Santa Marta de Tormes","state_code":"SA","country_code":"ES"}},{"type":"Feature","geometry":{"type":"Point","coordinates":[-5.28073,40.80132]},"properties":{"id":37115,"name":"Santiago de la Puebla","state_code":"SA","country_code":"ES"}},{"type":"Feature","geometry":{"type":"Point","coordinates":[-5.6111,40.48785]},"properties":{"id":37120,"name":"Santibáñez de Béjar","state_code":"SA","country_code":"ES"}},{"type":"Feature","geometry":{"type":"Point","coordinates":[-5.91576,40.49464]},"properties":{"id":37126,"name":"Santibáñez de la Sierra","state_code":"SA","country_code":"ES"}},{"type":"Feature","geometry":{"type":"Point","coordinates":[-5.89654,41.20579]},"properties":{"id":37138,"name":"Santiz","state_code":"SA","country_code":"ES"}},{"type":"Feature","geometry":{"type":"Point","coordinates":[-5.797121,40.545201]},"properties":{"id":152546,"name":"Santos Los","state_code":"SA","country_code":"ES"}},{"type":"Feature","geometry":{"type":"Point","coordinates":[-6.27101,41.21373]},"properties":{"id":37160,"name":"Sardón de los Frailes","state_code":"SA","country_code":"ES"}},{"type":"Feature","geometry":{"type":"Point","coordinates":[-6.75328,41.04769]},"properties":{"id":37178,"name":"Saucelle","state_code":"SA","country_code":"ES"}},{"type":"Feature","geometry":{"type":"Point","coordinates":[-6.1878367,40.6990037]},"properties":{"id":152548,"name":"Sepulcro-Hilario","state_code":"SA","country_code":"ES"}},{"type":"Feature","geometry":{"type":"Point","coordinates":[-6.02495,40.51295]},"properties":{"id":37217,"name":"Sequeros","state_code":"SA","country_code":"ES"}},{"type":"Feature","geometry":{"type":"Point","coordinates":[-6.36008,40.52133]},"properties":{"id":37222,"name":"Serradilla del Arroyo","state_code":"SA","country_code":"ES"}},{"type":"Feature","geometry":{"type":"Point","coordinates":[-6.35701,40.49996]},"properties":{"id":37223,"name":"Serradilla del Llano","state_code":"SA","country_code":"ES"}},{"type":"Feature","geometry":{"type":"Point","coordinates":[-5.5781378,40.7414332]},"properties":{"id":152550,"name":"Sieteiglesias de Tormes","state_code":"SA","country_code":"ES"}},{"type":"Feature","geometry":{"type":"Point","coordinates":[-6.79729,40.91754]},"properties":{"id":37273,"name":"Sobradillo","state_code":"SA","country_code":"ES"}},{"type":"Feature","geometry":{"type":"Point","coordinates":[-5.67818,40.44378]},"properties":{"id":37301,"name":"Sorihuela","state_code":"SA","country_code":"ES"}},{"type":"Feature","geometry":{"type":"Point","coordinates":[-6.03261,40.43499]},"properties":{"id":37324,"name":"Sotoserrano","state_code":"SA","country_code":"ES"}},{"type":"Feature","geometry":{"type":"Point","coordinates":[-6.00227,40.91021]},"properties":{"id":37342,"name":"Tabera de Abajo","state_code":"SA","country_code":"ES"}},{"type":"Feature","geometry":{"type":"Point","coordinates":[-6.10536,40.65725]},"properties":{"id":37363,"name":"Tamames","state_code":"SA","country_code":"ES"}},{"type":"Feature","geometry":{"type":"Point","coordinates":[-5.25005,41.17206]},"properties":{"id":37375,"name":"Tarazona de Guareña","state_code":"SA","country_code":"ES"}},{"type":"Feature","geometry":{"type":"Point","coordinates":[-5.57423,41.11493]},"properties":{"id":37380,"name":"Tardáguila","state_code":"SA","country_code":"ES"}},{"type":"Feature","geometry":{"type":"Point","coordinates":[-6.02311,40.63155]},"properties":{"id":37399,"name":"Tejeda y Segoyuela","state_code":"SA","country_code":"ES"}},{"type":"Feature","geometry":{"type":"Point","coordinates":[-6.3545,40.62449]},"properties":{"id":37403,"name":"Tenebrón","state_code":"SA","country_code":"ES"}},{"type":"Feature","geometry":{"type":"Point","coordinates":[-5.5416,40.83836]},"properties":{"id":37407,"name":"Terradillos","state_code":"SA","country_code":"ES"}},{"type":"Feature","geometry":{"type":"Point","coordinates":[-5.63402,41.15759]},"properties":{"id":37453,"name":"Topas","state_code":"SA","country_code":"ES"}},{"type":"Feature","geometry":{"type":"Point","coordinates":[-5.35278,40.85266]},"properties":{"id":37461,"name":"Tordillos","state_code":"SA","country_code":"ES"}},{"type":"Feature","geometry":{"type":"Point","coordinates":[-5.78475,41.10249]},"properties":{"id":37582,"name":"Torresmenudas","state_code":"SA","country_code":"ES"}},{"type":"Feature","geometry":{"type":"Point","coordinates":[-6.38484,41.23278]},"properties":{"id":37613,"name":"Trabanca","state_code":"SA","country_code":"ES"}},{"type":"Feature","geometry":{"type":"Point","coordinates":[-6.18164,41.07423]},"properties":{"id":37627,"name":"Tremedal de Tormes","state_code":"SA","country_code":"ES"}},{"type":"Feature","geometry":{"type":"Point","coordinates":[-5.42219,40.77007]},"properties":{"id":37738,"name":"Valdecarros","state_code":"SA","country_code":"ES"}},{"type":"Feature","geometry":{"type":"Point","coordinates":[-5.83286,40.46578]},"properties":{"id":37746,"name":"Valdefuentes de Sangusín","state_code":"SA","country_code":"ES"}},{"type":"Feature","geometry":{"type":"Point","coordinates":[-5.84792,40.41916]},"properties":{"id":37750,"name":"Valdehijaderos","state_code":"SA","country_code":"ES"}},{"type":"Feature","geometry":{"type":"Point","coordinates":[-5.76354,40.50631]},"properties":{"id":37754,"name":"Valdelacasa","state_code":"SA","country_code":"ES"}},{"type":"Feature","geometry":{"type":"Point","coordinates":[-5.99078,40.36949]},"properties":{"id":37756,"name":"Valdelageve","state_code":"SA","country_code":"ES"}},{"type":"Feature","geometry":{"type":"Point","coordinates":[-5.7839,41.17157]},"properties":{"id":37761,"name":"Valdelosa","state_code":"SA","country_code":"ES"}},{"type":"Feature","geometry":{"type":"Point","coordinates":[-5.58225,40.82176]},"properties":{"id":37769,"name":"Valdemierque","state_code":"SA","country_code":"ES"}},{"type":"Feature","geometry":{"type":"Point","coordinates":[-6.50878,41.06524]},"properties":{"id":37795,"name":"Valderrodrigo","state_code":"SA","country_code":"ES"}},{"type":"Feature","geometry":{"type":"Point","coordinates":[-5.67217,41.08544]},"properties":{"id":37813,"name":"Valdunciel","state_code":"SA","country_code":"ES"}},{"type":"Feature","geometry":{"type":"Point","coordinates":[-5.94307,40.53533]},"properties":{"id":37825,"name":"Valero","state_code":"SA","country_code":"ES"}},{"type":"Feature","geometry":{"type":"Point","coordinates":[-5.71943,40.4091]},"properties":{"id":37851,"name":"Vallejera de Riofrío","state_code":"SA","country_code":"ES"}},{"type":"Feature","geometry":{"type":"Point","coordinates":[-6.50269,41.10962]},"properties":{"id":37872,"name":"Valsalabroso","state_code":"SA","country_code":"ES"}},{"type":"Feature","geometry":{"type":"Point","coordinates":[-5.78145,40.48155]},"properties":{"id":37889,"name":"Valverde de Valdelacasa","state_code":"SA","country_code":"ES"}},{"type":"Feature","geometry":{"type":"Point","coordinates":[-5.76955,41.04691]},"properties":{"id":37898,"name":"Valverdón","state_code":"SA","country_code":"ES"}},{"type":"Feature","geometry":{"type":"Point","coordinates":[-5.87815,40.77875]},"properties":{"id":37901,"name":"Vecinos","state_code":"SA","country_code":"ES"}},{"type":"Feature","geometry":{"type":"Point","coordinates":[-5.88667,41.02543]},"properties":{"id":37910,"name":"Vega de Tirados","state_code":"SA","country_code":"ES"}},{"type":"Feature","geometry":{"type":"Point","coordinates":[-5.34838,40.92728]},"properties":{"id":37944,"name":"Ventosa del Río Almar","state_code":"SA","country_code":"ES"}},{"type":"Feature","geometry":{"type":"Point","coordinates":[-5.23436,41.08397]},"properties":{"id":38053,"name":"Villaflores","state_code":"SA","country_code":"ES"}},{"type":"Feature","geometry":{"type":"Point","coordinates":[-5.49664,40.89221]},"properties":{"id":38077,"name":"Villagonzalo de Tormes","state_code":"SA","country_code":"ES"}},{"type":"Feature","geometry":{"type":"Point","coordinates":[-5.9758,40.8002]},"properties":{"id":38101,"name":"Villalba de los Llanos","state_code":"SA","country_code":"ES"}},{"type":"Feature","geometry":{"type":"Point","coordinates":[-5.69579,40.99939]},"properties":{"id":38139,"name":"Villamayor","state_code":"SA","country_code":"ES"}},{"type":"Feature","geometry":{"type":"Point","coordinates":[-6.0121,40.51039]},"properties":{"id":38216,"name":"Villanueva del Conde","state_code":"SA","country_code":"ES"}},{"type":"Feature","geometry":{"type":"Point","coordinates":[-6.7206346,40.6729965]},"properties":{"id":152557,"name":"Villar de Argañán","state_code":"SA","country_code":"ES"}},{"type":"Feature","geometry":{"type":"Point","coordinates":[-6.7385,40.73772]},"properties":{"id":38236,"name":"Villar de Ciervo","state_code":"SA","country_code":"ES"}},{"type":"Feature","geometry":{"type":"Point","coordinates":[-5.28819,40.95367]},"properties":{"id":38240,"name":"Villar de Gallimazo","state_code":"SA","country_code":"ES"}},{"type":"Feature","geometry":{"type":"Point","coordinates":[-6.70364,40.72554]},"properties":{"id":38248,"name":"Villar de la Yegua","state_code":"SA","country_code":"ES"}},{"type":"Feature","geometry":{"type":"Point","coordinates":[-6.22284,41.03223]},"properties":{"id":38242,"name":"Villar de Peralonso","state_code":"SA","country_code":"ES"}},{"type":"Feature","geometry":{"type":"Point","coordinates":[-6.43333,41.11667]},"properties":{"id":38245,"name":"Villar de Samaniego","state_code":"SA","country_code":"ES"}},{"type":"Feature","geometry":{"type":"Point","coordinates":[-5.64881,41.00832]},"properties":{"id":38280,"name":"Villares de la Reina","state_code":"SA","country_code":"ES"}},{"type":"Feature","geometry":{"type":"Point","coordinates":[-6.413,40.86594]},"properties":{"id":38279,"name":"Villares de Yeltes","state_code":"SA","country_code":"ES"}},{"type":"Feature","geometry":{"type":"Point","coordinates":[-6.46847,41.27102]},"properties":{"id":38285,"name":"Villarino de los Aires","state_code":"SA","country_code":"ES"}},{"type":"Feature","geometry":{"type":"Point","coordinates":[-5.97151,41.01514]},"properties":{"id":38287,"name":"Villarmayor","state_code":"SA","country_code":"ES"}},{"type":"Feature","geometry":{"type":"Point","coordinates":[-6.36294,41.0562]},"properties":{"id":38290,"name":"Villarmuerto","state_code":"SA","country_code":"ES"}},{"type":"Feature","geometry":{"type":"Point","coordinates":[-6.59662,41.06263]},"properties":{"id":38315,"name":"Villasbuenas","state_code":"SA","country_code":"ES"}},{"type":"Feature","geometry":{"type":"Point","coordinates":[-6.16303,41.00449]},"properties":{"id":38317,"name":"Villasdardo","state_code":"SA","country_code":"ES"}},{"type":"Feature","geometry":{"type":"Point","coordinates":[-6.11323,41.03621]},"properties":{"id":38322,"name":"Villaseco de los Gamitos","state_code":"SA","country_code":"ES"}},{"type":"Feature","geometry":{"type":"Point","coordinates":[-6.18426,41.16262]},"properties":{"id":38323,"name":"Villaseco de los Reyes","state_code":"SA","country_code":"ES"}},{"type":"Feature","geometry":{"type":"Point","coordinates":[-6.6392,40.33822]},"properties":{"id":38328,"name":"Villasrubias","state_code":"SA","country_code":"ES"}},{"type":"Feature","geometry":{"type":"Point","coordinates":[-5.52492,41.06406]},"properties":{"id":38345,"name":"Villaverde de Guareña","state_code":"SA","country_code":"ES"}},{"type":"Feature","geometry":{"type":"Point","coordinates":[-6.46792,40.87573]},"properties":{"id":38359,"name":"Villavieja de Yeltes","state_code":"SA","country_code":"ES"}},{"type":"Feature","geometry":{"type":"Point","coordinates":[-5.37363,40.99435]},"properties":{"id":38376,"name":"Villoría","state_code":"SA","country_code":"ES"}},{"type":"Feature","geometry":{"type":"Point","coordinates":[-5.39381,41.0086]},"properties":{"id":38375,"name":"Villoruela","state_code":"SA","country_code":"ES"}},{"type":"Feature","geometry":{"type":"Point","coordinates":[-6.72725,41.10636]},"properties":{"id":38385,"name":"Vilvestre","state_code":"SA","country_code":"ES"}},{"type":"Feature","geometry":{"type":"Point","coordinates":[-6.43404,41.00912]},"properties":{"id":38402,"name":"Vitigudino","state_code":"SA","country_code":"ES"}},{"type":"Feature","geometry":{"type":"Point","coordinates":[-6.48904,40.95917]},"properties":{"id":38432,"name":"Yecla de Yeltes","state_code":"SA","country_code":"ES"}},{"type":"Feature","geometry":{"type":"Point","coordinates":[-6.45248,40.51893]},"properties":{"id":38462,"name":"Zamarra","state_code":"SA","country_code":"ES"}},{"type":"Feature","geometry":{"type":"Point","coordinates":[-5.83054,41.14861]},"properties":{"id":38463,"name":"Zamayón","state_code":"SA","country_code":"ES"}},{"type":"Feature","geometry":{"type":"Point","coordinates":[-5.84526,41.0383]},"properties":{"id":38471,"name":"Zarapicos","state_code":"SA","country_code":"ES"}},{"type":"Feature","geometry":{"type":"Point","coordinates":[-5.19659,41.01453]},"properties":{"id":38496,"name":"Zorita de la Frontera","state_code":"SA","country_code":"ES"}}]}