{"type":"FeatureCollection","features":[{"type":"Feature","geometry":{"type":"Point","coordinates":[38.4,9.03333]},"properties":{"id":38723,"name":"Ādīs ‘Alem","state_code":"OR","country_code":"ET"}},{"type":"Feature","geometry":{"type":"Point","coordinates":[36.65,7.85]},"properties":{"id":38724,"name":"Āgaro","state_code":"OR","country_code":"ET"}},{"type":"Feature","geometry":{"type":"Point","coordinates":[39.5,7.5]},"properties":{"id":38594,"name":"Arsi Zone","state_code":"OR","country_code":"ET"}},{"type":"Feature","geometry":{"type":"Point","coordinates":[39.2,7.1]},"properties":{"id":38726,"name":"Āsasa","state_code":"OR","country_code":"ET"}},{"type":"Feature","geometry":{"type":"Point","coordinates":[40.86708,9.08569]},"properties":{"id":38727,"name":"Āsbe Teferī","state_code":"OR","country_code":"ET"}},{"type":"Feature","geometry":{"type":"Point","coordinates":[36.35302,8.456]},"properties":{"id":38601,"name":"Bedelē","state_code":"OR","country_code":"ET"}},{"type":"Feature","geometry":{"type":"Point","coordinates":[40.78333,8.9]},"properties":{"id":38602,"name":"Bedēsa","state_code":"OR","country_code":"ET"}},{"type":"Feature","geometry":{"type":"Point","coordinates":[38.97846,8.75225]},"properties":{"id":38605,"name":"Bishoftu","state_code":"OR","country_code":"ET"}},{"type":"Feature","geometry":{"type":"Point","coordinates":[41.44301,9.31168]},"properties":{"id":38617,"name":"Deder","state_code":"OR","country_code":"ET"}},{"type":"Feature","geometry":{"type":"Point","coordinates":[34.8,8.53333]},"properties":{"id":38620,"name":"Dembī Dolo","state_code":"OR","country_code":"ET"}},{"type":"Feature","geometry":{"type":"Point","coordinates":[39.18333,6.98333]},"properties":{"id":38623,"name":"Dodola","state_code":"OR","country_code":"ET"}},{"type":"Feature","geometry":{"type":"Point","coordinates":[42.00241,8.70114]},"properties":{"id":38626,"name":"East Harerghe Zone","state_code":"OR","country_code":"ET"}},{"type":"Feature","geometry":{"type":"Point","coordinates":[38.84809,8.21353]},"properties":{"id":38627,"name":"East Shewa Zone","state_code":"OR","country_code":"ET"}},{"type":"Feature","geometry":{"type":"Point","coordinates":[36.75762,9.51928]},"properties":{"id":38628,"name":"East Wellega Zone","state_code":"OR","country_code":"ET"}},{"type":"Feature","geometry":{"type":"Point","coordinates":[38.73333,9.8]},"properties":{"id":38630,"name":"Fichē","state_code":"OR","country_code":"ET"}},{"type":"Feature","geometry":{"type":"Point","coordinates":[38.4,9.8]},"properties":{"id":38633,"name":"Gebre Guracha","state_code":"OR","country_code":"ET"}},{"type":"Feature","geometry":{"type":"Point","coordinates":[37.45,9.01667]},"properties":{"id":38646,"name":"Gēdo","state_code":"OR","country_code":"ET"}},{"type":"Feature","geometry":{"type":"Point","coordinates":[40.51667,8.81667]},"properties":{"id":38635,"name":"Gelemso","state_code":"OR","country_code":"ET"}},{"type":"Feature","geometry":{"type":"Point","coordinates":[38.5,9.06667]},"properties":{"id":38636,"name":"Genet","state_code":"OR","country_code":"ET"}},{"type":"Feature","geometry":{"type":"Point","coordinates":[35.83491,9.17031]},"properties":{"id":38638,"name":"Gimbi","state_code":"OR","country_code":"ET"}},{"type":"Feature","geometry":{"type":"Point","coordinates":[40.71083,7.13952]},"properties":{"id":38639,"name":"Ginir","state_code":"OR","country_code":"ET"}},{"type":"Feature","geometry":{"type":"Point","coordinates":[39.98333,7.01667]},"properties":{"id":38640,"name":"Goba","state_code":"OR","country_code":"ET"}},{"type":"Feature","geometry":{"type":"Point","coordinates":[35.53333,8.15]},"properties":{"id":38643,"name":"Gorē","state_code":"OR","country_code":"ET"}},{"type":"Feature","geometry":{"type":"Point","coordinates":[39.067,5.588]},"properties":{"id":38644,"name":"Guji Zone","state_code":"OR","country_code":"ET"}},{"type":"Feature","geometry":{"type":"Point","coordinates":[37.85,8.98333]},"properties":{"id":38654,"name":"Hāgere Hiywet","state_code":"OR","country_code":"ET"}},{"type":"Feature","geometry":{"type":"Point","coordinates":[38.23603,5.63418]},"properties":{"id":38649,"name":"Hagere Maryam","state_code":"OR","country_code":"ET"}},{"type":"Feature","geometry":{"type":"Point","coordinates":[41.1,9.21667]},"properties":{"id":38656,"name":"Hīrna","state_code":"OR","country_code":"ET"}},{"type":"Feature","geometry":{"type":"Point","coordinates":[39.35,8.15]},"properties":{"id":38653,"name":"Huruta","state_code":"OR","country_code":"ET"}},{"type":"Feature","geometry":{"type":"Point","coordinates":[35.75596,8.27526]},"properties":{"id":38657,"name":"Illubabor Zone","state_code":"OR","country_code":"ET"}},{"type":"Feature","geometry":{"type":"Point","coordinates":[36.83441,7.67344]},"properties":{"id":38660,"name":"Jimma","state_code":"OR","country_code":"ET"}},{"type":"Feature","geometry":{"type":"Point","coordinates":[37,7.66667]},"properties":{"id":38661,"name":"Jimma Zone","state_code":"OR","country_code":"ET"}},{"type":"Feature","geometry":{"type":"Point","coordinates":[38.98333,5.88333]},"properties":{"id":38665,"name":"Kibre Mengist","state_code":"OR","country_code":"ET"}},{"type":"Feature","geometry":{"type":"Point","coordinates":[38.78333,7.06667]},"properties":{"id":38666,"name":"Kofelē","state_code":"OR","country_code":"ET"}},{"type":"Feature","geometry":{"type":"Point","coordinates":[38.3,4.05]},"properties":{"id":38682,"name":"Mēga","state_code":"OR","country_code":"ET"}},{"type":"Feature","geometry":{"type":"Point","coordinates":[35.1,9.8]},"properties":{"id":38677,"name":"Mendī","state_code":"OR","country_code":"ET"}},{"type":"Feature","geometry":{"type":"Point","coordinates":[39.91667,8.9]},"properties":{"id":38678,"name":"Metahāra","state_code":"OR","country_code":"ET"}},{"type":"Feature","geometry":{"type":"Point","coordinates":[35.58333,8.3]},"properties":{"id":38680,"name":"Metu","state_code":"OR","country_code":"ET"}},{"type":"Feature","geometry":{"type":"Point","coordinates":[39.12111,8.58679]},"properties":{"id":38681,"name":"Mojo","state_code":"OR","country_code":"ET"}},{"type":"Feature","geometry":{"type":"Point","coordinates":[39.26667,8.55]},"properties":{"id":38684,"name":"Nazrēt","state_code":"OR","country_code":"ET"}},{"type":"Feature","geometry":{"type":"Point","coordinates":[35.5,9.5]},"properties":{"id":38685,"name":"Nejo","state_code":"OR","country_code":"ET"}},{"type":"Feature","geometry":{"type":"Point","coordinates":[38.8124,9.66915]},"properties":{"id":38687,"name":"North Shewa Zone","state_code":"OR","country_code":"ET"}},{"type":"Feature","geometry":{"type":"Point","coordinates":[38.61667,8.91667]},"properties":{"id":38690,"name":"Sebeta","state_code":"OR","country_code":"ET"}},{"type":"Feature","geometry":{"type":"Point","coordinates":[39.02335,9.15203]},"properties":{"id":38692,"name":"Sendafa","state_code":"OR","country_code":"ET"}},{"type":"Feature","geometry":{"type":"Point","coordinates":[38.91006,5.76494]},"properties":{"id":38693,"name":"Shakiso","state_code":"OR","country_code":"ET"}},{"type":"Feature","geometry":{"type":"Point","coordinates":[37.1,9.56667]},"properties":{"id":38694,"name":"Shambu","state_code":"OR","country_code":"ET"}},{"type":"Feature","geometry":{"type":"Point","coordinates":[38.6,7.2]},"properties":{"id":38695,"name":"Shashemenē","state_code":"OR","country_code":"ET"}},{"type":"Feature","geometry":{"type":"Point","coordinates":[39.48333,8.31667]},"properties":{"id":38699,"name":"Sirre","state_code":"OR","country_code":"ET"}},{"type":"Feature","geometry":{"type":"Point","coordinates":[38.21667,8.66667]},"properties":{"id":38706,"name":"Tulu Bolo","state_code":"OR","country_code":"ET"}},{"type":"Feature","geometry":{"type":"Point","coordinates":[37.96515,8.53417]},"properties":{"id":38709,"name":"Waliso","state_code":"OR","country_code":"ET"}},{"type":"Feature","geometry":{"type":"Point","coordinates":[39.28333,8.45]},"properties":{"id":38711,"name":"Wenjī","state_code":"OR","country_code":"ET"}},{"type":"Feature","geometry":{"type":"Point","coordinates":[40.84885,8.67245]},"properties":{"id":38714,"name":"West Harerghe Zone","state_code":"OR","country_code":"ET"}},{"type":"Feature","geometry":{"type":"Point","coordinates":[35.05279,9.17283]},"properties":{"id":38715,"name":"West Wellega Zone","state_code":"OR","country_code":"ET"}},{"type":"Feature","geometry":{"type":"Point","coordinates":[38.08333,4.88333]},"properties":{"id":38717,"name":"Yabēlo","state_code":"OR","country_code":"ET"}},{"type":"Feature","geometry":{"type":"Point","coordinates":[38.71667,7.93333]},"properties":{"id":38720,"name":"Ziway","state_code":"OR","country_code":"ET"}}]}