{"type":"FeatureCollection","features":[{"type":"Feature","geometry":{"type":"Point","coordinates":[38.21189,7.45347]},"properties":{"id":38592,"name":"Alaba Special Wereda","state_code":"SN","country_code":"ET"}},{"type":"Feature","geometry":{"type":"Point","coordinates":[37.55,6.03333]},"properties":{"id":38593,"name":"Arba Minch","state_code":"SN","country_code":"ET"}},{"type":"Feature","geometry":{"type":"Point","coordinates":[37.7,7.06667]},"properties":{"id":38725,"name":"Āreka","state_code":"SN","country_code":"ET"}},{"type":"Feature","geometry":{"type":"Point","coordinates":[36.56667,5.78333]},"properties":{"id":38599,"name":"Bako","state_code":"SN","country_code":"ET"}},{"type":"Feature","geometry":{"type":"Point","coordinates":[37.86667,6.96667]},"properties":{"id":38606,"name":"Bodītī","state_code":"SN","country_code":"ET"}},{"type":"Feature","geometry":{"type":"Point","coordinates":[38.36667,8.11667]},"properties":{"id":38609,"name":"Butajīra","state_code":"SN","country_code":"ET"}},{"type":"Feature","geometry":{"type":"Point","coordinates":[36.88333,6.3]},"properties":{"id":38629,"name":"Felege Neway","state_code":"SN","country_code":"ET"}},{"type":"Feature","geometry":{"type":"Point","coordinates":[38.27716,6.12727]},"properties":{"id":38634,"name":"Gedeo Zone","state_code":"SN","country_code":"ET"}},{"type":"Feature","geometry":{"type":"Point","coordinates":[37.36667,5.65]},"properties":{"id":38647,"name":"Gīdolē","state_code":"SN","country_code":"ET"}},{"type":"Feature","geometry":{"type":"Point","coordinates":[38,8.25]},"properties":{"id":38645,"name":"Guraghe Zone","state_code":"SN","country_code":"ET"}},{"type":"Feature","geometry":{"type":"Point","coordinates":[37.75,7.5]},"properties":{"id":38648,"name":"Hadiya Zone","state_code":"SN","country_code":"ET"}},{"type":"Feature","geometry":{"type":"Point","coordinates":[37.85374,7.54978]},"properties":{"id":38652,"name":"Hosa’ina","state_code":"SN","country_code":"ET"}},{"type":"Feature","geometry":{"type":"Point","coordinates":[36.65,5.65]},"properties":{"id":38662,"name":"Jinka","state_code":"SN","country_code":"ET"}},{"type":"Feature","geometry":{"type":"Point","coordinates":[38.08333,7.31667]},"properties":{"id":38670,"name":"K’olīto","state_code":"SN","country_code":"ET"}},{"type":"Feature","geometry":{"type":"Point","coordinates":[37.77887,7.27039]},"properties":{"id":38663,"name":"Kembata Alaba Tembaro Zone","state_code":"SN","country_code":"ET"}},{"type":"Feature","geometry":{"type":"Point","coordinates":[37.48333,5.25]},"properties":{"id":38668,"name":"Konso","state_code":"SN","country_code":"ET"}},{"type":"Feature","geometry":{"type":"Point","coordinates":[36.1,4.83333]},"properties":{"id":38674,"name":"Lobuni","state_code":"SN","country_code":"ET"}},{"type":"Feature","geometry":{"type":"Point","coordinates":[37.76159,6.86]},"properties":{"id":38700,"name":"Sodo","state_code":"SN","country_code":"ET"}},{"type":"Feature","geometry":{"type":"Point","coordinates":[36.48333,4.96667]},"properties":{"id":38707,"name":"Turmi","state_code":"SN","country_code":"ET"}},{"type":"Feature","geometry":{"type":"Point","coordinates":[37.70051,6.84312]},"properties":{"id":38716,"name":"Wolayita Zone","state_code":"SN","country_code":"ET"}},{"type":"Feature","geometry":{"type":"Point","coordinates":[37.5,7.83333]},"properties":{"id":38718,"name":"Yem","state_code":"SN","country_code":"ET"}}]}