{"type":"FeatureCollection","features":[{"type":"Feature","geometry":{"type":"Point","coordinates":[24.06186,62.55403]},"properties":{"id":39130,"name":"Ähtäri","state_code":"03","country_code":"FI"}},{"type":"Feature","geometry":{"type":"Point","coordinates":[22.85,63.23333]},"properties":{"id":38730,"name":"Alahärmä","state_code":"03","country_code":"FI"}},{"type":"Feature","geometry":{"type":"Point","coordinates":[23.81667,63]},"properties":{"id":38731,"name":"Alajärvi","state_code":"03","country_code":"FI"}},{"type":"Feature","geometry":{"type":"Point","coordinates":[23.61667,62.58333]},"properties":{"id":38734,"name":"Alavus","state_code":"03","country_code":"FI"}},{"type":"Feature","geometry":{"type":"Point","coordinates":[23.48333,63.36667]},"properties":{"id":38751,"name":"Evijärvi","state_code":"03","country_code":"FI"}},{"type":"Feature","geometry":{"type":"Point","coordinates":[22.56667,62.73333]},"properties":{"id":38785,"name":"Ilmajoki","state_code":"03","country_code":"FI"}},{"type":"Feature","geometry":{"type":"Point","coordinates":[21.95884,62.11319]},"properties":{"id":38791,"name":"Isojoki","state_code":"03","country_code":"FI"}},{"type":"Feature","geometry":{"type":"Point","coordinates":[22.75,62.5]},"properties":{"id":38796,"name":"Jalasjärvi","state_code":"03","country_code":"FI"}},{"type":"Feature","geometry":{"type":"Point","coordinates":[21.98333,62.68333]},"properties":{"id":38804,"name":"Jurva","state_code":"03","country_code":"FI"}},{"type":"Feature","geometry":{"type":"Point","coordinates":[21.70856,62.30851]},"properties":{"id":38826,"name":"Karijoki","state_code":"03","country_code":"FI"}},{"type":"Feature","geometry":{"type":"Point","coordinates":[22.18333,62.43333]},"properties":{"id":38835,"name":"Kauhajoki","state_code":"03","country_code":"FI"}},{"type":"Feature","geometry":{"type":"Point","coordinates":[23.07129,63.10299]},"properties":{"id":38836,"name":"Kauhava","state_code":"03","country_code":"FI"}},{"type":"Feature","geometry":{"type":"Point","coordinates":[23.16667,63.3]},"properties":{"id":38871,"name":"Kortesjärvi","state_code":"03","country_code":"FI"}},{"type":"Feature","geometry":{"type":"Point","coordinates":[23.5,62.8]},"properties":{"id":38882,"name":"Kuortane","state_code":"03","country_code":"FI"}},{"type":"Feature","geometry":{"type":"Point","coordinates":[22.41667,62.61667]},"properties":{"id":38883,"name":"Kurikka","state_code":"03","country_code":"FI"}},{"type":"Feature","geometry":{"type":"Point","coordinates":[23.63333,63.2]},"properties":{"id":38898,"name":"Lappajärvi","state_code":"03","country_code":"FI"}},{"type":"Feature","geometry":{"type":"Point","coordinates":[23.0088,62.96927]},"properties":{"id":38901,"name":"Lapua","state_code":"03","country_code":"FI"}},{"type":"Feature","geometry":{"type":"Point","coordinates":[23.91667,62.78333]},"properties":{"id":38906,"name":"Lehtimäki","state_code":"03","country_code":"FI"}},{"type":"Feature","geometry":{"type":"Point","coordinates":[22.9099,62.8287]},"properties":{"id":38959,"name":"Nurmo","state_code":"03","country_code":"FI"}},{"type":"Feature","geometry":{"type":"Point","coordinates":[22.82822,62.79446]},"properties":{"id":39044,"name":"Seinäjoki","state_code":"03","country_code":"FI"}},{"type":"Feature","geometry":{"type":"Point","coordinates":[24.21667,62.86667]},"properties":{"id":39053,"name":"Soini","state_code":"03","country_code":"FI"}},{"type":"Feature","geometry":{"type":"Point","coordinates":[21.74156,62.4819]},"properties":{"id":39076,"name":"Teuva","state_code":"03","country_code":"FI"}},{"type":"Feature","geometry":{"type":"Point","coordinates":[23.81828,62.62803]},"properties":{"id":39087,"name":"Töysä","state_code":"03","country_code":"FI"}},{"type":"Feature","geometry":{"type":"Point","coordinates":[23.81922,63.16187]},"properties":{"id":39111,"name":"Vimpeli","state_code":"03","country_code":"FI"}},{"type":"Feature","geometry":{"type":"Point","coordinates":[22.78333,63.15]},"properties":{"id":39122,"name":"Ylihärmä","state_code":"03","country_code":"FI"}},{"type":"Feature","geometry":{"type":"Point","coordinates":[22.51306,62.93958]},"properties":{"id":39124,"name":"Ylistaro","state_code":"03","country_code":"FI"}}]}