{"type":"FeatureCollection","features":[{"type":"Feature","geometry":{"type":"Point","coordinates":[23.62146,60.81462]},"properties":{"id":38752,"name":"Forssa","state_code":"06","country_code":"FI"}},{"type":"Feature","geometry":{"type":"Point","coordinates":[24.46434,60.99596]},"properties":{"id":38781,"name":"Hämeenlinna","state_code":"06","country_code":"FI"}},{"type":"Feature","geometry":{"type":"Point","coordinates":[24.56303,61.17255]},"properties":{"id":38764,"name":"Hauho","state_code":"06","country_code":"FI"}},{"type":"Feature","geometry":{"type":"Point","coordinates":[24.93333,60.78333]},"properties":{"id":38767,"name":"Hausjärvi","state_code":"06","country_code":"FI"}},{"type":"Feature","geometry":{"type":"Point","coordinates":[23.36667,60.93333]},"properties":{"id":38777,"name":"Humppila","state_code":"06","country_code":"FI"}},{"type":"Feature","geometry":{"type":"Point","coordinates":[24.6,60.9]},"properties":{"id":38797,"name":"Janakkala","state_code":"06","country_code":"FI"}},{"type":"Feature","geometry":{"type":"Point","coordinates":[23.48004,60.80162]},"properties":{"id":38799,"name":"Jokioinen","state_code":"06","country_code":"FI"}},{"type":"Feature","geometry":{"type":"Point","coordinates":[24.12177,61.10081]},"properties":{"id":38819,"name":"Kalvola","state_code":"06","country_code":"FI"}},{"type":"Feature","geometry":{"type":"Point","coordinates":[25.01667,61.08333]},"properties":{"id":38895,"name":"Lammi","state_code":"06","country_code":"FI"}},{"type":"Feature","geometry":{"type":"Point","coordinates":[24.45,60.71667]},"properties":{"id":38919,"name":"Loppi","state_code":"06","country_code":"FI"}},{"type":"Feature","geometry":{"type":"Point","coordinates":[24.28785,60.89563]},"properties":{"id":39021,"name":"Renko","state_code":"06","country_code":"FI"}},{"type":"Feature","geometry":{"type":"Point","coordinates":[24.77726,60.73769]},"properties":{"id":39023,"name":"Riihimäki","state_code":"06","country_code":"FI"}},{"type":"Feature","geometry":{"type":"Point","coordinates":[23.76823,60.81035]},"properties":{"id":39070,"name":"Tammela","state_code":"06","country_code":"FI"}},{"type":"Feature","geometry":{"type":"Point","coordinates":[24.62594,60.81412]},"properties":{"id":39073,"name":"Tervakoski","state_code":"06","country_code":"FI"}},{"type":"Feature","geometry":{"type":"Point","coordinates":[24.8,61.15]},"properties":{"id":39082,"name":"Tuulos","state_code":"06","country_code":"FI"}},{"type":"Feature","geometry":{"type":"Point","coordinates":[23.28333,60.8]},"properties":{"id":39129,"name":"Ypäjä","state_code":"06","country_code":"FI"}}]}