{"type":"FeatureCollection","features":[{"type":"Feature","geometry":{"type":"Point","coordinates":[24.3,64.16667]},"properties":{"id":38733,"name":"Alavieska","state_code":"14","country_code":"FI"}},{"type":"Feature","geometry":{"type":"Point","coordinates":[25.33333,63.75]},"properties":{"id":38754,"name":"Haapajärvi","state_code":"14","country_code":"FI"}},{"type":"Feature","geometry":{"type":"Point","coordinates":[25.36667,64.13333]},"properties":{"id":38755,"name":"Haapavesi","state_code":"14","country_code":"FI"}},{"type":"Feature","geometry":{"type":"Point","coordinates":[24.71385,65.009]},"properties":{"id":38756,"name":"Hailuoto","state_code":"14","country_code":"FI"}},{"type":"Feature","geometry":{"type":"Point","coordinates":[25.35233,65.17654]},"properties":{"id":38765,"name":"Haukipudas","state_code":"14","country_code":"FI"}},{"type":"Feature","geometry":{"type":"Point","coordinates":[23.65447,64.06218]},"properties":{"id":38772,"name":"Himanka","state_code":"14","country_code":"FI"}},{"type":"Feature","geometry":{"type":"Point","coordinates":[25.3731,65.31735]},"properties":{"id":38782,"name":"Ii","state_code":"14","country_code":"FI"}},{"type":"Feature","geometry":{"type":"Point","coordinates":[23.95,64.25]},"properties":{"id":38817,"name":"Kalajoki","state_code":"14","country_code":"FI"}},{"type":"Feature","geometry":{"type":"Point","coordinates":[25.76667,63.96667]},"properties":{"id":38890,"name":"Kärsämäki","state_code":"14","country_code":"FI"}},{"type":"Feature","geometry":{"type":"Point","coordinates":[25.50339,64.91314]},"properties":{"id":38844,"name":"Kempele","state_code":"14","country_code":"FI"}},{"type":"Feature","geometry":{"type":"Point","coordinates":[26.27921,64.35002]},"properties":{"id":38847,"name":"Kestilä","state_code":"14","country_code":"FI"}},{"type":"Feature","geometry":{"type":"Point","coordinates":[25.79744,65.13139]},"properties":{"id":38852,"name":"Kiiminki","state_code":"14","country_code":"FI"}},{"type":"Feature","geometry":{"type":"Point","coordinates":[25.18814,65.57847]},"properties":{"id":38879,"name":"Kuivaniemi","state_code":"14","country_code":"FI"}},{"type":"Feature","geometry":{"type":"Point","coordinates":[29.18333,65.96667]},"properties":{"id":38885,"name":"Kuusamo","state_code":"14","country_code":"FI"}},{"type":"Feature","geometry":{"type":"Point","coordinates":[25.41545,64.80985]},"properties":{"id":38915,"name":"Liminka","state_code":"14","country_code":"FI"}},{"type":"Feature","geometry":{"type":"Point","coordinates":[25.18607,64.83744]},"properties":{"id":38922,"name":"Lumijoki","state_code":"14","country_code":"FI"}},{"type":"Feature","geometry":{"type":"Point","coordinates":[24.45,64.3]},"properties":{"id":38932,"name":"Merijärvi","state_code":"14","country_code":"FI"}},{"type":"Feature","geometry":{"type":"Point","coordinates":[25.99314,64.80798]},"properties":{"id":38938,"name":"Muhos","state_code":"14","country_code":"FI"}},{"type":"Feature","geometry":{"type":"Point","coordinates":[24.96667,63.91667]},"properties":{"id":38953,"name":"Nivala","state_code":"14","country_code":"FI"}},{"type":"Feature","geometry":{"type":"Point","coordinates":[24.8,64.26667]},"properties":{"id":38965,"name":"Oulainen","state_code":"14","country_code":"FI"}},{"type":"Feature","geometry":{"type":"Point","coordinates":[25.46816,65.01236]},"properties":{"id":38966,"name":"Oulu","state_code":"14","country_code":"FI"}},{"type":"Feature","geometry":{"type":"Point","coordinates":[25.41121,64.93456]},"properties":{"id":38967,"name":"Oulunsalo","state_code":"14","country_code":"FI"}},{"type":"Feature","geometry":{"type":"Point","coordinates":[25.96667,64.16667]},"properties":{"id":38987,"name":"Piippola","state_code":"14","country_code":"FI"}},{"type":"Feature","geometry":{"type":"Point","coordinates":[26.91667,65.38333]},"properties":{"id":38995,"name":"Pudasjärvi","state_code":"14","country_code":"FI"}},{"type":"Feature","geometry":{"type":"Point","coordinates":[25.86667,64.26667]},"properties":{"id":38997,"name":"Pulkkila","state_code":"14","country_code":"FI"}},{"type":"Feature","geometry":{"type":"Point","coordinates":[25.9,63.66667]},"properties":{"id":39003,"name":"Pyhäjärvi","state_code":"14","country_code":"FI"}},{"type":"Feature","geometry":{"type":"Point","coordinates":[24.23333,64.46667]},"properties":{"id":39002,"name":"Pyhäjoki","state_code":"14","country_code":"FI"}},{"type":"Feature","geometry":{"type":"Point","coordinates":[26.31667,64.1]},"properties":{"id":39005,"name":"Pyhäntä","state_code":"14","country_code":"FI"}},{"type":"Feature","geometry":{"type":"Point","coordinates":[24.48333,64.68333]},"properties":{"id":39010,"name":"Raahe","state_code":"14","country_code":"FI"}},{"type":"Feature","geometry":{"type":"Point","coordinates":[25.66449,64.50613]},"properties":{"id":39014,"name":"Rantsila","state_code":"14","country_code":"FI"}},{"type":"Feature","geometry":{"type":"Point","coordinates":[24.9,63.61667]},"properties":{"id":39020,"name":"Reisjärvi","state_code":"14","country_code":"FI"}},{"type":"Feature","geometry":{"type":"Point","coordinates":[25.1,64.66667]},"properties":{"id":39031,"name":"Ruukki","state_code":"14","country_code":"FI"}},{"type":"Feature","geometry":{"type":"Point","coordinates":[24.5,63.9]},"properties":{"id":39046,"name":"Sievi","state_code":"14","country_code":"FI"}},{"type":"Feature","geometry":{"type":"Point","coordinates":[24.75924,64.81455]},"properties":{"id":39048,"name":"Siikajoki","state_code":"14","country_code":"FI"}},{"type":"Feature","geometry":{"type":"Point","coordinates":[28.25,65.56667]},"properties":{"id":39068,"name":"Taivalkoski","state_code":"14","country_code":"FI"}},{"type":"Feature","geometry":{"type":"Point","coordinates":[25.6523,64.76469]},"properties":{"id":39086,"name":"Tyrnävä","state_code":"14","country_code":"FI"}},{"type":"Feature","geometry":{"type":"Point","coordinates":[26.38333,64.75]},"properties":{"id":39090,"name":"Utajärvi","state_code":"14","country_code":"FI"}},{"type":"Feature","geometry":{"type":"Point","coordinates":[24.99157,64.48472]},"properties":{"id":39108,"name":"Vihanti","state_code":"14","country_code":"FI"}},{"type":"Feature","geometry":{"type":"Point","coordinates":[25.8458,65.37181]},"properties":{"id":39121,"name":"Yli-Ii","state_code":"14","country_code":"FI"}},{"type":"Feature","geometry":{"type":"Point","coordinates":[26.25,65.08333]},"properties":{"id":39123,"name":"Ylikiiminki","state_code":"14","country_code":"FI"}},{"type":"Feature","geometry":{"type":"Point","coordinates":[24.55,64.08333]},"properties":{"id":39126,"name":"Ylivieska","state_code":"14","country_code":"FI"}}]}