{"type":"FeatureCollection","features":[{"type":"Feature","geometry":{"type":"Point","coordinates":[22.13333,61.13333]},"properties":{"id":38749,"name":"Eura","state_code":"17","country_code":"FI"}},{"type":"Feature","geometry":{"type":"Point","coordinates":[21.73333,61.2]},"properties":{"id":38750,"name":"Eurajoki","state_code":"17","country_code":"FI"}},{"type":"Feature","geometry":{"type":"Point","coordinates":[22.13333,61.31667]},"properties":{"id":38762,"name":"Harjavalta","state_code":"17","country_code":"FI"}},{"type":"Feature","geometry":{"type":"Point","coordinates":[22.7,61.18333]},"properties":{"id":38776,"name":"Huittinen","state_code":"17","country_code":"FI"}},{"type":"Feature","geometry":{"type":"Point","coordinates":[22.7,61.81667]},"properties":{"id":38808,"name":"Jämijärvi","state_code":"17","country_code":"FI"}},{"type":"Feature","geometry":{"type":"Point","coordinates":[22.41667,61.8]},"properties":{"id":38822,"name":"Kankaanpää","state_code":"17","country_code":"FI"}},{"type":"Feature","geometry":{"type":"Point","coordinates":[22.56667,62.13333]},"properties":{"id":38833,"name":"Karvia","state_code":"17","country_code":"FI"}},{"type":"Feature","geometry":{"type":"Point","coordinates":[22.08333,61.21667]},"properties":{"id":38860,"name":"Kiukainen","state_code":"17","country_code":"FI"}},{"type":"Feature","geometry":{"type":"Point","coordinates":[22.35643,61.25647]},"properties":{"id":38863,"name":"Kokemäki","state_code":"17","country_code":"FI"}},{"type":"Feature","geometry":{"type":"Point","coordinates":[22.30976,61.1191]},"properties":{"id":38891,"name":"Köyliö","state_code":"17","country_code":"FI"}},{"type":"Feature","geometry":{"type":"Point","coordinates":[22.16145,61.46998]},"properties":{"id":38880,"name":"Kullaa","state_code":"17","country_code":"FI"}},{"type":"Feature","geometry":{"type":"Point","coordinates":[22.1,61.65]},"properties":{"id":38925,"name":"Längelmäki","state_code":"17","country_code":"FI"}},{"type":"Feature","geometry":{"type":"Point","coordinates":[21.83333,61.1]},"properties":{"id":38900,"name":"Lappi","state_code":"17","country_code":"FI"}},{"type":"Feature","geometry":{"type":"Point","coordinates":[22.6,61.6]},"properties":{"id":38905,"name":"Lavia","state_code":"17","country_code":"FI"}},{"type":"Feature","geometry":{"type":"Point","coordinates":[21.62556,61.36375]},"properties":{"id":38924,"name":"Luvia","state_code":"17","country_code":"FI"}},{"type":"Feature","geometry":{"type":"Point","coordinates":[21.50035,61.85839]},"properties":{"id":38933,"name":"Merikarvia","state_code":"17","country_code":"FI"}},{"type":"Feature","geometry":{"type":"Point","coordinates":[22,61.36667]},"properties":{"id":38950,"name":"Nakkila","state_code":"17","country_code":"FI"}},{"type":"Feature","geometry":{"type":"Point","coordinates":[21.86846,61.59274]},"properties":{"id":38954,"name":"Noormarkku","state_code":"17","country_code":"FI"}},{"type":"Feature","geometry":{"type":"Point","coordinates":[22.00862,61.69348]},"properties":{"id":38990,"name":"Pomarkku","state_code":"17","country_code":"FI"}},{"type":"Feature","geometry":{"type":"Point","coordinates":[21.78333,61.48333]},"properties":{"id":38991,"name":"Pori","state_code":"17","country_code":"FI"}},{"type":"Feature","geometry":{"type":"Point","coordinates":[21.51127,61.12724]},"properties":{"id":39016,"name":"Rauma","state_code":"17","country_code":"FI"}},{"type":"Feature","geometry":{"type":"Point","coordinates":[22.33333,61.03333]},"properties":{"id":39064,"name":"Säkylä","state_code":"17","country_code":"FI"}},{"type":"Feature","geometry":{"type":"Point","coordinates":[21.81945,61.87703]},"properties":{"id":39047,"name":"Siikainen","state_code":"17","country_code":"FI"}},{"type":"Feature","geometry":{"type":"Point","coordinates":[21.87103,61.42844]},"properties":{"id":39089,"name":"Ulvila","state_code":"17","country_code":"FI"}},{"type":"Feature","geometry":{"type":"Point","coordinates":[22.7,61.01667]},"properties":{"id":39098,"name":"Vampula","state_code":"17","country_code":"FI"}}]}