{"type":"FeatureCollection","features":[{"type":"Feature","geometry":{"type":"Point","coordinates":[30.15422,62.80511]},"properties":{"id":38745,"name":"Eno","state_code":"13","country_code":"FI"}},{"type":"Feature","geometry":{"type":"Point","coordinates":[30.93276,62.67162]},"properties":{"id":38786,"name":"Ilomantsi","state_code":"13","country_code":"FI"}},{"type":"Feature","geometry":{"type":"Point","coordinates":[29.76316,62.60118]},"properties":{"id":38798,"name":"Joensuu","state_code":"13","country_code":"FI"}},{"type":"Feature","geometry":{"type":"Point","coordinates":[29.25,63.23333]},"properties":{"id":38805,"name":"Juuka","state_code":"13","country_code":"FI"}},{"type":"Feature","geometry":{"type":"Point","coordinates":[29.83494,61.89752]},"properties":{"id":38848,"name":"Kesälahti","state_code":"13","country_code":"FI"}},{"type":"Feature","geometry":{"type":"Point","coordinates":[30.25081,62.49525]},"properties":{"id":38850,"name":"Kiihtelysvaara","state_code":"13","country_code":"FI"}},{"type":"Feature","geometry":{"type":"Point","coordinates":[30.15,62.1]},"properties":{"id":38858,"name":"Kitee","state_code":"13","country_code":"FI"}},{"type":"Feature","geometry":{"type":"Point","coordinates":[29.84711,62.76023]},"properties":{"id":38867,"name":"Kontiolahti","state_code":"13","country_code":"FI"}},{"type":"Feature","geometry":{"type":"Point","coordinates":[30.01667,63.31667]},"properties":{"id":38912,"name":"Lieksa","state_code":"13","country_code":"FI"}},{"type":"Feature","geometry":{"type":"Point","coordinates":[29.36667,62.53333]},"properties":{"id":38916,"name":"Liperi","state_code":"13","country_code":"FI"}},{"type":"Feature","geometry":{"type":"Point","coordinates":[29.13965,63.54205]},"properties":{"id":38957,"name":"Nurmes","state_code":"13","country_code":"FI"}},{"type":"Feature","geometry":{"type":"Point","coordinates":[29.01592,62.72685]},"properties":{"id":38968,"name":"Outokumpu","state_code":"13","country_code":"FI"}},{"type":"Feature","geometry":{"type":"Point","coordinates":[29.36667,62.85]},"properties":{"id":38989,"name":"Polvijärvi","state_code":"13","country_code":"FI"}},{"type":"Feature","geometry":{"type":"Point","coordinates":[29.96667,62.43333]},"properties":{"id":39007,"name":"Pyhäselkä","state_code":"13","country_code":"FI"}},{"type":"Feature","geometry":{"type":"Point","coordinates":[29.61667,62.31667]},"properties":{"id":39033,"name":"Rääkkylä","state_code":"13","country_code":"FI"}},{"type":"Feature","geometry":{"type":"Point","coordinates":[30.38333,62.18333]},"properties":{"id":39077,"name":"Tohmajärvi","state_code":"13","country_code":"FI"}},{"type":"Feature","geometry":{"type":"Point","coordinates":[30.62731,62.48372]},"properties":{"id":39083,"name":"Tuupovaara","state_code":"13","country_code":"FI"}},{"type":"Feature","geometry":{"type":"Point","coordinates":[28.8,63.66667]},"properties":{"id":39097,"name":"Valtimo","state_code":"13","country_code":"FI"}}]}