{"type":"FeatureCollection","features":[{"type":"Feature","geometry":{"type":"Point","coordinates":[177.67407,-17.5343]},"properties":{"id":39133,"name":"Ba","state_code":"W","country_code":"FJ"}},{"type":"Feature","geometry":{"type":"Point","coordinates":[177.66667,-17.66667]},"properties":{"id":39134,"name":"Ba Province","state_code":"W","country_code":"FJ"}},{"type":"Feature","geometry":{"type":"Point","coordinates":[177.45049,-17.61686]},"properties":{"id":39140,"name":"Lautoka","state_code":"W","country_code":"FJ"}},{"type":"Feature","geometry":{"type":"Point","coordinates":[177.41617,-17.80309]},"properties":{"id":39144,"name":"Nadi","state_code":"W","country_code":"FJ"}},{"type":"Feature","geometry":{"type":"Point","coordinates":[177.66667,-18]},"properties":{"id":39147,"name":"Nandronga and Navosa","state_code":"W","country_code":"FJ"}},{"type":"Feature","geometry":{"type":"Point","coordinates":[178.16667,-17.5]},"properties":{"id":39148,"name":"Ra","state_code":"W","country_code":"FJ"}}]}