{"type":"FeatureCollection","features":[{"type":"Feature","geometry":{"type":"Point","coordinates":[163.01917,5.34865]},"properties":{"id":39176,"name":"Lelu","state_code":"KSA","country_code":"FM"}},{"type":"Feature","geometry":{"type":"Point","coordinates":[163.01685,5.27507]},"properties":{"id":39181,"name":"Malem","state_code":"KSA","country_code":"FM"}},{"type":"Feature","geometry":{"type":"Point","coordinates":[162.96965,5.34993]},"properties":{"id":39217,"name":"Tafunsak","state_code":"KSA","country_code":"FM"}},{"type":"Feature","geometry":{"type":"Point","coordinates":[163.00781,5.32479]},"properties":{"id":39219,"name":"Tofol","state_code":"KSA","country_code":"FM"}},{"type":"Feature","geometry":{"type":"Point","coordinates":[162.95617,5.27511]},"properties":{"id":39228,"name":"Utwe","state_code":"KSA","country_code":"FM"}}]}