{"type":"FeatureCollection","features":[{"type":"Feature","geometry":{"type":"Point","coordinates":[-6.789,62.3456]},"properties":{"id":153763,"name":"Hvannasund","state_code":"NO","country_code":"FO"}},{"type":"Feature","geometry":{"type":"Point","coordinates":[-6.58,62.221]},"properties":{"id":153746,"name":"Klaksvík","state_code":"NO","country_code":"FO"}},{"type":"Feature","geometry":{"type":"Point","coordinates":[-6.8901,62.3456]},"properties":{"id":153767,"name":"Kunoy","state_code":"NO","country_code":"FO"}}]}