{"type":"FeatureCollection","features":[{"type":"Feature","geometry":{"type":"Point","coordinates":[-7.2098,62.1456]},"properties":{"id":153760,"name":"Kvívík","state_code":"ST","country_code":"FO"}},{"type":"Feature","geometry":{"type":"Point","coordinates":[-7.0987,62.1345]},"properties":{"id":153750,"name":"Sunda","state_code":"ST","country_code":"FO"}},{"type":"Feature","geometry":{"type":"Point","coordinates":[-7,62]},"properties":{"id":153745,"name":"Tórshavn","state_code":"ST","country_code":"FO"}},{"type":"Feature","geometry":{"type":"Point","coordinates":[-7.2345,62.1567]},"properties":{"id":153755,"name":"Vestmanna","state_code":"ST","country_code":"FO"}}]}