{"type":"FeatureCollection","features":[{"type":"Feature","geometry":{"type":"Point","coordinates":[6.26537,44.09829]},"properties":{"id":39335,"name":"Alpes-de-Haute-Provence","state_code":"04","country_code":"FR"}},{"type":"Feature","geometry":{"type":"Point","coordinates":[6.66879,43.96528]},"properties":{"id":39424,"name":"Annot","state_code":"04","country_code":"FR"}},{"type":"Feature","geometry":{"type":"Point","coordinates":[6.65179,44.38691]},"properties":{"id":39779,"name":"Barcelonnette","state_code":"04","country_code":"FR"}},{"type":"Feature","geometry":{"type":"Point","coordinates":[6.51283,43.84707]},"properties":{"id":40579,"name":"Castellane","state_code":"04","country_code":"FR"}},{"type":"Feature","geometry":{"type":"Point","coordinates":[5.58685,43.8558]},"properties":{"id":41396,"name":"Céreste","state_code":"04","country_code":"FR"}},{"type":"Feature","geometry":{"type":"Point","coordinates":[5.9942,44.0801]},"properties":{"id":161723,"name":"Château-Arnoux-Saint-Auban","state_code":"04","country_code":"FR"}},{"type":"Feature","geometry":{"type":"Point","coordinates":[6.23199,44.09252]},"properties":{"id":41478,"name":"Digne-les-Bains","state_code":"04","country_code":"FR"}},{"type":"Feature","geometry":{"type":"Point","coordinates":[5.77945,43.95927]},"properties":{"id":41910,"name":"Forcalquier","state_code":"04","country_code":"FR"}},{"type":"Feature","geometry":{"type":"Point","coordinates":[5.88351,43.75844]},"properties":{"id":42234,"name":"Gréoux-les-Bains","state_code":"04","country_code":"FR"}},{"type":"Feature","geometry":{"type":"Point","coordinates":[6.72947,44.41705]},"properties":{"id":42542,"name":"Jausiers","state_code":"04","country_code":"FR"}},{"type":"Feature","geometry":{"type":"Point","coordinates":[6.02379,44.08162]},"properties":{"id":43701,"name":"L’Escale","state_code":"04","country_code":"FR"}},{"type":"Feature","geometry":{"type":"Point","coordinates":[6.30925,44.16126]},"properties":{"id":43147,"name":"Le Brusquet","state_code":"04","country_code":"FR"}},{"type":"Feature","geometry":{"type":"Point","coordinates":[5.97635,44.02961]},"properties":{"id":43414,"name":"Les Mées","state_code":"04","country_code":"FR"}},{"type":"Feature","geometry":{"type":"Point","coordinates":[6.03041,44.046]},"properties":{"id":43760,"name":"Malijai","state_code":"04","country_code":"FR"}},{"type":"Feature","geometry":{"type":"Point","coordinates":[6.12557,44.04687]},"properties":{"id":43763,"name":"Mallemoisson","state_code":"04","country_code":"FR"}},{"type":"Feature","geometry":{"type":"Point","coordinates":[5.76718,43.93795]},"properties":{"id":43777,"name":"Mane","state_code":"04","country_code":"FR"}},{"type":"Feature","geometry":{"type":"Point","coordinates":[5.78688,43.82883]},"properties":{"id":43780,"name":"Manosque","state_code":"04","country_code":"FR"}},{"type":"Feature","geometry":{"type":"Point","coordinates":[3.24225,45.75508]},"properties":{"id":44066,"name":"Mezel","state_code":"04","country_code":"FR"}},{"type":"Feature","geometry":{"type":"Point","coordinates":[5.91836,43.91726]},"properties":{"id":44752,"name":"Oraison","state_code":"04","country_code":"FR"}},{"type":"Feature","geometry":{"type":"Point","coordinates":[5.95722,44.13778]},"properties":{"id":44885,"name":"Peipin","state_code":"04","country_code":"FR"}},{"type":"Feature","geometry":{"type":"Point","coordinates":[5.94032,44.0288]},"properties":{"id":44935,"name":"Peyruis","state_code":"04","country_code":"FR"}},{"type":"Feature","geometry":{"type":"Point","coordinates":[5.74958,43.81137]},"properties":{"id":44963,"name":"Pierrevert","state_code":"04","country_code":"FR"}},{"type":"Feature","geometry":{"type":"Point","coordinates":[5.65919,43.87899]},"properties":{"id":45449,"name":"Reillanne","state_code":"04","country_code":"FR"}},{"type":"Feature","geometry":{"type":"Point","coordinates":[6.09268,43.8181]},"properties":{"id":45509,"name":"Riez","state_code":"04","country_code":"FR"}},{"type":"Feature","geometry":{"type":"Point","coordinates":[5.71584,43.90977]},"properties":{"id":46339,"name":"Saint-Michel-l’Observatoire","state_code":"04","country_code":"FR"}},{"type":"Feature","geometry":{"type":"Point","coordinates":[5.40682,43.29282]},"properties":{"id":46428,"name":"Saint-Pierre","state_code":"04","country_code":"FR"}},{"type":"Feature","geometry":{"type":"Point","coordinates":[5.76513,43.78619]},"properties":{"id":46732,"name":"Sainte-Tulle","state_code":"04","country_code":"FR"}},{"type":"Feature","geometry":{"type":"Point","coordinates":[-0.37964,45.01607]},"properties":{"id":46750,"name":"Salignac","state_code":"04","country_code":"FR"}},{"type":"Feature","geometry":{"type":"Point","coordinates":[6.35634,44.35042]},"properties":{"id":46982,"name":"Seyne-les-Alpes","state_code":"04","country_code":"FR"}},{"type":"Feature","geometry":{"type":"Point","coordinates":[5.94643,44.19002]},"properties":{"id":47009,"name":"Sisteron","state_code":"04","country_code":"FR"}},{"type":"Feature","geometry":{"type":"Point","coordinates":[5.98392,43.83766]},"properties":{"id":47476,"name":"Valensole","state_code":"04","country_code":"FR"}},{"type":"Feature","geometry":{"type":"Point","coordinates":[6.01424,44.11039]},"properties":{"id":47897,"name":"Volonne","state_code":"04","country_code":"FR"}},{"type":"Feature","geometry":{"type":"Point","coordinates":[5.84148,43.87787]},"properties":{"id":47900,"name":"Volx","state_code":"04","country_code":"FR"}}]}