{"type":"FeatureCollection","features":[{"type":"Feature","geometry":{"type":"Point","coordinates":[1.4755,45.2584]},"properties":{"id":39321,"name":"Allassac","state_code":"19","country_code":"FR"}},{"type":"Feature","geometry":{"type":"Point","coordinates":[1.93778,45.09325]},"properties":{"id":39480,"name":"Argentat","state_code":"19","country_code":"FR"}},{"type":"Feature","geometry":{"type":"Point","coordinates":[1.9319,45.1166]},"properties":{"id":161666,"name":"Argentat-sur-Dordogne","state_code":"19","country_code":"FR"}},{"type":"Feature","geometry":{"type":"Point","coordinates":[1.36993,45.40975]},"properties":{"id":39497,"name":"Arnac-Pompadour","state_code":"19","country_code":"FR"}},{"type":"Feature","geometry":{"type":"Point","coordinates":[1.83834,44.97832]},"properties":{"id":39853,"name":"Beaulieu-sur-Dordogne","state_code":"19","country_code":"FR"}},{"type":"Feature","geometry":{"type":"Point","coordinates":[0.42961,46.73773]},"properties":{"id":39859,"name":"Beaumont","state_code":"19","country_code":"FR"}},{"type":"Feature","geometry":{"type":"Point","coordinates":[1.72323,45.12444]},"properties":{"id":39998,"name":"Beynat","state_code":"19","country_code":"FR"}},{"type":"Feature","geometry":{"type":"Point","coordinates":[2.49579,45.3998]},"properties":{"id":40143,"name":"Bort-les-Orgues","state_code":"19","country_code":"FR"}},{"type":"Feature","geometry":{"type":"Point","coordinates":[1.53326,45.1589]},"properties":{"id":40327,"name":"Brive-la-Gaillarde","state_code":"19","country_code":"FR"}},{"type":"Feature","geometry":{"type":"Point","coordinates":[1.92727,45.59809]},"properties":{"id":40376,"name":"Bugeat","state_code":"19","country_code":"FR"}},{"type":"Feature","geometry":{"type":"Point","coordinates":[1.7198,45.58345]},"properties":{"id":40705,"name":"Chamberet","state_code":"19","country_code":"FR"}},{"type":"Feature","geometry":{"type":"Point","coordinates":[1.70441,45.43215]},"properties":{"id":40708,"name":"Chamboulive","state_code":"19","country_code":"FR"}},{"type":"Feature","geometry":{"type":"Point","coordinates":[1.69811,45.23407]},"properties":{"id":40715,"name":"Chameyrat","state_code":"19","country_code":"FR"}},{"type":"Feature","geometry":{"type":"Point","coordinates":[1.69173,45.21062]},"properties":{"id":41193,"name":"Cornil","state_code":"19","country_code":"FR"}},{"type":"Feature","geometry":{"type":"Point","coordinates":[1.87513,45.37244]},"properties":{"id":41202,"name":"Corrèze","state_code":"19","country_code":"FR"}},{"type":"Feature","geometry":{"type":"Point","coordinates":[1.58544,45.13423]},"properties":{"id":41207,"name":"Cosnac","state_code":"19","country_code":"FR"}},{"type":"Feature","geometry":{"type":"Point","coordinates":[1.30609,45.14488]},"properties":{"id":41354,"name":"Cublac","state_code":"19","country_code":"FR"}},{"type":"Feature","geometry":{"type":"Point","coordinates":[1.87319,45.34754]},"properties":{"id":41624,"name":"Département de la Corrèze","state_code":"19","country_code":"FR"}},{"type":"Feature","geometry":{"type":"Point","coordinates":[1.524,45.22731]},"properties":{"id":41535,"name":"Donzenac","state_code":"19","country_code":"FR"}},{"type":"Feature","geometry":{"type":"Point","coordinates":[2.04518,45.40637]},"properties":{"id":48057,"name":"Égletons","state_code":"19","country_code":"FR"}},{"type":"Feature","geometry":{"type":"Point","coordinates":[1.32257,45.31808]},"properties":{"id":42585,"name":"Juillac","state_code":"19","country_code":"FR"}},{"type":"Feature","geometry":{"type":"Point","coordinates":[1.78135,45.24218]},"properties":{"id":42964,"name":"Laguenne","state_code":"19","country_code":"FR"}},{"type":"Feature","geometry":{"type":"Point","coordinates":[1.41566,45.12048]},"properties":{"id":43068,"name":"Larche","state_code":"19","country_code":"FR"}},{"type":"Feature","geometry":{"type":"Point","coordinates":[1.40457,45.44474]},"properties":{"id":43628,"name":"Lubersac","state_code":"19","country_code":"FR"}},{"type":"Feature","geometry":{"type":"Point","coordinates":[1.5936,45.1797]},"properties":{"id":161877,"name":"Malemort","state_code":"19","country_code":"FR"}},{"type":"Feature","geometry":{"type":"Point","coordinates":[1.56393,45.17075]},"properties":{"id":43755,"name":"Malemort-sur-Corrèze","state_code":"19","country_code":"FR"}},{"type":"Feature","geometry":{"type":"Point","coordinates":[1.38342,45.16839]},"properties":{"id":43781,"name":"Mansac","state_code":"19","country_code":"FR"}},{"type":"Feature","geometry":{"type":"Point","coordinates":[2.14699,45.53583]},"properties":{"id":44057,"name":"Meymac","state_code":"19","country_code":"FR"}},{"type":"Feature","geometry":{"type":"Point","coordinates":[1.67412,45.05547]},"properties":{"id":44062,"name":"Meyssac","state_code":"19","country_code":"FR"}},{"type":"Feature","geometry":{"type":"Point","coordinates":[1.76708,45.31395]},"properties":{"id":44524,"name":"Naves","state_code":"19","country_code":"FR"}},{"type":"Feature","geometry":{"type":"Point","coordinates":[1.40826,45.26302]},"properties":{"id":44711,"name":"Objat","state_code":"19","country_code":"FR"}},{"type":"Feature","geometry":{"type":"Point","coordinates":[1.65799,45.28514]},"properties":{"id":46332,"name":"Saint-Mexant","state_code":"19","country_code":"FR"}},{"type":"Feature","geometry":{"type":"Point","coordinates":[1.44652,45.14122]},"properties":{"id":46391,"name":"Saint-Pantaléon-de-Larche","state_code":"19","country_code":"FR"}},{"type":"Feature","geometry":{"type":"Point","coordinates":[2.09902,45.13831]},"properties":{"id":46468,"name":"Saint-Privat","state_code":"19","country_code":"FR"}},{"type":"Feature","geometry":{"type":"Point","coordinates":[1.45263,45.2176]},"properties":{"id":46605,"name":"Saint-Viance","state_code":"19","country_code":"FR"}},{"type":"Feature","geometry":{"type":"Point","coordinates":[1.58248,45.22932]},"properties":{"id":46687,"name":"Sainte-Féréole","state_code":"19","country_code":"FR"}},{"type":"Feature","geometry":{"type":"Point","coordinates":[1.77117,45.20691]},"properties":{"id":46681,"name":"Sainte-Fortunade","state_code":"19","country_code":"FR"}},{"type":"Feature","geometry":{"type":"Point","coordinates":[1.7135,45.36709]},"properties":{"id":46922,"name":"Seilhac","state_code":"19","country_code":"FR"}},{"type":"Feature","geometry":{"type":"Point","coordinates":[1.7952,45.53696]},"properties":{"id":47354,"name":"Treignac","state_code":"19","country_code":"FR"}},{"type":"Feature","geometry":{"type":"Point","coordinates":[1.77233,45.26582]},"properties":{"id":47413,"name":"Tulle","state_code":"19","country_code":"FR"}},{"type":"Feature","geometry":{"type":"Point","coordinates":[1.51337,45.19389]},"properties":{"id":47438,"name":"Ussac","state_code":"19","country_code":"FR"}},{"type":"Feature","geometry":{"type":"Point","coordinates":[2.30917,45.54804]},"properties":{"id":47439,"name":"Ussel","state_code":"19","country_code":"FR"}},{"type":"Feature","geometry":{"type":"Point","coordinates":[1.56341,45.42462]},"properties":{"id":47447,"name":"Uzerche","state_code":"19","country_code":"FR"}},{"type":"Feature","geometry":{"type":"Point","coordinates":[1.45063,45.19392]},"properties":{"id":47517,"name":"Varetz","state_code":"19","country_code":"FR"}},{"type":"Feature","geometry":{"type":"Point","coordinates":[1.51731,45.37934]},"properties":{"id":47693,"name":"Vigeois","state_code":"19","country_code":"FR"}},{"type":"Feature","geometry":{"type":"Point","coordinates":[1.43721,45.29214]},"properties":{"id":47914,"name":"Voutezac","state_code":"19","country_code":"FR"}}]}