{"type":"FeatureCollection","features":[{"type":"Feature","geometry":{"type":"Point","coordinates":[-2.1383,48.5627]},"properties":{"id":161684,"name":"Beaussais-sur-Mer","state_code":"22","country_code":"FR"}},{"type":"Feature","geometry":{"type":"Point","coordinates":[-3.30067,48.62754]},"properties":{"id":40418,"name":"Bégard","state_code":"22","country_code":"FR"}},{"type":"Feature","geometry":{"type":"Point","coordinates":[-3.395,48.54478]},"properties":{"id":39910,"name":"Belle-Isle-en-Terre","state_code":"22","country_code":"FR"}},{"type":"Feature","geometry":{"type":"Point","coordinates":[-2.82602,48.60074]},"properties":{"id":40026,"name":"Binic","state_code":"22","country_code":"FR"}},{"type":"Feature","geometry":{"type":"Point","coordinates":[-2.8372,48.6167]},"properties":{"id":161691,"name":"Binic-Étables-sur-Mer","state_code":"22","country_code":"FR"}},{"type":"Feature","geometry":{"type":"Point","coordinates":[-3.18758,48.47384]},"properties":{"id":40182,"name":"Bourbriac","state_code":"22","country_code":"FR"}},{"type":"Feature","geometry":{"type":"Point","coordinates":[-2.57412,48.40333]},"properties":{"id":40359,"name":"Bréhand","state_code":"22","country_code":"FR"}},{"type":"Feature","geometry":{"type":"Point","coordinates":[-2.25952,48.31748]},"properties":{"id":40333,"name":"Broons","state_code":"22","country_code":"FR"}},{"type":"Feature","geometry":{"type":"Point","coordinates":[-3.428,48.40292]},"properties":{"id":40471,"name":"Callac","state_code":"22","country_code":"FR"}},{"type":"Feature","geometry":{"type":"Point","coordinates":[-2.15518,48.28804]},"properties":{"id":40606,"name":"Caulnes","state_code":"22","country_code":"FR"}},{"type":"Feature","geometry":{"type":"Point","coordinates":[-3.34606,48.67242]},"properties":{"id":40619,"name":"Cavan","state_code":"22","country_code":"FR"}},{"type":"Feature","geometry":{"type":"Point","coordinates":[-2.9872,48.5311]},"properties":{"id":161727,"name":"Châtelaudren-Plouagat","state_code":"22","country_code":"FR"}},{"type":"Feature","geometry":{"type":"Point","coordinates":[-2.60067,48.49117]},"properties":{"id":41292,"name":"Coëtmieux","state_code":"22","country_code":"FR"}},{"type":"Feature","geometry":{"type":"Point","coordinates":[-3.05733,48.31725]},"properties":{"id":41177,"name":"Corlay","state_code":"22","country_code":"FR"}},{"type":"Feature","geometry":{"type":"Point","coordinates":[-2.16947,48.4818]},"properties":{"id":41204,"name":"Corseul","state_code":"22","country_code":"FR"}},{"type":"Feature","geometry":{"type":"Point","coordinates":[-2.21307,48.54546]},"properties":{"id":41346,"name":"Créhen","state_code":"22","country_code":"FR"}},{"type":"Feature","geometry":{"type":"Point","coordinates":[-2.78216,48.34295]},"properties":{"id":41635,"name":"Département des Côtes-d’Armor","state_code":"22","country_code":"FR"}},{"type":"Feature","geometry":{"type":"Point","coordinates":[-2.05019,48.45551]},"properties":{"id":41482,"name":"Dinan","state_code":"22","country_code":"FR"}},{"type":"Feature","geometry":{"type":"Point","coordinates":[-2.4628,48.63186]},"properties":{"id":41700,"name":"Erquy","state_code":"22","country_code":"FR"}},{"type":"Feature","geometry":{"type":"Point","coordinates":[-2.83333,48.63333]},"properties":{"id":48090,"name":"Étables-sur-Mer","state_code":"22","country_code":"FR"}},{"type":"Feature","geometry":{"type":"Point","coordinates":[-1.98076,48.37987]},"properties":{"id":48121,"name":"Évran","state_code":"22","country_code":"FR"}},{"type":"Feature","geometry":{"type":"Point","coordinates":[-2.36667,48.63333]},"properties":{"id":41983,"name":"Fréhel","state_code":"22","country_code":"FR"}},{"type":"Feature","geometry":{"type":"Point","coordinates":[-3.39696,48.223]},"properties":{"id":42114,"name":"Glomel","state_code":"22","country_code":"FR"}},{"type":"Feature","geometry":{"type":"Point","coordinates":[-3.17994,48.22725]},"properties":{"id":42143,"name":"Gouarec","state_code":"22","country_code":"FR"}},{"type":"Feature","geometry":{"type":"Point","coordinates":[-3.01842,48.60375]},"properties":{"id":42145,"name":"Goudelin","state_code":"22","country_code":"FR"}},{"type":"Feature","geometry":{"type":"Point","coordinates":[-3.18533,48.55651]},"properties":{"id":42232,"name":"Grâces","state_code":"22","country_code":"FR"}},{"type":"Feature","geometry":{"type":"Point","coordinates":[-2.9481,48.1955]},"properties":{"id":161779,"name":"Guerlédan","state_code":"22","country_code":"FR"}},{"type":"Feature","geometry":{"type":"Point","coordinates":[-3.15096,48.56251]},"properties":{"id":42264,"name":"Guingamp","state_code":"22","country_code":"FR"}},{"type":"Feature","geometry":{"type":"Point","coordinates":[-2.37602,48.56072]},"properties":{"id":42452,"name":"Hénanbihen","state_code":"22","country_code":"FR"}},{"type":"Feature","geometry":{"type":"Point","coordinates":[-2.68334,48.38433]},"properties":{"id":42454,"name":"Hénon","state_code":"22","country_code":"FR"}},{"type":"Feature","geometry":{"type":"Point","coordinates":[-2.66634,48.51429]},"properties":{"id":42395,"name":"Hillion","state_code":"22","country_code":"FR"}},{"type":"Feature","geometry":{"type":"Point","coordinates":[-2.33333,48.41667]},"properties":{"id":42581,"name":"Jugon-les-Lacs","state_code":"22","country_code":"FR"}},{"type":"Feature","geometry":{"type":"Point","coordinates":[-2.8385,48.49933]},"properties":{"id":42821,"name":"La Méaugon","state_code":"22","country_code":"FR"}},{"type":"Feature","geometry":{"type":"Point","coordinates":[-3.26142,48.74627]},"properties":{"id":42852,"name":"La Roche-Derrien","state_code":"22","country_code":"FR"}},{"type":"Feature","geometry":{"type":"Point","coordinates":[-3.23,48.7304]},"properties":{"id":161825,"name":"La Roche-Jaudy","state_code":"22","country_code":"FR"}},{"type":"Feature","geometry":{"type":"Point","coordinates":[-2.51436,48.46762]},"properties":{"id":42985,"name":"Lamballe","state_code":"22","country_code":"FR"}},{"type":"Feature","geometry":{"type":"Point","coordinates":[-2.5201,48.4859]},"properties":{"id":161831,"name":"Lamballe-Armor","state_code":"22","country_code":"FR"}},{"type":"Feature","geometry":{"type":"Point","coordinates":[-2.1503,48.60767]},"properties":{"id":42997,"name":"Lancieux","state_code":"22","country_code":"FR"}},{"type":"Feature","geometry":{"type":"Point","coordinates":[-2.53999,48.43022]},"properties":{"id":43017,"name":"Landéhen","state_code":"22","country_code":"FR"}},{"type":"Feature","geometry":{"type":"Point","coordinates":[-3.28121,48.75061]},"properties":{"id":43024,"name":"Langoat","state_code":"22","country_code":"FR"}},{"type":"Feature","geometry":{"type":"Point","coordinates":[-2.7185,48.495]},"properties":{"id":43032,"name":"Langueux","state_code":"22","country_code":"FR"}},{"type":"Feature","geometry":{"type":"Point","coordinates":[-3.45542,48.73255]},"properties":{"id":43037,"name":"Lannion","state_code":"22","country_code":"FR"}},{"type":"Feature","geometry":{"type":"Point","coordinates":[-3.03122,48.51622]},"properties":{"id":43044,"name":"Lanrodec","state_code":"22","country_code":"FR"}},{"type":"Feature","geometry":{"type":"Point","coordinates":[-2.882,48.60641]},"properties":{"id":43048,"name":"Lantic","state_code":"22","country_code":"FR"}},{"type":"Feature","geometry":{"type":"Point","coordinates":[-2.02803,48.45543]},"properties":{"id":43052,"name":"Lanvallay","state_code":"22","country_code":"FR"}},{"type":"Feature","geometry":{"type":"Point","coordinates":[-2.98641,48.63117]},"properties":{"id":43053,"name":"Lanvollon","state_code":"22","country_code":"FR"}},{"type":"Feature","geometry":{"type":"Point","coordinates":[-2.91667,48.43333]},"properties":{"id":43192,"name":"Le Fœil","state_code":"22","country_code":"FR"}},{"type":"Feature","geometry":{"type":"Point","coordinates":[-2.5144,48.2837]},"properties":{"id":161842,"name":"Le Mené","state_code":"22","country_code":"FR"}},{"type":"Feature","geometry":{"type":"Point","coordinates":[-3.45,48.6]},"properties":{"id":43333,"name":"Le Vieux-Marché","state_code":"22","country_code":"FR"}},{"type":"Feature","geometry":{"type":"Point","coordinates":[-2.04578,48.44432]},"properties":{"id":43686,"name":"Léhon","state_code":"22","country_code":"FR"}},{"type":"Feature","geometry":{"type":"Point","coordinates":[-1.97087,48.41647]},"properties":{"id":43375,"name":"Les Champs-Géraux","state_code":"22","country_code":"FR"}},{"type":"Feature","geometry":{"type":"Point","coordinates":[-3.10588,48.7851]},"properties":{"id":43696,"name":"Lézardrieux","state_code":"22","country_code":"FR"}},{"type":"Feature","geometry":{"type":"Point","coordinates":[-3.56275,48.72474]},"properties":{"id":43534,"name":"Locquémeau","state_code":"22","country_code":"FR"}},{"type":"Feature","geometry":{"type":"Point","coordinates":[-3.412,48.79423]},"properties":{"id":43598,"name":"Louannec","state_code":"22","country_code":"FR"}},{"type":"Feature","geometry":{"type":"Point","coordinates":[-3.3375,48.56576]},"properties":{"id":43599,"name":"Louargat","state_code":"22","country_code":"FR"}},{"type":"Feature","geometry":{"type":"Point","coordinates":[-2.75433,48.17826]},"properties":{"id":43602,"name":"Loudéac","state_code":"22","country_code":"FR"}},{"type":"Feature","geometry":{"type":"Point","coordinates":[-3.42322,48.28444]},"properties":{"id":43981,"name":"Maël-Carhaix","state_code":"22","country_code":"FR"}},{"type":"Feature","geometry":{"type":"Point","coordinates":[-2.29125,48.59627]},"properties":{"id":43940,"name":"Matignon","state_code":"22","country_code":"FR"}},{"type":"Feature","geometry":{"type":"Point","coordinates":[-2.41533,48.19372]},"properties":{"id":44015,"name":"Merdrignac","state_code":"22","country_code":"FR"}},{"type":"Feature","geometry":{"type":"Point","coordinates":[-3.22883,48.77746]},"properties":{"id":44082,"name":"Minihy-Tréguier","state_code":"22","country_code":"FR"}},{"type":"Feature","geometry":{"type":"Point","coordinates":[-2.98333,48.2]},"properties":{"id":44493,"name":"Mûr-de-Bretagne","state_code":"22","country_code":"FR"}},{"type":"Feature","geometry":{"type":"Point","coordinates":[-3.13608,48.58608]},"properties":{"id":44823,"name":"Pabu","state_code":"22","country_code":"FR"}},{"type":"Feature","geometry":{"type":"Point","coordinates":[-3.04375,48.77841]},"properties":{"id":44829,"name":"Paimpol","state_code":"22","country_code":"FR"}},{"type":"Feature","geometry":{"type":"Point","coordinates":[-3.26948,48.59682]},"properties":{"id":45344,"name":"Pédernec","state_code":"22","country_code":"FR"}},{"type":"Feature","geometry":{"type":"Point","coordinates":[-3.2955,48.81182]},"properties":{"id":44894,"name":"Penvénan","state_code":"22","country_code":"FR"}},{"type":"Feature","geometry":{"type":"Point","coordinates":[-3.43963,48.81454]},"properties":{"id":44906,"name":"Perros-Guirec","state_code":"22","country_code":"FR"}},{"type":"Feature","geometry":{"type":"Point","coordinates":[-2.85416,48.44442]},"properties":{"id":44990,"name":"Plaine-Haute","state_code":"22","country_code":"FR"}},{"type":"Feature","geometry":{"type":"Point","coordinates":[-2.81733,48.40733]},"properties":{"id":44992,"name":"Plaintel","state_code":"22","country_code":"FR"}},{"type":"Feature","geometry":{"type":"Point","coordinates":[-2.2354,48.52199]},"properties":{"id":45000,"name":"Plancoët","state_code":"22","country_code":"FR"}},{"type":"Feature","geometry":{"type":"Point","coordinates":[-2.57642,48.533]},"properties":{"id":45001,"name":"Planguenoual","state_code":"22","country_code":"FR"}},{"type":"Feature","geometry":{"type":"Point","coordinates":[-2.38333,48.45]},"properties":{"id":45118,"name":"Plédéliac","state_code":"22","country_code":"FR"}},{"type":"Feature","geometry":{"type":"Point","coordinates":[-2.74667,48.446]},"properties":{"id":45117,"name":"Plédran","state_code":"22","country_code":"FR"}},{"type":"Feature","geometry":{"type":"Point","coordinates":[-2.94001,48.63525]},"properties":{"id":45119,"name":"Pléguien","state_code":"22","country_code":"FR"}},{"type":"Feature","geometry":{"type":"Point","coordinates":[-3.00833,48.69645]},"properties":{"id":45120,"name":"Pléhédel","state_code":"22","country_code":"FR"}},{"type":"Feature","geometry":{"type":"Point","coordinates":[-2.2174,48.43157]},"properties":{"id":45122,"name":"Plélan-le-Petit","state_code":"22","country_code":"FR"}},{"type":"Feature","geometry":{"type":"Point","coordinates":[-2.94634,48.55534]},"properties":{"id":45123,"name":"Plélo","state_code":"22","country_code":"FR"}},{"type":"Feature","geometry":{"type":"Point","coordinates":[-2.59325,48.17601]},"properties":{"id":45124,"name":"Plémet","state_code":"22","country_code":"FR"}},{"type":"Feature","geometry":{"type":"Point","coordinates":[-2.68244,48.33644]},"properties":{"id":45125,"name":"Plémy","state_code":"22","country_code":"FR"}},{"type":"Feature","geometry":{"type":"Point","coordinates":[-2.40036,48.36462]},"properties":{"id":45127,"name":"Plénée-Jugon","state_code":"22","country_code":"FR"}},{"type":"Feature","geometry":{"type":"Point","coordinates":[-2.54675,48.593]},"properties":{"id":45126,"name":"Pléneuf-Val-André","state_code":"22","country_code":"FR"}},{"type":"Feature","geometry":{"type":"Point","coordinates":[-2.77983,48.54249]},"properties":{"id":45128,"name":"Plérin","state_code":"22","country_code":"FR"}},{"type":"Feature","geometry":{"type":"Point","coordinates":[-2.06667,48.53333]},"properties":{"id":45009,"name":"Pleslin-Trigavou","state_code":"22","country_code":"FR"}},{"type":"Feature","geometry":{"type":"Point","coordinates":[-2.61876,48.27642]},"properties":{"id":45010,"name":"Plessala","state_code":"22","country_code":"FR"}},{"type":"Feature","geometry":{"type":"Point","coordinates":[-2.44777,48.42266]},"properties":{"id":45012,"name":"Plestan","state_code":"22","country_code":"FR"}},{"type":"Feature","geometry":{"type":"Point","coordinates":[-3.63056,48.65844]},"properties":{"id":45013,"name":"Plestin-les-Grèves","state_code":"22","country_code":"FR"}},{"type":"Feature","geometry":{"type":"Point","coordinates":[-3.139,48.84267]},"properties":{"id":45014,"name":"Pleubian","state_code":"22","country_code":"FR"}},{"type":"Feature","geometry":{"type":"Point","coordinates":[-3.14033,48.76644]},"properties":{"id":45016,"name":"Pleudaniel","state_code":"22","country_code":"FR"}},{"type":"Feature","geometry":{"type":"Point","coordinates":[-1.96667,48.51667]},"properties":{"id":45017,"name":"Pleudihen-sur-Rance","state_code":"22","country_code":"FR"}},{"type":"Feature","geometry":{"type":"Point","coordinates":[-3.51667,48.76667]},"properties":{"id":45022,"name":"Pleumeur-Bodou","state_code":"22","country_code":"FR"}},{"type":"Feature","geometry":{"type":"Point","coordinates":[-3.15578,48.80044]},"properties":{"id":45023,"name":"Pleumeur-Gautier","state_code":"22","country_code":"FR"}},{"type":"Feature","geometry":{"type":"Point","coordinates":[-2.8172,48.3353]},"properties":{"id":161941,"name":"Plœuc-L'Hermitage","state_code":"22","country_code":"FR"}},{"type":"Feature","geometry":{"type":"Point","coordinates":[-2.75,48.35]},"properties":{"id":45129,"name":"Plœuc-sur-Lié","state_code":"22","country_code":"FR"}},{"type":"Feature","geometry":{"type":"Point","coordinates":[-3.20333,48.71534]},"properties":{"id":45102,"name":"Ploëzal","state_code":"22","country_code":"FR"}},{"type":"Feature","geometry":{"type":"Point","coordinates":[-2.99956,48.53611]},"properties":{"id":45045,"name":"Plouagat","state_code":"22","country_code":"FR"}},{"type":"Feature","geometry":{"type":"Point","coordinates":[-3.46667,48.61667]},"properties":{"id":45046,"name":"Plouaret","state_code":"22","country_code":"FR"}},{"type":"Feature","geometry":{"type":"Point","coordinates":[-2.00698,48.30081]},"properties":{"id":45048,"name":"Plouasne","state_code":"22","country_code":"FR"}},{"type":"Feature","geometry":{"type":"Point","coordinates":[-2.14069,48.58109]},"properties":{"id":45050,"name":"Ploubalay","state_code":"22","country_code":"FR"}},{"type":"Feature","geometry":{"type":"Point","coordinates":[-3.03333,48.8]},"properties":{"id":45051,"name":"Ploubazlanec","state_code":"22","country_code":"FR"}},{"type":"Feature","geometry":{"type":"Point","coordinates":[-3.45,48.7]},"properties":{"id":45052,"name":"Ploubezre","state_code":"22","country_code":"FR"}},{"type":"Feature","geometry":{"type":"Point","coordinates":[-3.2,48.68333]},"properties":{"id":45097,"name":"Plouëc-du-Trieux","state_code":"22","country_code":"FR"}},{"type":"Feature","geometry":{"type":"Point","coordinates":[-2.00298,48.52669]},"properties":{"id":45098,"name":"Plouër-sur-Rance","state_code":"22","country_code":"FR"}},{"type":"Feature","geometry":{"type":"Point","coordinates":[-2.98467,48.75122]},"properties":{"id":45096,"name":"Plouézec","state_code":"22","country_code":"FR"}},{"type":"Feature","geometry":{"type":"Point","coordinates":[-2.79458,48.49141]},"properties":{"id":45057,"name":"Ploufragan","state_code":"22","country_code":"FR"}},{"type":"Feature","geometry":{"type":"Point","coordinates":[-3.22886,48.84026]},"properties":{"id":45065,"name":"Plougrescant","state_code":"22","country_code":"FR"}},{"type":"Feature","geometry":{"type":"Point","coordinates":[-2.70443,48.28208]},"properties":{"id":45066,"name":"Plouguenast","state_code":"22","country_code":"FR"}},{"type":"Feature","geometry":{"type":"Point","coordinates":[-2.6933,48.2802]},"properties":{"id":161938,"name":"Plouguenast-Langast","state_code":"22","country_code":"FR"}},{"type":"Feature","geometry":{"type":"Point","coordinates":[-3.25071,48.2394]},"properties":{"id":45068,"name":"Plouguernével","state_code":"22","country_code":"FR"}},{"type":"Feature","geometry":{"type":"Point","coordinates":[-3.23883,48.79742]},"properties":{"id":45069,"name":"Plouguiel","state_code":"22","country_code":"FR"}},{"type":"Feature","geometry":{"type":"Point","coordinates":[-2.92842,48.6765]},"properties":{"id":45071,"name":"Plouha","state_code":"22","country_code":"FR"}},{"type":"Feature","geometry":{"type":"Point","coordinates":[-3.18434,48.57817]},"properties":{"id":45076,"name":"Plouisy","state_code":"22","country_code":"FR"}},{"type":"Feature","geometry":{"type":"Point","coordinates":[-3.13233,48.54509]},"properties":{"id":45077,"name":"Ploumagoar","state_code":"22","country_code":"FR"}},{"type":"Feature","geometry":{"type":"Point","coordinates":[-3.51667,48.68333]},"properties":{"id":45078,"name":"Ploumilliau","state_code":"22","country_code":"FR"}},{"type":"Feature","geometry":{"type":"Point","coordinates":[-3.45,48.56667]},"properties":{"id":45084,"name":"Plounévez-Moëdec","state_code":"22","country_code":"FR"}},{"type":"Feature","geometry":{"type":"Point","coordinates":[-3.23333,48.28333]},"properties":{"id":45085,"name":"Plounévez-Quintin","state_code":"22","country_code":"FR"}},{"type":"Feature","geometry":{"type":"Point","coordinates":[-2.8839,48.6303]},"properties":{"id":161939,"name":"Plourhan","state_code":"22","country_code":"FR"}},{"type":"Feature","geometry":{"type":"Point","coordinates":[-3.07075,48.7455]},"properties":{"id":45089,"name":"Plourivo","state_code":"22","country_code":"FR"}},{"type":"Feature","geometry":{"type":"Point","coordinates":[-2.26848,48.5311]},"properties":{"id":45103,"name":"Pluduno","state_code":"22","country_code":"FR"}},{"type":"Feature","geometry":{"type":"Point","coordinates":[-2.23843,48.25479]},"properties":{"id":45106,"name":"Plumaugat","state_code":"22","country_code":"FR"}},{"type":"Feature","geometry":{"type":"Point","coordinates":[-2.58382,48.10303]},"properties":{"id":45110,"name":"Plumieux","state_code":"22","country_code":"FR"}},{"type":"Feature","geometry":{"type":"Point","coordinates":[-2.40423,48.62559]},"properties":{"id":45113,"name":"Plurien","state_code":"22","country_code":"FR"}},{"type":"Feature","geometry":{"type":"Point","coordinates":[-3.37113,48.64076]},"properties":{"id":45115,"name":"Pluzunet","state_code":"22","country_code":"FR"}},{"type":"Feature","geometry":{"type":"Point","coordinates":[-2.62689,48.46378]},"properties":{"id":45148,"name":"Pommeret","state_code":"22","country_code":"FR"}},{"type":"Feature","geometry":{"type":"Point","coordinates":[-3.24208,48.73058]},"properties":{"id":45149,"name":"Pommerit-Jaudy","state_code":"22","country_code":"FR"}},{"type":"Feature","geometry":{"type":"Point","coordinates":[-3.09,48.61989]},"properties":{"id":45150,"name":"Pommerit-le-Vicomte","state_code":"22","country_code":"FR"}},{"type":"Feature","geometry":{"type":"Point","coordinates":[-3.15967,48.70111]},"properties":{"id":45217,"name":"Pontrieux","state_code":"22","country_code":"FR"}},{"type":"Feature","geometry":{"type":"Point","coordinates":[-2.81783,48.57051]},"properties":{"id":45222,"name":"Pordic","state_code":"22","country_code":"FR"}},{"type":"Feature","geometry":{"type":"Point","coordinates":[-3.29707,48.67677]},"properties":{"id":45277,"name":"Prat","state_code":"22","country_code":"FR"}},{"type":"Feature","geometry":{"type":"Point","coordinates":[-3.10522,48.70378]},"properties":{"id":45373,"name":"Quemper-Guézennec","state_code":"22","country_code":"FR"}},{"type":"Feature","geometry":{"type":"Point","coordinates":[-2.66089,48.42208]},"properties":{"id":45378,"name":"Quessoy","state_code":"22","country_code":"FR"}},{"type":"Feature","geometry":{"type":"Point","coordinates":[-2.08745,48.46402]},"properties":{"id":45410,"name":"Quévert","state_code":"22","country_code":"FR"}},{"type":"Feature","geometry":{"type":"Point","coordinates":[-2.9105,48.40342]},"properties":{"id":45401,"name":"Quintin","state_code":"22","country_code":"FR"}},{"type":"Feature","geometry":{"type":"Point","coordinates":[-3.38364,48.7294]},"properties":{"id":45608,"name":"Rospez","state_code":"22","country_code":"FR"}},{"type":"Feature","geometry":{"type":"Point","coordinates":[-3.31442,48.23696]},"properties":{"id":45611,"name":"Rostrenen","state_code":"22","country_code":"FR"}},{"type":"Feature","geometry":{"type":"Point","coordinates":[-3.10525,48.55867]},"properties":{"id":45728,"name":"Saint-Agathon","state_code":"22","country_code":"FR"}},{"type":"Feature","geometry":{"type":"Point","coordinates":[5.41667,43.3]},"properties":{"id":45802,"name":"Saint-Barnabé","state_code":"22","country_code":"FR"}},{"type":"Feature","geometry":{"type":"Point","coordinates":[-2.86875,48.39008]},"properties":{"id":45822,"name":"Saint-Brandan","state_code":"22","country_code":"FR"}},{"type":"Feature","geometry":{"type":"Point","coordinates":[-2.76838,48.51513]},"properties":{"id":45830,"name":"Saint-Brieuc","state_code":"22","country_code":"FR"}},{"type":"Feature","geometry":{"type":"Point","coordinates":[-2.84386,48.19429]},"properties":{"id":45839,"name":"Saint-Caradec","state_code":"22","country_code":"FR"}},{"type":"Feature","geometry":{"type":"Point","coordinates":[-2.73056,48.39889]},"properties":{"id":45840,"name":"Saint-Carreuc","state_code":"22","country_code":"FR"}},{"type":"Feature","geometry":{"type":"Point","coordinates":[-2.25777,48.63028]},"properties":{"id":45842,"name":"Saint-Cast-le-Guildo","state_code":"22","country_code":"FR"}},{"type":"Feature","geometry":{"type":"Point","coordinates":[-2.88442,48.46958]},"properties":{"id":45916,"name":"Saint-Donan","state_code":"22","country_code":"FR"}},{"type":"Feature","geometry":{"type":"Point","coordinates":[-1.95894,48.47002]},"properties":{"id":46073,"name":"Saint-Hélen","state_code":"22","country_code":"FR"}},{"type":"Feature","geometry":{"type":"Point","coordinates":[-3.16465,48.31222]},"properties":{"id":46368,"name":"Saint-Nicolas-du-Pélem","state_code":"22","country_code":"FR"}},{"type":"Feature","geometry":{"type":"Point","coordinates":[-3.45,48.78333]},"properties":{"id":46483,"name":"Saint-Quay-Perros","state_code":"22","country_code":"FR"}},{"type":"Feature","geometry":{"type":"Point","coordinates":[-2.83059,48.64992]},"properties":{"id":46484,"name":"Saint-Quay-Portrieux","state_code":"22","country_code":"FR"}},{"type":"Feature","geometry":{"type":"Point","coordinates":[-2.02865,48.49252]},"properties":{"id":46517,"name":"Saint-Samson-sur-Rance","state_code":"22","country_code":"FR"}},{"type":"Feature","geometry":{"type":"Point","coordinates":[-2.33915,48.33297]},"properties":{"id":47148,"name":"Sévignac","state_code":"22","country_code":"FR"}},{"type":"Feature","geometry":{"type":"Point","coordinates":[-2.01946,48.4753]},"properties":{"id":47154,"name":"Taden","state_code":"22","country_code":"FR"}},{"type":"Feature","geometry":{"type":"Point","coordinates":[-3.39712,48.66886]},"properties":{"id":47298,"name":"Tonquédec","state_code":"22","country_code":"FR"}},{"type":"Feature","geometry":{"type":"Point","coordinates":[-3.56667,48.76667]},"properties":{"id":47390,"name":"Trébeurden","state_code":"22","country_code":"FR"}},{"type":"Feature","geometry":{"type":"Point","coordinates":[-3.201,48.78583]},"properties":{"id":47391,"name":"Trédarzec","state_code":"22","country_code":"FR"}},{"type":"Feature","geometry":{"type":"Point","coordinates":[-3.56667,48.7]},"properties":{"id":47392,"name":"Trédrez-Locquémeau","state_code":"22","country_code":"FR"}},{"type":"Feature","geometry":{"type":"Point","coordinates":[-3.5,48.81667]},"properties":{"id":47393,"name":"Trégastel","state_code":"22","country_code":"FR"}},{"type":"Feature","geometry":{"type":"Point","coordinates":[-2.7454,48.4769]},"properties":{"id":162050,"name":"Trégueux","state_code":"22","country_code":"FR"}},{"type":"Feature","geometry":{"type":"Point","coordinates":[-3.23333,48.78333]},"properties":{"id":47394,"name":"Tréguier","state_code":"22","country_code":"FR"}},{"type":"Feature","geometry":{"type":"Point","coordinates":[-3.37141,48.81071]},"properties":{"id":47400,"name":"Trélévern","state_code":"22","country_code":"FR"}},{"type":"Feature","geometry":{"type":"Point","coordinates":[-2.11748,48.43198]},"properties":{"id":47398,"name":"Trélivan","state_code":"22","country_code":"FR"}},{"type":"Feature","geometry":{"type":"Point","coordinates":[-2.84833,48.52325]},"properties":{"id":47403,"name":"Trémuson","state_code":"22","country_code":"FR"}},{"type":"Feature","geometry":{"type":"Point","coordinates":[-2.79317,48.21147]},"properties":{"id":47409,"name":"Trévé","state_code":"22","country_code":"FR"}},{"type":"Feature","geometry":{"type":"Point","coordinates":[-3.34132,48.81869]},"properties":{"id":47407,"name":"Trévou-Tréguignec","state_code":"22","country_code":"FR"}},{"type":"Feature","geometry":{"type":"Point","coordinates":[-2.67647,48.48428]},"properties":{"id":48006,"name":"Yffiniac","state_code":"22","country_code":"FR"}},{"type":"Feature","geometry":{"type":"Point","coordinates":[-2.18333,48.35]},"properties":{"id":48017,"name":"Yvignac-la-Tour","state_code":"22","country_code":"FR"}}]}