{"type":"FeatureCollection","features":[{"type":"Feature","geometry":{"type":"Point","coordinates":[8.79833,41.98396]},"properties":{"id":39256,"name":"Afa","state_code":"2A","country_code":"FR"}},{"type":"Feature","geometry":{"type":"Point","coordinates":[8.73812,41.91886]},"properties":{"id":39298,"name":"Ajaccio","state_code":"2A","country_code":"FR"}},{"type":"Feature","geometry":{"type":"Point","coordinates":[8.74208,41.97636]},"properties":{"id":39300,"name":"Alata","state_code":"2A","country_code":"FR"}},{"type":"Feature","geometry":{"type":"Point","coordinates":[8.94262,41.86301]},"properties":{"id":39308,"name":"Albitreccia","state_code":"2A","country_code":"FR"}},{"type":"Feature","geometry":{"type":"Point","coordinates":[9.0324474,41.7097998]},"properties":{"id":155104,"name":"Altagène","state_code":"2A","country_code":"FR"}},{"type":"Feature","geometry":{"type":"Point","coordinates":[8.6857279,42.089971]},"properties":{"id":155105,"name":"Ambiegna","state_code":"2A","country_code":"FR"}},{"type":"Feature","geometry":{"type":"Point","coordinates":[8.76855,42.01426]},"properties":{"id":39442,"name":"Appietto","state_code":"2A","country_code":"FR"}},{"type":"Feature","geometry":{"type":"Point","coordinates":[8.9514351,41.6705386]},"properties":{"id":155106,"name":"Arbellara","state_code":"2A","country_code":"FR"}},{"type":"Feature","geometry":{"type":"Point","coordinates":[8.7134262,42.1231376]},"properties":{"id":155107,"name":"Arbori","state_code":"2A","country_code":"FR"}},{"type":"Feature","geometry":{"type":"Point","coordinates":[8.9913101,41.8138243]},"properties":{"id":155108,"name":"Argiusta-Moriccio","state_code":"2A","country_code":"FR"}},{"type":"Feature","geometry":{"type":"Point","coordinates":[8.7598974,42.0979801]},"properties":{"id":155109,"name":"Arro","state_code":"2A","country_code":"FR"}},{"type":"Feature","geometry":{"type":"Point","coordinates":[9.0104907,41.8111298]},"properties":{"id":155110,"name":"Aullène","state_code":"2A","country_code":"FR"}},{"type":"Feature","geometry":{"type":"Point","coordinates":[8.9731963,41.8718755]},"properties":{"id":155111,"name":"Azilone-Ampaza","state_code":"2A","country_code":"FR"}},{"type":"Feature","geometry":{"type":"Point","coordinates":[8.8919024,42.1172137]},"properties":{"id":155112,"name":"Azzana","state_code":"2A","country_code":"FR"}},{"type":"Feature","geometry":{"type":"Point","coordinates":[8.6681475,42.1855133]},"properties":{"id":155113,"name":"Balogna","state_code":"2A","country_code":"FR"}},{"type":"Feature","geometry":{"type":"Point","coordinates":[8.8904698,41.9782793]},"properties":{"id":155114,"name":"Bastelica","state_code":"2A","country_code":"FR"}},{"type":"Feature","geometry":{"type":"Point","coordinates":[8.754742,41.9327519]},"properties":{"id":155115,"name":"Bastelicaccia","state_code":"2A","country_code":"FR"}},{"type":"Feature","geometry":{"type":"Point","coordinates":[8.7396196,41.6178641]},"properties":{"id":155116,"name":"Belvédère-Campomoro","state_code":"2A","country_code":"FR"}},{"type":"Feature","geometry":{"type":"Point","coordinates":[8.8636122,41.6222862]},"properties":{"id":155117,"name":"Bilia","state_code":"2A","country_code":"FR"}},{"type":"Feature","geometry":{"type":"Point","coordinates":[8.8998408,42.0872543]},"properties":{"id":155118,"name":"Bocognano","state_code":"2A","country_code":"FR"}},{"type":"Feature","geometry":{"type":"Point","coordinates":[9.15941,41.3874]},"properties":{"id":40114,"name":"Bonifacio","state_code":"2A","country_code":"FR"}},{"type":"Feature","geometry":{"type":"Point","coordinates":[8.5658691,42.030628]},"properties":{"id":155119,"name":"Calcatoggio","state_code":"2A","country_code":"FR"}},{"type":"Feature","geometry":{"type":"Point","coordinates":[8.7727864,42.0476311]},"properties":{"id":155120,"name":"Cannelle","state_code":"2A","country_code":"FR"}},{"type":"Feature","geometry":{"type":"Point","coordinates":[9.0776647,41.6779734]},"properties":{"id":155121,"name":"Carbini","state_code":"2A","country_code":"FR"}},{"type":"Feature","geometry":{"type":"Point","coordinates":[8.8477713,42.0344405]},"properties":{"id":155122,"name":"Carbuccia","state_code":"2A","country_code":"FR"}},{"type":"Feature","geometry":{"type":"Point","coordinates":[8.9323192,41.8533956]},"properties":{"id":155123,"name":"Cardo-Torgia","state_code":"2A","country_code":"FR"}},{"type":"Feature","geometry":{"type":"Point","coordinates":[8.59586,42.13629]},"properties":{"id":40543,"name":"Cargèse","state_code":"2A","country_code":"FR"}},{"type":"Feature","geometry":{"type":"Point","coordinates":[8.9972685,41.730276]},"properties":{"id":155124,"name":"Cargiaca","state_code":"2A","country_code":"FR"}},{"type":"Feature","geometry":{"type":"Point","coordinates":[8.6756192,42.0701093]},"properties":{"id":155125,"name":"Casaglione","state_code":"2A","country_code":"FR"}},{"type":"Feature","geometry":{"type":"Point","coordinates":[8.8350396,41.7583912]},"properties":{"id":155126,"name":"Casalabriva","state_code":"2A","country_code":"FR"}},{"type":"Feature","geometry":{"type":"Point","coordinates":[8.9148,41.91756]},"properties":{"id":40611,"name":"Cauro","state_code":"2A","country_code":"FR"}},{"type":"Feature","geometry":{"type":"Point","coordinates":[9.0494379,41.9695626]},"properties":{"id":155127,"name":"Ciamannacce","state_code":"2A","country_code":"FR"}},{"type":"Feature","geometry":{"type":"Point","coordinates":[8.6569937,42.1096963]},"properties":{"id":155128,"name":"Coggia","state_code":"2A","country_code":"FR"}},{"type":"Feature","geometry":{"type":"Point","coordinates":[8.786035,41.80533]},"properties":{"id":155129,"name":"Cognocoli-Monticchi","state_code":"2A","country_code":"FR"}},{"type":"Feature","geometry":{"type":"Point","coordinates":[9.1551892,41.7549344]},"properties":{"id":155130,"name":"Conca","state_code":"2A","country_code":"FR"}},{"type":"Feature","geometry":{"type":"Point","coordinates":[9.0320483,41.8829409]},"properties":{"id":155131,"name":"Corrano","state_code":"2A","country_code":"FR"}},{"type":"Feature","geometry":{"type":"Point","coordinates":[8.5762958,41.7675351]},"properties":{"id":155132,"name":"Coti-Chiavari","state_code":"2A","country_code":"FR"}},{"type":"Feature","geometry":{"type":"Point","coordinates":[9.102435,41.9321238]},"properties":{"id":155133,"name":"Cozzano","state_code":"2A","country_code":"FR"}},{"type":"Feature","geometry":{"type":"Point","coordinates":[8.7751395,42.2459162]},"properties":{"id":155134,"name":"Cristinacce","state_code":"2A","country_code":"FR"}},{"type":"Feature","geometry":{"type":"Point","coordinates":[8.91667,41.98333]},"properties":{"id":41384,"name":"Cuttoli-Corticchiato","state_code":"2A","country_code":"FR"}},{"type":"Feature","geometry":{"type":"Point","coordinates":[8.8131953,41.9205519]},"properties":{"id":155135,"name":"Eccica-Suarella","state_code":"2A","country_code":"FR"}},{"type":"Feature","geometry":{"type":"Point","coordinates":[8.6617089,42.2846915]},"properties":{"id":155136,"name":"Évisa","state_code":"2A","country_code":"FR"}},{"type":"Feature","geometry":{"type":"Point","coordinates":[9.13013,41.48792]},"properties":{"id":41818,"name":"Figari","state_code":"2A","country_code":"FR"}},{"type":"Feature","geometry":{"type":"Point","coordinates":[8.9530497,41.6240562]},"properties":{"id":155137,"name":"Foce","state_code":"2A","country_code":"FR"}},{"type":"Feature","geometry":{"type":"Point","coordinates":[8.9742701,41.8463679]},"properties":{"id":155138,"name":"Forciolo","state_code":"2A","country_code":"FR"}},{"type":"Feature","geometry":{"type":"Point","coordinates":[8.9084833,41.7014719]},"properties":{"id":155139,"name":"Fozzano","state_code":"2A","country_code":"FR"}},{"type":"Feature","geometry":{"type":"Point","coordinates":[8.9949715,41.9199192]},"properties":{"id":155140,"name":"Frasseto","state_code":"2A","country_code":"FR"}},{"type":"Feature","geometry":{"type":"Point","coordinates":[8.9170006,41.5863212]},"properties":{"id":155141,"name":"Giuncheto","state_code":"2A","country_code":"FR"}},{"type":"Feature","geometry":{"type":"Point","coordinates":[8.9711288,41.6400006]},"properties":{"id":155142,"name":"Granace","state_code":"2A","country_code":"FR"}},{"type":"Feature","geometry":{"type":"Point","coordinates":[8.7752457,41.6050737]},"properties":{"id":155143,"name":"Grossa","state_code":"2A","country_code":"FR"}},{"type":"Feature","geometry":{"type":"Point","coordinates":[8.96403,41.87097]},"properties":{"id":42227,"name":"Grosseto-Prugna","state_code":"2A","country_code":"FR"}},{"type":"Feature","geometry":{"type":"Point","coordinates":[8.8164635,42.1772932]},"properties":{"id":155144,"name":"Guagno","state_code":"2A","country_code":"FR"}},{"type":"Feature","geometry":{"type":"Point","coordinates":[8.8858259,41.8251179]},"properties":{"id":155145,"name":"Guargualé","state_code":"2A","country_code":"FR"}},{"type":"Feature","geometry":{"type":"Point","coordinates":[9.0385188,41.9267835]},"properties":{"id":155146,"name":"Guitera-les-Bains","state_code":"2A","country_code":"FR"}},{"type":"Feature","geometry":{"type":"Point","coordinates":[9.2183479,41.658277]},"properties":{"id":155147,"name":"Lecci","state_code":"2A","country_code":"FR"}},{"type":"Feature","geometry":{"type":"Point","coordinates":[8.7110977,42.2167499]},"properties":{"id":155148,"name":"Letia","state_code":"2A","country_code":"FR"}},{"type":"Feature","geometry":{"type":"Point","coordinates":[8.9434747,41.6613206]},"properties":{"id":155149,"name":"Levie","state_code":"2A","country_code":"FR"}},{"type":"Feature","geometry":{"type":"Point","coordinates":[8.7707288,42.088874]},"properties":{"id":155150,"name":"Lopigna","state_code":"2A","country_code":"FR"}},{"type":"Feature","geometry":{"type":"Point","coordinates":[8.9895521,41.6959908]},"properties":{"id":155151,"name":"Loreto-di-Tallano","state_code":"2A","country_code":"FR"}},{"type":"Feature","geometry":{"type":"Point","coordinates":[8.5545084,42.2091044]},"properties":{"id":155152,"name":"Marignana","state_code":"2A","country_code":"FR"}},{"type":"Feature","geometry":{"type":"Point","coordinates":[9.0711446,41.6827132]},"properties":{"id":155153,"name":"Mela","state_code":"2A","country_code":"FR"}},{"type":"Feature","geometry":{"type":"Point","coordinates":[8.9226275,41.7777022]},"properties":{"id":155154,"name":"Moca-Croce","state_code":"2A","country_code":"FR"}},{"type":"Feature","geometry":{"type":"Point","coordinates":[8.8434461,41.5233908]},"properties":{"id":155155,"name":"Monacia-d'Aullène","state_code":"2A","country_code":"FR"}},{"type":"Feature","geometry":{"type":"Point","coordinates":[8.766666,42.1556726]},"properties":{"id":155156,"name":"Murzo","state_code":"2A","country_code":"FR"}},{"type":"Feature","geometry":{"type":"Point","coordinates":[8.8209556,41.9547946]},"properties":{"id":155157,"name":"Ocana","state_code":"2A","country_code":"FR"}},{"type":"Feature","geometry":{"type":"Point","coordinates":[8.9882663,41.8366333]},"properties":{"id":155158,"name":"Olivese","state_code":"2A","country_code":"FR"}},{"type":"Feature","geometry":{"type":"Point","coordinates":[8.91783,41.71724]},"properties":{"id":44736,"name":"Olmeto","state_code":"2A","country_code":"FR"}},{"type":"Feature","geometry":{"type":"Point","coordinates":[8.948673,41.6701445]},"properties":{"id":155159,"name":"Olmiccia","state_code":"2A","country_code":"FR"}},{"type":"Feature","geometry":{"type":"Point","coordinates":[8.880159,42.1984463]},"properties":{"id":155160,"name":"Orto","state_code":"2A","country_code":"FR"}},{"type":"Feature","geometry":{"type":"Point","coordinates":[8.4443355,42.3405481]},"properties":{"id":155161,"name":"Osani","state_code":"2A","country_code":"FR"}},{"type":"Feature","geometry":{"type":"Point","coordinates":[8.653797,42.253807]},"properties":{"id":155162,"name":"Ota","state_code":"2A","country_code":"FR"}},{"type":"Feature","geometry":{"type":"Point","coordinates":[9.104423,41.9905927]},"properties":{"id":155163,"name":"Palneca","state_code":"2A","country_code":"FR"}},{"type":"Feature","geometry":{"type":"Point","coordinates":[8.6097221,42.3151425]},"properties":{"id":155164,"name":"Partinello","state_code":"2A","country_code":"FR"}},{"type":"Feature","geometry":{"type":"Point","coordinates":[8.85004,42.1445836]},"properties":{"id":155165,"name":"Pastricciola","state_code":"2A","country_code":"FR"}},{"type":"Feature","geometry":{"type":"Point","coordinates":[8.92066,42.00345]},"properties":{"id":44896,"name":"Peri","state_code":"2A","country_code":"FR"}},{"type":"Feature","geometry":{"type":"Point","coordinates":[8.8805121,41.7658076]},"properties":{"id":155166,"name":"Petreto-Bicchisano","state_code":"2A","country_code":"FR"}},{"type":"Feature","geometry":{"type":"Point","coordinates":[8.4559413,42.2234893]},"properties":{"id":155167,"name":"Piana","state_code":"2A","country_code":"FR"}},{"type":"Feature","geometry":{"type":"Point","coordinates":[8.9632423,41.5209572]},"properties":{"id":155168,"name":"Pianottoli-Caldarello","state_code":"2A","country_code":"FR"}},{"type":"Feature","geometry":{"type":"Point","coordinates":[8.84573,41.83576]},"properties":{"id":44967,"name":"Pietrosella","state_code":"2A","country_code":"FR"}},{"type":"Feature","geometry":{"type":"Point","coordinates":[8.812619,41.791762]},"properties":{"id":155169,"name":"Pila-Canale","state_code":"2A","country_code":"FR"}},{"type":"Feature","geometry":{"type":"Point","coordinates":[8.8572965,42.1616857]},"properties":{"id":155170,"name":"Poggiolo","state_code":"2A","country_code":"FR"}},{"type":"Feature","geometry":{"type":"Point","coordinates":[9.27947,41.59101]},"properties":{"id":45245,"name":"Porto-Vecchio","state_code":"2A","country_code":"FR"}},{"type":"Feature","geometry":{"type":"Point","coordinates":[8.90412,41.6759]},"properties":{"id":45294,"name":"Propriano","state_code":"2A","country_code":"FR"}},{"type":"Feature","geometry":{"type":"Point","coordinates":[8.9658921,41.912092]},"properties":{"id":155171,"name":"Quasquara","state_code":"2A","country_code":"FR"}},{"type":"Feature","geometry":{"type":"Point","coordinates":[9.0508361,41.794908]},"properties":{"id":155172,"name":"Quenza","state_code":"2A","country_code":"FR"}},{"type":"Feature","geometry":{"type":"Point","coordinates":[8.7795329,42.2053463]},"properties":{"id":155173,"name":"Renno","state_code":"2A","country_code":"FR"}},{"type":"Feature","geometry":{"type":"Point","coordinates":[8.9145121,42.1255133]},"properties":{"id":155174,"name":"Rezza","state_code":"2A","country_code":"FR"}},{"type":"Feature","geometry":{"type":"Point","coordinates":[8.7757429,42.1235671]},"properties":{"id":155175,"name":"Rosazia","state_code":"2A","country_code":"FR"}},{"type":"Feature","geometry":{"type":"Point","coordinates":[8.9789454,41.6730669]},"properties":{"id":155176,"name":"Sainte-Lucie-de-Tallano","state_code":"2A","country_code":"FR"}},{"type":"Feature","geometry":{"type":"Point","coordinates":[8.8179386,42.1072098]},"properties":{"id":155177,"name":"Salice","state_code":"2A","country_code":"FR"}},{"type":"Feature","geometry":{"type":"Point","coordinates":[9.1011375,41.9488147]},"properties":{"id":155178,"name":"Sampolo","state_code":"2A","country_code":"FR"}},{"type":"Feature","geometry":{"type":"Point","coordinates":[9.0649612,41.6860947]},"properties":{"id":155179,"name":"San-Gavino-di-Carbini","state_code":"2A","country_code":"FR"}},{"type":"Feature","geometry":{"type":"Point","coordinates":[8.7019943,42.0452552]},"properties":{"id":155182,"name":"Sant'Andréa-d'Orcino","state_code":"2A","country_code":"FR"}},{"type":"Feature","geometry":{"type":"Point","coordinates":[8.9681577,41.728903]},"properties":{"id":155180,"name":"Santa-Maria-Figaniella","state_code":"2A","country_code":"FR"}},{"type":"Feature","geometry":{"type":"Point","coordinates":[8.9407354,41.8838659]},"properties":{"id":155181,"name":"Santa-Maria-Siché","state_code":"2A","country_code":"FR"}},{"type":"Feature","geometry":{"type":"Point","coordinates":[8.7544925,42.0641036]},"properties":{"id":155183,"name":"Sari-d'Orcino","state_code":"2A","country_code":"FR"}},{"type":"Feature","geometry":{"type":"Point","coordinates":[9.3747,41.83519]},"properties":{"id":46807,"name":"Sari-Solenzara","state_code":"2A","country_code":"FR"}},{"type":"Feature","geometry":{"type":"Point","coordinates":[8.84241,42.02828]},"properties":{"id":46817,"name":"Sarrola","state_code":"2A","country_code":"FR"}},{"type":"Feature","geometry":{"type":"Point","coordinates":[8.7452132,41.9981943]},"properties":{"id":155184,"name":"Sarrola-Carcopino","state_code":"2A","country_code":"FR"}},{"type":"Feature","geometry":{"type":"Point","coordinates":[8.98333,41.61667]},"properties":{"id":46823,"name":"Sartène","state_code":"2A","country_code":"FR"}},{"type":"Feature","geometry":{"type":"Point","coordinates":[8.7318534,41.7444169]},"properties":{"id":155185,"name":"Serra-di-Ferro","state_code":"2A","country_code":"FR"}},{"type":"Feature","geometry":{"type":"Point","coordinates":[9.0363185,41.7827842]},"properties":{"id":155186,"name":"Serra-di-Scopamène","state_code":"2A","country_code":"FR"}},{"type":"Feature","geometry":{"type":"Point","coordinates":[8.6471822,42.308481]},"properties":{"id":155187,"name":"Serriera","state_code":"2A","country_code":"FR"}},{"type":"Feature","geometry":{"type":"Point","coordinates":[8.8485282,42.2066376]},"properties":{"id":155188,"name":"Soccia","state_code":"2A","country_code":"FR"}},{"type":"Feature","geometry":{"type":"Point","coordinates":[8.7935789,41.7421174]},"properties":{"id":155189,"name":"Sollacaro","state_code":"2A","country_code":"FR"}},{"type":"Feature","geometry":{"type":"Point","coordinates":[9.0707695,41.7521451]},"properties":{"id":155190,"name":"Sorbollano","state_code":"2A","country_code":"FR"}},{"type":"Feature","geometry":{"type":"Point","coordinates":[9.0118778,41.5558909]},"properties":{"id":155191,"name":"Sotta","state_code":"2A","country_code":"FR"}},{"type":"Feature","geometry":{"type":"Point","coordinates":[9.0491893,41.9476821]},"properties":{"id":155192,"name":"Tasso","state_code":"2A","country_code":"FR"}},{"type":"Feature","geometry":{"type":"Point","coordinates":[8.8460661,42.0327273]},"properties":{"id":155193,"name":"Tavaco","state_code":"2A","country_code":"FR"}},{"type":"Feature","geometry":{"type":"Point","coordinates":[8.8648067,42.0729964]},"properties":{"id":155194,"name":"Tavera","state_code":"2A","country_code":"FR"}},{"type":"Feature","geometry":{"type":"Point","coordinates":[8.8850309,41.9678726]},"properties":{"id":155195,"name":"Tolla","state_code":"2A","country_code":"FR"}},{"type":"Feature","geometry":{"type":"Point","coordinates":[8.9029377,42.0515331]},"properties":{"id":155196,"name":"Ucciani","state_code":"2A","country_code":"FR"}},{"type":"Feature","geometry":{"type":"Point","coordinates":[8.9076345,41.8234763]},"properties":{"id":155197,"name":"Urbalacone","state_code":"2A","country_code":"FR"}},{"type":"Feature","geometry":{"type":"Point","coordinates":[8.7754539,42.0253252]},"properties":{"id":155198,"name":"Valle-di-Mezzana","state_code":"2A","country_code":"FR"}},{"type":"Feature","geometry":{"type":"Point","coordinates":[8.837377,42.0576931]},"properties":{"id":155199,"name":"Vero","state_code":"2A","country_code":"FR"}},{"type":"Feature","geometry":{"type":"Point","coordinates":[8.57127,42.1463302]},"properties":{"id":155200,"name":"Vico","state_code":"2A","country_code":"FR"}},{"type":"Feature","geometry":{"type":"Point","coordinates":[8.9049308,41.6715834]},"properties":{"id":155201,"name":"Viggianello","state_code":"2A","country_code":"FR"}},{"type":"Feature","geometry":{"type":"Point","coordinates":[8.5789845,41.9641585]},"properties":{"id":155202,"name":"Villanova","state_code":"2A","country_code":"FR"}},{"type":"Feature","geometry":{"type":"Point","coordinates":[8.9721351,41.7459679]},"properties":{"id":155203,"name":"Zérubia","state_code":"2A","country_code":"FR"}},{"type":"Feature","geometry":{"type":"Point","coordinates":[9.0046085,41.889064]},"properties":{"id":155204,"name":"Zévaco","state_code":"2A","country_code":"FR"}},{"type":"Feature","geometry":{"type":"Point","coordinates":[9.0044751,41.8841206]},"properties":{"id":155205,"name":"Zicavo","state_code":"2A","country_code":"FR"}},{"type":"Feature","geometry":{"type":"Point","coordinates":[8.9421181,41.8361431]},"properties":{"id":155206,"name":"Zigliara","state_code":"2A","country_code":"FR"}},{"type":"Feature","geometry":{"type":"Point","coordinates":[9.17082,41.74934]},"properties":{"id":48028,"name":"Zonza","state_code":"2A","country_code":"FR"}},{"type":"Feature","geometry":{"type":"Point","coordinates":[9.0287158,41.7226678]},"properties":{"id":155207,"name":"Zoza","state_code":"2A","country_code":"FR"}}]}