{"type":"FeatureCollection","features":[{"type":"Feature","geometry":{"type":"Point","coordinates":[9.3240068,42.0935177]},"properties":{"id":155208,"name":"Aghione","state_code":"2B","country_code":"FR"}},{"type":"Feature","geometry":{"type":"Point","coordinates":[9.1460155,42.402729]},"properties":{"id":155209,"name":"Aiti","state_code":"2B","country_code":"FR"}},{"type":"Feature","geometry":{"type":"Point","coordinates":[9.2487276,42.3083509]},"properties":{"id":155210,"name":"Alando","state_code":"2B","country_code":"FR"}},{"type":"Feature","geometry":{"type":"Point","coordinates":[8.7629403,42.314643]},"properties":{"id":155211,"name":"Albertacce","state_code":"2B","country_code":"FR"}},{"type":"Feature","geometry":{"type":"Point","coordinates":[9.51265,42.10431]},"properties":{"id":39343,"name":"Aléria","state_code":"2B","country_code":"FR"}},{"type":"Feature","geometry":{"type":"Point","coordinates":[8.8381309,42.6051589]},"properties":{"id":155212,"name":"Algajola","state_code":"2B","country_code":"FR"}},{"type":"Feature","geometry":{"type":"Point","coordinates":[9.1941955,42.2199047]},"properties":{"id":155213,"name":"Altiani","state_code":"2B","country_code":"FR"}},{"type":"Feature","geometry":{"type":"Point","coordinates":[9.2763015,42.3134026]},"properties":{"id":155214,"name":"Alzi","state_code":"2B","country_code":"FR"}},{"type":"Feature","geometry":{"type":"Point","coordinates":[9.3359742,42.2537018]},"properties":{"id":155215,"name":"Ampriani","state_code":"2B","country_code":"FR"}},{"type":"Feature","geometry":{"type":"Point","coordinates":[9.2213185,42.1571441]},"properties":{"id":155216,"name":"Antisanti","state_code":"2B","country_code":"FR"}},{"type":"Feature","geometry":{"type":"Point","coordinates":[8.8352589,42.5943365]},"properties":{"id":155217,"name":"Aregno","state_code":"2B","country_code":"FR"}},{"type":"Feature","geometry":{"type":"Point","coordinates":[8.8275585,42.4387415]},"properties":{"id":155218,"name":"Asco","state_code":"2B","country_code":"FR"}},{"type":"Feature","geometry":{"type":"Point","coordinates":[8.8550348,42.5592976]},"properties":{"id":155219,"name":"Avapessa","state_code":"2B","country_code":"FR"}},{"type":"Feature","geometry":{"type":"Point","coordinates":[9.2812032,42.6827444]},"properties":{"id":155220,"name":"Barbaggio","state_code":"2B","country_code":"FR"}},{"type":"Feature","geometry":{"type":"Point","coordinates":[9.2787191,42.8732963]},"properties":{"id":155221,"name":"Barrettali","state_code":"2B","country_code":"FR"}},{"type":"Feature","geometry":{"type":"Point","coordinates":[9.45,42.70278]},"properties":{"id":39804,"name":"Bastia","state_code":"2B","country_code":"FR"}},{"type":"Feature","geometry":{"type":"Point","coordinates":[8.9783792,42.6085059]},"properties":{"id":155222,"name":"Belgodère","state_code":"2B","country_code":"FR"}},{"type":"Feature","geometry":{"type":"Point","coordinates":[9.2631933,42.5274748]},"properties":{"id":155223,"name":"Bigorno","state_code":"2B","country_code":"FR"}},{"type":"Feature","geometry":{"type":"Point","coordinates":[9.42018,42.62692]},"properties":{"id":40018,"name":"Biguglia","state_code":"2B","country_code":"FR"}},{"type":"Feature","geometry":{"type":"Point","coordinates":[9.2724941,42.481623]},"properties":{"id":155224,"name":"Bisinchi","state_code":"2B","country_code":"FR"}},{"type":"Feature","geometry":{"type":"Point","coordinates":[9.42636,42.55488]},"properties":{"id":40140,"name":"Borgo","state_code":"2B","country_code":"FR"}},{"type":"Feature","geometry":{"type":"Point","coordinates":[9.45,42.76667]},"properties":{"id":40252,"name":"Brando","state_code":"2B","country_code":"FR"}},{"type":"Feature","geometry":{"type":"Point","coordinates":[9.2288226,42.326133]},"properties":{"id":155225,"name":"Bustanico","state_code":"2B","country_code":"FR"}},{"type":"Feature","geometry":{"type":"Point","coordinates":[9.3606902,42.8726024]},"properties":{"id":155226,"name":"Cagnano","state_code":"2B","country_code":"FR"}},{"type":"Feature","geometry":{"type":"Point","coordinates":[8.9520559,42.3242732]},"properties":{"id":155227,"name":"Calacuccia","state_code":"2B","country_code":"FR"}},{"type":"Feature","geometry":{"type":"Point","coordinates":[8.85538,42.50855]},"properties":{"id":40470,"name":"Calenzana","state_code":"2B","country_code":"FR"}},{"type":"Feature","geometry":{"type":"Point","coordinates":[8.75713,42.56604]},"properties":{"id":40479,"name":"Calvi","state_code":"2B","country_code":"FR"}},{"type":"Feature","geometry":{"type":"Point","coordinates":[9.2617846,42.3670923]},"properties":{"id":155228,"name":"Cambia","state_code":"2B","country_code":"FR"}},{"type":"Feature","geometry":{"type":"Point","coordinates":[9.3005561,42.3892456]},"properties":{"id":155229,"name":"Campana","state_code":"2B","country_code":"FR"}},{"type":"Feature","geometry":{"type":"Point","coordinates":[9.3827933,42.2680368]},"properties":{"id":155230,"name":"Campi","state_code":"2B","country_code":"FR"}},{"type":"Feature","geometry":{"type":"Point","coordinates":[9.3163109,42.4947581]},"properties":{"id":155231,"name":"Campile","state_code":"2B","country_code":"FR"}},{"type":"Feature","geometry":{"type":"Point","coordinates":[9.2866623,42.5272837]},"properties":{"id":155232,"name":"Campitello","state_code":"2B","country_code":"FR"}},{"type":"Feature","geometry":{"type":"Point","coordinates":[9.4172713,42.2634441]},"properties":{"id":155233,"name":"Canale-di-Verde","state_code":"2B","country_code":"FR"}},{"type":"Feature","geometry":{"type":"Point","coordinates":[9.2680989,42.8394217]},"properties":{"id":155234,"name":"Canari","state_code":"2B","country_code":"FR"}},{"type":"Feature","geometry":{"type":"Point","coordinates":[9.1517091,42.4988444]},"properties":{"id":155235,"name":"Canavaggia","state_code":"2B","country_code":"FR"}},{"type":"Feature","geometry":{"type":"Point","coordinates":[9.3180564,42.3554193]},"properties":{"id":155236,"name":"Carcheto-Brustico","state_code":"2B","country_code":"FR"}},{"type":"Feature","geometry":{"type":"Point","coordinates":[9.3587408,42.3561629]},"properties":{"id":155237,"name":"Carpineto","state_code":"2B","country_code":"FR"}},{"type":"Feature","geometry":{"type":"Point","coordinates":[9.2228278,42.3485964]},"properties":{"id":155238,"name":"Carticasi","state_code":"2B","country_code":"FR"}},{"type":"Feature","geometry":{"type":"Point","coordinates":[9.3335532,42.446783]},"properties":{"id":155239,"name":"Casabianca","state_code":"2B","country_code":"FR"}},{"type":"Feature","geometry":{"type":"Point","coordinates":[9.3846137,42.4367793]},"properties":{"id":155240,"name":"Casalta","state_code":"2B","country_code":"FR"}},{"type":"Feature","geometry":{"type":"Point","coordinates":[8.9003565,42.283293]},"properties":{"id":155241,"name":"Casamaccioli","state_code":"2B","country_code":"FR"}},{"type":"Feature","geometry":{"type":"Point","coordinates":[9.067826,42.259009]},"properties":{"id":155242,"name":"Casanova","state_code":"2B","country_code":"FR"}},{"type":"Feature","geometry":{"type":"Point","coordinates":[9.3265685,42.1368105]},"properties":{"id":155243,"name":"Casevecchie","state_code":"2B","country_code":"FR"}},{"type":"Feature","geometry":{"type":"Point","coordinates":[9.4179323,42.4719003]},"properties":{"id":155244,"name":"Castellare-di-Casinca","state_code":"2B","country_code":"FR"}},{"type":"Feature","geometry":{"type":"Point","coordinates":[9.2027257,42.3121994]},"properties":{"id":155245,"name":"Castellare-di-Mercurio","state_code":"2B","country_code":"FR"}},{"type":"Feature","geometry":{"type":"Point","coordinates":[9.214279,42.4732688]},"properties":{"id":155246,"name":"Castello-di-Rostino","state_code":"2B","country_code":"FR"}},{"type":"Feature","geometry":{"type":"Point","coordinates":[9.0514652,42.5309363]},"properties":{"id":155247,"name":"Castifao","state_code":"2B","country_code":"FR"}},{"type":"Feature","geometry":{"type":"Point","coordinates":[9.030516,42.4084661]},"properties":{"id":155248,"name":"Castiglione","state_code":"2B","country_code":"FR"}},{"type":"Feature","geometry":{"type":"Point","coordinates":[9.1908391,42.4254708]},"properties":{"id":155249,"name":"Castineta","state_code":"2B","country_code":"FR"}},{"type":"Feature","geometry":{"type":"Point","coordinates":[9.0421941,42.3666718]},"properties":{"id":155250,"name":"Castirla","state_code":"2B","country_code":"FR"}},{"type":"Feature","geometry":{"type":"Point","coordinates":[8.8558399,42.5679008]},"properties":{"id":155251,"name":"Cateri","state_code":"2B","country_code":"FR"}},{"type":"Feature","geometry":{"type":"Point","coordinates":[9.3272527,42.971623]},"properties":{"id":155257,"name":"Centuri","state_code":"2B","country_code":"FR"}},{"type":"Feature","geometry":{"type":"Point","coordinates":[9.4291647,42.3184315]},"properties":{"id":40657,"name":"Cervione","state_code":"2B","country_code":"FR"}},{"type":"Feature","geometry":{"type":"Point","coordinates":[9.4042842,42.2854899]},"properties":{"id":155255,"name":"Chiatra","state_code":"2B","country_code":"FR"}},{"type":"Feature","geometry":{"type":"Point","coordinates":[9.0977758,41.9130356]},"properties":{"id":155258,"name":"Chisa","state_code":"2B","country_code":"FR"}},{"type":"Feature","geometry":{"type":"Point","coordinates":[8.8170439,42.6197171]},"properties":{"id":155259,"name":"Corbara","state_code":"2B","country_code":"FR"}},{"type":"Feature","geometry":{"type":"Point","coordinates":[8.8804626,42.3625403]},"properties":{"id":155260,"name":"Corscia","state_code":"2B","country_code":"FR"}},{"type":"Feature","geometry":{"type":"Point","coordinates":[8.7394977,42.2731881]},"properties":{"id":41205,"name":"Corte","state_code":"2B","country_code":"FR"}},{"type":"Feature","geometry":{"type":"Point","coordinates":[8.9779583,42.5764107]},"properties":{"id":155262,"name":"Costa","state_code":"2B","country_code":"FR"}},{"type":"Feature","geometry":{"type":"Point","coordinates":[9.2754486,42.408047]},"properties":{"id":155263,"name":"Croce","state_code":"2B","country_code":"FR"}},{"type":"Feature","geometry":{"type":"Point","coordinates":[9.3115959,42.4736621]},"properties":{"id":155264,"name":"Crocicchia","state_code":"2B","country_code":"FR"}},{"type":"Feature","geometry":{"type":"Point","coordinates":[9.1818208,42.251974]},"properties":{"id":155265,"name":"Erbajolo","state_code":"2B","country_code":"FR"}},{"type":"Feature","geometry":{"type":"Point","coordinates":[9.2253268,42.3754936]},"properties":{"id":155266,"name":"Érone","state_code":"2B","country_code":"FR"}},{"type":"Feature","geometry":{"type":"Point","coordinates":[9.2966787,42.9913344]},"properties":{"id":155267,"name":"Ersa","state_code":"2B","country_code":"FR"}},{"type":"Feature","geometry":{"type":"Point","coordinates":[9.2806294,42.7305837]},"properties":{"id":155268,"name":"Farinole","state_code":"2B","country_code":"FR"}},{"type":"Feature","geometry":{"type":"Point","coordinates":[9.1697149,42.2885364]},"properties":{"id":155269,"name":"Favalello","state_code":"2B","country_code":"FR"}},{"type":"Feature","geometry":{"type":"Point","coordinates":[9.3866784,42.3467138]},"properties":{"id":155270,"name":"Felce","state_code":"2B","country_code":"FR"}},{"type":"Feature","geometry":{"type":"Point","coordinates":[8.900374,42.5515015]},"properties":{"id":155271,"name":"Feliceto","state_code":"2B","country_code":"FR"}},{"type":"Feature","geometry":{"type":"Point","coordinates":[9.3366144,42.4205198]},"properties":{"id":155272,"name":"Ficaja","state_code":"2B","country_code":"FR"}},{"type":"Feature","geometry":{"type":"Point","coordinates":[9.2033829,42.2471611]},"properties":{"id":155273,"name":"Focicchia","state_code":"2B","country_code":"FR"}},{"type":"Feature","geometry":{"type":"Point","coordinates":[9.3390982,42.6547548]},"properties":{"id":41994,"name":"Furiani","state_code":"2B","country_code":"FR"}},{"type":"Feature","geometry":{"type":"Point","coordinates":[8.3770584,42.404378]},"properties":{"id":155275,"name":"Galéria","state_code":"2B","country_code":"FR"}},{"type":"Feature","geometry":{"type":"Point","coordinates":[9.0991778,42.4240332]},"properties":{"id":155276,"name":"Gavignano","state_code":"2B","country_code":"FR"}},{"type":"Feature","geometry":{"type":"Point","coordinates":[9.2547528,42.045236]},"properties":{"id":42084,"name":"Ghisonaccia","state_code":"2B","country_code":"FR"}},{"type":"Feature","geometry":{"type":"Point","coordinates":[9.0720753,42.0938526]},"properties":{"id":155278,"name":"Ghisoni","state_code":"2B","country_code":"FR"}},{"type":"Feature","geometry":{"type":"Point","coordinates":[9.3027842,42.4442228]},"properties":{"id":155279,"name":"Giocatojo","state_code":"2B","country_code":"FR"}},{"type":"Feature","geometry":{"type":"Point","coordinates":[9.2334926,42.1827319]},"properties":{"id":155280,"name":"Giuncaggio","state_code":"2B","country_code":"FR"}},{"type":"Feature","geometry":{"type":"Point","coordinates":[9.1049804,42.0167768]},"properties":{"id":155281,"name":"Isolaccio-di-Fiumorbo","state_code":"2B","country_code":"FR"}},{"type":"Feature","geometry":{"type":"Point","coordinates":[8.9158451,42.6343674]},"properties":{"id":42629,"name":"L'Île-Rousse","state_code":"2B","country_code":"FR"}},{"type":"Feature","geometry":{"type":"Point","coordinates":[9.2779466,42.4270793]},"properties":{"id":155364,"name":"La Porta","state_code":"2B","country_code":"FR"}},{"type":"Feature","geometry":{"type":"Point","coordinates":[9.0868167,42.5830107]},"properties":{"id":155283,"name":"Lama","state_code":"2B","country_code":"FR"}},{"type":"Feature","geometry":{"type":"Point","coordinates":[9.1475563,42.3752699]},"properties":{"id":155284,"name":"Lano","state_code":"2B","country_code":"FR"}},{"type":"Feature","geometry":{"type":"Point","coordinates":[8.8212899,42.5753515]},"properties":{"id":155285,"name":"Lavatoggio","state_code":"2B","country_code":"FR"}},{"type":"Feature","geometry":{"type":"Point","coordinates":[9.1819521,42.5258396]},"properties":{"id":155286,"name":"Lento","state_code":"2B","country_code":"FR"}},{"type":"Feature","geometry":{"type":"Point","coordinates":[9.3370121,42.2142855]},"properties":{"id":43502,"name":"Linguizzetta","state_code":"2B","country_code":"FR"}},{"type":"Feature","geometry":{"type":"Point","coordinates":[9.3857276,42.4766618]},"properties":{"id":155288,"name":"Loreto-di-Casinca","state_code":"2B","country_code":"FR"}},{"type":"Feature","geometry":{"type":"Point","coordinates":[8.895119,42.36239]},"properties":{"id":155289,"name":"Lozzi","state_code":"2B","country_code":"FR"}},{"type":"Feature","geometry":{"type":"Point","coordinates":[9.3005592,42.5392045]},"properties":{"id":43631,"name":"Lucciana","state_code":"2B","country_code":"FR"}},{"type":"Feature","geometry":{"type":"Point","coordinates":[9.2403186,42.0721454]},"properties":{"id":155291,"name":"Lugo-di-Nazza","state_code":"2B","country_code":"FR"}},{"type":"Feature","geometry":{"type":"Point","coordinates":[8.7439456,42.579984]},"properties":{"id":43650,"name":"Lumio","state_code":"2B","country_code":"FR"}},{"type":"Feature","geometry":{"type":"Point","coordinates":[9.2547936,42.8911308]},"properties":{"id":155293,"name":"Luri","state_code":"2B","country_code":"FR"}},{"type":"Feature","geometry":{"type":"Point","coordinates":[8.6495257,42.3685116]},"properties":{"id":155294,"name":"Manso","state_code":"2B","country_code":"FR"}},{"type":"Feature","geometry":{"type":"Point","coordinates":[9.3454669,42.2823016]},"properties":{"id":155295,"name":"Matra","state_code":"2B","country_code":"FR"}},{"type":"Feature","geometry":{"type":"Point","coordinates":[8.8857662,42.4980162]},"properties":{"id":155296,"name":"Mausoléo","state_code":"2B","country_code":"FR"}},{"type":"Feature","geometry":{"type":"Point","coordinates":[9.2839705,42.3059712]},"properties":{"id":155297,"name":"Mazzola","state_code":"2B","country_code":"FR"}},{"type":"Feature","geometry":{"type":"Point","coordinates":[9.3497069,42.917853]},"properties":{"id":155298,"name":"Meria","state_code":"2B","country_code":"FR"}},{"type":"Feature","geometry":{"type":"Point","coordinates":[9.3724924,42.2801833]},"properties":{"id":155299,"name":"Moïta","state_code":"2B","country_code":"FR"}},{"type":"Feature","geometry":{"type":"Point","coordinates":[8.9602906,42.4688399]},"properties":{"id":155300,"name":"Moltifao","state_code":"2B","country_code":"FR"}},{"type":"Feature","geometry":{"type":"Point","coordinates":[9.3658901,42.3817533]},"properties":{"id":155301,"name":"Monacia-d'Orezza","state_code":"2B","country_code":"FR"}},{"type":"Feature","geometry":{"type":"Point","coordinates":[8.7800765,42.5023523]},"properties":{"id":155302,"name":"Moncale","state_code":"2B","country_code":"FR"}},{"type":"Feature","geometry":{"type":"Point","coordinates":[9.3297628,42.4874449]},"properties":{"id":155303,"name":"Monte","state_code":"2B","country_code":"FR"}},{"type":"Feature","geometry":{"type":"Point","coordinates":[8.771926,42.5445049]},"properties":{"id":155304,"name":"Montegrosso","state_code":"2B","country_code":"FR"}},{"type":"Feature","geometry":{"type":"Point","coordinates":[8.9202097,42.6212752]},"properties":{"id":44252,"name":"Monticello","state_code":"2B","country_code":"FR"}},{"type":"Feature","geometry":{"type":"Point","coordinates":[9.0869208,42.4498475]},"properties":{"id":44363,"name":"Morosaglia","state_code":"2B","country_code":"FR"}},{"type":"Feature","geometry":{"type":"Point","coordinates":[9.2919895,42.9362659]},"properties":{"id":155307,"name":"Morsiglia","state_code":"2B","country_code":"FR"}},{"type":"Feature","geometry":{"type":"Point","coordinates":[9.152736,42.1700883]},"properties":{"id":155308,"name":"Muracciole","state_code":"2B","country_code":"FR"}},{"type":"Feature","geometry":{"type":"Point","coordinates":[9.2479382,42.5720186]},"properties":{"id":155309,"name":"Murato","state_code":"2B","country_code":"FR"}},{"type":"Feature","geometry":{"type":"Point","coordinates":[8.8738444,42.5454342]},"properties":{"id":155310,"name":"Muro","state_code":"2B","country_code":"FR"}},{"type":"Feature","geometry":{"type":"Point","coordinates":[8.916517,42.5517268]},"properties":{"id":155311,"name":"Nessa","state_code":"2B","country_code":"FR"}},{"type":"Feature","geometry":{"type":"Point","coordinates":[9.305444,42.3928908]},"properties":{"id":155312,"name":"Nocario","state_code":"2B","country_code":"FR"}},{"type":"Feature","geometry":{"type":"Point","coordinates":[9.1278161,42.1965812]},"properties":{"id":155313,"name":"Noceta","state_code":"2B","country_code":"FR"}},{"type":"Feature","geometry":{"type":"Point","coordinates":[9.3182493,42.7840355]},"properties":{"id":155314,"name":"Nonza","state_code":"2B","country_code":"FR"}},{"type":"Feature","geometry":{"type":"Point","coordinates":[9.3698617,42.3033506]},"properties":{"id":155315,"name":"Novale","state_code":"2B","country_code":"FR"}},{"type":"Feature","geometry":{"type":"Point","coordinates":[9.0205381,42.6034687]},"properties":{"id":155316,"name":"Novella","state_code":"2B","country_code":"FR"}},{"type":"Feature","geometry":{"type":"Point","coordinates":[8.9265783,42.5967714]},"properties":{"id":155317,"name":"Occhiatana","state_code":"2B","country_code":"FR"}},{"type":"Feature","geometry":{"type":"Point","coordinates":[9.2743268,42.8215401]},"properties":{"id":155318,"name":"Ogliastro","state_code":"2B","country_code":"FR"}},{"type":"Feature","geometry":{"type":"Point","coordinates":[9.303905,42.8073638]},"properties":{"id":155319,"name":"Olcani","state_code":"2B","country_code":"FR"}},{"type":"Feature","geometry":{"type":"Point","coordinates":[9.1807876,42.6449346]},"properties":{"id":44732,"name":"Oletta","state_code":"2B","country_code":"FR"}},{"type":"Feature","geometry":{"type":"Point","coordinates":[9.2967955,42.7642457]},"properties":{"id":155321,"name":"Olmeta-di-Capocorso","state_code":"2B","country_code":"FR"}},{"type":"Feature","geometry":{"type":"Point","coordinates":[9.1967458,42.6094256]},"properties":{"id":155322,"name":"Olmeta-di-Tuda","state_code":"2B","country_code":"FR"}},{"type":"Feature","geometry":{"type":"Point","coordinates":[8.8412613,42.5173967]},"properties":{"id":155323,"name":"Olmi-Cappella","state_code":"2B","country_code":"FR"}},{"type":"Feature","geometry":{"type":"Point","coordinates":[9.3316465,42.501808]},"properties":{"id":155324,"name":"Olmo","state_code":"2B","country_code":"FR"}},{"type":"Feature","geometry":{"type":"Point","coordinates":[9.1123441,42.3869534]},"properties":{"id":155325,"name":"Omessa","state_code":"2B","country_code":"FR"}},{"type":"Feature","geometry":{"type":"Point","coordinates":[9.3954237,42.3104755]},"properties":{"id":155326,"name":"Ortale","state_code":"2B","country_code":"FR"}},{"type":"Feature","geometry":{"type":"Point","coordinates":[9.3046321,42.4567485]},"properties":{"id":155327,"name":"Ortiporio","state_code":"2B","country_code":"FR"}},{"type":"Feature","geometry":{"type":"Point","coordinates":[8.9787215,42.6358399]},"properties":{"id":155328,"name":"Palasca","state_code":"2B","country_code":"FR"}},{"type":"Feature","geometry":{"type":"Point","coordinates":[9.3270829,42.1890626]},"properties":{"id":155329,"name":"Pancheraccia","state_code":"2B","country_code":"FR"}},{"type":"Feature","geometry":{"type":"Point","coordinates":[9.3762457,42.3657583]},"properties":{"id":155330,"name":"Parata","state_code":"2B","country_code":"FR"}},{"type":"Feature","geometry":{"type":"Point","coordinates":[9.2824678,42.7092181]},"properties":{"id":155331,"name":"Patrimonio","state_code":"2B","country_code":"FR"}},{"type":"Feature","geometry":{"type":"Point","coordinates":[9.3523822,42.465141]},"properties":{"id":155332,"name":"Penta-Acquatella","state_code":"2B","country_code":"FR"}},{"type":"Feature","geometry":{"type":"Point","coordinates":[9.4065603,42.4564638]},"properties":{"id":44893,"name":"Penta-di-Casinca","state_code":"2B","country_code":"FR"}},{"type":"Feature","geometry":{"type":"Point","coordinates":[9.3465212,42.3144796]},"properties":{"id":155334,"name":"Perelli","state_code":"2B","country_code":"FR"}},{"type":"Feature","geometry":{"type":"Point","coordinates":[9.4229987,42.4167555]},"properties":{"id":155335,"name":"Pero-Casevecchie","state_code":"2B","country_code":"FR"}},{"type":"Feature","geometry":{"type":"Point","coordinates":[9.316564,42.3003847]},"properties":{"id":155336,"name":"Pianello","state_code":"2B","country_code":"FR"}},{"type":"Feature","geometry":{"type":"Point","coordinates":[9.3758158,42.4406967]},"properties":{"id":155337,"name":"Piano","state_code":"2B","country_code":"FR"}},{"type":"Feature","geometry":{"type":"Point","coordinates":[9.3839832,42.3195901]},"properties":{"id":155338,"name":"Piazzali","state_code":"2B","country_code":"FR"}},{"type":"Feature","geometry":{"type":"Point","coordinates":[9.3646613,42.3945559]},"properties":{"id":155339,"name":"Piazzole","state_code":"2B","country_code":"FR"}},{"type":"Feature","geometry":{"type":"Point","coordinates":[9.2992977,42.3755779]},"properties":{"id":155344,"name":"Pie-d'Orezza","state_code":"2B","country_code":"FR"}},{"type":"Feature","geometry":{"type":"Point","coordinates":[9.2401167,42.2174357]},"properties":{"id":155340,"name":"Piedicorte-di-Gaggio","state_code":"2B","country_code":"FR"}},{"type":"Feature","geometry":{"type":"Point","coordinates":[9.3259018,42.3846741]},"properties":{"id":155341,"name":"Piedicroce","state_code":"2B","country_code":"FR"}},{"type":"Feature","geometry":{"type":"Point","coordinates":[9.0976088,42.4455877]},"properties":{"id":155342,"name":"Piedigriggio","state_code":"2B","country_code":"FR"}},{"type":"Feature","geometry":{"type":"Point","coordinates":[9.3072069,42.3569393]},"properties":{"id":155343,"name":"Piedipartino","state_code":"2B","country_code":"FR"}},{"type":"Feature","geometry":{"type":"Point","coordinates":[9.4031773,42.2898295]},"properties":{"id":155346,"name":"Pietra-di-Verde","state_code":"2B","country_code":"FR"}},{"type":"Feature","geometry":{"type":"Point","coordinates":[9.3538872,42.8458677]},"properties":{"id":155345,"name":"Pietracorbara","state_code":"2B","country_code":"FR"}},{"type":"Feature","geometry":{"type":"Point","coordinates":[9.0955257,42.5426691]},"properties":{"id":155347,"name":"Pietralba","state_code":"2B","country_code":"FR"}},{"type":"Feature","geometry":{"type":"Point","coordinates":[9.45621,42.72338]},"properties":{"id":44966,"name":"Pietranera","state_code":"2B","country_code":"FR"}},{"type":"Feature","geometry":{"type":"Point","coordinates":[9.318842,42.2345561]},"properties":{"id":155348,"name":"Pietraserena","state_code":"2B","country_code":"FR"}},{"type":"Feature","geometry":{"type":"Point","coordinates":[9.3369228,42.3282982]},"properties":{"id":155349,"name":"Pietricaggio","state_code":"2B","country_code":"FR"}},{"type":"Feature","geometry":{"type":"Point","coordinates":[9.1546588,42.1260918]},"properties":{"id":155350,"name":"Pietroso","state_code":"2B","country_code":"FR"}},{"type":"Feature","geometry":{"type":"Point","coordinates":[9.1822879,42.6025318]},"properties":{"id":155351,"name":"Piève","state_code":"2B","country_code":"FR"}},{"type":"Feature","geometry":{"type":"Point","coordinates":[8.8589311,42.6002771]},"properties":{"id":155352,"name":"Pigna","state_code":"2B","country_code":"FR"}},{"type":"Feature","geometry":{"type":"Point","coordinates":[9.3106197,42.906327]},"properties":{"id":155353,"name":"Pino","state_code":"2B","country_code":"FR"}},{"type":"Feature","geometry":{"type":"Point","coordinates":[9.3281622,42.3408949]},"properties":{"id":155354,"name":"Piobetta","state_code":"2B","country_code":"FR"}},{"type":"Feature","geometry":{"type":"Point","coordinates":[8.8873908,42.5250541]},"properties":{"id":155355,"name":"Pioggiola","state_code":"2B","country_code":"FR"}},{"type":"Feature","geometry":{"type":"Point","coordinates":[9.2743347,42.6557654]},"properties":{"id":155358,"name":"Poggio-d'Oletta","state_code":"2B","country_code":"FR"}},{"type":"Feature","geometry":{"type":"Point","coordinates":[9.135369,42.0538093]},"properties":{"id":155356,"name":"Poggio-di-Nazza","state_code":"2B","country_code":"FR"}},{"type":"Feature","geometry":{"type":"Point","coordinates":[9.1225775,42.2690125]},"properties":{"id":155357,"name":"Poggio-di-Venaco","state_code":"2B","country_code":"FR"}},{"type":"Feature","geometry":{"type":"Point","coordinates":[9.3081681,42.4373762]},"properties":{"id":155359,"name":"Poggio-Marinaccio","state_code":"2B","country_code":"FR"}},{"type":"Feature","geometry":{"type":"Point","coordinates":[9.4709486,42.4009139]},"properties":{"id":155360,"name":"Poggio-Mezzana","state_code":"2B","country_code":"FR"}},{"type":"Feature","geometry":{"type":"Point","coordinates":[9.3214083,42.401062]},"properties":{"id":155361,"name":"Polveroso","state_code":"2B","country_code":"FR"}},{"type":"Feature","geometry":{"type":"Point","coordinates":[9.0506017,42.4379056]},"properties":{"id":155362,"name":"Popolasca","state_code":"2B","country_code":"FR"}},{"type":"Feature","geometry":{"type":"Point","coordinates":[9.4033609,42.4486154]},"properties":{"id":155363,"name":"Porri","state_code":"2B","country_code":"FR"}},{"type":"Feature","geometry":{"type":"Point","coordinates":[9.092827,42.4179599]},"properties":{"id":155365,"name":"Prato-di-Giovellina","state_code":"2B","country_code":"FR"}},{"type":"Feature","geometry":{"type":"Point","coordinates":[9.3631961,42.5093937]},"properties":{"id":155366,"name":"Prunelli-di-Casacconi","state_code":"2B","country_code":"FR"}},{"type":"Feature","geometry":{"type":"Point","coordinates":[9.210395,42.0068226]},"properties":{"id":45300,"name":"Prunelli-di-Fiumorbo","state_code":"2B","country_code":"FR"}},{"type":"Feature","geometry":{"type":"Point","coordinates":[9.4061626,42.4267536]},"properties":{"id":155368,"name":"Pruno","state_code":"2B","country_code":"FR"}},{"type":"Feature","geometry":{"type":"Point","coordinates":[9.3099936,42.4279197]},"properties":{"id":155369,"name":"Quercitello","state_code":"2B","country_code":"FR"}},{"type":"Feature","geometry":{"type":"Point","coordinates":[9.3641664,42.376843]},"properties":{"id":155370,"name":"Rapaggio","state_code":"2B","country_code":"FR"}},{"type":"Feature","geometry":{"type":"Point","coordinates":[9.2094074,42.6204118]},"properties":{"id":155371,"name":"Rapale","state_code":"2B","country_code":"FR"}},{"type":"Feature","geometry":{"type":"Point","coordinates":[9.1238776,42.2483681]},"properties":{"id":155372,"name":"Riventosa","state_code":"2B","country_code":"FR"}},{"type":"Feature","geometry":{"type":"Point","coordinates":[9.3500611,42.9739303]},"properties":{"id":155373,"name":"Rogliano","state_code":"2B","country_code":"FR"}},{"type":"Feature","geometry":{"type":"Point","coordinates":[9.1976229,42.1921544]},"properties":{"id":155374,"name":"Rospigliani","state_code":"2B","country_code":"FR"}},{"type":"Feature","geometry":{"type":"Point","coordinates":[9.2161207,42.3500617]},"properties":{"id":155375,"name":"Rusio","state_code":"2B","country_code":"FR"}},{"type":"Feature","geometry":{"type":"Point","coordinates":[9.3007023,42.5808304]},"properties":{"id":155376,"name":"Rutali","state_code":"2B","country_code":"FR"}},{"type":"Feature","geometry":{"type":"Point","coordinates":[9.1196405,42.69192]},"properties":{"id":45932,"name":"Saint-Florent","state_code":"2B","country_code":"FR"}},{"type":"Feature","geometry":{"type":"Point","coordinates":[9.0975099,42.412479]},"properties":{"id":155378,"name":"Saliceto","state_code":"2B","country_code":"FR"}},{"type":"Feature","geometry":{"type":"Point","coordinates":[9.3355285,42.4040427]},"properties":{"id":155379,"name":"San-Damiano","state_code":"2B","country_code":"FR"}},{"type":"Feature","geometry":{"type":"Point","coordinates":[9.4059996,42.4173435]},"properties":{"id":155380,"name":"San-Gavino-d'Ampugnani","state_code":"2B","country_code":"FR"}},{"type":"Feature","geometry":{"type":"Point","coordinates":[9.174253,41.9657275]},"properties":{"id":155381,"name":"San-Gavino-di-Fiumorbo","state_code":"2B","country_code":"FR"}},{"type":"Feature","geometry":{"type":"Point","coordinates":[8.8507215,42.6501082]},"properties":{"id":155382,"name":"San-Gavino-di-Tenda","state_code":"2B","country_code":"FR"}},{"type":"Feature","geometry":{"type":"Point","coordinates":[9.3784547,42.3713409]},"properties":{"id":155383,"name":"San-Giovanni-di-Moriani","state_code":"2B","country_code":"FR"}},{"type":"Feature","geometry":{"type":"Point","coordinates":[9.43895,42.284409]},"properties":{"id":155384,"name":"San-Giuliano","state_code":"2B","country_code":"FR"}},{"type":"Feature","geometry":{"type":"Point","coordinates":[9.2093507,42.3907027]},"properties":{"id":155385,"name":"San-Lorenzo","state_code":"2B","country_code":"FR"}},{"type":"Feature","geometry":{"type":"Point","coordinates":[9.3466934,42.7306111]},"properties":{"id":46778,"name":"San-Martino-di-Lota","state_code":"2B","country_code":"FR"}},{"type":"Feature","geometry":{"type":"Point","coordinates":[9.4246337,42.3686814]},"properties":{"id":46779,"name":"San-Nicolao","state_code":"2B","country_code":"FR"}},{"type":"Feature","geometry":{"type":"Point","coordinates":[9.1975574,42.2751312]},"properties":{"id":155392,"name":"Sant'Andréa-di-Bozio","state_code":"2B","country_code":"FR"}},{"type":"Feature","geometry":{"type":"Point","coordinates":[9.4355838,42.3187767]},"properties":{"id":155393,"name":"Sant'Andréa-di-Cotone","state_code":"2B","country_code":"FR"}},{"type":"Feature","geometry":{"type":"Point","coordinates":[8.8683147,42.5861592]},"properties":{"id":155394,"name":"Sant'Antonino","state_code":"2B","country_code":"FR"}},{"type":"Feature","geometry":{"type":"Point","coordinates":[9.1394362,42.318557]},"properties":{"id":155388,"name":"Santa-Lucia-di-Mercurio","state_code":"2B","country_code":"FR"}},{"type":"Feature","geometry":{"type":"Point","coordinates":[9.4678011,42.3841194]},"properties":{"id":46795,"name":"Santa-Lucia-di-Moriani","state_code":"2B","country_code":"FR"}},{"type":"Feature","geometry":{"type":"Point","coordinates":[9.3458199,42.7543783]},"properties":{"id":46796,"name":"Santa-Maria-di-Lota","state_code":"2B","country_code":"FR"}},{"type":"Feature","geometry":{"type":"Point","coordinates":[9.4267446,42.3498866]},"properties":{"id":155391,"name":"Santa-Maria-Poggio","state_code":"2B","country_code":"FR"}},{"type":"Feature","geometry":{"type":"Point","coordinates":[8.891987,42.6038437]},"properties":{"id":155395,"name":"Santa-Reparata-di-Balagna","state_code":"2B","country_code":"FR"}},{"type":"Feature","geometry":{"type":"Point","coordinates":[9.4140546,42.3516002]},"properties":{"id":155396,"name":"Santa-Reparata-di-Moriani","state_code":"2B","country_code":"FR"}},{"type":"Feature","geometry":{"type":"Point","coordinates":[9.0347283,42.6677982]},"properties":{"id":155397,"name":"Santo-Pietro-di-Tenda","state_code":"2B","country_code":"FR"}},{"type":"Feature","geometry":{"type":"Point","coordinates":[9.0940235,42.2472639]},"properties":{"id":155398,"name":"Santo-Pietro-di-Venaco","state_code":"2B","country_code":"FR"}},{"type":"Feature","geometry":{"type":"Point","coordinates":[9.383616,42.4225789]},"properties":{"id":155399,"name":"Scata","state_code":"2B","country_code":"FR"}},{"type":"Feature","geometry":{"type":"Point","coordinates":[9.3263069,42.5389274]},"properties":{"id":155400,"name":"Scolca","state_code":"2B","country_code":"FR"}},{"type":"Feature","geometry":{"type":"Point","coordinates":[9.2224785,42.3156026]},"properties":{"id":155401,"name":"Sermano","state_code":"2B","country_code":"FR"}},{"type":"Feature","geometry":{"type":"Point","coordinates":[9.170445,41.9668895]},"properties":{"id":155402,"name":"Serra-di-Fiumorbo","state_code":"2B","country_code":"FR"}},{"type":"Feature","geometry":{"type":"Point","coordinates":[9.3754421,42.4514425]},"properties":{"id":155403,"name":"Silvareccio","state_code":"2B","country_code":"FR"}},{"type":"Feature","geometry":{"type":"Point","coordinates":[9.3564972,42.8153412]},"properties":{"id":47007,"name":"Sisco","state_code":"2B","country_code":"FR"}},{"type":"Feature","geometry":{"type":"Point","coordinates":[9.1532684,41.8790698]},"properties":{"id":155405,"name":"Solaro","state_code":"2B","country_code":"FR"}},{"type":"Feature","geometry":{"type":"Point","coordinates":[9.400543,42.4812397]},"properties":{"id":155406,"name":"Sorbo-Ocagnano","state_code":"2B","country_code":"FR"}},{"type":"Feature","geometry":{"type":"Point","coordinates":[9.1625246,42.5781726]},"properties":{"id":155407,"name":"Sorio","state_code":"2B","country_code":"FR"}},{"type":"Feature","geometry":{"type":"Point","coordinates":[9.0601151,42.3473891]},"properties":{"id":155408,"name":"Soveria","state_code":"2B","country_code":"FR"}},{"type":"Feature","geometry":{"type":"Point","coordinates":[8.9319335,42.5757362]},"properties":{"id":155409,"name":"Speloncato","state_code":"2B","country_code":"FR"}},{"type":"Feature","geometry":{"type":"Point","coordinates":[9.3539489,42.3800599]},"properties":{"id":155410,"name":"Stazzona","state_code":"2B","country_code":"FR"}},{"type":"Feature","geometry":{"type":"Point","coordinates":[9.4182409,42.4337436]},"properties":{"id":155411,"name":"Taglio-Isolaccio","state_code":"2B","country_code":"FR"}},{"type":"Feature","geometry":{"type":"Point","coordinates":[9.4252215,42.4163904]},"properties":{"id":155412,"name":"Talasani","state_code":"2B","country_code":"FR"}},{"type":"Feature","geometry":{"type":"Point","coordinates":[9.3049642,42.1898575]},"properties":{"id":155413,"name":"Tallone","state_code":"2B","country_code":"FR"}},{"type":"Feature","geometry":{"type":"Point","coordinates":[9.3800103,42.3437885]},"properties":{"id":155414,"name":"Tarrano","state_code":"2B","country_code":"FR"}},{"type":"Feature","geometry":{"type":"Point","coordinates":[9.4035405,42.9459302]},"properties":{"id":155415,"name":"Tomino","state_code":"2B","country_code":"FR"}},{"type":"Feature","geometry":{"type":"Point","coordinates":[9.3612246,42.2454601]},"properties":{"id":155416,"name":"Tox","state_code":"2B","country_code":"FR"}},{"type":"Feature","geometry":{"type":"Point","coordinates":[9.1132355,42.3390385]},"properties":{"id":155417,"name":"Tralonca","state_code":"2B","country_code":"FR"}},{"type":"Feature","geometry":{"type":"Point","coordinates":[8.9883453,42.6256297]},"properties":{"id":155418,"name":"Urtaca","state_code":"2B","country_code":"FR"}},{"type":"Feature","geometry":{"type":"Point","coordinates":[9.3495847,42.3269082]},"properties":{"id":155420,"name":"Valle-d'Alesani","state_code":"2B","country_code":"FR"}},{"type":"Feature","geometry":{"type":"Point","coordinates":[9.364702,42.3636295]},"properties":{"id":155423,"name":"Valle-d'Orezza","state_code":"2B","country_code":"FR"}},{"type":"Feature","geometry":{"type":"Point","coordinates":[9.4287489,42.3334516]},"properties":{"id":155421,"name":"Valle-di-Campoloro","state_code":"2B","country_code":"FR"}},{"type":"Feature","geometry":{"type":"Point","coordinates":[9.1769314,42.4599969]},"properties":{"id":155422,"name":"Valle-di-Rostino","state_code":"2B","country_code":"FR"}},{"type":"Feature","geometry":{"type":"Point","coordinates":[9.2962145,42.6003038]},"properties":{"id":155419,"name":"Vallecalle","state_code":"2B","country_code":"FR"}},{"type":"Feature","geometry":{"type":"Point","coordinates":[9.0170928,42.5166489]},"properties":{"id":155424,"name":"Vallica","state_code":"2B","country_code":"FR"}},{"type":"Feature","geometry":{"type":"Point","coordinates":[9.3723055,42.3873809]},"properties":{"id":155425,"name":"Velone-Orneto","state_code":"2B","country_code":"FR"}},{"type":"Feature","geometry":{"type":"Point","coordinates":[8.9810231,42.2127832]},"properties":{"id":155426,"name":"Venaco","state_code":"2B","country_code":"FR"}},{"type":"Feature","geometry":{"type":"Point","coordinates":[9.1905375,41.9384161]},"properties":{"id":47588,"name":"Ventiseri","state_code":"2B","country_code":"FR"}},{"type":"Feature","geometry":{"type":"Point","coordinates":[9.3236708,42.4996424]},"properties":{"id":155428,"name":"Venzolasca","state_code":"2B","country_code":"FR"}},{"type":"Feature","geometry":{"type":"Point","coordinates":[9.3325721,42.3934595]},"properties":{"id":155429,"name":"Verdèse","state_code":"2B","country_code":"FR"}},{"type":"Feature","geometry":{"type":"Point","coordinates":[9.3107686,42.5121326]},"properties":{"id":47647,"name":"Vescovato","state_code":"2B","country_code":"FR"}},{"type":"Feature","geometry":{"type":"Point","coordinates":[9.1287519,42.1500122]},"properties":{"id":155431,"name":"Vezzani","state_code":"2B","country_code":"FR"}},{"type":"Feature","geometry":{"type":"Point","coordinates":[9.3173098,42.5389388]},"properties":{"id":155432,"name":"Vignale","state_code":"2B","country_code":"FR"}},{"type":"Feature","geometry":{"type":"Point","coordinates":[8.9504785,42.5845103]},"properties":{"id":155433,"name":"Ville-di-Paraso","state_code":"2B","country_code":"FR"}},{"type":"Feature","geometry":{"type":"Point","coordinates":[9.3439082,42.7164961]},"properties":{"id":155434,"name":"Ville-di-Pietrabugno","state_code":"2B","country_code":"FR"}},{"type":"Feature","geometry":{"type":"Point","coordinates":[8.9490721,42.1428225]},"properties":{"id":155435,"name":"Vivario","state_code":"2B","country_code":"FR"}},{"type":"Feature","geometry":{"type":"Point","coordinates":[9.2858771,42.524476]},"properties":{"id":155436,"name":"Volpajola","state_code":"2B","country_code":"FR"}},{"type":"Feature","geometry":{"type":"Point","coordinates":[9.3012938,42.2529864]},"properties":{"id":155437,"name":"Zalana","state_code":"2B","country_code":"FR"}},{"type":"Feature","geometry":{"type":"Point","coordinates":[8.8165079,42.5180829]},"properties":{"id":155438,"name":"Zilia","state_code":"2B","country_code":"FR"}},{"type":"Feature","geometry":{"type":"Point","coordinates":[9.3007649,42.2650785]},"properties":{"id":155439,"name":"Zuani","state_code":"2B","country_code":"FR"}}]}