{"type":"FeatureCollection","features":[{"type":"Feature","geometry":{"type":"Point","coordinates":[3.29529,43.44925]},"properties":{"id":39236,"name":"Abeilhan","state_code":"34","country_code":"FR"}},{"type":"Feature","geometry":{"type":"Point","coordinates":[3.47583,43.31083]},"properties":{"id":39257,"name":"Agde","state_code":"34","country_code":"FR"}},{"type":"Feature","geometry":{"type":"Point","coordinates":[3.34165,43.46945]},"properties":{"id":39314,"name":"Alignan-du-Vent","state_code":"34","country_code":"FR"}},{"type":"Feature","geometry":{"type":"Point","coordinates":[3.58747,43.68448]},"properties":{"id":39410,"name":"Aniane","state_code":"34","country_code":"FR"}},{"type":"Feature","geometry":{"type":"Point","coordinates":[3.45031,43.56586]},"properties":{"id":39549,"name":"Aspiran","state_code":"34","country_code":"FR"}},{"type":"Feature","geometry":{"type":"Point","coordinates":[3.9,43.70278]},"properties":{"id":39551,"name":"Assas","state_code":"34","country_code":"FR"}},{"type":"Feature","geometry":{"type":"Point","coordinates":[4.01681,43.66267]},"properties":{"id":39720,"name":"Baillargues","state_code":"34","country_code":"FR"}},{"type":"Feature","geometry":{"type":"Point","coordinates":[3.6853,43.4614]},"properties":{"id":39745,"name":"Balaruc-le-Vieux","state_code":"34","country_code":"FR"}},{"type":"Feature","geometry":{"type":"Point","coordinates":[3.6778,43.4417]},"properties":{"id":39746,"name":"Balaruc-les-Bains","state_code":"34","country_code":"FR"}},{"type":"Feature","geometry":{"type":"Point","coordinates":[3.25396,43.4106]},"properties":{"id":39797,"name":"Bassan","state_code":"34","country_code":"FR"}},{"type":"Feature","geometry":{"type":"Point","coordinates":[4.02194,43.72861]},"properties":{"id":39850,"name":"Beaulieu","state_code":"34","country_code":"FR"}},{"type":"Feature","geometry":{"type":"Point","coordinates":[3.15714,43.61553]},"properties":{"id":40412,"name":"Bédarieux","state_code":"34","country_code":"FR"}},{"type":"Feature","geometry":{"type":"Point","coordinates":[3.42288,43.36196]},"properties":{"id":39973,"name":"Bessan","state_code":"34","country_code":"FR"}},{"type":"Feature","geometry":{"type":"Point","coordinates":[3.21402,43.34122]},"properties":{"id":40436,"name":"Béziers","state_code":"34","country_code":"FR"}},{"type":"Feature","geometry":{"type":"Point","coordinates":[4.0797,43.75795]},"properties":{"id":40094,"name":"Boisseron","state_code":"34","country_code":"FR"}},{"type":"Feature","geometry":{"type":"Point","coordinates":[3.24759,43.36996]},"properties":{"id":40161,"name":"Boujan-sur-Libron","state_code":"34","country_code":"FR"}},{"type":"Feature","geometry":{"type":"Point","coordinates":[3.65781,43.4481]},"properties":{"id":40234,"name":"Bouzigues","state_code":"34","country_code":"FR"}},{"type":"Feature","geometry":{"type":"Point","coordinates":[4.06924,43.62052]},"properties":{"id":40506,"name":"Candillargues","state_code":"34","country_code":"FR"}},{"type":"Feature","geometry":{"type":"Point","coordinates":[3.04447,43.32791]},"properties":{"id":40528,"name":"Capestang","state_code":"34","country_code":"FR"}},{"type":"Feature","geometry":{"type":"Point","coordinates":[3.43708,43.43398]},"properties":{"id":40584,"name":"Castelnau-de-Guers","state_code":"34","country_code":"FR"}},{"type":"Feature","geometry":{"type":"Point","coordinates":[3.9,43.63333]},"properties":{"id":40587,"name":"Castelnau-le-Lez","state_code":"34","country_code":"FR"}},{"type":"Feature","geometry":{"type":"Point","coordinates":[3.98222,43.67972]},"properties":{"id":40597,"name":"Castries","state_code":"34","country_code":"FR"}},{"type":"Feature","geometry":{"type":"Point","coordinates":[3.36709,43.50621]},"properties":{"id":40616,"name":"Caux","state_code":"34","country_code":"FR"}},{"type":"Feature","geometry":{"type":"Point","coordinates":[3.101,43.39218]},"properties":{"id":40627,"name":"Cazouls-lès-Béziers","state_code":"34","country_code":"FR"}},{"type":"Feature","geometry":{"type":"Point","coordinates":[3.3045,43.32352]},"properties":{"id":40654,"name":"Cers","state_code":"34","country_code":"FR"}},{"type":"Feature","geometry":{"type":"Point","coordinates":[3.05154,43.45011]},"properties":{"id":40658,"name":"Cessenon-sur-Orb","state_code":"34","country_code":"FR"}},{"type":"Feature","geometry":{"type":"Point","coordinates":[3.88917,43.65833]},"properties":{"id":41041,"name":"Clapiers","state_code":"34","country_code":"FR"}},{"type":"Feature","geometry":{"type":"Point","coordinates":[3.90522,43.86244]},"properties":{"id":41043,"name":"Claret","state_code":"34","country_code":"FR"}},{"type":"Feature","geometry":{"type":"Point","coordinates":[3.4017,43.6323]},"properties":{"id":161731,"name":"Clermont-l'Hérault","state_code":"34","country_code":"FR"}},{"type":"Feature","geometry":{"type":"Point","coordinates":[3.76767,43.67191]},"properties":{"id":41108,"name":"Combaillaux","state_code":"34","country_code":"FR"}},{"type":"Feature","geometry":{"type":"Point","coordinates":[3.19147,43.39957]},"properties":{"id":41188,"name":"Corneilhan","state_code":"34","country_code":"FR"}},{"type":"Feature","geometry":{"type":"Point","coordinates":[3.70556,43.54944]},"properties":{"id":41256,"name":"Cournonsec","state_code":"34","country_code":"FR"}},{"type":"Feature","geometry":{"type":"Point","coordinates":[3.72,43.55889]},"properties":{"id":41257,"name":"Cournonterral","state_code":"34","country_code":"FR"}},{"type":"Feature","geometry":{"type":"Point","coordinates":[3.01196,43.37524]},"properties":{"id":41303,"name":"Creissan","state_code":"34","country_code":"FR"}},{"type":"Feature","geometry":{"type":"Point","coordinates":[3.5,43.66667]},"properties":{"id":41618,"name":"Département de l'Hérault","state_code":"34","country_code":"FR"}},{"type":"Feature","geometry":{"type":"Point","coordinates":[4.081,43.7193]},"properties":{"id":161755,"name":"Entre-Vignes","state_code":"34","country_code":"FR"}},{"type":"Feature","geometry":{"type":"Point","coordinates":[3.77637,43.55057]},"properties":{"id":41761,"name":"Fabrègues","state_code":"34","country_code":"FR"}},{"type":"Feature","geometry":{"type":"Point","coordinates":[3.46638,43.38301]},"properties":{"id":41862,"name":"Florensac","state_code":"34","country_code":"FR"}},{"type":"Feature","geometry":{"type":"Point","coordinates":[3.754,43.44848]},"properties":{"id":41975,"name":"Frontignan","state_code":"34","country_code":"FR"}},{"type":"Feature","geometry":{"type":"Point","coordinates":[3.70784,43.9338]},"properties":{"id":42029,"name":"Ganges","state_code":"34","country_code":"FR"}},{"type":"Feature","geometry":{"type":"Point","coordinates":[3.71167,43.50028]},"properties":{"id":42090,"name":"Gigean","state_code":"34","country_code":"FR"}},{"type":"Feature","geometry":{"type":"Point","coordinates":[3.5509,43.652]},"properties":{"id":42091,"name":"Gignac","state_code":"34","country_code":"FR"}},{"type":"Feature","geometry":{"type":"Point","coordinates":[3.79865,43.64797]},"properties":{"id":42163,"name":"Grabels","state_code":"34","country_code":"FR"}},{"type":"Feature","geometry":{"type":"Point","coordinates":[3.11595,43.593]},"properties":{"id":42464,"name":"Hérépian","state_code":"34","country_code":"FR"}},{"type":"Feature","geometry":{"type":"Point","coordinates":[3.91222,43.66139]},"properties":{"id":42523,"name":"Jacou","state_code":"34","country_code":"FR"}},{"type":"Feature","geometry":{"type":"Point","coordinates":[3.81056,43.61389]},"properties":{"id":42598,"name":"Juvignac","state_code":"34","country_code":"FR"}},{"type":"Feature","geometry":{"type":"Point","coordinates":[4.08333,43.56667]},"properties":{"id":42772,"name":"La Grande-Motte","state_code":"34","country_code":"FR"}},{"type":"Feature","geometry":{"type":"Point","coordinates":[2.71667,43.6]},"properties":{"id":42873,"name":"La Salvetat-sur-Agout","state_code":"34","country_code":"FR"}},{"type":"Feature","geometry":{"type":"Point","coordinates":[3.15071,43.65186]},"properties":{"id":42894,"name":"La Tour-sur-Orb","state_code":"34","country_code":"FR"}},{"type":"Feature","geometry":{"type":"Point","coordinates":[3.08052,43.59786]},"properties":{"id":42979,"name":"Lamalou-les-Bains","state_code":"34","country_code":"FR"}},{"type":"Feature","geometry":{"type":"Point","coordinates":[4.07495,43.65157]},"properties":{"id":43046,"name":"Lansargues","state_code":"34","country_code":"FR"}},{"type":"Feature","geometry":{"type":"Point","coordinates":[3.72397,43.9232]},"properties":{"id":43075,"name":"Laroque","state_code":"34","country_code":"FR"}},{"type":"Feature","geometry":{"type":"Point","coordinates":[3.9046,43.56752]},"properties":{"id":43093,"name":"Lattes","state_code":"34","country_code":"FR"}},{"type":"Feature","geometry":{"type":"Point","coordinates":[3.19714,43.52238]},"properties":{"id":43098,"name":"Laurens","state_code":"34","country_code":"FR"}},{"type":"Feature","geometry":{"type":"Point","coordinates":[3.80611,43.58639]},"properties":{"id":43120,"name":"Lavérune","state_code":"34","country_code":"FR"}},{"type":"Feature","geometry":{"type":"Point","coordinates":[3.16746,43.69242]},"properties":{"id":43142,"name":"Le Bousquet-d’Orb","state_code":"34","country_code":"FR"}},{"type":"Feature","geometry":{"type":"Point","coordinates":[3.51357,43.27796]},"properties":{"id":43156,"name":"Le Cap d'Agde","state_code":"34","country_code":"FR"}},{"type":"Feature","geometry":{"type":"Point","coordinates":[3.93976,43.64807]},"properties":{"id":43178,"name":"Le Crès","state_code":"34","country_code":"FR"}},{"type":"Feature","geometry":{"type":"Point","coordinates":[3.52423,43.59195]},"properties":{"id":43279,"name":"Le Pouget","state_code":"34","country_code":"FR"}},{"type":"Feature","geometry":{"type":"Point","coordinates":[3.06156,43.57919]},"properties":{"id":43280,"name":"Le Poujol-sur-Orb","state_code":"34","country_code":"FR"}},{"type":"Feature","geometry":{"type":"Point","coordinates":[3.8136,43.72905]},"properties":{"id":43407,"name":"Les Matelles","state_code":"34","country_code":"FR"}},{"type":"Feature","geometry":{"type":"Point","coordinates":[3.17224,43.27366]},"properties":{"id":43439,"name":"Lespignan","state_code":"34","country_code":"FR"}},{"type":"Feature","geometry":{"type":"Point","coordinates":[3.43708,43.49368]},"properties":{"id":43699,"name":"Lézignan-la-Cèbe","state_code":"34","country_code":"FR"}},{"type":"Feature","geometry":{"type":"Point","coordinates":[3.23719,43.4186]},"properties":{"id":43470,"name":"Lieuran-lès-Béziers","state_code":"34","country_code":"FR"}},{"type":"Feature","geometry":{"type":"Point","coordinates":[3.16891,43.38462]},"properties":{"id":43475,"name":"Lignan-sur-Orb","state_code":"34","country_code":"FR"}},{"type":"Feature","geometry":{"type":"Point","coordinates":[3.31941,43.73166]},"properties":{"id":43537,"name":"Lodève","state_code":"34","country_code":"FR"}},{"type":"Feature","geometry":{"type":"Point","coordinates":[3.61381,43.44886]},"properties":{"id":43605,"name":"Loupian","state_code":"34","country_code":"FR"}},{"type":"Feature","geometry":{"type":"Point","coordinates":[4.13611,43.67778]},"properties":{"id":43652,"name":"Lunel","state_code":"34","country_code":"FR"}},{"type":"Feature","geometry":{"type":"Point","coordinates":[4.0925,43.6789]},"properties":{"id":43653,"name":"Lunel-Viel","state_code":"34","country_code":"FR"}},{"type":"Feature","geometry":{"type":"Point","coordinates":[3.22338,43.47095]},"properties":{"id":43717,"name":"Magalas","state_code":"34","country_code":"FR"}},{"type":"Feature","geometry":{"type":"Point","coordinates":[3.15643,43.36895]},"properties":{"id":43792,"name":"Maraussan","state_code":"34","country_code":"FR"}},{"type":"Feature","geometry":{"type":"Point","coordinates":[0.83454,48.33568]},"properties":{"id":43836,"name":"Margon","state_code":"34","country_code":"FR"}},{"type":"Feature","geometry":{"type":"Point","coordinates":[3.52795,43.35618]},"properties":{"id":43882,"name":"Marseillan","state_code":"34","country_code":"FR"}},{"type":"Feature","geometry":{"type":"Point","coordinates":[4.17448,43.66424]},"properties":{"id":43906,"name":"Marsillargues","state_code":"34","country_code":"FR"}},{"type":"Feature","geometry":{"type":"Point","coordinates":[4.00739,43.6181]},"properties":{"id":43947,"name":"Mauguio","state_code":"34","country_code":"FR"}},{"type":"Feature","geometry":{"type":"Point","coordinates":[3.11667,43.35]},"properties":{"id":43953,"name":"Maureilhan","state_code":"34","country_code":"FR"}},{"type":"Feature","geometry":{"type":"Point","coordinates":[3.6059,43.42504]},"properties":{"id":44453,"name":"Mèze","state_code":"34","country_code":"FR"}},{"type":"Feature","geometry":{"type":"Point","coordinates":[3.8017,43.5086]},"properties":{"id":44099,"name":"Mireval","state_code":"34","country_code":"FR"}},{"type":"Feature","geometry":{"type":"Point","coordinates":[3.1278,43.3359]},"properties":{"id":44164,"name":"Montady","state_code":"34","country_code":"FR"}},{"type":"Feature","geometry":{"type":"Point","coordinates":[3.48312,43.48087]},"properties":{"id":44165,"name":"Montagnac","state_code":"34","country_code":"FR"}},{"type":"Feature","geometry":{"type":"Point","coordinates":[3.6969,43.64743]},"properties":{"id":44180,"name":"Montarnaud","state_code":"34","country_code":"FR"}},{"type":"Feature","geometry":{"type":"Point","coordinates":[3.69667,43.51667]},"properties":{"id":44192,"name":"Montbazin","state_code":"34","country_code":"FR"}},{"type":"Feature","geometry":{"type":"Point","coordinates":[3.36752,43.39486]},"properties":{"id":44198,"name":"Montblanc","state_code":"34","country_code":"FR"}},{"type":"Feature","geometry":{"type":"Point","coordinates":[3.85439,43.66742]},"properties":{"id":44239,"name":"Montferrier-sur-Lez","state_code":"34","country_code":"FR"}},{"type":"Feature","geometry":{"type":"Point","coordinates":[3.87723,43.61092]},"properties":{"id":44298,"name":"Montpellier","state_code":"34","country_code":"FR"}},{"type":"Feature","geometry":{"type":"Point","coordinates":[3.50542,43.6959]},"properties":{"id":44299,"name":"Montpeyroux","state_code":"34","country_code":"FR"}},{"type":"Feature","geometry":{"type":"Point","coordinates":[4.03333,43.63333]},"properties":{"id":44429,"name":"Mudaison","state_code":"34","country_code":"FR"}},{"type":"Feature","geometry":{"type":"Point","coordinates":[3.13333,43.43333]},"properties":{"id":44442,"name":"Murviel-lès-Béziers","state_code":"34","country_code":"FR"}},{"type":"Feature","geometry":{"type":"Point","coordinates":[3.7375,43.60528]},"properties":{"id":44443,"name":"Murviel-lès-Montpellier","state_code":"34","country_code":"FR"}},{"type":"Feature","geometry":{"type":"Point","coordinates":[3.43133,43.60657]},"properties":{"id":44692,"name":"Nébian","state_code":"34","country_code":"FR"}},{"type":"Feature","geometry":{"type":"Point","coordinates":[3.12705,43.28961]},"properties":{"id":44602,"name":"Nissan-lez-Enserune","state_code":"34","country_code":"FR"}},{"type":"Feature","geometry":{"type":"Point","coordinates":[2.73098,43.28294]},"properties":{"id":44738,"name":"Olonzac","state_code":"34","country_code":"FR"}},{"type":"Feature","geometry":{"type":"Point","coordinates":[3.92705,43.52805]},"properties":{"id":44836,"name":"Palavas-les-Flots","state_code":"34","country_code":"FR"}},{"type":"Feature","geometry":{"type":"Point","coordinates":[3.4576,43.53944]},"properties":{"id":44871,"name":"Paulhan","state_code":"34","country_code":"FR"}},{"type":"Feature","geometry":{"type":"Point","coordinates":[3.95203,43.56313]},"properties":{"id":45360,"name":"Pérols","state_code":"34","country_code":"FR"}},{"type":"Feature","geometry":{"type":"Point","coordinates":[3.42384,43.45953]},"properties":{"id":45366,"name":"Pézenas","state_code":"34","country_code":"FR"}},{"type":"Feature","geometry":{"type":"Point","coordinates":[3.75981,43.58365]},"properties":{"id":44968,"name":"Pignan","state_code":"34","country_code":"FR"}},{"type":"Feature","geometry":{"type":"Point","coordinates":[3.51,43.40556]},"properties":{"id":44970,"name":"Pinet","state_code":"34","country_code":"FR"}},{"type":"Feature","geometry":{"type":"Point","coordinates":[3.49944,43.39139]},"properties":{"id":45159,"name":"Pomérols","state_code":"34","country_code":"FR"}},{"type":"Feature","geometry":{"type":"Point","coordinates":[3.33365,43.3046]},"properties":{"id":45244,"name":"Portiragnes","state_code":"34","country_code":"FR"}},{"type":"Feature","geometry":{"type":"Point","coordinates":[3.67083,43.48944]},"properties":{"id":45268,"name":"Poussan","state_code":"34","country_code":"FR"}},{"type":"Feature","geometry":{"type":"Point","coordinates":[3.86463,43.69754]},"properties":{"id":45273,"name":"Prades-le-Lez","state_code":"34","country_code":"FR"}},{"type":"Feature","geometry":{"type":"Point","coordinates":[3.2369,43.45828]},"properties":{"id":45322,"name":"Puissalicon","state_code":"34","country_code":"FR"}},{"type":"Feature","geometry":{"type":"Point","coordinates":[3.04047,43.36767]},"properties":{"id":45323,"name":"Puisserguier","state_code":"34","country_code":"FR"}},{"type":"Feature","geometry":{"type":"Point","coordinates":[2.96228,43.34711]},"properties":{"id":45369,"name":"Quarante","state_code":"34","country_code":"FR"}},{"type":"Feature","geometry":{"type":"Point","coordinates":[4.03476,43.72252]},"properties":{"id":45466,"name":"Restinclières","state_code":"34","country_code":"FR"}},{"type":"Feature","geometry":{"type":"Point","coordinates":[5.39158,43.27808]},"properties":{"id":45618,"name":"Rouet","state_code":"34","country_code":"FR"}},{"type":"Feature","geometry":{"type":"Point","coordinates":[3.31071,43.50489]},"properties":{"id":45630,"name":"Roujan","state_code":"34","country_code":"FR"}},{"type":"Feature","geometry":{"type":"Point","coordinates":[3.50209,43.64753]},"properties":{"id":45758,"name":"Saint-André-de-Sangonis","state_code":"34","country_code":"FR"}},{"type":"Feature","geometry":{"type":"Point","coordinates":[3.96583,43.64083]},"properties":{"id":45795,"name":"Saint-Aunès","state_code":"34","country_code":"FR"}},{"type":"Feature","geometry":{"type":"Point","coordinates":[3.7358,43.89454]},"properties":{"id":45807,"name":"Saint-Bauzille-de-Putois","state_code":"34","country_code":"FR"}},{"type":"Feature","geometry":{"type":"Point","coordinates":[4.03105,43.66742]},"properties":{"id":45834,"name":"Saint-Brès","state_code":"34","country_code":"FR"}},{"type":"Feature","geometry":{"type":"Point","coordinates":[2.94643,43.42238]},"properties":{"id":45851,"name":"Saint-Chinian","state_code":"34","country_code":"FR"}},{"type":"Feature","geometry":{"type":"Point","coordinates":[4.07991,43.72805]},"properties":{"id":45853,"name":"Saint-Christol","state_code":"34","country_code":"FR"}},{"type":"Feature","geometry":{"type":"Point","coordinates":[3.83333,43.68333]},"properties":{"id":45871,"name":"Saint-Clément-de-Rivière","state_code":"34","country_code":"FR"}},{"type":"Feature","geometry":{"type":"Point","coordinates":[3.9762,43.72991]},"properties":{"id":45918,"name":"Saint-Drézéry","state_code":"34","country_code":"FR"}},{"type":"Feature","geometry":{"type":"Point","coordinates":[3.80492,43.69272]},"properties":{"id":46043,"name":"Saint-Gély-du-Fesc","state_code":"34","country_code":"FR"}},{"type":"Feature","geometry":{"type":"Point","coordinates":[3.18333,43.46667]},"properties":{"id":45966,"name":"Saint-Geniès-de-Fontedit","state_code":"34","country_code":"FR"}},{"type":"Feature","geometry":{"type":"Point","coordinates":[4.0361,43.6978]},"properties":{"id":45968,"name":"Saint-Geniès-des-Mourgues","state_code":"34","country_code":"FR"}},{"type":"Feature","geometry":{"type":"Point","coordinates":[3.775,43.6167]},"properties":{"id":161988,"name":"Saint-Georges-d'Orques","state_code":"34","country_code":"FR"}},{"type":"Feature","geometry":{"type":"Point","coordinates":[3.55171,43.701]},"properties":{"id":46090,"name":"Saint-Jean-de-Fos","state_code":"34","country_code":"FR"}},{"type":"Feature","geometry":{"type":"Point","coordinates":[3.82603,43.57759]},"properties":{"id":46104,"name":"Saint-Jean-de-Védas","state_code":"34","country_code":"FR"}},{"type":"Feature","geometry":{"type":"Point","coordinates":[3.73066,43.7904]},"properties":{"id":46274,"name":"Saint-Martin-de-Londres","state_code":"34","country_code":"FR"}},{"type":"Feature","geometry":{"type":"Point","coordinates":[3.85814,43.76795]},"properties":{"id":46306,"name":"Saint-Mathieu-de-Tréviers","state_code":"34","country_code":"FR"}},{"type":"Feature","geometry":{"type":"Point","coordinates":[3.5187,43.52766]},"properties":{"id":46395,"name":"Saint-Pargoire","state_code":"34","country_code":"FR"}},{"type":"Feature","geometry":{"type":"Point","coordinates":[2.76667,43.48333]},"properties":{"id":46458,"name":"Saint-Pons-de-Thomières","state_code":"34","country_code":"FR"}},{"type":"Feature","geometry":{"type":"Point","coordinates":[3.41774,43.39657]},"properties":{"id":46580,"name":"Saint-Thibéry","state_code":"34","country_code":"FR"}},{"type":"Feature","geometry":{"type":"Point","coordinates":[3.775,43.5722]},"properties":{"id":46854,"name":"Saussan","state_code":"34","country_code":"FR"}},{"type":"Feature","geometry":{"type":"Point","coordinates":[3.26024,43.29293]},"properties":{"id":46864,"name":"Sauvian","state_code":"34","country_code":"FR"}},{"type":"Feature","geometry":{"type":"Point","coordinates":[3.27712,43.27873]},"properties":{"id":47144,"name":"Sérignan","state_code":"34","country_code":"FR"}},{"type":"Feature","geometry":{"type":"Point","coordinates":[3.30032,43.42716]},"properties":{"id":46972,"name":"Servian","state_code":"34","country_code":"FR"}},{"type":"Feature","geometry":{"type":"Point","coordinates":[3.69278,43.4028]},"properties":{"id":47129,"name":"Sète","state_code":"34","country_code":"FR"}},{"type":"Feature","geometry":{"type":"Point","coordinates":[4.0031,43.7125]},"properties":{"id":47126,"name":"Sussargues","state_code":"34","country_code":"FR"}},{"type":"Feature","geometry":{"type":"Point","coordinates":[3.92889,43.68528]},"properties":{"id":47215,"name":"Teyran","state_code":"34","country_code":"FR"}},{"type":"Feature","geometry":{"type":"Point","coordinates":[3.16667,43.41667]},"properties":{"id":47274,"name":"Thézan-lès-Béziers","state_code":"34","country_code":"FR"}},{"type":"Feature","geometry":{"type":"Point","coordinates":[3.37852,43.44615]},"properties":{"id":47319,"name":"Tourbes","state_code":"34","country_code":"FR"}},{"type":"Feature","geometry":{"type":"Point","coordinates":[3.72042,43.67159]},"properties":{"id":47455,"name":"Vailhauquès","state_code":"34","country_code":"FR"}},{"type":"Feature","geometry":{"type":"Point","coordinates":[4.06124,43.66824]},"properties":{"id":47480,"name":"Valergues","state_code":"34","country_code":"FR"}},{"type":"Feature","geometry":{"type":"Point","coordinates":[3.29032,43.24808]},"properties":{"id":47498,"name":"Valras-Plage","state_code":"34","country_code":"FR"}},{"type":"Feature","geometry":{"type":"Point","coordinates":[3.36506,43.41956]},"properties":{"id":47499,"name":"Valros","state_code":"34","country_code":"FR"}},{"type":"Feature","geometry":{"type":"Point","coordinates":[3.97,43.65833]},"properties":{"id":47566,"name":"Vendargues","state_code":"34","country_code":"FR"}},{"type":"Feature","geometry":{"type":"Point","coordinates":[3.22341,43.26977]},"properties":{"id":47577,"name":"Vendres","state_code":"34","country_code":"FR"}},{"type":"Feature","geometry":{"type":"Point","coordinates":[3.41774,43.31156]},"properties":{"id":47661,"name":"Vias","state_code":"34","country_code":"FR"}},{"type":"Feature","geometry":{"type":"Point","coordinates":[3.7975,43.4908]},"properties":{"id":47665,"name":"Vic-la-Gardiole","state_code":"34","country_code":"FR"}},{"type":"Feature","geometry":{"type":"Point","coordinates":[3.28059,43.31517]},"properties":{"id":47781,"name":"Villeneuve-lès-Béziers","state_code":"34","country_code":"FR"}},{"type":"Feature","geometry":{"type":"Point","coordinates":[3.86667,43.53333]},"properties":{"id":47782,"name":"Villeneuve-lès-Maguelone","state_code":"34","country_code":"FR"}},{"type":"Feature","geometry":{"type":"Point","coordinates":[4.13658,43.73105]},"properties":{"id":47816,"name":"Villetelle","state_code":"34","country_code":"FR"}},{"type":"Feature","geometry":{"type":"Point","coordinates":[3.60723,43.50095]},"properties":{"id":47820,"name":"Villeveyrac","state_code":"34","country_code":"FR"}}]}