{"type":"FeatureCollection","features":[{"type":"Feature","geometry":{"type":"Point","coordinates":[0.02458,47.29338]},"properties":{"id":39330,"name":"Allonnes","state_code":"49","country_code":"FR"}},{"type":"Feature","geometry":{"type":"Point","coordinates":[-0.39752,47.45659]},"properties":{"id":39378,"name":"Andard","state_code":"49","country_code":"FR"}},{"type":"Feature","geometry":{"type":"Point","coordinates":[-0.95239,47.17155]},"properties":{"id":39389,"name":"Andrezé","state_code":"49","country_code":"FR"}},{"type":"Feature","geometry":{"type":"Point","coordinates":[-0.54774,47.47381]},"properties":{"id":39396,"name":"Angers","state_code":"49","country_code":"FR"}},{"type":"Feature","geometry":{"type":"Point","coordinates":[-0.58333,47.5]},"properties":{"id":39680,"name":"Avrillé","state_code":"49","country_code":"FR"}},{"type":"Feature","geometry":{"type":"Point","coordinates":[-0.10653,47.54447]},"properties":{"id":39810,"name":"Baugé-en-Anjou","state_code":"49","country_code":"FR"}},{"type":"Feature","geometry":{"type":"Point","coordinates":[-0.31906,47.49954]},"properties":{"id":39815,"name":"Bauné","state_code":"49","country_code":"FR"}},{"type":"Feature","geometry":{"type":"Point","coordinates":[-0.63016,47.47444]},"properties":{"id":39842,"name":"Beaucouzé","state_code":"49","country_code":"FR"}},{"type":"Feature","geometry":{"type":"Point","coordinates":[-0.2063,47.4374]},"properties":{"id":161681,"name":"Beaufort-en-Anjou","state_code":"49","country_code":"FR"}},{"type":"Feature","geometry":{"type":"Point","coordinates":[-0.2189,47.43965]},"properties":{"id":39847,"name":"Beaufort-en-Vallée","state_code":"49","country_code":"FR"}},{"type":"Feature","geometry":{"type":"Point","coordinates":[-0.58988,47.31095]},"properties":{"id":39854,"name":"Beaulieu-sur-Layon","state_code":"49","country_code":"FR"}},{"type":"Feature","geometry":{"type":"Point","coordinates":[-0.98703,47.20464]},"properties":{"id":39876,"name":"Beaupréau","state_code":"49","country_code":"FR"}},{"type":"Feature","geometry":{"type":"Point","coordinates":[-0.9844,47.2028]},"properties":{"id":161683,"name":"Beaupréau-en-Mauges","state_code":"49","country_code":"FR"}},{"type":"Feature","geometry":{"type":"Point","coordinates":[-0.8,47.50134]},"properties":{"id":40411,"name":"Bécon-les-Granits","state_code":"49","country_code":"FR"}},{"type":"Feature","geometry":{"type":"Point","coordinates":[-0.94,47.14048]},"properties":{"id":40419,"name":"Bégrolles-en-Mauges","state_code":"49","country_code":"FR"}},{"type":"Feature","geometry":{"type":"Point","coordinates":[-0.5395,47.2719]},"properties":{"id":161686,"name":"Bellevigne-en-Layon","state_code":"49","country_code":"FR"}},{"type":"Feature","geometry":{"type":"Point","coordinates":[-0.0449,47.1781]},"properties":{"id":161687,"name":"Bellevigne-les-Châteaux","state_code":"49","country_code":"FR"}},{"type":"Feature","geometry":{"type":"Point","coordinates":[-0.37723,47.39951]},"properties":{"id":40051,"name":"Blaison-Gohier","state_code":"49","country_code":"FR"}},{"type":"Feature","geometry":{"type":"Point","coordinates":[-0.60888,47.42234]},"properties":{"id":40152,"name":"Bouchemaine","state_code":"49","country_code":"FR"}},{"type":"Feature","geometry":{"type":"Point","coordinates":[0.06514,47.30325]},"properties":{"id":40248,"name":"Brain-sur-Allonnes","state_code":"49","country_code":"FR"}},{"type":"Feature","geometry":{"type":"Point","coordinates":[-0.06059,47.17357]},"properties":{"id":40364,"name":"Brézé","state_code":"49","country_code":"FR"}},{"type":"Feature","geometry":{"type":"Point","coordinates":[-0.50681,47.56478]},"properties":{"id":40318,"name":"Briollay","state_code":"49","country_code":"FR"}},{"type":"Feature","geometry":{"type":"Point","coordinates":[-0.4087,47.3392]},"properties":{"id":161706,"name":"Brissac Loire Aubance","state_code":"49","country_code":"FR"}},{"type":"Feature","geometry":{"type":"Point","coordinates":[-0.44924,47.35575]},"properties":{"id":40326,"name":"Brissac-Quincé","state_code":"49","country_code":"FR"}},{"type":"Feature","geometry":{"type":"Point","coordinates":[-1.03619,47.56158]},"properties":{"id":40507,"name":"Candé","state_code":"49","country_code":"FR"}},{"type":"Feature","geometry":{"type":"Point","coordinates":[-0.56899,47.53503]},"properties":{"id":40520,"name":"Cantenay-Épinard","state_code":"49","country_code":"FR"}},{"type":"Feature","geometry":{"type":"Point","coordinates":[-0.07179,47.21435]},"properties":{"id":40673,"name":"Chacé","state_code":"49","country_code":"FR"}},{"type":"Feature","geometry":{"type":"Point","coordinates":[-0.7631,47.3516]},"properties":{"id":40699,"name":"Chalonnes-sur-Loire","state_code":"49","country_code":"FR"}},{"type":"Feature","geometry":{"type":"Point","coordinates":[-0.5716,47.66332]},"properties":{"id":40743,"name":"Champigné","state_code":"49","country_code":"FR"}},{"type":"Feature","geometry":{"type":"Point","coordinates":[-0.86452,47.41239]},"properties":{"id":40753,"name":"Champtocé-sur-Loire","state_code":"49","country_code":"FR"}},{"type":"Feature","geometry":{"type":"Point","coordinates":[-0.48652,47.68145]},"properties":{"id":40975,"name":"Châteauneuf-sur-Sarthe","state_code":"49","country_code":"FR"}},{"type":"Feature","geometry":{"type":"Point","coordinates":[-0.98547,47.28809]},"properties":{"id":40838,"name":"Chaudron-en-Mauges","state_code":"49","country_code":"FR"}},{"type":"Feature","geometry":{"type":"Point","coordinates":[-0.6964,47.2211]},"properties":{"id":161720,"name":"Chemillé-en-Anjou","state_code":"49","country_code":"FR"}},{"type":"Feature","geometry":{"type":"Point","coordinates":[-0.72488,47.21476]},"properties":{"id":40872,"name":"Chemillé-Melay","state_code":"49","country_code":"FR"}},{"type":"Feature","geometry":{"type":"Point","coordinates":[-0.16042,47.31084]},"properties":{"id":41018,"name":"Chênehutte-Trèves-Cunault","state_code":"49","country_code":"FR"}},{"type":"Feature","geometry":{"type":"Point","coordinates":[-0.87953,47.05905]},"properties":{"id":40924,"name":"Cholet","state_code":"49","country_code":"FR"}},{"type":"Feature","geometry":{"type":"Point","coordinates":[-1.03003,47.70446]},"properties":{"id":41114,"name":"Combrée","state_code":"49","country_code":"FR"}},{"type":"Feature","geometry":{"type":"Point","coordinates":[-0.34992,47.47091]},"properties":{"id":41197,"name":"Corné","state_code":"49","country_code":"FR"}},{"type":"Feature","geometry":{"type":"Point","coordinates":[-0.64512,47.12726]},"properties":{"id":41198,"name":"Coron","state_code":"49","country_code":"FR"}},{"type":"Feature","geometry":{"type":"Point","coordinates":[-0.39062,47.55956]},"properties":{"id":41206,"name":"Corzé","state_code":"49","country_code":"FR"}},{"type":"Feature","geometry":{"type":"Point","coordinates":[-0.36119,47.7007]},"properties":{"id":41440,"name":"Daumeray","state_code":"49","country_code":"FR"}},{"type":"Feature","geometry":{"type":"Point","coordinates":[-0.60816,47.37885]},"properties":{"id":41453,"name":"Denée","state_code":"49","country_code":"FR"}},{"type":"Feature","geometry":{"type":"Point","coordinates":[-0.33333,47.5]},"properties":{"id":41606,"name":"Département de Maine-et-Loire","state_code":"49","country_code":"FR"}},{"type":"Feature","geometry":{"type":"Point","coordinates":[-0.11071,47.22281]},"properties":{"id":41494,"name":"Distré","state_code":"49","country_code":"FR"}},{"type":"Feature","geometry":{"type":"Point","coordinates":[-0.3053,47.1988]},"properties":{"id":161751,"name":"Doué-en-Anjou","state_code":"49","country_code":"FR"}},{"type":"Feature","geometry":{"type":"Point","coordinates":[-0.27492,47.19372]},"properties":{"id":41562,"name":"Doué-la-Fontaine","state_code":"49","country_code":"FR"}},{"type":"Feature","geometry":{"type":"Point","coordinates":[-0.23393,47.67247]},"properties":{"id":41596,"name":"Durtal","state_code":"49","country_code":"FR"}},{"type":"Feature","geometry":{"type":"Point","coordinates":[-0.5278,47.53101]},"properties":{"id":48048,"name":"Écouflant","state_code":"49","country_code":"FR"}},{"type":"Feature","geometry":{"type":"Point","coordinates":[-0.8178,47.589]},"properties":{"id":161758,"name":"Erdre-en-Anjou","state_code":"49","country_code":"FR"}},{"type":"Feature","geometry":{"type":"Point","coordinates":[-0.44377,47.65087]},"properties":{"id":48112,"name":"Étriché","state_code":"49","country_code":"FR"}},{"type":"Feature","geometry":{"type":"Point","coordinates":[-0.59422,47.57211]},"properties":{"id":41798,"name":"Feneu","state_code":"49","country_code":"FR"}},{"type":"Feature","geometry":{"type":"Point","coordinates":[0.05,47.18333]},"properties":{"id":41905,"name":"Fontevraud-l'Abbaye","state_code":"49","country_code":"FR"}},{"type":"Feature","geometry":{"type":"Point","coordinates":[-0.2352,47.3424]},"properties":{"id":161771,"name":"Gennes-Val-de-Loire","state_code":"49","country_code":"FR"}},{"type":"Feature","geometry":{"type":"Point","coordinates":[-0.68193,47.60288]},"properties":{"id":42203,"name":"Grez-Neuville","state_code":"49","country_code":"FR"}},{"type":"Feature","geometry":{"type":"Point","coordinates":[-0.92336,47.405]},"properties":{"id":42488,"name":"Ingrandes","state_code":"49","country_code":"FR"}},{"type":"Feature","geometry":{"type":"Point","coordinates":[-0.9323,47.4319]},"properties":{"id":161786,"name":"Ingrandes-le-Fresne-sur-Loire","state_code":"49","country_code":"FR"}},{"type":"Feature","geometry":{"type":"Point","coordinates":[-0.86738,47.19691]},"properties":{"id":42524,"name":"Jallais","state_code":"49","country_code":"FR"}},{"type":"Feature","geometry":{"type":"Point","coordinates":[-0.23183,47.55563]},"properties":{"id":42537,"name":"Jarzé","state_code":"49","country_code":"FR"}},{"type":"Feature","geometry":{"type":"Point","coordinates":[-0.2563,47.5606]},"properties":{"id":161789,"name":"Jarzé Villages","state_code":"49","country_code":"FR"}},{"type":"Feature","geometry":{"type":"Point","coordinates":[-0.39405,47.71878]},"properties":{"id":42582,"name":"Juigné","state_code":"49","country_code":"FR"}},{"type":"Feature","geometry":{"type":"Point","coordinates":[-0.47682,47.40741]},"properties":{"id":42583,"name":"Juigné-sur-Loire","state_code":"49","country_code":"FR"}},{"type":"Feature","geometry":{"type":"Point","coordinates":[-0.39723,47.42095]},"properties":{"id":42644,"name":"La Bohalle","state_code":"49","country_code":"FR"}},{"type":"Feature","geometry":{"type":"Point","coordinates":[-1.01857,47.18203]},"properties":{"id":42695,"name":"La Chapelle-du-Genêt","state_code":"49","country_code":"FR"}},{"type":"Feature","geometry":{"type":"Point","coordinates":[-0.43128,47.41934]},"properties":{"id":42727,"name":"La Daguenière","state_code":"49","country_code":"FR"}},{"type":"Feature","geometry":{"type":"Point","coordinates":[-0.89215,47.17202]},"properties":{"id":42787,"name":"La Jubaudière","state_code":"49","country_code":"FR"}},{"type":"Feature","geometry":{"type":"Point","coordinates":[-0.72952,47.27976]},"properties":{"id":42788,"name":"La Jumellière","state_code":"49","country_code":"FR"}},{"type":"Feature","geometry":{"type":"Point","coordinates":[-0.66861,47.517]},"properties":{"id":42801,"name":"La Meignanne","state_code":"49","country_code":"FR"}},{"type":"Feature","geometry":{"type":"Point","coordinates":[-0.67236,47.55991]},"properties":{"id":42805,"name":"La Membrolle-sur-Longuenée","state_code":"49","country_code":"FR"}},{"type":"Feature","geometry":{"type":"Point","coordinates":[-0.26667,47.4]},"properties":{"id":42822,"name":"La Ménitré","state_code":"49","country_code":"FR"}},{"type":"Feature","geometry":{"type":"Point","coordinates":[-0.68539,47.37485]},"properties":{"id":42837,"name":"La Possonnière","state_code":"49","country_code":"FR"}},{"type":"Feature","geometry":{"type":"Point","coordinates":[-0.80928,47.55357]},"properties":{"id":42838,"name":"La Pouëze","state_code":"49","country_code":"FR"}},{"type":"Feature","geometry":{"type":"Point","coordinates":[-1.02,47.06119]},"properties":{"id":42864,"name":"La Romagne","state_code":"49","country_code":"FR"}},{"type":"Feature","geometry":{"type":"Point","coordinates":[-0.97512,47.25013]},"properties":{"id":42870,"name":"La Salle-et-Chapelle-Aubry","state_code":"49","country_code":"FR"}},{"type":"Feature","geometry":{"type":"Point","coordinates":[-0.93857,47.06357]},"properties":{"id":42882,"name":"La Séguinière","state_code":"49","country_code":"FR"}},{"type":"Feature","geometry":{"type":"Point","coordinates":[-0.85119,47.00476]},"properties":{"id":42886,"name":"La Tessoualle","state_code":"49","country_code":"FR"}},{"type":"Feature","geometry":{"type":"Point","coordinates":[-0.69688,47.14375]},"properties":{"id":42895,"name":"La Tourlandry","state_code":"49","country_code":"FR"}},{"type":"Feature","geometry":{"type":"Point","coordinates":[-1.04214,47.22143]},"properties":{"id":43187,"name":"Le Fief-Sauvin","state_code":"49","country_code":"FR"}},{"type":"Feature","geometry":{"type":"Point","coordinates":[-0.7517,47.634]},"properties":{"id":161840,"name":"Le Lion-d'Angers","state_code":"49","country_code":"FR"}},{"type":"Feature","geometry":{"type":"Point","coordinates":[-0.88663,47.52211]},"properties":{"id":43215,"name":"Le Louroux-Béconnais","state_code":"49","country_code":"FR"}},{"type":"Feature","geometry":{"type":"Point","coordinates":[-0.89227,47.13714]},"properties":{"id":43223,"name":"Le May-sur-Èvre","state_code":"49","country_code":"FR"}},{"type":"Feature","geometry":{"type":"Point","coordinates":[-0.93485,47.36551]},"properties":{"id":43229,"name":"Le Mesnil-en-Vallée","state_code":"49","country_code":"FR"}},{"type":"Feature","geometry":{"type":"Point","coordinates":[-0.89917,47.25357]},"properties":{"id":43260,"name":"Le Pin-en-Mauges","state_code":"49","country_code":"FR"}},{"type":"Feature","geometry":{"type":"Point","coordinates":[-0.43021,47.49884]},"properties":{"id":43266,"name":"Le Plessis-Grammoire","state_code":"49","country_code":"FR"}},{"type":"Feature","geometry":{"type":"Point","coordinates":[-0.67436,47.54304]},"properties":{"id":43267,"name":"Le Plessis-Macé","state_code":"49","country_code":"FR"}},{"type":"Feature","geometry":{"type":"Point","coordinates":[-0.23572,47.12551]},"properties":{"id":43285,"name":"Le Puy-Notre-Dame","state_code":"49","country_code":"FR"}},{"type":"Feature","geometry":{"type":"Point","coordinates":[-0.11888,47.53193]},"properties":{"id":43332,"name":"Le Vieil-Baugé","state_code":"49","country_code":"FR"}},{"type":"Feature","geometry":{"type":"Point","coordinates":[-0.1695,47.4536]},"properties":{"id":161854,"name":"Les Bois d'Anjou","state_code":"49","country_code":"FR"}},{"type":"Feature","geometry":{"type":"Point","coordinates":[-0.4727,47.3851]},"properties":{"id":161855,"name":"Les Garennes sur Loire","state_code":"49","country_code":"FR"}},{"type":"Feature","geometry":{"type":"Point","coordinates":[-0.5499,47.697]},"properties":{"id":161856,"name":"Les Hauts-d'Anjou","state_code":"49","country_code":"FR"}},{"type":"Feature","geometry":{"type":"Point","coordinates":[-0.52477,47.42315]},"properties":{"id":43422,"name":"Les Ponts-de-Cé","state_code":"49","country_code":"FR"}},{"type":"Feature","geometry":{"type":"Point","coordinates":[-0.21667,47.35]},"properties":{"id":43425,"name":"Les Rosiers-sur-Loire","state_code":"49","country_code":"FR"}},{"type":"Feature","geometry":{"type":"Point","coordinates":[-0.3734,47.4695]},"properties":{"id":161866,"name":"Loire-Authion","state_code":"49","country_code":"FR"}},{"type":"Feature","geometry":{"type":"Point","coordinates":[-0.1092,47.3961]},"properties":{"id":161871,"name":"Longué-Jumelles","state_code":"49","country_code":"FR"}},{"type":"Feature","geometry":{"type":"Point","coordinates":[-0.6797,47.5523]},"properties":{"id":161870,"name":"Longuenée-en-Anjou","state_code":"49","country_code":"FR"}},{"type":"Feature","geometry":{"type":"Point","coordinates":[-0.4618,47.1504]},"properties":{"id":161873,"name":"Lys-Haut-Layon","state_code":"49","country_code":"FR"}},{"type":"Feature","geometry":{"type":"Point","coordinates":[-0.42933,47.23358]},"properties":{"id":43913,"name":"Martigné-Briand","state_code":"49","country_code":"FR"}},{"type":"Feature","geometry":{"type":"Point","coordinates":[-0.9351,47.3435]},"properties":{"id":161887,"name":"Mauges-sur-Loire","state_code":"49","country_code":"FR"}},{"type":"Feature","geometry":{"type":"Point","coordinates":[-0.74239,47.00929]},"properties":{"id":43950,"name":"Maulévrier","state_code":"49","country_code":"FR"}},{"type":"Feature","geometry":{"type":"Point","coordinates":[-0.27106,47.45632]},"properties":{"id":43980,"name":"Mazé","state_code":"49","country_code":"FR"}},{"type":"Feature","geometry":{"type":"Point","coordinates":[-0.2785,47.4713]},"properties":{"id":161889,"name":"Mazé-Milon","state_code":"49","country_code":"FR"}},{"type":"Feature","geometry":{"type":"Point","coordinates":[-0.81702,47.04536]},"properties":{"id":43977,"name":"Mazières-en-Mauges","state_code":"49","country_code":"FR"}},{"type":"Feature","geometry":{"type":"Point","coordinates":[-0.69429,47.18333]},"properties":{"id":43991,"name":"Melay","state_code":"49","country_code":"FR"}},{"type":"Feature","geometry":{"type":"Point","coordinates":[-0.49157,47.75759]},"properties":{"id":44102,"name":"Miré","state_code":"49","country_code":"FR"}},{"type":"Feature","geometry":{"type":"Point","coordinates":[-1.11667,47.1]},"properties":{"id":44232,"name":"Montfaucon-Montigné","state_code":"49","country_code":"FR"}},{"type":"Feature","geometry":{"type":"Point","coordinates":[-0.85873,47.38842]},"properties":{"id":44266,"name":"Montjean-sur-Loire","state_code":"49","country_code":"FR"}},{"type":"Feature","geometry":{"type":"Point","coordinates":[-0.15209,47.13106]},"properties":{"id":44309,"name":"Montreuil-Bellay","state_code":"49","country_code":"FR"}},{"type":"Feature","geometry":{"type":"Point","coordinates":[-0.6178,47.5451]},"properties":{"id":161901,"name":"Montreuil-Juigné","state_code":"49","country_code":"FR"}},{"type":"Feature","geometry":{"type":"Point","coordinates":[-1.04679,47.25965]},"properties":{"id":44315,"name":"Montrevault","state_code":"49","country_code":"FR"}},{"type":"Feature","geometry":{"type":"Point","coordinates":[-1.0204,47.2494]},"properties":{"id":161902,"name":"Montrevault-sur-Èvre","state_code":"49","country_code":"FR"}},{"type":"Feature","geometry":{"type":"Point","coordinates":[-0.41604,47.74364]},"properties":{"id":44342,"name":"Morannes","state_code":"49","country_code":"FR"}},{"type":"Feature","geometry":{"type":"Point","coordinates":[-0.3816,47.7181]},"properties":{"id":161907,"name":"Morannes sur Sarthe-Daumeray","state_code":"49","country_code":"FR"}},{"type":"Feature","geometry":{"type":"Point","coordinates":[-0.55295,47.35856]},"properties":{"id":44426,"name":"Mozé-sur-Louet","state_code":"49","country_code":"FR"}},{"type":"Feature","geometry":{"type":"Point","coordinates":[-0.55,47.4]},"properties":{"id":44494,"name":"Mûrs-Erigné","state_code":"49","country_code":"FR"}},{"type":"Feature","geometry":{"type":"Point","coordinates":[0.11771,47.51048]},"properties":{"id":44672,"name":"Noyant","state_code":"49","country_code":"FR"}},{"type":"Feature","geometry":{"type":"Point","coordinates":[-0.9573,47.70348]},"properties":{"id":44673,"name":"Noyant-la-Gravoyère","state_code":"49","country_code":"FR"}},{"type":"Feature","geometry":{"type":"Point","coordinates":[0.1027,47.5111]},"properties":{"id":161921,"name":"Noyant-Villages","state_code":"49","country_code":"FR"}},{"type":"Feature","geometry":{"type":"Point","coordinates":[-0.79477,47.09524]},"properties":{"id":44684,"name":"Nuaillé","state_code":"49","country_code":"FR"}},{"type":"Feature","geometry":{"type":"Point","coordinates":[-0.36573,47.11811]},"properties":{"id":44686,"name":"Nueil-sur-Layon","state_code":"49","country_code":"FR"}},{"type":"Feature","geometry":{"type":"Point","coordinates":[-0.91667,47.71667]},"properties":{"id":44689,"name":"Nyoiseau","state_code":"49","country_code":"FR"}},{"type":"Feature","geometry":{"type":"Point","coordinates":[-1.1086,47.7232]},"properties":{"id":161923,"name":"Ombrée d'Anjou","state_code":"49","country_code":"FR"}},{"type":"Feature","geometry":{"type":"Point","coordinates":[0.16312,47.43668]},"properties":{"id":44861,"name":"Parçay-les-Pins","state_code":"49","country_code":"FR"}},{"type":"Feature","geometry":{"type":"Point","coordinates":[-0.43954,47.52172]},"properties":{"id":44887,"name":"Pellouailles-les-Vignes","state_code":"49","country_code":"FR"}},{"type":"Feature","geometry":{"type":"Point","coordinates":[-1.17366,47.74167]},"properties":{"id":45249,"name":"Pouancé","state_code":"49","country_code":"FR"}},{"type":"Feature","geometry":{"type":"Point","coordinates":[-0.4448,47.5572]},"properties":{"id":161964,"name":"Rives-du-Loir-en-Anjou","state_code":"49","country_code":"FR"}},{"type":"Feature","geometry":{"type":"Point","coordinates":[-0.65696,47.35705]},"properties":{"id":45546,"name":"Rochefort-sur-Loire","state_code":"49","country_code":"FR"}},{"type":"Feature","geometry":{"type":"Point","coordinates":[-1.06417,47.09011]},"properties":{"id":45636,"name":"Roussay","state_code":"49","country_code":"FR"}},{"type":"Feature","geometry":{"type":"Point","coordinates":[-0.99441,47.09952]},"properties":{"id":45760,"name":"Saint-André-de-la-Marche","state_code":"49","country_code":"FR"}},{"type":"Feature","geometry":{"type":"Point","coordinates":[-0.4826,47.4741]},"properties":{"id":161977,"name":"Saint-Barthélemy-d'Anjou","state_code":"49","country_code":"FR"}},{"type":"Feature","geometry":{"type":"Point","coordinates":[-0.94441,47.03012]},"properties":{"id":45857,"name":"Saint-Christophe-du-Bois","state_code":"49","country_code":"FR"}},{"type":"Feature","geometry":{"type":"Point","coordinates":[-0.74545,47.52744]},"properties":{"id":45872,"name":"Saint-Clément-de-la-Place","state_code":"49","country_code":"FR"}},{"type":"Feature","geometry":{"type":"Point","coordinates":[-0.18222,47.33333]},"properties":{"id":45873,"name":"Saint-Clément-des-Levées","state_code":"49","country_code":"FR"}},{"type":"Feature","geometry":{"type":"Point","coordinates":[-0.06085,47.1952]},"properties":{"id":45883,"name":"Saint-Cyr-en-Bourg","state_code":"49","country_code":"FR"}},{"type":"Feature","geometry":{"type":"Point","coordinates":[-0.76194,47.40792]},"properties":{"id":45991,"name":"Saint-Georges-sur-Loire","state_code":"49","country_code":"FR"}},{"type":"Feature","geometry":{"type":"Point","coordinates":[-0.44929,47.39857]},"properties":{"id":46108,"name":"Saint-Jean-des-Mauvrets","state_code":"49","country_code":"FR"}},{"type":"Feature","geometry":{"type":"Point","coordinates":[-0.63321,47.3025]},"properties":{"id":46168,"name":"Saint-Lambert-du-Lattay","state_code":"49","country_code":"FR"}},{"type":"Feature","geometry":{"type":"Point","coordinates":[-0.67789,47.48289]},"properties":{"id":46169,"name":"Saint-Lambert-la-Potherie","state_code":"49","country_code":"FR"}},{"type":"Feature","geometry":{"type":"Point","coordinates":[-0.80333,47.31738]},"properties":{"id":46178,"name":"Saint-Laurent-de-la-Plaine","state_code":"49","country_code":"FR"}},{"type":"Feature","geometry":{"type":"Point","coordinates":[-0.7069,47.4609]},"properties":{"id":161998,"name":"Saint-Léger-de-Linières","state_code":"49","country_code":"FR"}},{"type":"Feature","geometry":{"type":"Point","coordinates":[-0.70953,47.46238]},"properties":{"id":46211,"name":"Saint-Léger-des-Bois","state_code":"49","country_code":"FR"}},{"type":"Feature","geometry":{"type":"Point","coordinates":[-0.91024,47.09405]},"properties":{"id":46217,"name":"Saint-Léger-sous-Cholet","state_code":"49","country_code":"FR"}},{"type":"Feature","geometry":{"type":"Point","coordinates":[-0.9912,47.12357]},"properties":{"id":46227,"name":"Saint-Macaire-en-Mauges","state_code":"49","country_code":"FR"}},{"type":"Feature","geometry":{"type":"Point","coordinates":[-0.14849,47.31747]},"properties":{"id":46281,"name":"Saint-Martin-de-la-Place","state_code":"49","country_code":"FR"}},{"type":"Feature","geometry":{"type":"Point","coordinates":[-0.70357,47.4336]},"properties":{"id":46286,"name":"Saint-Martin-du-Fouilloux","state_code":"49","country_code":"FR"}},{"type":"Feature","geometry":{"type":"Point","coordinates":[-0.31667,47.41667]},"properties":{"id":46308,"name":"Saint-Mathurin-sur-Loire","state_code":"49","country_code":"FR"}},{"type":"Feature","geometry":{"type":"Point","coordinates":[-0.5,47.36667]},"properties":{"id":46327,"name":"Saint-Melaine-sur-Aubance","state_code":"49","country_code":"FR"}},{"type":"Feature","geometry":{"type":"Point","coordinates":[-0.0436,47.39314]},"properties":{"id":46425,"name":"Saint-Philbert-du-Peuple","state_code":"49","country_code":"FR"}},{"type":"Feature","geometry":{"type":"Point","coordinates":[-1.02738,47.26976]},"properties":{"id":46429,"name":"Saint-Pierre-Montlimart","state_code":"49","country_code":"FR"}},{"type":"Feature","geometry":{"type":"Point","coordinates":[-0.91191,47.2913]},"properties":{"id":46488,"name":"Saint-Quentin-en-Mauges","state_code":"49","country_code":"FR"}},{"type":"Feature","geometry":{"type":"Point","coordinates":[-1.07499,47.27202]},"properties":{"id":46512,"name":"Saint-Rémy-en-Mauges","state_code":"49","country_code":"FR"}},{"type":"Feature","geometry":{"type":"Point","coordinates":[-0.43565,47.39438]},"properties":{"id":46524,"name":"Saint-Saturnin-sur-Loire","state_code":"49","country_code":"FR"}},{"type":"Feature","geometry":{"type":"Point","coordinates":[-0.55684,47.4229]},"properties":{"id":46690,"name":"Sainte-Gemmes-sur-Loire","state_code":"49","country_code":"FR"}},{"type":"Feature","geometry":{"type":"Point","coordinates":[-0.07796,47.25908]},"properties":{"id":46852,"name":"Saumur","state_code":"49","country_code":"FR"}},{"type":"Feature","geometry":{"type":"Point","coordinates":[-0.65708,47.38225]},"properties":{"id":46872,"name":"Savennières","state_code":"49","country_code":"FR"}},{"type":"Feature","geometry":{"type":"Point","coordinates":[-0.87237,47.68646]},"properties":{"id":46915,"name":"Segré","state_code":"49","country_code":"FR"}},{"type":"Feature","geometry":{"type":"Point","coordinates":[-0.854,47.7111]},"properties":{"id":162027,"name":"Segré-en-Anjou Bleu","state_code":"49","country_code":"FR"}},{"type":"Feature","geometry":{"type":"Point","coordinates":[-0.35628,47.57351]},"properties":{"id":46917,"name":"Seiches-sur-le-Loir","state_code":"49","country_code":"FR"}},{"type":"Feature","geometry":{"type":"Point","coordinates":[-1.0968,47.0878]},"properties":{"id":162031,"name":"Sèvremoine","state_code":"49","country_code":"FR"}},{"type":"Feature","geometry":{"type":"Point","coordinates":[-0.41819,47.56848]},"properties":{"id":47057,"name":"Soucelles","state_code":"49","country_code":"FR"}},{"type":"Feature","geometry":{"type":"Point","coordinates":[-0.52265,47.36381]},"properties":{"id":47069,"name":"Soulaines-sur-Aubance","state_code":"49","country_code":"FR"}},{"type":"Feature","geometry":{"type":"Point","coordinates":[-0.55232,47.57896]},"properties":{"id":47070,"name":"Soulaire-et-Bourg","state_code":"49","country_code":"FR"}},{"type":"Feature","geometry":{"type":"Point","coordinates":[-0.443,47.269]},"properties":{"id":162035,"name":"Terranjou","state_code":"49","country_code":"FR"}},{"type":"Feature","geometry":{"type":"Point","coordinates":[-0.50186,47.26734]},"properties":{"id":47253,"name":"Thouarcé","state_code":"49","country_code":"FR"}},{"type":"Feature","geometry":{"type":"Point","coordinates":[-0.46609,47.61587]},"properties":{"id":47276,"name":"Tiercé","state_code":"49","country_code":"FR"}},{"type":"Feature","geometry":{"type":"Point","coordinates":[-0.76548,47.05488]},"properties":{"id":47342,"name":"Toutlemonde","state_code":"49","country_code":"FR"}},{"type":"Feature","geometry":{"type":"Point","coordinates":[-0.4654,47.44565]},"properties":{"id":47396,"name":"Trélazé","state_code":"49","country_code":"FR"}},{"type":"Feature","geometry":{"type":"Point","coordinates":[-0.785,47.12357]},"properties":{"id":47401,"name":"Trémentines","state_code":"49","country_code":"FR"}},{"type":"Feature","geometry":{"type":"Point","coordinates":[-0.9374,47.5049]},"properties":{"id":162056,"name":"Val d'Erdre-Auxence","state_code":"49","country_code":"FR"}},{"type":"Feature","geometry":{"type":"Point","coordinates":[-0.6529,47.3135]},"properties":{"id":162071,"name":"Val-du-Layon","state_code":"49","country_code":"FR"}},{"type":"Feature","geometry":{"type":"Point","coordinates":[0.0535,47.23767]},"properties":{"id":47515,"name":"Varennes-sur-Loire","state_code":"49","country_code":"FR"}},{"type":"Feature","geometry":{"type":"Point","coordinates":[-0.06033,47.22305]},"properties":{"id":47520,"name":"Varrains","state_code":"49","country_code":"FR"}},{"type":"Feature","geometry":{"type":"Point","coordinates":[-0.47678,47.33234]},"properties":{"id":47528,"name":"Vauchrétien","state_code":"49","country_code":"FR"}},{"type":"Feature","geometry":{"type":"Point","coordinates":[-0.20677,47.13813]},"properties":{"id":47531,"name":"Vaudelnay","state_code":"49","country_code":"FR"}},{"type":"Feature","geometry":{"type":"Point","coordinates":[-0.83357,47.60119]},"properties":{"id":47606,"name":"Vern-d’Anjou","state_code":"49","country_code":"FR"}},{"type":"Feature","geometry":{"type":"Point","coordinates":[0.05304,47.3932]},"properties":{"id":47609,"name":"Vernantes","state_code":"49","country_code":"FR"}},{"type":"Feature","geometry":{"type":"Point","coordinates":[0.08333,47.38333]},"properties":{"id":47618,"name":"Vernoil-le-Fourrier","state_code":"49","country_code":"FR"}},{"type":"Feature","geometry":{"type":"Point","coordinates":[-0.4746,47.5182]},"properties":{"id":162088,"name":"Verrières-en-Anjou","state_code":"49","country_code":"FR"}},{"type":"Feature","geometry":{"type":"Point","coordinates":[-0.70971,47.12015]},"properties":{"id":47658,"name":"Vezins","state_code":"49","country_code":"FR"}},{"type":"Feature","geometry":{"type":"Point","coordinates":[-0.53238,47.14631]},"properties":{"id":47703,"name":"Vihiers","state_code":"49","country_code":"FR"}},{"type":"Feature","geometry":{"type":"Point","coordinates":[-0.03229,47.25374]},"properties":{"id":47722,"name":"Villebernier","state_code":"49","country_code":"FR"}},{"type":"Feature","geometry":{"type":"Point","coordinates":[-1.06286,47.14738]},"properties":{"id":47729,"name":"Villedieu-la-Blouère","state_code":"49","country_code":"FR"}},{"type":"Feature","geometry":{"type":"Point","coordinates":[-0.42383,47.56095]},"properties":{"id":47823,"name":"Villevêque","state_code":"49","country_code":"FR"}},{"type":"Feature","geometry":{"type":"Point","coordinates":[-0.05531,47.32648]},"properties":{"id":47887,"name":"Vivy","state_code":"49","country_code":"FR"}},{"type":"Feature","geometry":{"type":"Point","coordinates":[-0.70295,47.02229]},"properties":{"id":48020,"name":"Yzernay","state_code":"49","country_code":"FR"}}]}