{"type":"FeatureCollection","features":[{"type":"Feature","geometry":{"type":"Point","coordinates":[-1.57191,43.40432]},"properties":{"id":39264,"name":"Ahetze","state_code":"64","country_code":"FR"}},{"type":"Feature","geometry":{"type":"Point","coordinates":[-1.51346,43.47664]},"properties":{"id":39403,"name":"Anglet","state_code":"64","country_code":"FR"}},{"type":"Feature","geometry":{"type":"Point","coordinates":[-1.55118,43.43248]},"properties":{"id":39450,"name":"Arbonne","state_code":"64","country_code":"FR"}},{"type":"Feature","geometry":{"type":"Point","coordinates":[-0.5,43.33333]},"properties":{"id":39453,"name":"Arbus","state_code":"64","country_code":"FR"}},{"type":"Feature","geometry":{"type":"Point","coordinates":[-1.52237,43.43124]},"properties":{"id":39458,"name":"Arcangues","state_code":"64","country_code":"FR"}},{"type":"Feature","geometry":{"type":"Point","coordinates":[-0.71667,43.1]},"properties":{"id":39472,"name":"Arette","state_code":"64","country_code":"FR"}},{"type":"Feature","geometry":{"type":"Point","coordinates":[-0.6,43.46667]},"properties":{"id":39523,"name":"Arthez-de-Béarn","state_code":"64","country_code":"FR"}},{"type":"Feature","geometry":{"type":"Point","coordinates":[-0.46667,43.31667]},"properties":{"id":39527,"name":"Artiguelouve","state_code":"64","country_code":"FR"}},{"type":"Feature","geometry":{"type":"Point","coordinates":[-0.57256,43.39667]},"properties":{"id":39529,"name":"Artix","state_code":"64","country_code":"FR"}},{"type":"Feature","geometry":{"type":"Point","coordinates":[-0.43333,43.1064]},"properties":{"id":39531,"name":"Arudy","state_code":"64","country_code":"FR"}},{"type":"Feature","geometry":{"type":"Point","coordinates":[-1.62073,43.34521]},"properties":{"id":39540,"name":"Ascain","state_code":"64","country_code":"FR"}},{"type":"Feature","geometry":{"type":"Point","coordinates":[-0.3,43.25]},"properties":{"id":39552,"name":"Assat","state_code":"64","country_code":"FR"}},{"type":"Feature","geometry":{"type":"Point","coordinates":[-0.25,43.15]},"properties":{"id":39553,"name":"Asson","state_code":"64","country_code":"FR"}},{"type":"Feature","geometry":{"type":"Point","coordinates":[-1.20347,43.47392]},"properties":{"id":39780,"name":"Bardos","state_code":"64","country_code":"FR"}},{"type":"Feature","geometry":{"type":"Point","coordinates":[-1.51647,43.44272]},"properties":{"id":39803,"name":"Bassussarry","state_code":"64","country_code":"FR"}},{"type":"Feature","geometry":{"type":"Point","coordinates":[-1.47624,43.49257]},"properties":{"id":39824,"name":"Bayonne","state_code":"64","country_code":"FR"}},{"type":"Feature","geometry":{"type":"Point","coordinates":[-0.21667,43.2]},"properties":{"id":40427,"name":"Bénéjacq","state_code":"64","country_code":"FR"}},{"type":"Feature","geometry":{"type":"Point","coordinates":[-1.55558,43.48012]},"properties":{"id":40006,"name":"Biarritz","state_code":"64","country_code":"FR"}},{"type":"Feature","geometry":{"type":"Point","coordinates":[-1.14121,43.48299]},"properties":{"id":40009,"name":"Bidache","state_code":"64","country_code":"FR"}},{"type":"Feature","geometry":{"type":"Point","coordinates":[-1.59127,43.4376]},"properties":{"id":40010,"name":"Bidart","state_code":"64","country_code":"FR"}},{"type":"Feature","geometry":{"type":"Point","coordinates":[-0.4,43.3]},"properties":{"id":40025,"name":"Billère","state_code":"64","country_code":"FR"}},{"type":"Feature","geometry":{"type":"Point","coordinates":[-0.35,43.28333]},"properties":{"id":40038,"name":"Bizanos","state_code":"64","country_code":"FR"}},{"type":"Feature","geometry":{"type":"Point","coordinates":[-0.26667,43.21667]},"properties":{"id":40079,"name":"Boeil-Bezing","state_code":"64","country_code":"FR"}},{"type":"Feature","geometry":{"type":"Point","coordinates":[-0.28333,43.23333]},"properties":{"id":40137,"name":"Bordes","state_code":"64","country_code":"FR"}},{"type":"Feature","geometry":{"type":"Point","coordinates":[-0.36667,43.21667]},"properties":{"id":40145,"name":"Bosdarros","state_code":"64","country_code":"FR"}},{"type":"Feature","geometry":{"type":"Point","coordinates":[-1.46556,43.5277]},"properties":{"id":40150,"name":"Boucau","state_code":"64","country_code":"FR"}},{"type":"Feature","geometry":{"type":"Point","coordinates":[-1.33353,43.45958]},"properties":{"id":40324,"name":"Briscous","state_code":"64","country_code":"FR"}},{"type":"Feature","geometry":{"type":"Point","coordinates":[-0.3,43.35]},"properties":{"id":40391,"name":"Buros","state_code":"64","country_code":"FR"}},{"type":"Feature","geometry":{"type":"Point","coordinates":[-1.40105,43.35851]},"properties":{"id":40488,"name":"Cambo-les-Bains","state_code":"64","country_code":"FR"}},{"type":"Feature","geometry":{"type":"Point","coordinates":[-0.86831,43.23096]},"properties":{"id":41014,"name":"Chéraute","state_code":"64","country_code":"FR"}},{"type":"Feature","geometry":{"type":"Point","coordinates":[-1.676,43.38287]},"properties":{"id":41019,"name":"Ciboure","state_code":"64","country_code":"FR"}},{"type":"Feature","geometry":{"type":"Point","coordinates":[-0.2313527,43.1693043]},"properties":{"id":41076,"name":"Coarraze","state_code":"64","country_code":"FR"}},{"type":"Feature","geometry":{"type":"Point","coordinates":[-0.5,43.36667]},"properties":{"id":41451,"name":"Denguin","state_code":"64","country_code":"FR"}},{"type":"Feature","geometry":{"type":"Point","coordinates":[-0.81642,43.23587]},"properties":{"id":41638,"name":"Département des Pyrénées-Atlantiques","state_code":"64","country_code":"FR"}},{"type":"Feature","geometry":{"type":"Point","coordinates":[-1.44737,43.34015]},"properties":{"id":41718,"name":"Espelette","state_code":"64","country_code":"FR"}},{"type":"Feature","geometry":{"type":"Point","coordinates":[-0.38333,43.23333]},"properties":{"id":42027,"name":"Gan","state_code":"64","country_code":"FR"}},{"type":"Feature","geometry":{"type":"Point","coordinates":[-0.27321,43.55927]},"properties":{"id":42045,"name":"Garlin","state_code":"64","country_code":"FR"}},{"type":"Feature","geometry":{"type":"Point","coordinates":[-0.36667,43.28333]},"properties":{"id":42060,"name":"Gelos","state_code":"64","country_code":"FR"}},{"type":"Feature","geometry":{"type":"Point","coordinates":[-0.05,43.25]},"properties":{"id":42071,"name":"Ger","state_code":"64","country_code":"FR"}},{"type":"Feature","geometry":{"type":"Point","coordinates":[-1.61073,43.42285]},"properties":{"id":42289,"name":"Guéthary","state_code":"64","country_code":"FR"}},{"type":"Feature","geometry":{"type":"Point","coordinates":[-1.30499,43.38377]},"properties":{"id":42333,"name":"Hasparren","state_code":"64","country_code":"FR"}},{"type":"Feature","geometry":{"type":"Point","coordinates":[-1.77382,43.37172]},"properties":{"id":42367,"name":"Hendaye","state_code":"64","country_code":"FR"}},{"type":"Feature","geometry":{"type":"Point","coordinates":[-0.31667,43.28333]},"properties":{"id":42470,"name":"Idron","state_code":"64","country_code":"FR"}},{"type":"Feature","geometry":{"type":"Point","coordinates":[-0.2327802,43.1599245]},"properties":{"id":42475,"name":"Igon","state_code":"64","country_code":"FR"}},{"type":"Feature","geometry":{"type":"Point","coordinates":[-1.40617,43.32893]},"properties":{"id":42515,"name":"Itxassou","state_code":"64","country_code":"FR"}},{"type":"Feature","geometry":{"type":"Point","coordinates":[-0.38694,43.2883]},"properties":{"id":42594,"name":"Jurançon","state_code":"64","country_code":"FR"}},{"type":"Feature","geometry":{"type":"Point","coordinates":[-0.65,43.38333]},"properties":{"id":42960,"name":"Lagor","state_code":"64","country_code":"FR"}},{"type":"Feature","geometry":{"type":"Point","coordinates":[-1.39101,43.48248]},"properties":{"id":42966,"name":"Lahonce","state_code":"64","country_code":"FR"}},{"type":"Feature","geometry":{"type":"Point","coordinates":[-1.43976,43.36792]},"properties":{"id":43079,"name":"Larressore","state_code":"64","country_code":"FR"}},{"type":"Feature","geometry":{"type":"Point","coordinates":[-0.42658,42.98826]},"properties":{"id":43081,"name":"Laruns","state_code":"64","country_code":"FR"}},{"type":"Feature","geometry":{"type":"Point","coordinates":[-0.48333,43.23333]},"properties":{"id":43086,"name":"Lasseube","state_code":"64","country_code":"FR"}},{"type":"Feature","geometry":{"type":"Point","coordinates":[-0.61667,43.21667]},"properties":{"id":43340,"name":"Ledeuix","state_code":"64","country_code":"FR"}},{"type":"Feature","geometry":{"type":"Point","coordinates":[-0.41667,43.33333]},"properties":{"id":43436,"name":"Lescar","state_code":"64","country_code":"FR"}},{"type":"Feature","geometry":{"type":"Point","coordinates":[-0.21667,43.13333]},"properties":{"id":43443,"name":"Lestelle-Bétharram","state_code":"64","country_code":"FR"}},{"type":"Feature","geometry":{"type":"Point","coordinates":[-0.4,43.31667]},"properties":{"id":43576,"name":"Lons","state_code":"64","country_code":"FR"}},{"type":"Feature","geometry":{"type":"Point","coordinates":[-0.41928,43.08646]},"properties":{"id":43613,"name":"Louvie-Juzon","state_code":"64","country_code":"FR"}},{"type":"Feature","geometry":{"type":"Point","coordinates":[-0.66667,43.3]},"properties":{"id":43637,"name":"Lucq-de-Béarn","state_code":"64","country_code":"FR"}},{"type":"Feature","geometry":{"type":"Point","coordinates":[-0.88038,43.22684]},"properties":{"id":43949,"name":"Mauléon-Licharre","state_code":"64","country_code":"FR"}},{"type":"Feature","geometry":{"type":"Point","coordinates":[-0.35,43.26667]},"properties":{"id":43979,"name":"Mazères-Lezons","state_code":"64","country_code":"FR"}},{"type":"Feature","geometry":{"type":"Point","coordinates":[-0.25,43.18333]},"properties":{"id":44097,"name":"Mirepeix","state_code":"64","country_code":"FR"}},{"type":"Feature","geometry":{"type":"Point","coordinates":[-0.58333,43.33333]},"properties":{"id":44140,"name":"Monein","state_code":"64","country_code":"FR"}},{"type":"Feature","geometry":{"type":"Point","coordinates":[-0.65,43.43333]},"properties":{"id":44153,"name":"Mont","state_code":"64","country_code":"FR"}},{"type":"Feature","geometry":{"type":"Point","coordinates":[-0.35,43.36667]},"properties":{"id":44177,"name":"Montardon","state_code":"64","country_code":"FR"}},{"type":"Feature","geometry":{"type":"Point","coordinates":[-0.2,43.13333]},"properties":{"id":44187,"name":"Montaut","state_code":"64","country_code":"FR"}},{"type":"Feature","geometry":{"type":"Point","coordinates":[-0.26667,43.35]},"properties":{"id":44356,"name":"Morlaas","state_code":"64","country_code":"FR"}},{"type":"Feature","geometry":{"type":"Point","coordinates":[-1.41824,43.46795]},"properties":{"id":44388,"name":"Mouguerre","state_code":"64","country_code":"FR"}},{"type":"Feature","geometry":{"type":"Point","coordinates":[-0.6,43.38333]},"properties":{"id":44399,"name":"Mourenx","state_code":"64","country_code":"FR"}},{"type":"Feature","geometry":{"type":"Point","coordinates":[-0.33333,43.41667]},"properties":{"id":44520,"name":"Navailles-Angos","state_code":"64","country_code":"FR"}},{"type":"Feature","geometry":{"type":"Point","coordinates":[-0.75927,43.32135]},"properties":{"id":44521,"name":"Navarrenx","state_code":"64","country_code":"FR"}},{"type":"Feature","geometry":{"type":"Point","coordinates":[-0.26667,43.18333]},"properties":{"id":44525,"name":"Nay","state_code":"64","country_code":"FR"}},{"type":"Feature","geometry":{"type":"Point","coordinates":[-0.21667,43.26667]},"properties":{"id":44659,"name":"Nousty","state_code":"64","country_code":"FR"}},{"type":"Feature","geometry":{"type":"Point","coordinates":[-0.5,43.15]},"properties":{"id":44721,"name":"Ogeu-les-Bains","state_code":"64","country_code":"FR"}},{"type":"Feature","geometry":{"type":"Point","coordinates":[-0.61069,43.19441]},"properties":{"id":44739,"name":"Oloron-Sainte-Marie","state_code":"64","country_code":"FR"}},{"type":"Feature","geometry":{"type":"Point","coordinates":[-0.77244,43.48839]},"properties":{"id":44786,"name":"Orthez","state_code":"64","country_code":"FR"}},{"type":"Feature","geometry":{"type":"Point","coordinates":[-0.26667,43.28333]},"properties":{"id":44811,"name":"Ousse","state_code":"64","country_code":"FR"}},{"type":"Feature","geometry":{"type":"Point","coordinates":[-0.36667,43.3]},"properties":{"id":44867,"name":"Pau","state_code":"64","country_code":"FR"}},{"type":"Feature","geometry":{"type":"Point","coordinates":[-0.46667,43.35]},"properties":{"id":45133,"name":"Poey-de-Lescar","state_code":"64","country_code":"FR"}},{"type":"Feature","geometry":{"type":"Point","coordinates":[-0.11667,43.18333]},"properties":{"id":45199,"name":"Pontacq","state_code":"64","country_code":"FR"}},{"type":"Feature","geometry":{"type":"Point","coordinates":[-0.91283,43.52502]},"properties":{"id":45341,"name":"Puyoô","state_code":"64","country_code":"FR"}},{"type":"Feature","geometry":{"type":"Point","coordinates":[-1.3467,43.17533]},"properties":{"id":46643,"name":"Saint-Étienne-de-Baïgorry","state_code":"64","country_code":"FR"}},{"type":"Feature","geometry":{"type":"Point","coordinates":[-1.66267,43.38871]},"properties":{"id":46094,"name":"Saint-Jean-de-Luz","state_code":"64","country_code":"FR"}},{"type":"Feature","geometry":{"type":"Point","coordinates":[-1.23738,43.16363]},"properties":{"id":46086,"name":"Saint-Jean-Pied-de-Port","state_code":"64","country_code":"FR"}},{"type":"Feature","geometry":{"type":"Point","coordinates":[-1.03333,43.32867]},"properties":{"id":46389,"name":"Saint-Palais","state_code":"64","country_code":"FR"}},{"type":"Feature","geometry":{"type":"Point","coordinates":[-1.55013,43.35564]},"properties":{"id":46481,"name":"Saint-Pée-sur-Nivelle","state_code":"64","country_code":"FR"}},{"type":"Feature","geometry":{"type":"Point","coordinates":[-1.4447,43.4628]},"properties":{"id":162012,"name":"Saint-Pierre-d'Irube","state_code":"64","country_code":"FR"}},{"type":"Feature","geometry":{"type":"Point","coordinates":[-0.92448,43.47422]},"properties":{"id":46748,"name":"Salies-de-Béarn","state_code":"64","country_code":"FR"}},{"type":"Feature","geometry":{"type":"Point","coordinates":[-1.58012,43.3126]},"properties":{"id":46804,"name":"Sare","state_code":"64","country_code":"FR"}},{"type":"Feature","geometry":{"type":"Point","coordinates":[-0.38333,43.4]},"properties":{"id":46858,"name":"Sauvagnon","state_code":"64","country_code":"FR"}},{"type":"Feature","geometry":{"type":"Point","coordinates":[-0.93333,43.4]},"properties":{"id":46862,"name":"Sauveterre-de-Béarn","state_code":"64","country_code":"FR"}},{"type":"Feature","geometry":{"type":"Point","coordinates":[-0.35,43.38333]},"properties":{"id":46967,"name":"Serres-Castet","state_code":"64","country_code":"FR"}},{"type":"Feature","geometry":{"type":"Point","coordinates":[-0.18333,43.26667]},"properties":{"id":47078,"name":"Soumoulou","state_code":"64","country_code":"FR"}},{"type":"Feature","geometry":{"type":"Point","coordinates":[-1.47559,43.34154]},"properties":{"id":47081,"name":"Souraïde","state_code":"64","country_code":"FR"}},{"type":"Feature","geometry":{"type":"Point","coordinates":[-1.33668,43.48594]},"properties":{"id":47430,"name":"Urcuit","state_code":"64","country_code":"FR"}},{"type":"Feature","geometry":{"type":"Point","coordinates":[-1.69921,43.36361]},"properties":{"id":47433,"name":"Urrugne","state_code":"64","country_code":"FR"}},{"type":"Feature","geometry":{"type":"Point","coordinates":[-1.29744,43.49009]},"properties":{"id":47434,"name":"Urt","state_code":"64","country_code":"FR"}},{"type":"Feature","geometry":{"type":"Point","coordinates":[-1.45603,43.3965]},"properties":{"id":47442,"name":"Ustaritz","state_code":"64","country_code":"FR"}},{"type":"Feature","geometry":{"type":"Point","coordinates":[-0.43333,43.4]},"properties":{"id":47445,"name":"Uzein","state_code":"64","country_code":"FR"}},{"type":"Feature","geometry":{"type":"Point","coordinates":[-1.45324,43.43631]},"properties":{"id":47742,"name":"Villefranque","state_code":"64","country_code":"FR"}}]}