{"type":"FeatureCollection","features":[{"type":"Feature","geometry":{"type":"Point","coordinates":[1.83624,48.5172]},"properties":{"id":39240,"name":"Ablis","state_code":"78","country_code":"FR"}},{"type":"Feature","geometry":{"type":"Point","coordinates":[2.06882,48.96115]},"properties":{"id":39252,"name":"Achères","state_code":"78","country_code":"FR"}},{"type":"Feature","geometry":{"type":"Point","coordinates":[2.05687,48.98235]},"properties":{"id":39390,"name":"Andrésy","state_code":"78","country_code":"FR"}},{"type":"Feature","geometry":{"type":"Point","coordinates":[1.85467,48.95996]},"properties":{"id":39571,"name":"Aubergenville","state_code":"78","country_code":"FR"}},{"type":"Feature","geometry":{"type":"Point","coordinates":[1.88696,48.70049]},"properties":{"id":39602,"name":"Auffargis","state_code":"78","country_code":"FR"}},{"type":"Feature","geometry":{"type":"Point","coordinates":[1.84113,48.9295]},"properties":{"id":39610,"name":"Aulnay-sur-Mauldre","state_code":"78","country_code":"FR"}},{"type":"Feature","geometry":{"type":"Point","coordinates":[2.07673,48.84168]},"properties":{"id":39729,"name":"Bailly","state_code":"78","country_code":"FR"}},{"type":"Feature","geometry":{"type":"Point","coordinates":[1.66732,48.80435]},"properties":{"id":39825,"name":"Bazainville","state_code":"78","country_code":"FR"}},{"type":"Feature","geometry":{"type":"Point","coordinates":[1.86651,48.92726]},"properties":{"id":39829,"name":"Bazemont","state_code":"78","country_code":"FR"}},{"type":"Feature","geometry":{"type":"Point","coordinates":[1.55469,49.04148]},"properties":{"id":39940,"name":"Bennecourt","state_code":"78","country_code":"FR"}},{"type":"Feature","geometry":{"type":"Point","coordinates":[1.87261,48.85626]},"properties":{"id":39999,"name":"Beynes","state_code":"78","country_code":"FR"}},{"type":"Feature","geometry":{"type":"Point","coordinates":[2.02325,48.79966]},"properties":{"id":40089,"name":"Bois-d’Arcy","state_code":"78","country_code":"FR"}},{"type":"Feature","geometry":{"type":"Point","coordinates":[2.02922,48.61816]},"properties":{"id":40119,"name":"Bonnelles","state_code":"78","country_code":"FR"}},{"type":"Feature","geometry":{"type":"Point","coordinates":[1.5783,49.03525]},"properties":{"id":40128,"name":"Bonnières-sur-Seine","state_code":"78","country_code":"FR"}},{"type":"Feature","geometry":{"type":"Point","coordinates":[1.9012,48.96463]},"properties":{"id":40147,"name":"Bouafle","state_code":"78","country_code":"FR"}},{"type":"Feature","geometry":{"type":"Point","coordinates":[2.14148,48.86223]},"properties":{"id":40155,"name":"Bougival","state_code":"78","country_code":"FR"}},{"type":"Feature","geometry":{"type":"Point","coordinates":[1.53309,48.94545]},"properties":{"id":40361,"name":"Bréval","state_code":"78","country_code":"FR"}},{"type":"Feature","geometry":{"type":"Point","coordinates":[2.12577,48.77627]},"properties":{"id":40368,"name":"Buc","state_code":"78","country_code":"FR"}},{"type":"Feature","geometry":{"type":"Point","coordinates":[1.67026,48.97926]},"properties":{"id":40369,"name":"Buchelay","state_code":"78","country_code":"FR"}},{"type":"Feature","geometry":{"type":"Point","coordinates":[1.99024,48.62285]},"properties":{"id":40381,"name":"Bullion","state_code":"78","country_code":"FR"}},{"type":"Feature","geometry":{"type":"Point","coordinates":[2.04068,48.94952]},"properties":{"id":40559,"name":"Carrières-sous-Poissy","state_code":"78","country_code":"FR"}},{"type":"Feature","geometry":{"type":"Point","coordinates":[2.1792,48.90687]},"properties":{"id":40560,"name":"Carrières-sur-Seine","state_code":"78","country_code":"FR"}},{"type":"Feature","geometry":{"type":"Point","coordinates":[1.97422,48.67324]},"properties":{"id":40651,"name":"Cernay-la-Ville","state_code":"78","country_code":"FR"}},{"type":"Feature","geometry":{"type":"Point","coordinates":[2.041,48.90655]},"properties":{"id":40709,"name":"Chambourcy","state_code":"78","country_code":"FR"}},{"type":"Feature","geometry":{"type":"Point","coordinates":[2.03261,48.97614]},"properties":{"id":40772,"name":"Chanteloup-les-Vignes","state_code":"78","country_code":"FR"}},{"type":"Feature","geometry":{"type":"Point","coordinates":[1.93333,48.96667]},"properties":{"id":40783,"name":"Chapet","state_code":"78","country_code":"FR"}},{"type":"Feature","geometry":{"type":"Point","coordinates":[2.09054,48.73584]},"properties":{"id":40954,"name":"Châteaufort","state_code":"78","country_code":"FR"}},{"type":"Feature","geometry":{"type":"Point","coordinates":[2.15863,48.8898]},"properties":{"id":40831,"name":"Chatou","state_code":"78","country_code":"FR"}},{"type":"Feature","geometry":{"type":"Point","coordinates":[1.99163,48.85437]},"properties":{"id":40861,"name":"Chavenay","state_code":"78","country_code":"FR"}},{"type":"Feature","geometry":{"type":"Point","coordinates":[2.03329,48.70662]},"properties":{"id":40901,"name":"Chevreuse","state_code":"78","country_code":"FR"}},{"type":"Feature","geometry":{"type":"Point","coordinates":[1.92082,48.7501]},"properties":{"id":41084,"name":"Coignières","state_code":"78","country_code":"FR"}},{"type":"Feature","geometry":{"type":"Point","coordinates":[1.66069,48.74199]},"properties":{"id":41139,"name":"Condé-sur-Vesgre","state_code":"78","country_code":"FR"}},{"type":"Feature","geometry":{"type":"Point","coordinates":[2.09694,49.00158]},"properties":{"id":41142,"name":"Conflans-Sainte-Honorine","state_code":"78","country_code":"FR"}},{"type":"Feature","geometry":{"type":"Point","coordinates":[1.92151,48.88317]},"properties":{"id":41307,"name":"Crespières","state_code":"78","country_code":"FR"}},{"type":"Feature","geometry":{"type":"Point","coordinates":[2.13836,48.87925]},"properties":{"id":41324,"name":"Croissy-sur-Seine","state_code":"78","country_code":"FR"}},{"type":"Feature","geometry":{"type":"Point","coordinates":[1.98333,48.7]},"properties":{"id":41420,"name":"Dampierre-en-Yvelines","state_code":"78","country_code":"FR"}},{"type":"Feature","geometry":{"type":"Point","coordinates":[1.92338,48.95192]},"properties":{"id":41658,"name":"Ecquevilly","state_code":"78","country_code":"FR"}},{"type":"Feature","geometry":{"type":"Point","coordinates":[1.9552,48.78421]},"properties":{"id":48063,"name":"Élancourt","state_code":"78","country_code":"FR"}},{"type":"Feature","geometry":{"type":"Point","coordinates":[1.82233,48.95476]},"properties":{"id":48085,"name":"Épône","state_code":"78","country_code":"FR"}},{"type":"Feature","geometry":{"type":"Point","coordinates":[1.97402,48.87002]},"properties":{"id":41810,"name":"Feucherolles","state_code":"78","country_code":"FR"}},{"type":"Feature","geometry":{"type":"Point","coordinates":[1.87314,48.96523]},"properties":{"id":41854,"name":"Flins-sur-Seine","state_code":"78","country_code":"FR"}},{"type":"Feature","geometry":{"type":"Point","coordinates":[1.71331,49.02194]},"properties":{"id":41870,"name":"Follainville-Dennemont","state_code":"78","country_code":"FR"}},{"type":"Feature","geometry":{"type":"Point","coordinates":[2.04863,48.81253]},"properties":{"id":41899,"name":"Fontenay-le-Fleury","state_code":"78","country_code":"FR"}},{"type":"Feature","geometry":{"type":"Point","coordinates":[2.06367,48.88693]},"properties":{"id":41939,"name":"Fourqueux","state_code":"78","country_code":"FR"}},{"type":"Feature","geometry":{"type":"Point","coordinates":[1.60168,49.04832]},"properties":{"id":41956,"name":"Freneuse","state_code":"78","country_code":"FR"}},{"type":"Feature","geometry":{"type":"Point","coordinates":[1.79414,48.79657]},"properties":{"id":42023,"name":"Galluis","state_code":"78","country_code":"FR"}},{"type":"Feature","geometry":{"type":"Point","coordinates":[1.67196,48.77351]},"properties":{"id":42025,"name":"Gambais","state_code":"78","country_code":"FR"}},{"type":"Feature","geometry":{"type":"Point","coordinates":[1.75512,48.82271]},"properties":{"id":42032,"name":"Garancières","state_code":"78","country_code":"FR"}},{"type":"Feature","geometry":{"type":"Point","coordinates":[1.81176,48.98802]},"properties":{"id":42042,"name":"Gargenville","state_code":"78","country_code":"FR"}},{"type":"Feature","geometry":{"type":"Point","coordinates":[1.77149,48.63264]},"properties":{"id":42056,"name":"Gazeran","state_code":"78","country_code":"FR"}},{"type":"Feature","geometry":{"type":"Point","coordinates":[1.73429,48.94388]},"properties":{"id":42246,"name":"Guerville","state_code":"78","country_code":"FR"}},{"type":"Feature","geometry":{"type":"Point","coordinates":[2.07393,48.77334]},"properties":{"id":42276,"name":"Guyancourt","state_code":"78","country_code":"FR"}},{"type":"Feature","geometry":{"type":"Point","coordinates":[1.89389,49.00779]},"properties":{"id":42327,"name":"Hardricourt","state_code":"78","country_code":"FR"}},{"type":"Feature","geometry":{"type":"Point","coordinates":[1.60007,48.79044]},"properties":{"id":42424,"name":"Houdan","state_code":"78","country_code":"FR"}},{"type":"Feature","geometry":{"type":"Point","coordinates":[2.19263,48.92161]},"properties":{"id":42426,"name":"Houilles","state_code":"78","country_code":"FR"}},{"type":"Feature","geometry":{"type":"Point","coordinates":[1.79292,48.98994]},"properties":{"id":42506,"name":"Issou","state_code":"78","country_code":"FR"}},{"type":"Feature","geometry":{"type":"Point","coordinates":[1.89898,48.78888]},"properties":{"id":42566,"name":"Jouars-Pontchartrain","state_code":"78","country_code":"FR"}},{"type":"Feature","geometry":{"type":"Point","coordinates":[2.16966,48.75909]},"properties":{"id":42574,"name":"Jouy-en-Josas","state_code":"78","country_code":"FR"}},{"type":"Feature","geometry":{"type":"Point","coordinates":[1.8476,48.99137]},"properties":{"id":42602,"name":"Juziers","state_code":"78","country_code":"FR"}},{"type":"Feature","geometry":{"type":"Point","coordinates":[2.05732,48.86954]},"properties":{"id":43708,"name":"L’Étang-la-Ville","state_code":"78","country_code":"FR"}},{"type":"Feature","geometry":{"type":"Point","coordinates":[2.14523,48.85029]},"properties":{"id":42672,"name":"La Celle-Saint-Cloud","state_code":"78","country_code":"FR"}},{"type":"Feature","geometry":{"type":"Point","coordinates":[1.76667,48.8]},"properties":{"id":42840,"name":"La Queue-les-Yvelines","state_code":"78","country_code":"FR"}},{"type":"Feature","geometry":{"type":"Point","coordinates":[1.94649,48.752]},"properties":{"id":42910,"name":"La Verrière","state_code":"78","country_code":"FR"}},{"type":"Feature","geometry":{"type":"Point","coordinates":[2.12213,48.8222]},"properties":{"id":43165,"name":"Le Chesnay","state_code":"78","country_code":"FR"}},{"type":"Feature","geometry":{"type":"Point","coordinates":[2.1188,48.8285]},"properties":{"id":161836,"name":"Le Chesnay-Rocquencourt","state_code":"78","country_code":"FR"}},{"type":"Feature","geometry":{"type":"Point","coordinates":[2.12554,48.93825]},"properties":{"id":43230,"name":"Le Mesnil-le-Roi","state_code":"78","country_code":"FR"}},{"type":"Feature","geometry":{"type":"Point","coordinates":[1.95594,48.74485]},"properties":{"id":43227,"name":"Le Mesnil-Saint-Denis","state_code":"78","country_code":"FR"}},{"type":"Feature","geometry":{"type":"Point","coordinates":[2.10371,48.89317]},"properties":{"id":43247,"name":"Le Pecq","state_code":"78","country_code":"FR"}},{"type":"Feature","geometry":{"type":"Point","coordinates":[1.85643,48.69441]},"properties":{"id":43249,"name":"Le Perray-en-Yvelines","state_code":"78","country_code":"FR"}},{"type":"Feature","geometry":{"type":"Point","coordinates":[2.11139,48.89016]},"properties":{"id":43277,"name":"Le Port-Marly","state_code":"78","country_code":"FR"}},{"type":"Feature","geometry":{"type":"Point","coordinates":[2.13308,48.89281]},"properties":{"id":43337,"name":"Le Vésinet","state_code":"78","country_code":"FR"}},{"type":"Feature","geometry":{"type":"Point","coordinates":[1.9181,48.91379]},"properties":{"id":43360,"name":"Les Alluets-le-Roi","state_code":"78","country_code":"FR"}},{"type":"Feature","geometry":{"type":"Point","coordinates":[1.98677,48.82206]},"properties":{"id":43378,"name":"Les Clayes-sous-Bois","state_code":"78","country_code":"FR"}},{"type":"Feature","geometry":{"type":"Point","coordinates":[1.90089,48.71673]},"properties":{"id":43386,"name":"Les Essarts-le-Roi","state_code":"78","country_code":"FR"}},{"type":"Feature","geometry":{"type":"Point","coordinates":[2.14002,48.76377]},"properties":{"id":43401,"name":"Les Loges-en-Josas","state_code":"78","country_code":"FR"}},{"type":"Feature","geometry":{"type":"Point","coordinates":[1.90972,48.99173]},"properties":{"id":43412,"name":"Les Mureaux","state_code":"78","country_code":"FR"}},{"type":"Feature","geometry":{"type":"Point","coordinates":[1.95,48.71667]},"properties":{"id":43694,"name":"Lévis-Saint-Nom","state_code":"78","country_code":"FR"}},{"type":"Feature","geometry":{"type":"Point","coordinates":[1.74081,48.99553]},"properties":{"id":43489,"name":"Limay","state_code":"78","country_code":"FR"}},{"type":"Feature","geometry":{"type":"Point","coordinates":[1.55,49.06667]},"properties":{"id":43492,"name":"Limetz-Villez","state_code":"78","country_code":"FR"}},{"type":"Feature","geometry":{"type":"Point","coordinates":[1.58705,48.92002]},"properties":{"id":43563,"name":"Longnes","state_code":"78","country_code":"FR"}},{"type":"Feature","geometry":{"type":"Point","coordinates":[2.11463,48.86115]},"properties":{"id":43611,"name":"Louveciennes","state_code":"78","country_code":"FR"}},{"type":"Feature","geometry":{"type":"Point","coordinates":[1.67842,48.96798]},"properties":{"id":43723,"name":"Magnanville","state_code":"78","country_code":"FR"}},{"type":"Feature","geometry":{"type":"Point","coordinates":[2.06154,48.74345]},"properties":{"id":43729,"name":"Magny-les-Hameaux","state_code":"78","country_code":"FR"}},{"type":"Feature","geometry":{"type":"Point","coordinates":[2.14521,48.95264]},"properties":{"id":43744,"name":"Maisons-Laffitte","state_code":"78","country_code":"FR"}},{"type":"Feature","geometry":{"type":"Point","coordinates":[1.7167,48.99048]},"properties":{"id":43784,"name":"Mantes-la-Jolie","state_code":"78","country_code":"FR"}},{"type":"Feature","geometry":{"type":"Point","coordinates":[1.70253,48.97374]},"properties":{"id":43785,"name":"Mantes-la-Ville","state_code":"78","country_code":"FR"}},{"type":"Feature","geometry":{"type":"Point","coordinates":[2.07351,48.88213]},"properties":{"id":43820,"name":"Mareil-Marly","state_code":"78","country_code":"FR"}},{"type":"Feature","geometry":{"type":"Point","coordinates":[1.8687,48.89521]},"properties":{"id":43821,"name":"Mareil-sur-Mauldre","state_code":"78","country_code":"FR"}},{"type":"Feature","geometry":{"type":"Point","coordinates":[2.08333,48.86667]},"properties":{"id":43856,"name":"Marly-le-Roi","state_code":"78","country_code":"FR"}},{"type":"Feature","geometry":{"type":"Point","coordinates":[1.85264,48.91056]},"properties":{"id":43948,"name":"Maule","state_code":"78","country_code":"FR"}},{"type":"Feature","geometry":{"type":"Point","coordinates":[2.06155,48.99614]},"properties":{"id":43952,"name":"Maurecourt","state_code":"78","country_code":"FR"}},{"type":"Feature","geometry":{"type":"Point","coordinates":[1.92923,48.76486]},"properties":{"id":43955,"name":"Maurepas","state_code":"78","country_code":"FR"}},{"type":"Feature","geometry":{"type":"Point","coordinates":[1.99494,48.95539]},"properties":{"id":44457,"name":"Médan","state_code":"78","country_code":"FR"}},{"type":"Feature","geometry":{"type":"Point","coordinates":[1.81247,48.78445]},"properties":{"id":44480,"name":"Méré","state_code":"78","country_code":"FR"}},{"type":"Feature","geometry":{"type":"Point","coordinates":[1.90602,49.00768]},"properties":{"id":44046,"name":"Meulan-en-Yvelines","state_code":"78","country_code":"FR"}},{"type":"Feature","geometry":{"type":"Point","coordinates":[1.79245,48.96128]},"properties":{"id":44490,"name":"Mézières-sur-Seine","state_code":"78","country_code":"FR"}},{"type":"Feature","geometry":{"type":"Point","coordinates":[1.88333,49]},"properties":{"id":44491,"name":"Mézy-sur-Seine","state_code":"78","country_code":"FR"}},{"type":"Feature","geometry":{"type":"Point","coordinates":[2.13754,48.90924]},"properties":{"id":44228,"name":"Montesson","state_code":"78","country_code":"FR"}},{"type":"Feature","geometry":{"type":"Point","coordinates":[1.8081,48.7717]},"properties":{"id":161897,"name":"Montfort-l'Amaury","state_code":"78","country_code":"FR"}},{"type":"Feature","geometry":{"type":"Point","coordinates":[2.03405,48.76636]},"properties":{"id":44260,"name":"Montigny-le-Bretonneux","state_code":"78","country_code":"FR"}},{"type":"Feature","geometry":{"type":"Point","coordinates":[1.93621,48.92902]},"properties":{"id":44338,"name":"Morainvilliers","state_code":"78","country_code":"FR"}},{"type":"Feature","geometry":{"type":"Point","coordinates":[1.90567,48.81418]},"properties":{"id":44528,"name":"Neauphle-le-Château","state_code":"78","country_code":"FR"}},{"type":"Feature","geometry":{"type":"Point","coordinates":[2.06345,48.84445]},"properties":{"id":44629,"name":"Noisy-le-Roi","state_code":"78","country_code":"FR"}},{"type":"Feature","geometry":{"type":"Point","coordinates":[1.84928,49.02722]},"properties":{"id":44725,"name":"Oinville-sur-Montcient","state_code":"78","country_code":"FR"}},{"type":"Feature","geometry":{"type":"Point","coordinates":[1.70132,48.83851]},"properties":{"id":44762,"name":"Orgerus","state_code":"78","country_code":"FR"}},{"type":"Feature","geometry":{"type":"Point","coordinates":[1.9779,48.92162]},"properties":{"id":44763,"name":"Orgeval","state_code":"78","country_code":"FR"}},{"type":"Feature","geometry":{"type":"Point","coordinates":[1.9541,48.82319]},"properties":{"id":44995,"name":"Plaisir","state_code":"78","country_code":"FR"}},{"type":"Feature","geometry":{"type":"Point","coordinates":[2.04952,48.92902]},"properties":{"id":45136,"name":"Poissy","state_code":"78","country_code":"FR"}},{"type":"Feature","geometry":{"type":"Point","coordinates":[1.77973,48.97254]},"properties":{"id":45220,"name":"Porcheville","state_code":"78","country_code":"FR"}},{"type":"Feature","geometry":{"type":"Point","coordinates":[1.82992,48.64374]},"properties":{"id":45423,"name":"Rambouillet","state_code":"78","country_code":"FR"}},{"type":"Feature","geometry":{"type":"Point","coordinates":[1.6313,48.99808]},"properties":{"id":45607,"name":"Rosny-sur-Seine","state_code":"78","country_code":"FR"}},{"type":"Feature","geometry":{"type":"Point","coordinates":[1.9395,48.57111]},"properties":{"id":45777,"name":"Saint-Arnoult-en-Yvelines","state_code":"78","country_code":"FR"}},{"type":"Feature","geometry":{"type":"Point","coordinates":[2.06814,48.79865]},"properties":{"id":45885,"name":"Saint-Cyr-l’École","state_code":"78","country_code":"FR"}},{"type":"Feature","geometry":{"type":"Point","coordinates":[1.89884,48.83436]},"properties":{"id":46005,"name":"Saint-Germain-de-la-Grange","state_code":"78","country_code":"FR"}},{"type":"Feature","geometry":{"type":"Point","coordinates":[2.0904,48.89643]},"properties":{"id":46015,"name":"Saint-Germain-en-Laye","state_code":"78","country_code":"FR"}},{"type":"Feature","geometry":{"type":"Point","coordinates":[1.76638,48.72173]},"properties":{"id":46214,"name":"Saint-Léger-en-Yvelines","state_code":"78","country_code":"FR"}},{"type":"Feature","geometry":{"type":"Point","coordinates":[2.02233,48.85942]},"properties":{"id":46372,"name":"Saint-Nom-la-Bretêche","state_code":"78","country_code":"FR"}},{"type":"Feature","geometry":{"type":"Point","coordinates":[2.01891,48.77186]},"properties":{"id":46489,"name":"Saint-Quentin-en-Yvelines","state_code":"78","country_code":"FR"}},{"type":"Feature","geometry":{"type":"Point","coordinates":[2.07692,48.70708]},"properties":{"id":46514,"name":"Saint-Rémy-lès-Chevreuse","state_code":"78","country_code":"FR"}},{"type":"Feature","geometry":{"type":"Point","coordinates":[2.19169,48.9482]},"properties":{"id":46822,"name":"Sartrouville","state_code":"78","country_code":"FR"}},{"type":"Feature","geometry":{"type":"Point","coordinates":[1.68357,48.89245]},"properties":{"id":46948,"name":"Septeuil","state_code":"78","country_code":"FR"}},{"type":"Feature","geometry":{"type":"Point","coordinates":[1.87753,48.5759]},"properties":{"id":47037,"name":"Sonchamp","state_code":"78","country_code":"FR"}},{"type":"Feature","geometry":{"type":"Point","coordinates":[1.67501,48.83619]},"properties":{"id":47153,"name":"Tacoignières","state_code":"78","country_code":"FR"}},{"type":"Feature","geometry":{"type":"Point","coordinates":[1.91729,48.84964]},"properties":{"id":47240,"name":"Thiverval-Grignon","state_code":"78","country_code":"FR"}},{"type":"Feature","geometry":{"type":"Point","coordinates":[1.7976,48.86715]},"properties":{"id":47243,"name":"Thoiry","state_code":"78","country_code":"FR"}},{"type":"Feature","geometry":{"type":"Point","coordinates":[2.01781,48.77413]},"properties":{"id":47349,"name":"Trappes","state_code":"78","country_code":"FR"}},{"type":"Feature","geometry":{"type":"Point","coordinates":[2.00743,48.97818]},"properties":{"id":47371,"name":"Triel-sur-Seine","state_code":"78","country_code":"FR"}},{"type":"Feature","geometry":{"type":"Point","coordinates":[1.96942,49.01271]},"properties":{"id":47548,"name":"Vaux-sur-Seine","state_code":"78","country_code":"FR"}},{"type":"Feature","geometry":{"type":"Point","coordinates":[2.19395,48.78198]},"properties":{"id":47924,"name":"Vélizy-Villacoublay","state_code":"78","country_code":"FR"}},{"type":"Feature","geometry":{"type":"Point","coordinates":[1.9648,48.97388]},"properties":{"id":47614,"name":"Verneuil-sur-Seine","state_code":"78","country_code":"FR"}},{"type":"Feature","geometry":{"type":"Point","coordinates":[2.13424,48.80359]},"properties":{"id":47632,"name":"Versailles","state_code":"78","country_code":"FR"}},{"type":"Feature","geometry":{"type":"Point","coordinates":[1.99137,48.94137]},"properties":{"id":47786,"name":"Villennes-sur-Seine","state_code":"78","country_code":"FR"}},{"type":"Feature","geometry":{"type":"Point","coordinates":[1.9976,48.82815]},"properties":{"id":47792,"name":"Villepreux","state_code":"78","country_code":"FR"}},{"type":"Feature","geometry":{"type":"Point","coordinates":[1.88333,48.81667]},"properties":{"id":47825,"name":"Villiers-Saint-Fréderic","state_code":"78","country_code":"FR"}},{"type":"Feature","geometry":{"type":"Point","coordinates":[2.16181,48.80078]},"properties":{"id":47865,"name":"Viroflay","state_code":"78","country_code":"FR"}},{"type":"Feature","geometry":{"type":"Point","coordinates":[2.05137,48.75793]},"properties":{"id":47894,"name":"Voisins-le-Bretonneux","state_code":"78","country_code":"FR"}},{"type":"Feature","geometry":{"type":"Point","coordinates":[1.85696,48.80546]},"properties":{"id":48014,"name":"Yvelines","state_code":"78","country_code":"FR"}}]}