{"type":"FeatureCollection","features":[{"type":"Feature","geometry":{"type":"Point","coordinates":[6.72105,46.27874]},"properties":{"id":39243,"name":"Abondance","state_code":"74","country_code":"FR"}},{"type":"Feature","geometry":{"type":"Point","coordinates":[5.94528,45.78786]},"properties":{"id":39302,"name":"Albens","state_code":"74","country_code":"FR"}},{"type":"Feature","geometry":{"type":"Point","coordinates":[6.01667,45.81667]},"properties":{"id":39309,"name":"Alby-sur-Chéran","state_code":"74","country_code":"FR"}},{"type":"Feature","geometry":{"type":"Point","coordinates":[6.4635,46.33547]},"properties":{"id":39327,"name":"Allinges","state_code":"74","country_code":"FR"}},{"type":"Feature","geometry":{"type":"Point","coordinates":[6.11865,46.00117]},"properties":{"id":39331,"name":"Allonzier-la-Caille","state_code":"74","country_code":"FR"}},{"type":"Feature","geometry":{"type":"Point","coordinates":[6.3289,46.07294]},"properties":{"id":39344,"name":"Amancy","state_code":"74","country_code":"FR"}},{"type":"Feature","geometry":{"type":"Point","coordinates":[6.2239,46.1957]},"properties":{"id":161659,"name":"Ambilly","state_code":"74","country_code":"FR"}},{"type":"Feature","geometry":{"type":"Point","coordinates":[6.12565,45.90878]},"properties":{"id":39414,"name":"Annecy","state_code":"74","country_code":"FR"}},{"type":"Feature","geometry":{"type":"Point","coordinates":[6.14393,45.91971]},"properties":{"id":39415,"name":"Annecy-le-Vieux","state_code":"74","country_code":"FR"}},{"type":"Feature","geometry":{"type":"Point","coordinates":[6.23775,46.19439]},"properties":{"id":39416,"name":"Annemasse","state_code":"74","country_code":"FR"}},{"type":"Feature","geometry":{"type":"Point","coordinates":[6.42735,46.35534]},"properties":{"id":39431,"name":"Anthy-sur-Léman","state_code":"74","country_code":"FR"}},{"type":"Feature","geometry":{"type":"Point","coordinates":[6.63145,46.04297]},"properties":{"id":39537,"name":"Arâches-la-Frasse","state_code":"74","country_code":"FR"}},{"type":"Feature","geometry":{"type":"Point","coordinates":[6.12551,46.13195]},"properties":{"id":39460,"name":"Archamps","state_code":"74","country_code":"FR"}},{"type":"Feature","geometry":{"type":"Point","coordinates":[6.33316,46.10697]},"properties":{"id":39471,"name":"Arenthon","state_code":"74","country_code":"FR"}},{"type":"Feature","geometry":{"type":"Point","coordinates":[6.148,45.9476]},"properties":{"id":161668,"name":"Argonay","state_code":"74","country_code":"FR"}},{"type":"Feature","geometry":{"type":"Point","coordinates":[6.51703,46.35079]},"properties":{"id":39496,"name":"Armoy","state_code":"74","country_code":"FR"}},{"type":"Feature","geometry":{"type":"Point","coordinates":[6.26598,46.15941]},"properties":{"id":39522,"name":"Arthaz-Pont-Notre-Dame","state_code":"74","country_code":"FR"}},{"type":"Feature","geometry":{"type":"Point","coordinates":[6.4455,46.08135]},"properties":{"id":39690,"name":"Ayse","state_code":"74","country_code":"FR"}},{"type":"Feature","geometry":{"type":"Point","coordinates":[6.32765,46.29842]},"properties":{"id":39751,"name":"Ballaison","state_code":"74","country_code":"FR"}},{"type":"Feature","geometry":{"type":"Point","coordinates":[6.53351,46.25875]},"properties":{"id":39921,"name":"Bellevaux","state_code":"74","country_code":"FR"}},{"type":"Feature","geometry":{"type":"Point","coordinates":[6.40428,46.20711]},"properties":{"id":40245,"name":"Boëge","state_code":"74","country_code":"FR"}},{"type":"Feature","geometry":{"type":"Point","coordinates":[6.32443,46.17207]},"properties":{"id":40117,"name":"Bonne","state_code":"74","country_code":"FR"}},{"type":"Feature","geometry":{"type":"Point","coordinates":[6.40726,46.0802]},"properties":{"id":40126,"name":"Bonneville","state_code":"74","country_code":"FR"}},{"type":"Feature","geometry":{"type":"Point","coordinates":[6.37129,46.26486]},"properties":{"id":40131,"name":"Bons-en-Chablais","state_code":"74","country_code":"FR"}},{"type":"Feature","geometry":{"type":"Point","coordinates":[6.86933,45.92375]},"properties":{"id":40717,"name":"Chamonix-Mont-Blanc","state_code":"74","country_code":"FR"}},{"type":"Feature","geometry":{"type":"Point","coordinates":[6.8403,46.26495]},"properties":{"id":40980,"name":"Châtel","state_code":"74","country_code":"FR"}},{"type":"Feature","geometry":{"type":"Point","coordinates":[6.58041,46.08765]},"properties":{"id":41001,"name":"Châtillon-sur-Cluses","state_code":"74","country_code":"FR"}},{"type":"Feature","geometry":{"type":"Point","coordinates":[6.03928,45.89005]},"properties":{"id":40858,"name":"Chavanod","state_code":"74","country_code":"FR"}},{"type":"Feature","geometry":{"type":"Point","coordinates":[6.27075,46.32459]},"properties":{"id":40876,"name":"Chens-sur-Léman","state_code":"74","country_code":"FR"}},{"type":"Feature","geometry":{"type":"Point","coordinates":[5.95477,45.99185]},"properties":{"id":40908,"name":"Chilly","state_code":"74","country_code":"FR"}},{"type":"Feature","geometry":{"type":"Point","coordinates":[6.05866,45.99359]},"properties":{"id":40920,"name":"Choisy","state_code":"74","country_code":"FR"}},{"type":"Feature","geometry":{"type":"Point","coordinates":[6.57497,46.06251]},"properties":{"id":41064,"name":"Cluses","state_code":"74","country_code":"FR"}},{"type":"Feature","geometry":{"type":"Point","coordinates":[6.15372,46.1416]},"properties":{"id":41094,"name":"Collonges-sous-Salève","state_code":"74","country_code":"FR"}},{"type":"Feature","geometry":{"type":"Point","coordinates":[6.6442,45.8979]},"properties":{"id":41109,"name":"Combloux","state_code":"74","country_code":"FR"}},{"type":"Feature","geometry":{"type":"Point","coordinates":[6.33215,46.14223]},"properties":{"id":41154,"name":"Contamine-sur-Arve","state_code":"74","country_code":"FR"}},{"type":"Feature","geometry":{"type":"Point","coordinates":[6.60536,45.92099]},"properties":{"id":41175,"name":"Cordon","state_code":"74","country_code":"FR"}},{"type":"Feature","geometry":{"type":"Point","coordinates":[6.29895,46.09304]},"properties":{"id":41192,"name":"Cornier","state_code":"74","country_code":"FR"}},{"type":"Feature","geometry":{"type":"Point","coordinates":[6.1,45.9]},"properties":{"id":41295,"name":"Cran-Gevrier","state_code":"74","country_code":"FR"}},{"type":"Feature","geometry":{"type":"Point","coordinates":[6.29903,46.18799]},"properties":{"id":41297,"name":"Cranves-Sales","state_code":"74","country_code":"FR"}},{"type":"Feature","geometry":{"type":"Point","coordinates":[6.10831,46.0298]},"properties":{"id":41337,"name":"Cruseilles","state_code":"74","country_code":"FR"}},{"type":"Feature","geometry":{"type":"Point","coordinates":[6.02825,45.76603]},"properties":{"id":41383,"name":"Cusy","state_code":"74","country_code":"FR"}},{"type":"Feature","geometry":{"type":"Point","coordinates":[6.22554,45.90664]},"properties":{"id":41485,"name":"Dingy-Saint-Clair","state_code":"74","country_code":"FR"}},{"type":"Feature","geometry":{"type":"Point","coordinates":[6.65271,45.91205]},"properties":{"id":41511,"name":"Domancy","state_code":"74","country_code":"FR"}},{"type":"Feature","geometry":{"type":"Point","coordinates":[6.22553,45.77512]},"properties":{"id":41557,"name":"Doussard","state_code":"74","country_code":"FR"}},{"type":"Feature","geometry":{"type":"Point","coordinates":[6.30375,46.30544]},"properties":{"id":41558,"name":"Douvaine","state_code":"74","country_code":"FR"}},{"type":"Feature","geometry":{"type":"Point","coordinates":[6.08302,45.93584]},"properties":{"id":48069,"name":"Épagny","state_code":"74","country_code":"FR"}},{"type":"Feature","geometry":{"type":"Point","coordinates":[6.0934,45.943]},"properties":{"id":161757,"name":"Epagny Metz-Tessy","state_code":"74","country_code":"FR"}},{"type":"Feature","geometry":{"type":"Point","coordinates":[6.29533,46.06835]},"properties":{"id":41740,"name":"Etaux","state_code":"74","country_code":"FR"}},{"type":"Feature","geometry":{"type":"Point","coordinates":[6.22725,46.17923]},"properties":{"id":48109,"name":"Étrembières","state_code":"74","country_code":"FR"}},{"type":"Feature","geometry":{"type":"Point","coordinates":[6.58793,46.40111]},"properties":{"id":48118,"name":"Évian-les-Bains","state_code":"74","country_code":"FR"}},{"type":"Feature","geometry":{"type":"Point","coordinates":[6.22453,46.03783]},"properties":{"id":48120,"name":"Évires","state_code":"74","country_code":"FR"}},{"type":"Feature","geometry":{"type":"Point","coordinates":[6.29151,45.75116]},"properties":{"id":41782,"name":"Faverges","state_code":"74","country_code":"FR"}},{"type":"Feature","geometry":{"type":"Point","coordinates":[6.2896,45.7342]},"properties":{"id":161761,"name":"Faverges-Seythenex","state_code":"74","country_code":"FR"}},{"type":"Feature","geometry":{"type":"Point","coordinates":[6.07937,46.11228]},"properties":{"id":41793,"name":"Feigères","state_code":"74","country_code":"FR"}},{"type":"Feature","geometry":{"type":"Point","coordinates":[6.54829,46.35582]},"properties":{"id":42008,"name":"Féternes","state_code":"74","country_code":"FR"}},{"type":"Feature","geometry":{"type":"Point","coordinates":[6.2275,46.0057]},"properties":{"id":161763,"name":"Fillière","state_code":"74","country_code":"FR"}},{"type":"Feature","geometry":{"type":"Point","coordinates":[6.34237,46.15944]},"properties":{"id":41820,"name":"Fillinges","state_code":"74","country_code":"FR"}},{"type":"Feature","geometry":{"type":"Point","coordinates":[5.9322,46.02]},"properties":{"id":41950,"name":"Frangy","state_code":"74","country_code":"FR"}},{"type":"Feature","geometry":{"type":"Point","coordinates":[6.20693,46.1853]},"properties":{"id":42016,"name":"Gaillard","state_code":"74","country_code":"FR"}},{"type":"Feature","geometry":{"type":"Point","coordinates":[6.16983,46.01008]},"properties":{"id":42220,"name":"Groisy","state_code":"74","country_code":"FR"}},{"type":"Feature","geometry":{"type":"Point","coordinates":[6.05648,45.78897]},"properties":{"id":42229,"name":"Gruffy","state_code":"74","country_code":"FR"}},{"type":"Feature","geometry":{"type":"Point","coordinates":[6.45374,46.06143]},"properties":{"id":42346,"name":"Haute-Savoie","state_code":"74","country_code":"FR"}},{"type":"Feature","geometry":{"type":"Point","coordinates":[6.04187,45.9689]},"properties":{"id":42631,"name":"La Balme-de-Sillingy","state_code":"74","country_code":"FR"}},{"type":"Feature","geometry":{"type":"Point","coordinates":[6.43445,45.90675]},"properties":{"id":42710,"name":"La Clusaz","state_code":"74","country_code":"FR"}},{"type":"Feature","geometry":{"type":"Point","coordinates":[6.3045,46.07111]},"properties":{"id":42858,"name":"La Roche-sur-Foron","state_code":"74","country_code":"FR"}},{"type":"Feature","geometry":{"type":"Point","coordinates":[6.43109,46.13312]},"properties":{"id":42889,"name":"La Tour","state_code":"74","country_code":"FR"}},{"type":"Feature","geometry":{"type":"Point","coordinates":[6.57125,46.36919]},"properties":{"id":43080,"name":"Larringes","state_code":"74","country_code":"FR"}},{"type":"Feature","geometry":{"type":"Point","coordinates":[6.43077,45.94211]},"properties":{"id":43194,"name":"Le Grand-Bornand","state_code":"74","country_code":"FR"}},{"type":"Feature","geometry":{"type":"Point","coordinates":[6.72865,45.82164]},"properties":{"id":43380,"name":"Les Contamines-Montjoie","state_code":"74","country_code":"FR"}},{"type":"Feature","geometry":{"type":"Point","coordinates":[6.66492,46.15522]},"properties":{"id":43390,"name":"Les Gets","state_code":"74","country_code":"FR"}},{"type":"Feature","geometry":{"type":"Point","coordinates":[6.80637,45.89267]},"properties":{"id":43396,"name":"Les Houches","state_code":"74","country_code":"FR"}},{"type":"Feature","geometry":{"type":"Point","coordinates":[6.3101,46.29227]},"properties":{"id":43544,"name":"Loisin","state_code":"74","country_code":"FR"}},{"type":"Feature","geometry":{"type":"Point","coordinates":[6.03281,45.90377]},"properties":{"id":43622,"name":"Lovagny","state_code":"74","country_code":"FR"}},{"type":"Feature","geometry":{"type":"Point","coordinates":[6.31511,46.19181]},"properties":{"id":43636,"name":"Lucinges","state_code":"74","country_code":"FR"}},{"type":"Feature","geometry":{"type":"Point","coordinates":[6.65283,46.40208]},"properties":{"id":43643,"name":"Lugrin","state_code":"74","country_code":"FR"}},{"type":"Feature","geometry":{"type":"Point","coordinates":[6.52595,46.33972]},"properties":{"id":43677,"name":"Lyaud","state_code":"74","country_code":"FR"}},{"type":"Feature","geometry":{"type":"Point","coordinates":[6.62089,46.02064]},"properties":{"id":43720,"name":"Magland","state_code":"74","country_code":"FR"}},{"type":"Feature","geometry":{"type":"Point","coordinates":[5.9988,45.87546]},"properties":{"id":43797,"name":"Marcellaz-Albanais","state_code":"74","country_code":"FR"}},{"type":"Feature","geometry":{"type":"Point","coordinates":[6.41416,46.3414]},"properties":{"id":43833,"name":"Margencel","state_code":"74","country_code":"FR"}},{"type":"Feature","geometry":{"type":"Point","coordinates":[6.50004,46.09014]},"properties":{"id":43839,"name":"Marignier","state_code":"74","country_code":"FR"}},{"type":"Feature","geometry":{"type":"Point","coordinates":[6.52559,46.37941]},"properties":{"id":43845,"name":"Marin","state_code":"74","country_code":"FR"}},{"type":"Feature","geometry":{"type":"Point","coordinates":[6.52653,46.06356]},"properties":{"id":43862,"name":"Marnaz","state_code":"74","country_code":"FR"}},{"type":"Feature","geometry":{"type":"Point","coordinates":[6.33148,46.31807]},"properties":{"id":43935,"name":"Massongy","state_code":"74","country_code":"FR"}},{"type":"Feature","geometry":{"type":"Point","coordinates":[6.63113,46.39828]},"properties":{"id":43966,"name":"Maxilly-sur-Léman","state_code":"74","country_code":"FR"}},{"type":"Feature","geometry":{"type":"Point","coordinates":[6.61775,45.85687]},"properties":{"id":43984,"name":"Megève","state_code":"74","country_code":"FR"}},{"type":"Feature","geometry":{"type":"Point","coordinates":[6.19552,45.85995]},"properties":{"id":44006,"name":"Menthon-Saint-Bernard","state_code":"74","country_code":"FR"}},{"type":"Feature","geometry":{"type":"Point","coordinates":[6.29099,46.35036]},"properties":{"id":44036,"name":"Messery","state_code":"74","country_code":"FR"}},{"type":"Feature","geometry":{"type":"Point","coordinates":[6.09422,45.91836]},"properties":{"id":44064,"name":"Meythet","state_code":"74","country_code":"FR"}},{"type":"Feature","geometry":{"type":"Point","coordinates":[6.52416,46.13369]},"properties":{"id":44067,"name":"Mieussy","state_code":"74","country_code":"FR"}},{"type":"Feature","geometry":{"type":"Point","coordinates":[6.20667,46.1603]},"properties":{"id":44145,"name":"Monnetier-Mornex","state_code":"74","country_code":"FR"}},{"type":"Feature","geometry":{"type":"Point","coordinates":[6.47429,46.0508]},"properties":{"id":44159,"name":"Mont-Saxonnex","state_code":"74","country_code":"FR"}},{"type":"Feature","geometry":{"type":"Point","coordinates":[6.70664,46.18149]},"properties":{"id":44377,"name":"Morzine","state_code":"74","country_code":"FR"}},{"type":"Feature","geometry":{"type":"Point","coordinates":[5.91289,45.87566]},"properties":{"id":44421,"name":"Moye","state_code":"74","country_code":"FR"}},{"type":"Feature","geometry":{"type":"Point","coordinates":[6.61257,46.39502]},"properties":{"id":44559,"name":"Neuvecelle","state_code":"74","country_code":"FR"}},{"type":"Feature","geometry":{"type":"Point","coordinates":[6.10436,46.12162]},"properties":{"id":44586,"name":"Neydens","state_code":"74","country_code":"FR"}},{"type":"Feature","geometry":{"type":"Point","coordinates":[6.69562,45.92341]},"properties":{"id":44865,"name":"Passy","state_code":"74","country_code":"FR"}},{"type":"Feature","geometry":{"type":"Point","coordinates":[6.37715,46.12861]},"properties":{"id":44884,"name":"Peillonnex","state_code":"74","country_code":"FR"}},{"type":"Feature","geometry":{"type":"Point","coordinates":[6.43928,46.30558]},"properties":{"id":44903,"name":"Perrignier","state_code":"74","country_code":"FR"}},{"type":"Feature","geometry":{"type":"Point","coordinates":[6.26955,46.10594]},"properties":{"id":44908,"name":"Pers-Jussy","state_code":"74","country_code":"FR"}},{"type":"Feature","geometry":{"type":"Point","coordinates":[6.06356,45.92142]},"properties":{"id":45137,"name":"Poisy","state_code":"74","country_code":"FR"}},{"type":"Feature","geometry":{"type":"Point","coordinates":[6.57259,45.83731]},"properties":{"id":45280,"name":"Praz-sur-Arly","state_code":"74","country_code":"FR"}},{"type":"Feature","geometry":{"type":"Point","coordinates":[6.54356,46.38773]},"properties":{"id":45313,"name":"Publier","state_code":"74","country_code":"FR"}},{"type":"Feature","geometry":{"type":"Point","coordinates":[6.26667,46.13333]},"properties":{"id":45448,"name":"Reignier-Ésery","state_code":"74","country_code":"FR"}},{"type":"Feature","geometry":{"type":"Point","coordinates":[5.94513,45.86116]},"properties":{"id":45672,"name":"Rumilly","state_code":"74","country_code":"FR"}},{"type":"Feature","geometry":{"type":"Point","coordinates":[6.31924,46.23005]},"properties":{"id":45843,"name":"Saint-Cergues","state_code":"74","country_code":"FR"}},{"type":"Feature","geometry":{"type":"Point","coordinates":[5.97714,45.80269]},"properties":{"id":45947,"name":"Saint-Félix","state_code":"74","country_code":"FR"}},{"type":"Feature","geometry":{"type":"Point","coordinates":[6.71678,45.89126]},"properties":{"id":46029,"name":"Saint-Gervais-les-Bains","state_code":"74","country_code":"FR"}},{"type":"Feature","geometry":{"type":"Point","coordinates":[6.65327,46.23438]},"properties":{"id":46112,"name":"Saint-Jean-d’Aulps","state_code":"74","country_code":"FR"}},{"type":"Feature","geometry":{"type":"Point","coordinates":[6.4118,45.92312]},"properties":{"id":46101,"name":"Saint-Jean-de-Sixt","state_code":"74","country_code":"FR"}},{"type":"Feature","geometry":{"type":"Point","coordinates":[6.46172,46.13733]},"properties":{"id":46123,"name":"Saint-Jeoire","state_code":"74","country_code":"FR"}},{"type":"Feature","geometry":{"type":"Point","coordinates":[6.15792,45.83074]},"properties":{"id":46125,"name":"Saint-Jorioz","state_code":"74","country_code":"FR"}},{"type":"Feature","geometry":{"type":"Point","coordinates":[6.08256,46.14434]},"properties":{"id":46144,"name":"Saint-Julien-en-Genevois","state_code":"74","country_code":"FR"}},{"type":"Feature","geometry":{"type":"Point","coordinates":[6.15763,45.96262]},"properties":{"id":46260,"name":"Saint-Martin-Bellevue","state_code":"74","country_code":"FR"}},{"type":"Feature","geometry":{"type":"Point","coordinates":[6.62483,46.37958]},"properties":{"id":46412,"name":"Saint-Paul-en-Chablais","state_code":"74","country_code":"FR"}},{"type":"Feature","geometry":{"type":"Point","coordinates":[6.3735,46.0591]},"properties":{"id":162014,"name":"Saint-Pierre-en-Faucigny","state_code":"74","country_code":"FR"}},{"type":"Feature","geometry":{"type":"Point","coordinates":[5.95996,45.87441]},"properties":{"id":46746,"name":"Sales","state_code":"74","country_code":"FR"}},{"type":"Feature","geometry":{"type":"Point","coordinates":[6.63162,45.94423]},"properties":{"id":46757,"name":"Sallanches","state_code":"74","country_code":"FR"}},{"type":"Feature","geometry":{"type":"Point","coordinates":[6.72647,46.08282]},"properties":{"id":46776,"name":"Samoëns","state_code":"74","country_code":"FR"}},{"type":"Feature","geometry":{"type":"Point","coordinates":[6.38413,46.33251]},"properties":{"id":46905,"name":"Sciez","state_code":"74","country_code":"FR"}},{"type":"Feature","geometry":{"type":"Point","coordinates":[6.55271,46.0601]},"properties":{"id":46906,"name":"Scionzier","state_code":"74","country_code":"FR"}},{"type":"Feature","geometry":{"type":"Point","coordinates":[6.1399,45.86442]},"properties":{"id":46981,"name":"Sevrier","state_code":"74","country_code":"FR"}},{"type":"Feature","geometry":{"type":"Point","coordinates":[6.08831,45.88549]},"properties":{"id":46983,"name":"Seynod","state_code":"74","country_code":"FR"}},{"type":"Feature","geometry":{"type":"Point","coordinates":[5.8531,45.9621]},"properties":{"id":162029,"name":"Seyssel","state_code":"74","country_code":"FR"}},{"type":"Feature","geometry":{"type":"Point","coordinates":[6.04415,45.94781]},"properties":{"id":46997,"name":"Sillingy","state_code":"74","country_code":"FR"}},{"type":"Feature","geometry":{"type":"Point","coordinates":[6.21374,45.84098]},"properties":{"id":47166,"name":"Talloires","state_code":"74","country_code":"FR"}},{"type":"Feature","geometry":{"type":"Point","coordinates":[6.59231,46.10883]},"properties":{"id":47170,"name":"Taninges","state_code":"74","country_code":"FR"}},{"type":"Feature","geometry":{"type":"Point","coordinates":[6.32572,45.88123]},"properties":{"id":47275,"name":"Thônes","state_code":"74","country_code":"FR"}},{"type":"Feature","geometry":{"type":"Point","coordinates":[6.47985,46.37049]},"properties":{"id":47247,"name":"Thonon-les-Bains","state_code":"74","country_code":"FR"}},{"type":"Feature","geometry":{"type":"Point","coordinates":[6.24557,45.9951]},"properties":{"id":47248,"name":"Thorens-Glières","state_code":"74","country_code":"FR"}},{"type":"Feature","geometry":{"type":"Point","coordinates":[6.53777,46.08249]},"properties":{"id":47265,"name":"Thyez","state_code":"74","country_code":"FR"}},{"type":"Feature","geometry":{"type":"Point","coordinates":[5.97037,46.11106]},"properties":{"id":47486,"name":"Valleiry","state_code":"74","country_code":"FR"}},{"type":"Feature","geometry":{"type":"Point","coordinates":[5.9144,45.9151]},"properties":{"id":162079,"name":"Vallières-sur-Fier","state_code":"74","country_code":"FR"}},{"type":"Feature","geometry":{"type":"Point","coordinates":[6.26304,46.26787]},"properties":{"id":47556,"name":"Veigy","state_code":"74","country_code":"FR"}},{"type":"Feature","geometry":{"type":"Point","coordinates":[6.2692,46.27]},"properties":{"id":162085,"name":"Veigy-Foncenex","state_code":"74","country_code":"FR"}},{"type":"Feature","geometry":{"type":"Point","coordinates":[5.92586,45.92914]},"properties":{"id":47634,"name":"Versonnex","state_code":"74","country_code":"FR"}},{"type":"Feature","geometry":{"type":"Point","coordinates":[6.25852,46.1743]},"properties":{"id":47931,"name":"Vétraz-Monthoux","state_code":"74","country_code":"FR"}},{"type":"Feature","geometry":{"type":"Point","coordinates":[6.17709,45.88234]},"properties":{"id":47656,"name":"Veyrier-du-Lac","state_code":"74","country_code":"FR"}},{"type":"Feature","geometry":{"type":"Point","coordinates":[6.19447,45.95127]},"properties":{"id":47716,"name":"Villaz","state_code":"74","country_code":"FR"}},{"type":"Feature","geometry":{"type":"Point","coordinates":[6.2501,46.203]},"properties":{"id":47718,"name":"Ville-la-Grand","state_code":"74","country_code":"FR"}},{"type":"Feature","geometry":{"type":"Point","coordinates":[6.03808,46.11291]},"properties":{"id":47866,"name":"Viry","state_code":"74","country_code":"FR"}},{"type":"Feature","geometry":{"type":"Point","coordinates":[6.40781,46.14673]},"properties":{"id":47879,"name":"Viuz-en-Sallaz","state_code":"74","country_code":"FR"}},{"type":"Feature","geometry":{"type":"Point","coordinates":[6.06645,45.81203]},"properties":{"id":47880,"name":"Viuz-la-Chiésaz","state_code":"74","country_code":"FR"}}]}