{"type":"FeatureCollection","features":[{"type":"Feature","geometry":{"type":"Point","coordinates":[2.31686,43.49394]},"properties":{"id":39274,"name":"Aiguefonde","state_code":"81","country_code":"FR"}},{"type":"Feature","geometry":{"type":"Point","coordinates":[2.148,43.9298]},"properties":{"id":39305,"name":"Albi","state_code":"81","country_code":"FR"}},{"type":"Feature","geometry":{"type":"Point","coordinates":[2.2113,43.95745]},"properties":{"id":39526,"name":"Arthès","state_code":"81","country_code":"FR"}},{"type":"Feature","geometry":{"type":"Point","coordinates":[2.36791,43.50293]},"properties":{"id":39632,"name":"Aussillon","state_code":"81","country_code":"FR"}},{"type":"Feature","geometry":{"type":"Point","coordinates":[2.13166,44.03073]},"properties":{"id":40063,"name":"Blaye-les-Mines","state_code":"81","country_code":"FR"}},{"type":"Feature","geometry":{"type":"Point","coordinates":[2.41642,43.49738]},"properties":{"id":40222,"name":"Bout-du-Pont-de-Larn","state_code":"81","country_code":"FR"}},{"type":"Feature","geometry":{"type":"Point","coordinates":[2.49763,43.62959]},"properties":{"id":40261,"name":"Brassac","state_code":"81","country_code":"FR"}},{"type":"Feature","geometry":{"type":"Point","coordinates":[1.90716,43.88725]},"properties":{"id":40275,"name":"Brens","state_code":"81","country_code":"FR"}},{"type":"Feature","geometry":{"type":"Point","coordinates":[1.90879,43.75237]},"properties":{"id":40302,"name":"Briatexte","state_code":"81","country_code":"FR"}},{"type":"Feature","geometry":{"type":"Point","coordinates":[2.31879,43.63633]},"properties":{"id":40388,"name":"Burlats","state_code":"81","country_code":"FR"}},{"type":"Feature","geometry":{"type":"Point","coordinates":[1.98089,43.84933]},"properties":{"id":40450,"name":"Cadalen","state_code":"81","country_code":"FR"}},{"type":"Feature","geometry":{"type":"Point","coordinates":[2.14227,43.98445]},"properties":{"id":40458,"name":"Cagnac-les-Mines","state_code":"81","country_code":"FR"}},{"type":"Feature","geometry":{"type":"Point","coordinates":[1.91052,43.98268]},"properties":{"id":40464,"name":"Cahuzac-sur-Vère","state_code":"81","country_code":"FR"}},{"type":"Feature","geometry":{"type":"Point","coordinates":[2.2318,43.9113]},"properties":{"id":161711,"name":"Cambon","state_code":"81","country_code":"FR"}},{"type":"Feature","geometry":{"type":"Point","coordinates":[2.15795,44.05099]},"properties":{"id":40549,"name":"Carmaux","state_code":"81","country_code":"FR"}},{"type":"Feature","geometry":{"type":"Point","coordinates":[2.08491,43.93975]},"properties":{"id":40585,"name":"Castelnau-de-Lévis","state_code":"81","country_code":"FR"}},{"type":"Feature","geometry":{"type":"Point","coordinates":[2.23992,43.60589]},"properties":{"id":40595,"name":"Castres","state_code":"81","country_code":"FR"}},{"type":"Feature","geometry":{"type":"Point","coordinates":[1.95,44.06667]},"properties":{"id":41174,"name":"Cordes-sur-Ciel","state_code":"81","country_code":"FR"}},{"type":"Feature","geometry":{"type":"Point","coordinates":[1.73078,43.81713]},"properties":{"id":41224,"name":"Coufouleux","state_code":"81","country_code":"FR"}},{"type":"Feature","geometry":{"type":"Point","coordinates":[2.21878,43.9301]},"properties":{"id":41373,"name":"Cunac","state_code":"81","country_code":"FR"}},{"type":"Feature","geometry":{"type":"Point","coordinates":[2.13989,43.48381]},"properties":{"id":41556,"name":"Dourgne","state_code":"81","country_code":"FR"}},{"type":"Feature","geometry":{"type":"Point","coordinates":[2.23151,43.88094]},"properties":{"id":41984,"name":"Fréjairolles","state_code":"81","country_code":"FR"}},{"type":"Feature","geometry":{"type":"Point","coordinates":[1.89686,43.9016]},"properties":{"id":42013,"name":"Gaillac","state_code":"81","country_code":"FR"}},{"type":"Feature","geometry":{"type":"Point","coordinates":[1.77608,43.76199]},"properties":{"id":42104,"name":"Giroussens","state_code":"81","country_code":"FR"}},{"type":"Feature","geometry":{"type":"Point","coordinates":[1.98938,43.76688]},"properties":{"id":42188,"name":"Graulhet","state_code":"81","country_code":"FR"}},{"type":"Feature","geometry":{"type":"Point","coordinates":[2.63929,43.47566]},"properties":{"id":42925,"name":"Labastide-Rouairoux","state_code":"81","country_code":"FR"}},{"type":"Feature","geometry":{"type":"Point","coordinates":[1.84585,43.69962]},"properties":{"id":42926,"name":"Labastide-Saint-Georges","state_code":"81","country_code":"FR"}},{"type":"Feature","geometry":{"type":"Point","coordinates":[2.26392,43.53858]},"properties":{"id":42937,"name":"Labruguière","state_code":"81","country_code":"FR"}},{"type":"Feature","geometry":{"type":"Point","coordinates":[2.69293,43.7066]},"properties":{"id":42944,"name":"Lacaune","state_code":"81","country_code":"FR"}},{"type":"Feature","geometry":{"type":"Point","coordinates":[2.34838,43.6603]},"properties":{"id":42949,"name":"Lacrouzette","state_code":"81","country_code":"FR"}},{"type":"Feature","geometry":{"type":"Point","coordinates":[2.27784,43.57765]},"properties":{"id":42955,"name":"Lagarrigue","state_code":"81","country_code":"FR"}},{"type":"Feature","geometry":{"type":"Point","coordinates":[1.99268,43.89734]},"properties":{"id":42963,"name":"Lagrave","state_code":"81","country_code":"FR"}},{"type":"Feature","geometry":{"type":"Point","coordinates":[2.13925,43.70591]},"properties":{"id":43104,"name":"Lautrec","state_code":"81","country_code":"FR"}},{"type":"Feature","geometry":{"type":"Point","coordinates":[1.81858,43.69847]},"properties":{"id":43113,"name":"Lavaur","state_code":"81","country_code":"FR"}},{"type":"Feature","geometry":{"type":"Point","coordinates":[2.16431,44.00932]},"properties":{"id":43193,"name":"Le Garric","state_code":"81","country_code":"FR"}},{"type":"Feature","geometry":{"type":"Point","coordinates":[2.11804,43.91076]},"properties":{"id":43300,"name":"Le Sequestre","state_code":"81","country_code":"FR"}},{"type":"Feature","geometry":{"type":"Point","coordinates":[2.1846,43.9631]},"properties":{"id":161861,"name":"Lescure-d'Albigeois","state_code":"81","country_code":"FR"}},{"type":"Feature","geometry":{"type":"Point","coordinates":[1.81099,43.85249]},"properties":{"id":43509,"name":"Lisle-sur-Tarn","state_code":"81","country_code":"FR"}},{"type":"Feature","geometry":{"type":"Point","coordinates":[2.02921,43.91768]},"properties":{"id":43908,"name":"Marssac-sur-Tarn","state_code":"81","country_code":"FR"}},{"type":"Feature","geometry":{"type":"Point","coordinates":[2.37304,43.49001]},"properties":{"id":43971,"name":"Mazamet","state_code":"81","country_code":"FR"}},{"type":"Feature","geometry":{"type":"Point","coordinates":[2.16857,44.14273]},"properties":{"id":44091,"name":"Mirandol-Bourgnounac","state_code":"81","country_code":"FR"}},{"type":"Feature","geometry":{"type":"Point","coordinates":[2.1,44.06667]},"properties":{"id":44141,"name":"Monestiés","state_code":"81","country_code":"FR"}},{"type":"Feature","geometry":{"type":"Point","coordinates":[1.88568,43.867]},"properties":{"id":44176,"name":"Montans","state_code":"81","country_code":"FR"}},{"type":"Feature","geometry":{"type":"Point","coordinates":[2.32454,43.71723]},"properties":{"id":44305,"name":"Montredon-Labessonnié","state_code":"81","country_code":"FR"}},{"type":"Feature","geometry":{"type":"Point","coordinates":[2.35406,43.5445]},"properties":{"id":44876,"name":"Payrin-Augmontel","state_code":"81","country_code":"FR"}},{"type":"Feature","geometry":{"type":"Point","coordinates":[2.40786,43.50412]},"properties":{"id":45179,"name":"Pont-de-Larn","state_code":"81","country_code":"FR"}},{"type":"Feature","geometry":{"type":"Point","coordinates":[2.16667,43.9]},"properties":{"id":45337,"name":"Puygouzon","state_code":"81","country_code":"FR"}},{"type":"Feature","geometry":{"type":"Point","coordinates":[2.01227,43.57202]},"properties":{"id":45338,"name":"Puylaurens","state_code":"81","country_code":"FR"}},{"type":"Feature","geometry":{"type":"Point","coordinates":[1.72382,43.82512]},"properties":{"id":45411,"name":"Rabastens","state_code":"81","country_code":"FR"}},{"type":"Feature","geometry":{"type":"Point","coordinates":[2.18885,43.77754]},"properties":{"id":45683,"name":"Réalmont","state_code":"81","country_code":"FR"}},{"type":"Feature","geometry":{"type":"Point","coordinates":[2.29264,43.66442]},"properties":{"id":45591,"name":"Roquecourbe","state_code":"81","country_code":"FR"}},{"type":"Feature","geometry":{"type":"Point","coordinates":[2.49076,43.47697]},"properties":{"id":45746,"name":"Saint-Amans-Soult","state_code":"81","country_code":"FR"}},{"type":"Feature","geometry":{"type":"Point","coordinates":[2.49095,43.48071]},"properties":{"id":45747,"name":"Saint-Amans-Valtoret","state_code":"81","country_code":"FR"}},{"type":"Feature","geometry":{"type":"Point","coordinates":[2.12911,44.05037]},"properties":{"id":45811,"name":"Saint-Benoît-de-Carmaux","state_code":"81","country_code":"FR"}},{"type":"Feature","geometry":{"type":"Point","coordinates":[1.97559,43.64791]},"properties":{"id":46404,"name":"Saint-Paul-Cap-de-Joux","state_code":"81","country_code":"FR"}},{"type":"Feature","geometry":{"type":"Point","coordinates":[1.68511,43.775]},"properties":{"id":46566,"name":"Saint-Sulpice-la-Pointe","state_code":"81","country_code":"FR"}},{"type":"Feature","geometry":{"type":"Point","coordinates":[2.18333,43.58333]},"properties":{"id":46892,"name":"Saïx","state_code":"81","country_code":"FR"}},{"type":"Feature","geometry":{"type":"Point","coordinates":[2.11208,43.59225]},"properties":{"id":47137,"name":"Sémalens","state_code":"81","country_code":"FR"}},{"type":"Feature","geometry":{"type":"Point","coordinates":[2.06799,43.45241]},"properties":{"id":47051,"name":"Sorèze","state_code":"81","country_code":"FR"}},{"type":"Feature","geometry":{"type":"Point","coordinates":[2.11679,43.5553]},"properties":{"id":47055,"name":"Soual","state_code":"81","country_code":"FR"}},{"type":"Feature","geometry":{"type":"Point","coordinates":[2.16317,43.7817]},"properties":{"id":47180,"name":"Tarn","state_code":"81","country_code":"FR"}},{"type":"Feature","geometry":{"type":"Point","coordinates":[2.40534,44.01928]},"properties":{"id":47472,"name":"Valence-d’Albigeois","state_code":"81","country_code":"FR"}},{"type":"Feature","geometry":{"type":"Point","coordinates":[2.1,43.61667]},"properties":{"id":47680,"name":"Vielmur-sur-Agout","state_code":"81","country_code":"FR"}},{"type":"Feature","geometry":{"type":"Point","coordinates":[2.33022,43.89635]},"properties":{"id":47735,"name":"Villefranche-d'Albigeois","state_code":"81","country_code":"FR"}},{"type":"Feature","geometry":{"type":"Point","coordinates":[2.17672,43.55474]},"properties":{"id":47884,"name":"Viviers-lès-Montagnes","state_code":"81","country_code":"FR"}}]}