{"type":"FeatureCollection","features":[{"type":"Feature","geometry":{"type":"Point","coordinates":[6.22477,43.62841]},"properties":{"id":39622,"name":"Aups","state_code":"83","country_code":"FR"}},{"type":"Feature","geometry":{"type":"Point","coordinates":[6.69814,43.53752]},"properties":{"id":39712,"name":"Bagnols-en-Forêt","state_code":"83","country_code":"FR"}},{"type":"Feature","geometry":{"type":"Point","coordinates":[5.74718,43.14247]},"properties":{"id":39759,"name":"Bandol","state_code":"83","country_code":"FR"}},{"type":"Feature","geometry":{"type":"Point","coordinates":[6.54957,43.61899]},"properties":{"id":39783,"name":"Bargemon","state_code":"83","country_code":"FR"}},{"type":"Feature","geometry":{"type":"Point","coordinates":[6.00752,43.55805]},"properties":{"id":39785,"name":"Barjols","state_code":"83","country_code":"FR"}},{"type":"Feature","geometry":{"type":"Point","coordinates":[5.99933,43.24535]},"properties":{"id":39905,"name":"Belgentier","state_code":"83","country_code":"FR"}},{"type":"Feature","geometry":{"type":"Point","coordinates":[6.17656,43.34892]},"properties":{"id":39977,"name":"Besse-sur-Issole","state_code":"83","country_code":"FR"}},{"type":"Feature","geometry":{"type":"Point","coordinates":[6.3422,43.15169]},"properties":{"id":40141,"name":"Bormes-les-Mimosas","state_code":"83","country_code":"FR"}},{"type":"Feature","geometry":{"type":"Point","coordinates":[5.95486,43.47163]},"properties":{"id":40258,"name":"Bras","state_code":"83","country_code":"FR"}},{"type":"Feature","geometry":{"type":"Point","coordinates":[6.06172,43.4058]},"properties":{"id":40313,"name":"Brignoles","state_code":"83","country_code":"FR"}},{"type":"Feature","geometry":{"type":"Point","coordinates":[6.21917,43.42646]},"properties":{"id":40443,"name":"Cabasse","state_code":"83","country_code":"FR"}},{"type":"Feature","geometry":{"type":"Point","coordinates":[6.5384,43.59284]},"properties":{"id":40472,"name":"Callas","state_code":"83","country_code":"FR"}},{"type":"Feature","geometry":{"type":"Point","coordinates":[6.75269,43.6221]},"properties":{"id":40473,"name":"Callian","state_code":"83","country_code":"FR"}},{"type":"Feature","geometry":{"type":"Point","coordinates":[6.09607,43.38626]},"properties":{"id":40501,"name":"Camps-la-Source","state_code":"83","country_code":"FR"}},{"type":"Feature","geometry":{"type":"Point","coordinates":[6.18257,43.47585]},"properties":{"id":40540,"name":"Carcès","state_code":"83","country_code":"FR"}},{"type":"Feature","geometry":{"type":"Point","coordinates":[6.18733,43.30187]},"properties":{"id":40551,"name":"Carnoules","state_code":"83","country_code":"FR"}},{"type":"Feature","geometry":{"type":"Point","coordinates":[6.07349,43.09495]},"properties":{"id":40558,"name":"Carqueiranne","state_code":"83","country_code":"FR"}},{"type":"Feature","geometry":{"type":"Point","coordinates":[6.52959,43.17261]},"properties":{"id":40618,"name":"Cavalaire-sur-Mer","state_code":"83","country_code":"FR"}},{"type":"Feature","geometry":{"type":"Point","coordinates":[6.52981,43.25294]},"properties":{"id":41083,"name":"Cogolin","state_code":"83","country_code":"FR"}},{"type":"Feature","geometry":{"type":"Point","coordinates":[6.30901,43.23718]},"properties":{"id":41092,"name":"Collobrières","state_code":"83","country_code":"FR"}},{"type":"Feature","geometry":{"type":"Point","coordinates":[6.14955,43.52876]},"properties":{"id":41211,"name":"Cotignac","state_code":"83","country_code":"FR"}},{"type":"Feature","geometry":{"type":"Point","coordinates":[6.07178,43.23754]},"properties":{"id":41359,"name":"Cuers","state_code":"83","country_code":"FR"}},{"type":"Feature","geometry":{"type":"Point","coordinates":[6.46458,43.53692]},"properties":{"id":41566,"name":"Draguignan","state_code":"83","country_code":"FR"}},{"type":"Feature","geometry":{"type":"Point","coordinates":[5.84628,43.16365]},"properties":{"id":48117,"name":"Évenos","state_code":"83","country_code":"FR"}},{"type":"Feature","geometry":{"type":"Point","coordinates":[6.69531,43.6257]},"properties":{"id":41789,"name":"Fayence","state_code":"83","country_code":"FR"}},{"type":"Feature","geometry":{"type":"Point","coordinates":[6.49722,43.56882]},"properties":{"id":41817,"name":"Figanières","state_code":"83","country_code":"FR"}},{"type":"Feature","geometry":{"type":"Point","coordinates":[6.22154,43.36856]},"properties":{"id":41829,"name":"Flassans-sur-Issole","state_code":"83","country_code":"FR"}},{"type":"Feature","geometry":{"type":"Point","coordinates":[6.3966,43.53396]},"properties":{"id":41835,"name":"Flayosc","state_code":"83","country_code":"FR"}},{"type":"Feature","geometry":{"type":"Point","coordinates":[6.08346,43.33618]},"properties":{"id":41909,"name":"Forcalqueiret","state_code":"83","country_code":"FR"}},{"type":"Feature","geometry":{"type":"Point","coordinates":[6.73555,43.43325]},"properties":{"id":41985,"name":"Fréjus","state_code":"83","country_code":"FR"}},{"type":"Feature","geometry":{"type":"Point","coordinates":[6.04616,43.32833]},"properties":{"id":42048,"name":"Garéoult","state_code":"83","country_code":"FR"}},{"type":"Feature","geometry":{"type":"Point","coordinates":[6.58549,43.22882]},"properties":{"id":42050,"name":"Gassin","state_code":"83","country_code":"FR"}},{"type":"Feature","geometry":{"type":"Point","coordinates":[5.84911,43.67088]},"properties":{"id":42098,"name":"Ginasservis","state_code":"83","country_code":"FR"}},{"type":"Feature","geometry":{"type":"Point","coordinates":[6.28929,43.32036]},"properties":{"id":42130,"name":"Gonfaron","state_code":"83","country_code":"FR"}},{"type":"Feature","geometry":{"type":"Point","coordinates":[6.52171,43.27329]},"properties":{"id":42214,"name":"Grimaud","state_code":"83","country_code":"FR"}},{"type":"Feature","geometry":{"type":"Point","coordinates":[6.12857,43.12038]},"properties":{"id":42448,"name":"Hyères","state_code":"83","country_code":"FR"}},{"type":"Feature","geometry":{"type":"Point","coordinates":[5.7231,43.2026]},"properties":{"id":161811,"name":"La Cadière-d'Azur","state_code":"83","country_code":"FR"}},{"type":"Feature","geometry":{"type":"Point","coordinates":[6.0375,43.39523]},"properties":{"id":42670,"name":"La Celle","state_code":"83","country_code":"FR"}},{"type":"Feature","geometry":{"type":"Point","coordinates":[6.07399,43.14962]},"properties":{"id":42721,"name":"La Crau","state_code":"83","country_code":"FR"}},{"type":"Feature","geometry":{"type":"Point","coordinates":[6.56796,43.20755]},"properties":{"id":42723,"name":"La Croix-Valmer","state_code":"83","country_code":"FR"}},{"type":"Feature","geometry":{"type":"Point","coordinates":[6.04323,43.16866]},"properties":{"id":42733,"name":"La Farlède","state_code":"83","country_code":"FR"}},{"type":"Feature","geometry":{"type":"Point","coordinates":[6.01033,43.12468]},"properties":{"id":42761,"name":"La Garde","state_code":"83","country_code":"FR"}},{"type":"Feature","geometry":{"type":"Point","coordinates":[6.46946,43.3171]},"properties":{"id":42763,"name":"La Garde-Freinet","state_code":"83","country_code":"FR"}},{"type":"Feature","geometry":{"type":"Point","coordinates":[6.23362,43.13839]},"properties":{"id":42792,"name":"La Londe-les-Maures","state_code":"83","country_code":"FR"}},{"type":"Feature","geometry":{"type":"Point","coordinates":[6.53519,43.49403]},"properties":{"id":42812,"name":"La Motte","state_code":"83","country_code":"FR"}},{"type":"Feature","geometry":{"type":"Point","coordinates":[5.97603,43.3403]},"properties":{"id":42866,"name":"La Roquebrussanne","state_code":"83","country_code":"FR"}},{"type":"Feature","geometry":{"type":"Point","coordinates":[5.87816,43.10322]},"properties":{"id":42878,"name":"La Seyne-sur-Mer","state_code":"83","country_code":"FR"}},{"type":"Feature","geometry":{"type":"Point","coordinates":[5.98317,43.13763]},"properties":{"id":42905,"name":"La Valette-du-Var","state_code":"83","country_code":"FR"}},{"type":"Feature","geometry":{"type":"Point","coordinates":[5.80267,43.19822]},"properties":{"id":43128,"name":"Le Beausset","state_code":"83","country_code":"FR"}},{"type":"Feature","geometry":{"type":"Point","coordinates":[6.33966,43.39236]},"properties":{"id":43155,"name":"Le Cannet-des-Maures","state_code":"83","country_code":"FR"}},{"type":"Feature","geometry":{"type":"Point","coordinates":[5.77657,43.20291]},"properties":{"id":43157,"name":"Le Castellet","state_code":"83","country_code":"FR"}},{"type":"Feature","geometry":{"type":"Point","coordinates":[6.366,43.137]},"properties":{"id":43212,"name":"Le Lavandou","state_code":"83","country_code":"FR"}},{"type":"Feature","geometry":{"type":"Point","coordinates":[6.31253,43.39453]},"properties":{"id":43217,"name":"Le Luc","state_code":"83","country_code":"FR"}},{"type":"Feature","geometry":{"type":"Point","coordinates":[6.56637,43.4728]},"properties":{"id":43238,"name":"Le Muy","state_code":"83","country_code":"FR"}},{"type":"Feature","geometry":{"type":"Point","coordinates":[6.55,43.33333]},"properties":{"id":43262,"name":"Le Plan-de-la-Tour","state_code":"83","country_code":"FR"}},{"type":"Feature","geometry":{"type":"Point","coordinates":[6.0235,43.10545]},"properties":{"id":43283,"name":"Le Pradet","state_code":"83","country_code":"FR"}},{"type":"Feature","geometry":{"type":"Point","coordinates":[5.92667,43.17612]},"properties":{"id":43294,"name":"Le Revest-les-Eaux","state_code":"83","country_code":"FR"}},{"type":"Feature","geometry":{"type":"Point","coordinates":[6.30391,43.45174]},"properties":{"id":43317,"name":"Le Thoronet","state_code":"83","country_code":"FR"}},{"type":"Feature","geometry":{"type":"Point","coordinates":[6.07335,43.43928]},"properties":{"id":43326,"name":"Le Val","state_code":"83","country_code":"FR"}},{"type":"Feature","geometry":{"type":"Point","coordinates":[6.8177,43.5385]},"properties":{"id":161850,"name":"Les Adrets-de-l'Estérel","state_code":"83","country_code":"FR"}},{"type":"Feature","geometry":{"type":"Point","coordinates":[6.47876,43.46328]},"properties":{"id":43364,"name":"Les Arcs","state_code":"83","country_code":"FR"}},{"type":"Feature","geometry":{"type":"Point","coordinates":[6.3615,43.49325]},"properties":{"id":43586,"name":"Lorgues","state_code":"83","country_code":"FR"}},{"type":"Feature","geometry":{"type":"Point","coordinates":[5.96986,43.28102]},"properties":{"id":44468,"name":"Méounes-lès-Montrieux","state_code":"83","country_code":"FR"}},{"type":"Feature","geometry":{"type":"Point","coordinates":[6.76528,43.61823]},"properties":{"id":44186,"name":"Montauroux","state_code":"83","country_code":"FR"}},{"type":"Feature","geometry":{"type":"Point","coordinates":[6.48093,43.61196]},"properties":{"id":44237,"name":"Montferrat","state_code":"83","country_code":"FR"}},{"type":"Feature","geometry":{"type":"Point","coordinates":[5.78189,43.37066]},"properties":{"id":44504,"name":"Nans-les-Pins","state_code":"83","country_code":"FR"}},{"type":"Feature","geometry":{"type":"Point","coordinates":[6.00798,43.30844]},"properties":{"id":44693,"name":"Néoules","state_code":"83","country_code":"FR"}},{"type":"Feature","geometry":{"type":"Point","coordinates":[5.84766,43.1399]},"properties":{"id":44735,"name":"Ollioules","state_code":"83","country_code":"FR"}},{"type":"Feature","geometry":{"type":"Point","coordinates":[6.14536,43.22411]},"properties":{"id":44953,"name":"Pierrefeu-du-Var","state_code":"83","country_code":"FR"}},{"type":"Feature","geometry":{"type":"Point","coordinates":[6.2265,43.30071]},"properties":{"id":44969,"name":"Pignans","state_code":"83","country_code":"FR"}},{"type":"Feature","geometry":{"type":"Point","coordinates":[5.71667,43.33333]},"properties":{"id":44996,"name":"Plan-d'Aups-Sainte-Baume","state_code":"83","country_code":"FR"}},{"type":"Feature","geometry":{"type":"Point","coordinates":[5.73452,43.50611]},"properties":{"id":45266,"name":"Pourrières","state_code":"83","country_code":"FR"}},{"type":"Feature","geometry":{"type":"Point","coordinates":[6.68519,43.45576]},"properties":{"id":45316,"name":"Puget-sur-Argens","state_code":"83","country_code":"FR"}},{"type":"Feature","geometry":{"type":"Point","coordinates":[6.13612,43.28958]},"properties":{"id":45315,"name":"Puget-Ville","state_code":"83","country_code":"FR"}},{"type":"Feature","geometry":{"type":"Point","coordinates":[6.61156,43.21599]},"properties":{"id":45421,"name":"Ramatuelle","state_code":"83","country_code":"FR"}},{"type":"Feature","geometry":{"type":"Point","coordinates":[6.13186,43.6554]},"properties":{"id":45690,"name":"Régusse","state_code":"83","country_code":"FR"}},{"type":"Feature","geometry":{"type":"Point","coordinates":[6.07941,43.30904]},"properties":{"id":45538,"name":"Rocbaron","state_code":"83","country_code":"FR"}},{"type":"Feature","geometry":{"type":"Point","coordinates":[6.63772,43.44313]},"properties":{"id":45590,"name":"Roquebrune-sur-Argens","state_code":"83","country_code":"FR"}},{"type":"Feature","geometry":{"type":"Point","coordinates":[5.85112,43.39233]},"properties":{"id":45624,"name":"Rougiers","state_code":"83","country_code":"FR"}},{"type":"Feature","geometry":{"type":"Point","coordinates":[5.7012,43.18048]},"properties":{"id":45889,"name":"Saint-Cyr-sur-Mer","state_code":"83","country_code":"FR"}},{"type":"Feature","geometry":{"type":"Point","coordinates":[5.44935,43.31334]},"properties":{"id":46134,"name":"Saint-Julien","state_code":"83","country_code":"FR"}},{"type":"Feature","geometry":{"type":"Point","coordinates":[5.929,43.078]},"properties":{"id":46235,"name":"Saint-Mandrier-sur-Mer","state_code":"83","country_code":"FR"}},{"type":"Feature","geometry":{"type":"Point","coordinates":[5.86081,43.44813]},"properties":{"id":46325,"name":"Saint-Maximin-la-Sainte-Baume","state_code":"83","country_code":"FR"}},{"type":"Feature","geometry":{"type":"Point","coordinates":[6.69206,43.56709]},"properties":{"id":46413,"name":"Saint-Paul-en-Forêt","state_code":"83","country_code":"FR"}},{"type":"Feature","geometry":{"type":"Point","coordinates":[6.7735,43.42332]},"properties":{"id":46494,"name":"Saint-Raphaël","state_code":"83","country_code":"FR"}},{"type":"Feature","geometry":{"type":"Point","coordinates":[6.64049,43.26764]},"properties":{"id":46589,"name":"Saint-Tropez","state_code":"83","country_code":"FR"}},{"type":"Feature","geometry":{"type":"Point","coordinates":[5.70808,43.38521]},"properties":{"id":46634,"name":"Saint-Zacharie","state_code":"83","country_code":"FR"}},{"type":"Feature","geometry":{"type":"Point","coordinates":[6.12493,43.34266]},"properties":{"id":46662,"name":"Sainte-Anastasie-sur-Issole","state_code":"83","country_code":"FR"}},{"type":"Feature","geometry":{"type":"Point","coordinates":[6.63849,43.30907]},"properties":{"id":46718,"name":"Sainte-Maxime","state_code":"83","country_code":"FR"}},{"type":"Feature","geometry":{"type":"Point","coordinates":[6.23386,43.5635]},"properties":{"id":46745,"name":"Salernes","state_code":"83","country_code":"FR"}},{"type":"Feature","geometry":{"type":"Point","coordinates":[5.80155,43.11985]},"properties":{"id":46780,"name":"Sanary-sur-Mer","state_code":"83","country_code":"FR"}},{"type":"Feature","geometry":{"type":"Point","coordinates":[6.64332,43.63623]},"properties":{"id":46923,"name":"Seillans","state_code":"83","country_code":"FR"}},{"type":"Feature","geometry":{"type":"Point","coordinates":[5.8775,43.5156]},"properties":{"id":162028,"name":"Seillons-Source-d'Argens","state_code":"83","country_code":"FR"}},{"type":"Feature","geometry":{"type":"Point","coordinates":[5.86284,43.2908]},"properties":{"id":46992,"name":"Signes","state_code":"83","country_code":"FR"}},{"type":"Feature","geometry":{"type":"Point","coordinates":[5.82465,43.09174]},"properties":{"id":47010,"name":"Six-Fours-les-Plages","state_code":"83","country_code":"FR"}},{"type":"Feature","geometry":{"type":"Point","coordinates":[6.04115,43.19009]},"properties":{"id":47030,"name":"Solliès-Pont","state_code":"83","country_code":"FR"}},{"type":"Feature","geometry":{"type":"Point","coordinates":[6.02485,43.20579]},"properties":{"id":47031,"name":"Solliès-Toucas","state_code":"83","country_code":"FR"}},{"type":"Feature","geometry":{"type":"Point","coordinates":[6.03849,43.18256]},"properties":{"id":47032,"name":"Solliès-Ville","state_code":"83","country_code":"FR"}},{"type":"Feature","geometry":{"type":"Point","coordinates":[6.87541,43.59057]},"properties":{"id":47172,"name":"Tanneron","state_code":"83","country_code":"FR"}},{"type":"Feature","geometry":{"type":"Point","coordinates":[6.42729,43.45444]},"properties":{"id":47174,"name":"Taradeau","state_code":"83","country_code":"FR"}},{"type":"Feature","geometry":{"type":"Point","coordinates":[5.92836,43.12442]},"properties":{"id":47312,"name":"Toulon","state_code":"83","country_code":"FR"}},{"type":"Feature","geometry":{"type":"Point","coordinates":[6.7252,43.609]},"properties":{"id":162048,"name":"Tourrettes","state_code":"83","country_code":"FR"}},{"type":"Feature","geometry":{"type":"Point","coordinates":[5.92392,43.40803]},"properties":{"id":47335,"name":"Tourves","state_code":"83","country_code":"FR"}},{"type":"Feature","geometry":{"type":"Point","coordinates":[6.48641,43.50326]},"properties":{"id":47348,"name":"Trans-en-Provence","state_code":"83","country_code":"FR"}},{"type":"Feature","geometry":{"type":"Point","coordinates":[6.29145,43.4586]},"properties":{"id":47506,"name":"Var","state_code":"83","country_code":"FR"}},{"type":"Feature","geometry":{"type":"Point","coordinates":[6.43185,43.42721]},"properties":{"id":47673,"name":"Vidauban","state_code":"83","country_code":"FR"}},{"type":"Feature","geometry":{"type":"Point","coordinates":[6.27587,43.58223]},"properties":{"id":47728,"name":"Villecroze","state_code":"83","country_code":"FR"}},{"type":"Feature","geometry":{"type":"Point","coordinates":[5.81168,43.72484]},"properties":{"id":47849,"name":"Vinon-sur-Verdon","state_code":"83","country_code":"FR"}}]}