{"type":"FeatureCollection","features":[{"type":"Feature","geometry":{"type":"Point","coordinates":[1.44821,44.09049]},"properties":{"id":39306,"name":"Albias","state_code":"82","country_code":"FR"}},{"type":"Feature","geometry":{"type":"Point","coordinates":[0.90192,44.06863]},"properties":{"id":39643,"name":"Auvillar","state_code":"82","country_code":"FR"}},{"type":"Feature","geometry":{"type":"Point","coordinates":[0.98762,43.88285]},"properties":{"id":39863,"name":"Beaumont-de-Lomagne","state_code":"82","country_code":"FR"}},{"type":"Feature","geometry":{"type":"Point","coordinates":[1.33839,43.96796]},"properties":{"id":40277,"name":"Bressols","state_code":"82","country_code":"FR"}},{"type":"Feature","geometry":{"type":"Point","coordinates":[1.32677,43.89591]},"properties":{"id":40502,"name":"Campsas","state_code":"82","country_code":"FR"}},{"type":"Feature","geometry":{"type":"Point","coordinates":[1.10702,44.04022]},"properties":{"id":40589,"name":"Castelsarrasin","state_code":"82","country_code":"FR"}},{"type":"Feature","geometry":{"type":"Point","coordinates":[1.53913,44.1608]},"properties":{"id":40612,"name":"Caussade","state_code":"82","country_code":"FR"}},{"type":"Feature","geometry":{"type":"Point","coordinates":[1.77168,44.23607]},"properties":{"id":40623,"name":"Caylus","state_code":"82","country_code":"FR"}},{"type":"Feature","geometry":{"type":"Point","coordinates":[1.20299,44.22689]},"properties":{"id":40625,"name":"Cazes-Mondenard","state_code":"82","country_code":"FR"}},{"type":"Feature","geometry":{"type":"Point","coordinates":[1.36881,43.94415]},"properties":{"id":41161,"name":"Corbarieu","state_code":"82","country_code":"FR"}},{"type":"Feature","geometry":{"type":"Point","coordinates":[1.16667,44]},"properties":{"id":41645,"name":"Département du Tarn-et-Garonne","state_code":"82","country_code":"FR"}},{"type":"Feature","geometry":{"type":"Point","coordinates":[1.2212,43.91335]},"properties":{"id":41822,"name":"Finhan","state_code":"82","country_code":"FR"}},{"type":"Feature","geometry":{"type":"Point","coordinates":[1.29673,43.8292]},"properties":{"id":42215,"name":"Grisolles","state_code":"82","country_code":"FR"}},{"type":"Feature","geometry":{"type":"Point","coordinates":[1.221,44.0417]},"properties":{"id":161828,"name":"La Ville-Dieu-du-Temple","state_code":"82","country_code":"FR"}},{"type":"Feature","geometry":{"type":"Point","coordinates":[1.36628,43.91769]},"properties":{"id":42927,"name":"Labastide-Saint-Pierre","state_code":"82","country_code":"FR"}},{"type":"Feature","geometry":{"type":"Point","coordinates":[1.24141,44.12791]},"properties":{"id":42953,"name":"Lafrançaise","state_code":"82","country_code":"FR"}},{"type":"Feature","geometry":{"type":"Point","coordinates":[0.82486,44.12488]},"properties":{"id":42978,"name":"Lamagistère","state_code":"82","country_code":"FR"}},{"type":"Feature","geometry":{"type":"Point","coordinates":[1.13817,44.25535]},"properties":{"id":43106,"name":"Lauzerte","state_code":"82","country_code":"FR"}},{"type":"Feature","geometry":{"type":"Point","coordinates":[0.9201,43.95674]},"properties":{"id":43118,"name":"Lavit","state_code":"82","country_code":"FR"}},{"type":"Feature","geometry":{"type":"Point","coordinates":[1.0945,44.10236]},"properties":{"id":44118,"name":"Moissac","state_code":"82","country_code":"FR"}},{"type":"Feature","geometry":{"type":"Point","coordinates":[1.36318,44.19305]},"properties":{"id":44123,"name":"Molières","state_code":"82","country_code":"FR"}},{"type":"Feature","geometry":{"type":"Point","coordinates":[1.58587,43.96554]},"properties":{"id":44131,"name":"Monclar-de-Quercy","state_code":"82","country_code":"FR"}},{"type":"Feature","geometry":{"type":"Point","coordinates":[1.0169,44.33964]},"properties":{"id":44170,"name":"Montaigu-de-Quercy","state_code":"82","country_code":"FR"}},{"type":"Feature","geometry":{"type":"Point","coordinates":[1.36432,44.01819]},"properties":{"id":44183,"name":"Montauban","state_code":"82","country_code":"FR"}},{"type":"Feature","geometry":{"type":"Point","coordinates":[1.3,44.01667]},"properties":{"id":44196,"name":"Montbeton","state_code":"82","country_code":"FR"}},{"type":"Feature","geometry":{"type":"Point","coordinates":[1.23204,43.95816]},"properties":{"id":44216,"name":"Montech","state_code":"82","country_code":"FR"}},{"type":"Feature","geometry":{"type":"Point","coordinates":[1.57608,44.16862]},"properties":{"id":44217,"name":"Monteils","state_code":"82","country_code":"FR"}},{"type":"Feature","geometry":{"type":"Point","coordinates":[1.47682,44.23876]},"properties":{"id":44300,"name":"Montpezat-de-Quercy","state_code":"82","country_code":"FR"}},{"type":"Feature","geometry":{"type":"Point","coordinates":[1.61946,44.07589]},"properties":{"id":44318,"name":"Montricoux","state_code":"82","country_code":"FR"}},{"type":"Feature","geometry":{"type":"Point","coordinates":[1.51978,44.07436]},"properties":{"id":44691,"name":"Nègrepelisse","state_code":"82","country_code":"FR"}},{"type":"Feature","geometry":{"type":"Point","coordinates":[1.43741,43.8897]},"properties":{"id":44621,"name":"Nohic","state_code":"82","country_code":"FR"}},{"type":"Feature","geometry":{"type":"Point","coordinates":[1.41071,43.90618]},"properties":{"id":44765,"name":"Orgueil","state_code":"82","country_code":"FR"}},{"type":"Feature","geometry":{"type":"Point","coordinates":[1.31209,43.81768]},"properties":{"id":45157,"name":"Pompignan","state_code":"82","country_code":"FR"}},{"type":"Feature","geometry":{"type":"Point","coordinates":[1.47998,44.11452]},"properties":{"id":45684,"name":"Réalville","state_code":"82","country_code":"FR"}},{"type":"Feature","geometry":{"type":"Point","coordinates":[1.46667,44.05]},"properties":{"id":45926,"name":"Saint-Etienne-de-Tulmont","state_code":"82","country_code":"FR"}},{"type":"Feature","geometry":{"type":"Point","coordinates":[1.42549,43.96712]},"properties":{"id":46357,"name":"Saint-Nauphary","state_code":"82","country_code":"FR"}},{"type":"Feature","geometry":{"type":"Point","coordinates":[1.0228,44.06417]},"properties":{"id":46366,"name":"Saint-Nicolas-de-la-Grave","state_code":"82","country_code":"FR"}},{"type":"Feature","geometry":{"type":"Point","coordinates":[1.17932,44.00344]},"properties":{"id":46460,"name":"Saint-Porquier","state_code":"82","country_code":"FR"}},{"type":"Feature","geometry":{"type":"Point","coordinates":[1.61806,44.17813]},"properties":{"id":46949,"name":"Septfonds","state_code":"82","country_code":"FR"}},{"type":"Feature","geometry":{"type":"Point","coordinates":[1.23425,43.85446]},"properties":{"id":47594,"name":"Verdun-sur-Garonne","state_code":"82","country_code":"FR"}}]}