{"type":"FeatureCollection","features":[{"type":"Feature","geometry":{"type":"Point","coordinates":[1.13884,45.79862]},"properties":{"id":39296,"name":"Aixe-sur-Vienne","state_code":"87","country_code":"FR"}},{"type":"Feature","geometry":{"type":"Point","coordinates":[1.40063,45.95983]},"properties":{"id":39348,"name":"Ambazac","state_code":"87","country_code":"FR"}},{"type":"Feature","geometry":{"type":"Point","coordinates":[1.37375,46.26597]},"properties":{"id":39498,"name":"Arnac-la-Poste","state_code":"87","country_code":"FR"}},{"type":"Feature","geometry":{"type":"Point","coordinates":[1.04931,46.12209]},"properties":{"id":39907,"name":"Bellac","state_code":"87","country_code":"FR"}},{"type":"Feature","geometry":{"type":"Point","coordinates":[1.36865,46.10799]},"properties":{"id":39980,"name":"Bessines-sur-Gartempe","state_code":"87","country_code":"FR"}},{"type":"Feature","geometry":{"type":"Point","coordinates":[1.33333,45.76977]},"properties":{"id":40096,"name":"Boisseuil","state_code":"87","country_code":"FR"}},{"type":"Feature","geometry":{"type":"Point","coordinates":[1.28417,45.94212]},"properties":{"id":40115,"name":"Bonnac-la-Côte","state_code":"87","country_code":"FR"}},{"type":"Feature","geometry":{"type":"Point","coordinates":[1.2,45.75]},"properties":{"id":40146,"name":"Bosmie-l'Aiguille","state_code":"87","country_code":"FR"}},{"type":"Feature","geometry":{"type":"Point","coordinates":[1.0364,45.62702]},"properties":{"id":40398,"name":"Bussière-Galant","state_code":"87","country_code":"FR"}},{"type":"Feature","geometry":{"type":"Point","coordinates":[0.9053,46.23543]},"properties":{"id":40399,"name":"Bussière-Poitevine","state_code":"87","country_code":"FR"}},{"type":"Feature","geometry":{"type":"Point","coordinates":[0.98011,45.6544]},"properties":{"id":40935,"name":"Châlus","state_code":"87","country_code":"FR"}},{"type":"Feature","geometry":{"type":"Point","coordinates":[1.26018,45.90962]},"properties":{"id":40787,"name":"Chaptelat","state_code":"87","country_code":"FR"}},{"type":"Feature","geometry":{"type":"Point","coordinates":[1.6061,45.71436]},"properties":{"id":40968,"name":"Châteauneuf-la-Forêt","state_code":"87","country_code":"FR"}},{"type":"Feature","geometry":{"type":"Point","coordinates":[1.27623,46.13536]},"properties":{"id":40976,"name":"Châteauponsac","state_code":"87","country_code":"FR"}},{"type":"Feature","geometry":{"type":"Point","coordinates":[1,45.83333]},"properties":{"id":41080,"name":"Cognac-la-Forêt","state_code":"87","country_code":"FR"}},{"type":"Feature","geometry":{"type":"Point","coordinates":[1.27561,45.99162]},"properties":{"id":41125,"name":"Compreignac","state_code":"87","country_code":"FR"}},{"type":"Feature","geometry":{"type":"Point","coordinates":[1.28454,45.78648]},"properties":{"id":41131,"name":"Condat-sur-Vienne","state_code":"87","country_code":"FR"}},{"type":"Feature","geometry":{"type":"Point","coordinates":[1.32261,45.51199]},"properties":{"id":41277,"name":"Coussac-Bonneval","state_code":"87","country_code":"FR"}},{"type":"Feature","geometry":{"type":"Point","coordinates":[1.23828,45.87047]},"properties":{"id":41286,"name":"Couzeix","state_code":"87","country_code":"FR"}},{"type":"Feature","geometry":{"type":"Point","coordinates":[0.85124,45.70666]},"properties":{"id":41378,"name":"Cussac","state_code":"87","country_code":"FR"}},{"type":"Feature","geometry":{"type":"Point","coordinates":[1.74189,45.7379]},"properties":{"id":41755,"name":"Eymoutiers","state_code":"87","country_code":"FR"}},{"type":"Feature","geometry":{"type":"Point","coordinates":[1.33033,45.80905]},"properties":{"id":41815,"name":"Feytiat","state_code":"87","country_code":"FR"}},{"type":"Feature","geometry":{"type":"Point","coordinates":[1.21781,45.88341]},"properties":{"id":42347,"name":"Haute-Vienne","state_code":"87","country_code":"FR"}},{"type":"Feature","geometry":{"type":"Point","coordinates":[1.21213,45.80272]},"properties":{"id":42501,"name":"Isle","state_code":"87","country_code":"FR"}},{"type":"Feature","geometry":{"type":"Point","coordinates":[1.11359,45.58256]},"properties":{"id":42950,"name":"Ladignac-le-Long","state_code":"87","country_code":"FR"}},{"type":"Feature","geometry":{"type":"Point","coordinates":[1.08153,46.21514]},"properties":{"id":43180,"name":"Le Dorat","state_code":"87","country_code":"FR"}},{"type":"Feature","geometry":{"type":"Point","coordinates":[1.32207,45.8638]},"properties":{"id":43244,"name":"Le Palais-sur-Vienne","state_code":"87","country_code":"FR"}},{"type":"Feature","geometry":{"type":"Point","coordinates":[1.28865,45.75149]},"properties":{"id":43335,"name":"Le Vigen","state_code":"87","country_code":"FR"}},{"type":"Feature","geometry":{"type":"Point","coordinates":[1.25781,45.83153]},"properties":{"id":43493,"name":"Limoges","state_code":"87","country_code":"FR"}},{"type":"Feature","geometry":{"type":"Point","coordinates":[1.53259,45.70083]},"properties":{"id":43498,"name":"Linards","state_code":"87","country_code":"FR"}},{"type":"Feature","geometry":{"type":"Point","coordinates":[1.16724,46.21514]},"properties":{"id":43721,"name":"Magnac-Laval","state_code":"87","country_code":"FR"}},{"type":"Feature","geometry":{"type":"Point","coordinates":[1.17308,46.0091]},"properties":{"id":44511,"name":"Nantiat","state_code":"87","country_code":"FR"}},{"type":"Feature","geometry":{"type":"Point","coordinates":[1.61303,45.72206]},"properties":{"id":44562,"name":"Neuvic-Entier","state_code":"87","country_code":"FR"}},{"type":"Feature","geometry":{"type":"Point","coordinates":[1.18555,45.67962]},"properties":{"id":44585,"name":"Nexon","state_code":"87","country_code":"FR"}},{"type":"Feature","geometry":{"type":"Point","coordinates":[1.17494,45.92668]},"properties":{"id":44595,"name":"Nieul","state_code":"87","country_code":"FR"}},{"type":"Feature","geometry":{"type":"Point","coordinates":[1.0317,45.93405]},"properties":{"id":44750,"name":"Oradour-sur-Glane","state_code":"87","country_code":"FR"}},{"type":"Feature","geometry":{"type":"Point","coordinates":[0.86457,45.73286]},"properties":{"id":44751,"name":"Oradour-sur-Vayres","state_code":"87","country_code":"FR"}},{"type":"Feature","geometry":{"type":"Point","coordinates":[1.32759,45.83465]},"properties":{"id":44840,"name":"Panazol","state_code":"87","country_code":"FR"}},{"type":"Feature","geometry":{"type":"Point","coordinates":[1.03661,46.14087]},"properties":{"id":44926,"name":"Peyrat-de-Bellac","state_code":"87","country_code":"FR"}},{"type":"Feature","geometry":{"type":"Point","coordinates":[1.77233,45.81578]},"properties":{"id":44927,"name":"Peyrat-le-Château","state_code":"87","country_code":"FR"}},{"type":"Feature","geometry":{"type":"Point","coordinates":[1.13503,45.95043]},"properties":{"id":44932,"name":"Peyrilhac","state_code":"87","country_code":"FR"}},{"type":"Feature","geometry":{"type":"Point","coordinates":[1.36193,45.69193]},"properties":{"id":44949,"name":"Pierre-Buffière","state_code":"87","country_code":"FR"}},{"type":"Feature","geometry":{"type":"Point","coordinates":[1.33676,46.03219]},"properties":{"id":45437,"name":"Razès","state_code":"87","country_code":"FR"}},{"type":"Feature","geometry":{"type":"Point","coordinates":[1.31667,45.9]},"properties":{"id":45511,"name":"Rilhac-Rancon","state_code":"87","country_code":"FR"}},{"type":"Feature","geometry":{"type":"Point","coordinates":[0.8208,45.8229]},"properties":{"id":45542,"name":"Rochechouart","state_code":"87","country_code":"FR"}},{"type":"Feature","geometry":{"type":"Point","coordinates":[0.95594,45.87852]},"properties":{"id":45829,"name":"Saint-Brice-sur-Vienne","state_code":"87","country_code":"FR"}},{"type":"Feature","geometry":{"type":"Point","coordinates":[1.13726,45.92198]},"properties":{"id":45954,"name":"Saint-Gence","state_code":"87","country_code":"FR"}},{"type":"Feature","geometry":{"type":"Point","coordinates":[1.4949,45.61356]},"properties":{"id":46017,"name":"Saint-Germain-les-Belles","state_code":"87","country_code":"FR"}},{"type":"Feature","geometry":{"type":"Point","coordinates":[1.205,45.9568]},"properties":{"id":46133,"name":"Saint-Jouvent","state_code":"87","country_code":"FR"}},{"type":"Feature","geometry":{"type":"Point","coordinates":[0.90143,45.88867]},"properties":{"id":46149,"name":"Saint-Junien","state_code":"87","country_code":"FR"}},{"type":"Feature","geometry":{"type":"Point","coordinates":[1.38829,45.86351]},"properties":{"id":46164,"name":"Saint-Just-le-Martel","state_code":"87","country_code":"FR"}},{"type":"Feature","geometry":{"type":"Point","coordinates":[0.95859,45.77052]},"properties":{"id":46188,"name":"Saint-Laurent-sur-Gorre","state_code":"87","country_code":"FR"}},{"type":"Feature","geometry":{"type":"Point","coordinates":[1.49174,45.83566]},"properties":{"id":46224,"name":"Saint-Léonard-de-Noblat","state_code":"87","country_code":"FR"}},{"type":"Feature","geometry":{"type":"Point","coordinates":[0.75908,45.70674]},"properties":{"id":46305,"name":"Saint-Mathieu","state_code":"87","country_code":"FR"}},{"type":"Feature","geometry":{"type":"Point","coordinates":[1.43238,45.75114]},"properties":{"id":46401,"name":"Saint-Paul","state_code":"87","country_code":"FR"}},{"type":"Feature","geometry":{"type":"Point","coordinates":[1.1,45.81667]},"properties":{"id":46467,"name":"Saint-Priest-sous-Aixe","state_code":"87","country_code":"FR"}},{"type":"Feature","geometry":{"type":"Point","coordinates":[1.40016,45.88686]},"properties":{"id":46465,"name":"Saint-Priest-Taurion","state_code":"87","country_code":"FR"}},{"type":"Feature","geometry":{"type":"Point","coordinates":[1.36792,46.31868]},"properties":{"id":46568,"name":"Saint-Sulpice-les-Feuilles","state_code":"87","country_code":"FR"}},{"type":"Feature","geometry":{"type":"Point","coordinates":[1.01376,45.87855]},"properties":{"id":46611,"name":"Saint-Victurnien","state_code":"87","country_code":"FR"}},{"type":"Feature","geometry":{"type":"Point","coordinates":[1.20569,45.51604]},"properties":{"id":46630,"name":"Saint-Yrieix-la-Perche","state_code":"87","country_code":"FR"}},{"type":"Feature","geometry":{"type":"Point","coordinates":[1.60827,45.9072]},"properties":{"id":46865,"name":"Sauviat-sur-Vige","state_code":"87","country_code":"FR"}},{"type":"Feature","geometry":{"type":"Point","coordinates":[1.08052,45.76843]},"properties":{"id":47141,"name":"Séreilhac","state_code":"87","country_code":"FR"}},{"type":"Feature","geometry":{"type":"Point","coordinates":[1.27563,45.75528]},"properties":{"id":47028,"name":"Solignac","state_code":"87","country_code":"FR"}},{"type":"Feature","geometry":{"type":"Point","coordinates":[1.10133,45.85524]},"properties":{"id":47615,"name":"Verneuil-sur-Vienne","state_code":"87","country_code":"FR"}},{"type":"Feature","geometry":{"type":"Point","coordinates":[1.105,45.89521]},"properties":{"id":47653,"name":"Veyrac","state_code":"87","country_code":"FR"}},{"type":"Feature","geometry":{"type":"Point","coordinates":[1.38179,45.64661]},"properties":{"id":47672,"name":"Vicq-sur-Breuilh","state_code":"87","country_code":"FR"}}]}