{"type":"FeatureCollection","features":[{"type":"Feature","geometry":{"type":"Point","coordinates":[-3.59556,51.54]},"properties":{"id":48177,"name":"Aberkenfig","state_code":"BGE","country_code":"GB"}},{"type":"Feature","geometry":{"type":"Point","coordinates":[-3.58833,51.56917]},"properties":{"id":48484,"name":"Betws","state_code":"BGE","country_code":"GB"}},{"type":"Feature","geometry":{"type":"Point","coordinates":[-3.57722,51.50583]},"properties":{"id":48683,"name":"Bridgend","state_code":"BGE","country_code":"GB"}},{"type":"Feature","geometry":{"type":"Point","coordinates":[-3.58333,51.55]},"properties":{"id":48684,"name":"Bridgend county borough","state_code":"BGE","country_code":"GB"}},{"type":"Feature","geometry":{"type":"Point","coordinates":[-3.46378,51.53845]},"properties":{"id":48741,"name":"Brynna","state_code":"BGE","country_code":"GB"}},{"type":"Feature","geometry":{"type":"Point","coordinates":[-3.65278,51.53167]},"properties":{"id":48901,"name":"Cefn Cribwr","state_code":"BGE","country_code":"GB"}},{"type":"Feature","geometry":{"type":"Point","coordinates":[-3.55531,51.522]},"properties":{"id":49060,"name":"Coity","state_code":"BGE","country_code":"GB"}},{"type":"Feature","geometry":{"type":"Point","coordinates":[-3.43906,51.53805]},"properties":{"id":50362,"name":"Llanharan","state_code":"BGE","country_code":"GB"}},{"type":"Feature","geometry":{"type":"Point","coordinates":[-3.50016,51.52371]},"properties":{"id":50880,"name":"Pencoed","state_code":"BGE","country_code":"GB"}},{"type":"Feature","geometry":{"type":"Point","coordinates":[-3.63639,51.58694]},"properties":{"id":50936,"name":"Pont Rhyd-y-cyff","state_code":"BGE","country_code":"GB"}},{"type":"Feature","geometry":{"type":"Point","coordinates":[-3.70362,51.47903]},"properties":{"id":50960,"name":"Porthcawl","state_code":"BGE","country_code":"GB"}},{"type":"Feature","geometry":{"type":"Point","coordinates":[-3.7,51.51667]},"properties":{"id":51009,"name":"Pyle","state_code":"BGE","country_code":"GB"}},{"type":"Feature","geometry":{"type":"Point","coordinates":[-3.54944,51.43944]},"properties":{"id":51888,"name":"Wick","state_code":"BGE","country_code":"GB"}}]}