{"type":"FeatureCollection","features":[{"type":"Feature","geometry":{"type":"Point","coordinates":[-0.45316,52.18831]},"properties":{"id":48449,"name":"Bedford","state_code":"BDF","country_code":"GB"}},{"type":"Feature","geometry":{"type":"Point","coordinates":[-0.32178,52.14695]},"properties":{"id":48575,"name":"Blunham","state_code":"BDF","country_code":"GB"}},{"type":"Feature","geometry":{"type":"Point","coordinates":[-0.67326,52.2227]},"properties":{"id":48640,"name":"Bozeat","state_code":"BDF","country_code":"GB"}},{"type":"Feature","geometry":{"type":"Point","coordinates":[-0.52906,52.14508]},"properties":{"id":48719,"name":"Bromham","state_code":"BDF","country_code":"GB"}},{"type":"Feature","geometry":{"type":"Point","coordinates":[-0.24912,52.29415]},"properties":{"id":48743,"name":"Buckden","state_code":"BDF","country_code":"GB"}},{"type":"Feature","geometry":{"type":"Point","coordinates":[-0.41289,52.11742]},"properties":{"id":48856,"name":"Cardington","state_code":"BDF","country_code":"GB"}},{"type":"Feature","geometry":{"type":"Point","coordinates":[-0.49529,52.16085]},"properties":{"id":49017,"name":"Clapham","state_code":"BDF","country_code":"GB"}},{"type":"Feature","geometry":{"type":"Point","coordinates":[-0.38933,52.12342]},"properties":{"id":49097,"name":"Cople","state_code":"BDF","country_code":"GB"}},{"type":"Feature","geometry":{"type":"Point","coordinates":[-0.75248,52.26627]},"properties":{"id":49378,"name":"Earls Barton","state_code":"BDF","country_code":"GB"}},{"type":"Feature","geometry":{"type":"Point","coordinates":[-0.28925,52.21752]},"properties":{"id":49429,"name":"Eaton Socon","state_code":"BDF","country_code":"GB"}},{"type":"Feature","geometry":{"type":"Point","coordinates":[-0.24616,52.14581]},"properties":{"id":49498,"name":"Everton","state_code":"BDF","country_code":"GB"}},{"type":"Feature","geometry":{"type":"Point","coordinates":[-0.65008,52.33917]},"properties":{"id":49558,"name":"Finedon","state_code":"BDF","country_code":"GB"}},{"type":"Feature","geometry":{"type":"Point","coordinates":[-0.19303,52.15561]},"properties":{"id":49625,"name":"Gamlingay","state_code":"BDF","country_code":"GB"}},{"type":"Feature","geometry":{"type":"Point","coordinates":[-0.35235,52.15791]},"properties":{"id":49709,"name":"Great Barford","state_code":"BDF","country_code":"GB"}},{"type":"Feature","geometry":{"type":"Point","coordinates":[-0.14574,52.18546]},"properties":{"id":49719,"name":"Great Gransden","state_code":"BDF","country_code":"GB"}},{"type":"Feature","geometry":{"type":"Point","coordinates":[-0.22818,52.26057]},"properties":{"id":49730,"name":"Great Paxton","state_code":"BDF","country_code":"GB"}},{"type":"Feature","geometry":{"type":"Point","coordinates":[-0.61038,52.20127]},"properties":{"id":49817,"name":"Harrold","state_code":"BDF","country_code":"GB"}},{"type":"Feature","geometry":{"type":"Point","coordinates":[-0.59342,52.30596]},"properties":{"id":49933,"name":"Higham Ferrers","state_code":"BDF","country_code":"GB"}},{"type":"Feature","geometry":{"type":"Point","coordinates":[-0.6451,52.28108]},"properties":{"id":50068,"name":"Irchester","state_code":"BDF","country_code":"GB"}},{"type":"Feature","geometry":{"type":"Point","coordinates":[-0.61129,52.32674]},"properties":{"id":50071,"name":"Irthlingborough","state_code":"BDF","country_code":"GB"}},{"type":"Feature","geometry":{"type":"Point","coordinates":[-0.50044,52.11599]},"properties":{"id":50115,"name":"Kempston","state_code":"BDF","country_code":"GB"}},{"type":"Feature","geometry":{"type":"Point","coordinates":[-0.38916,52.29704]},"properties":{"id":50157,"name":"Kimbolton","state_code":"BDF","country_code":"GB"}},{"type":"Feature","geometry":{"type":"Point","coordinates":[-0.66109,52.17279]},"properties":{"id":50259,"name":"Lavendon","state_code":"BDF","country_code":"GB"}},{"type":"Feature","geometry":{"type":"Point","coordinates":[-0.25801,52.25045]},"properties":{"id":50331,"name":"Little Paxton","state_code":"BDF","country_code":"GB"}},{"type":"Feature","geometry":{"type":"Point","coordinates":[-0.52649,52.16862]},"properties":{"id":50795,"name":"Oakley","state_code":"BDF","country_code":"GB"}},{"type":"Feature","geometry":{"type":"Point","coordinates":[-0.62463,52.25424]},"properties":{"id":50929,"name":"Podington","state_code":"BDF","country_code":"GB"}},{"type":"Feature","geometry":{"type":"Point","coordinates":[-0.21561,52.12911]},"properties":{"id":50977,"name":"Potton","state_code":"BDF","country_code":"GB"}},{"type":"Feature","geometry":{"type":"Point","coordinates":[-0.53657,52.34428]},"properties":{"id":51037,"name":"Raunds","state_code":"BDF","country_code":"GB"}},{"type":"Feature","geometry":{"type":"Point","coordinates":[-0.5549,52.36528]},"properties":{"id":51083,"name":"Ringstead","state_code":"BDF","country_code":"GB"}},{"type":"Feature","geometry":{"type":"Point","coordinates":[-0.47928,52.25213]},"properties":{"id":51089,"name":"Riseley","state_code":"BDF","country_code":"GB"}},{"type":"Feature","geometry":{"type":"Point","coordinates":[-0.31594,52.17756]},"properties":{"id":51128,"name":"Roxton","state_code":"BDF","country_code":"GB"}},{"type":"Feature","geometry":{"type":"Point","coordinates":[-0.60184,52.28927]},"properties":{"id":51145,"name":"Rushden","state_code":"BDF","country_code":"GB"}},{"type":"Feature","geometry":{"type":"Point","coordinates":[-0.26667,52.21667]},"properties":{"id":51174,"name":"Saint Neots","state_code":"BDF","country_code":"GB"}},{"type":"Feature","geometry":{"type":"Point","coordinates":[-0.28925,52.12927]},"properties":{"id":51198,"name":"Sandy","state_code":"BDF","country_code":"GB"}},{"type":"Feature","geometry":{"type":"Point","coordinates":[-0.54425,52.22606]},"properties":{"id":51250,"name":"Sharnbrook","state_code":"BDF","country_code":"GB"}},{"type":"Feature","geometry":{"type":"Point","coordinates":[-0.56678,52.13046]},"properties":{"id":51407,"name":"Stagsden","state_code":"BDF","country_code":"GB"}},{"type":"Feature","geometry":{"type":"Point","coordinates":[-0.56348,52.33198]},"properties":{"id":51430,"name":"Stanwick","state_code":"BDF","country_code":"GB"}},{"type":"Feature","geometry":{"type":"Point","coordinates":[-0.55515,52.16848]},"properties":{"id":51443,"name":"Stevington","state_code":"BDF","country_code":"GB"}},{"type":"Feature","geometry":{"type":"Point","coordinates":[-0.29586,52.17051]},"properties":{"id":51574,"name":"Tempsford","state_code":"BDF","country_code":"GB"}},{"type":"Feature","geometry":{"type":"Point","coordinates":[-0.5392,52.39675]},"properties":{"id":51610,"name":"Thrapston","state_code":"BDF","country_code":"GB"}},{"type":"Feature","geometry":{"type":"Point","coordinates":[-0.69446,52.30273]},"properties":{"id":51789,"name":"Wellingborough","state_code":"BDF","country_code":"GB"}},{"type":"Feature","geometry":{"type":"Point","coordinates":[-0.67038,52.25794]},"properties":{"id":51960,"name":"Wollaston","state_code":"BDF","country_code":"GB"}},{"type":"Feature","geometry":{"type":"Point","coordinates":[-0.58099,52.38231]},"properties":{"id":51973,"name":"Woodford","state_code":"BDF","country_code":"GB"}}]}