{"type":"FeatureCollection","features":[{"type":"Feature","geometry":{"type":"Point","coordinates":[-2.35863,53.75379]},"properties":{"id":48188,"name":"Accrington","state_code":"BBD","country_code":"GB"}},{"type":"Feature","geometry":{"type":"Point","coordinates":[-2.48333,53.75]},"properties":{"id":48543,"name":"Blackburn","state_code":"BBD","country_code":"GB"}},{"type":"Feature","geometry":{"type":"Point","coordinates":[-2.46667,53.66667]},"properties":{"id":48544,"name":"Blackburn with Darwen","state_code":"BBD","country_code":"GB"}},{"type":"Feature","geometry":{"type":"Point","coordinates":[-2.23415,53.82468]},"properties":{"id":48689,"name":"Brierfield","state_code":"BBD","country_code":"GB"}},{"type":"Feature","geometry":{"type":"Point","coordinates":[-2.57208,53.689]},"properties":{"id":48702,"name":"Brinscall","state_code":"BBD","country_code":"GB"}},{"type":"Feature","geometry":{"type":"Point","coordinates":[-2.23333,53.8]},"properties":{"id":48778,"name":"Burnley","state_code":"BBD","country_code":"GB"}},{"type":"Feature","geometry":{"type":"Point","coordinates":[-2.61667,53.65]},"properties":{"id":48984,"name":"Chorley","state_code":"BBD","country_code":"GB"}},{"type":"Feature","geometry":{"type":"Point","coordinates":[-2.39121,53.75177]},"properties":{"id":48993,"name":"Church","state_code":"BBD","country_code":"GB"}},{"type":"Feature","geometry":{"type":"Point","coordinates":[-2.38333,53.76667]},"properties":{"id":49024,"name":"Clayton le Moors","state_code":"BBD","country_code":"GB"}},{"type":"Feature","geometry":{"type":"Point","coordinates":[-2.66818,53.69689]},"properties":{"id":49025,"name":"Clayton-le-Woods","state_code":"BBD","country_code":"GB"}},{"type":"Feature","geometry":{"type":"Point","coordinates":[-2.46494,53.69803]},"properties":{"id":49243,"name":"Darwen","state_code":"BBD","country_code":"GB"}},{"type":"Feature","geometry":{"type":"Point","coordinates":[-2.39401,53.64636]},"properties":{"id":49440,"name":"Edgworth","state_code":"BBD","country_code":"GB"}},{"type":"Feature","geometry":{"type":"Point","coordinates":[-2.67615,53.6699]},"properties":{"id":49492,"name":"Euxton","state_code":"BBD","country_code":"GB"}},{"type":"Feature","geometry":{"type":"Point","coordinates":[-2.40865,53.78512]},"properties":{"id":49721,"name":"Great Harwood","state_code":"BBD","country_code":"GB"}},{"type":"Feature","geometry":{"type":"Point","coordinates":[-2.2919,53.7557]},"properties":{"id":49794,"name":"Hameldon Hill","state_code":"BBD","country_code":"GB"}},{"type":"Feature","geometry":{"type":"Point","coordinates":[-2.31667,53.78333]},"properties":{"id":49802,"name":"Hapton","state_code":"BBD","country_code":"GB"}},{"type":"Feature","geometry":{"type":"Point","coordinates":[-2.32382,53.70326]},"properties":{"id":49832,"name":"Haslingden","state_code":"BBD","country_code":"GB"}},{"type":"Feature","geometry":{"type":"Point","coordinates":[-2.68758,53.69786]},"properties":{"id":50296,"name":"Leyland","state_code":"BBD","country_code":"GB"}},{"type":"Feature","geometry":{"type":"Point","coordinates":[-2.31511,53.80187]},"properties":{"id":50844,"name":"Padiham","state_code":"BBD","country_code":"GB"}},{"type":"Feature","geometry":{"type":"Point","coordinates":[-2.41444,53.76806]},"properties":{"id":51090,"name":"Rishton","state_code":"BBD","country_code":"GB"}}]}