{"type":"FeatureCollection","features":[{"type":"Feature","geometry":{"type":"Point","coordinates":[-3.13432,51.72981]},"properties":{"id":48181,"name":"Abertillery","state_code":"BGW","country_code":"GB"}},{"type":"Feature","geometry":{"type":"Point","coordinates":[-3.16667,51.75]},"properties":{"id":48555,"name":"Blaenau Gwent","state_code":"BGW","country_code":"GB"}},{"type":"Feature","geometry":{"type":"Point","coordinates":[-3.08537,51.77402]},"properties":{"id":48557,"name":"Blaenavon","state_code":"BGW","country_code":"GB"}},{"type":"Feature","geometry":{"type":"Point","coordinates":[-3.18333,51.8]},"properties":{"id":48740,"name":"Brynmawr","state_code":"BGW","country_code":"GB"}},{"type":"Feature","geometry":{"type":"Point","coordinates":[-3.13771,51.85992]},"properties":{"id":49158,"name":"Crickhowell","state_code":"BGW","country_code":"GB"}},{"type":"Feature","geometry":{"type":"Point","coordinates":[-3.18028,51.74]},"properties":{"id":49215,"name":"Cwm","state_code":"BGW","country_code":"GB"}},{"type":"Feature","geometry":{"type":"Point","coordinates":[-3.20792,51.77714]},"properties":{"id":49431,"name":"Ebbw Vale","state_code":"BGW","country_code":"GB"}},{"type":"Feature","geometry":{"type":"Point","coordinates":[-3.09355,51.82475]},"properties":{"id":49644,"name":"Gilwern","state_code":"BGW","country_code":"GB"}},{"type":"Feature","geometry":{"type":"Point","coordinates":[-3.06295,51.81928]},"properties":{"id":49693,"name":"Govilon","state_code":"BGW","country_code":"GB"}},{"type":"Feature","geometry":{"type":"Point","coordinates":[-3.22762,51.8673]},"properties":{"id":50361,"name":"Llangynidr","state_code":"BGW","country_code":"GB"}},{"type":"Feature","geometry":{"type":"Point","coordinates":[-3.2413,51.72051]},"properties":{"id":50697,"name":"New Tredegar","state_code":"BGW","country_code":"GB"}},{"type":"Feature","geometry":{"type":"Point","coordinates":[-3.23205,51.99588]},"properties":{"id":51550,"name":"Talgarth","state_code":"BGW","country_code":"GB"}},{"type":"Feature","geometry":{"type":"Point","coordinates":[-3.24679,51.77251]},"properties":{"id":51661,"name":"Tredegar","state_code":"BGW","country_code":"GB"}},{"type":"Feature","geometry":{"type":"Point","coordinates":[-3.2,51.75]},"properties":{"id":51717,"name":"Victoria","state_code":"BGW","country_code":"GB"}}]}