{"type":"FeatureCollection","features":[{"type":"Feature","geometry":{"type":"Point","coordinates":[-3.5822,53.28436]},"properties":{"id":48176,"name":"Abergele","state_code":"CWY","country_code":"GB"}},{"type":"Feature","geometry":{"type":"Point","coordinates":[-4.12936,53.22752]},"properties":{"id":48370,"name":"Bangor","state_code":"CWY","country_code":"GB"}},{"type":"Feature","geometry":{"type":"Point","coordinates":[-4.09233,53.26315]},"properties":{"id":48441,"name":"Beaumaris","state_code":"CWY","country_code":"GB"}},{"type":"Feature","geometry":{"type":"Point","coordinates":[-4.22607,53.32044]},"properties":{"id":48472,"name":"Benllech","state_code":"CWY","country_code":"GB"}},{"type":"Feature","geometry":{"type":"Point","coordinates":[-4.05828,53.1815]},"properties":{"id":48481,"name":"Bethesda","state_code":"CWY","country_code":"GB"}},{"type":"Feature","geometry":{"type":"Point","coordinates":[-3.72674,53.29483]},"properties":{"id":49078,"name":"Colwyn Bay","state_code":"CWY","country_code":"GB"}},{"type":"Feature","geometry":{"type":"Point","coordinates":[-3.82735,53.30446]},"properties":{"id":49255,"name":"Deganwy","state_code":"CWY","country_code":"GB"}},{"type":"Feature","geometry":{"type":"Point","coordinates":[-4.13185,53.14819]},"properties":{"id":49256,"name":"Deiniolen","state_code":"CWY","country_code":"GB"}},{"type":"Feature","geometry":{"type":"Point","coordinates":[-4.12923,53.11809]},"properties":{"id":50342,"name":"Llanberis","state_code":"CWY","country_code":"GB"}},{"type":"Feature","geometry":{"type":"Point","coordinates":[-3.83148,53.32498]},"properties":{"id":50347,"name":"Llandudno","state_code":"CWY","country_code":"GB"}},{"type":"Feature","geometry":{"type":"Point","coordinates":[-3.97423,53.25779]},"properties":{"id":50353,"name":"Llanfairfechan","state_code":"CWY","country_code":"GB"}},{"type":"Feature","geometry":{"type":"Point","coordinates":[-4.20329,53.22141]},"properties":{"id":50354,"name":"Llanfairpwllgwyngyll","state_code":"CWY","country_code":"GB"}},{"type":"Feature","geometry":{"type":"Point","coordinates":[-4.08772,53.2942]},"properties":{"id":50357,"name":"Llangoed","state_code":"CWY","country_code":"GB"}},{"type":"Feature","geometry":{"type":"Point","coordinates":[-4.19596,53.14788]},"properties":{"id":50367,"name":"Llanrug","state_code":"CWY","country_code":"GB"}},{"type":"Feature","geometry":{"type":"Point","coordinates":[-3.79527,53.14021]},"properties":{"id":50368,"name":"Llanrwst","state_code":"CWY","country_code":"GB"}},{"type":"Feature","geometry":{"type":"Point","coordinates":[-3.8,53.26667]},"properties":{"id":50369,"name":"Llansantffraid Glan Conwy","state_code":"CWY","country_code":"GB"}},{"type":"Feature","geometry":{"type":"Point","coordinates":[-4.16926,53.22775]},"properties":{"id":50545,"name":"Menai Bridge","state_code":"CWY","country_code":"GB"}},{"type":"Feature","geometry":{"type":"Point","coordinates":[-4.23734,53.35228]},"properties":{"id":50610,"name":"Moelfre","state_code":"CWY","country_code":"GB"}},{"type":"Feature","geometry":{"type":"Point","coordinates":[-3.93333,53.26667]},"properties":{"id":50884,"name":"Penmaenmawr","state_code":"CWY","country_code":"GB"}},{"type":"Feature","geometry":{"type":"Point","coordinates":[-3.49228,53.31929]},"properties":{"id":51074,"name":"Rhyl","state_code":"CWY","country_code":"GB"}},{"type":"Feature","geometry":{"type":"Point","coordinates":[-4.0878,53.19012]},"properties":{"id":51665,"name":"Tregarth","state_code":"CWY","country_code":"GB"}},{"type":"Feature","geometry":{"type":"Point","coordinates":[-4.20476,53.18737]},"properties":{"id":52008,"name":"Y Felinheli","state_code":"CWY","country_code":"GB"}}]}