{"type":"FeatureCollection","features":[{"type":"Feature","geometry":{"type":"Point","coordinates":[-4.54173,52.13248]},"properties":{"id":48180,"name":"Aberporth","state_code":"CMN","country_code":"GB"}},{"type":"Feature","geometry":{"type":"Point","coordinates":[-4.30535,51.85552]},"properties":{"id":48862,"name":"Carmarthen","state_code":"CMN","country_code":"GB"}},{"type":"Feature","geometry":{"type":"Point","coordinates":[-4.16667,51.83333]},"properties":{"id":48863,"name":"Carmarthenshire","state_code":"CMN","country_code":"GB"}},{"type":"Feature","geometry":{"type":"Point","coordinates":[-4.0875,51.79306]},"properties":{"id":49172,"name":"Cross Hands","state_code":"CMN","country_code":"GB"}},{"type":"Feature","geometry":{"type":"Point","coordinates":[-4.30333,51.73639]},"properties":{"id":50138,"name":"Kidwelly","state_code":"CMN","country_code":"GB"}},{"type":"Feature","geometry":{"type":"Point","coordinates":[-3.99154,51.88459]},"properties":{"id":50344,"name":"Llandeilo","state_code":"CMN","country_code":"GB"}},{"type":"Feature","geometry":{"type":"Point","coordinates":[-3.79637,51.99415]},"properties":{"id":50345,"name":"Llandovery","state_code":"CMN","country_code":"GB"}},{"type":"Feature","geometry":{"type":"Point","coordinates":[-4.0071,51.82044]},"properties":{"id":50348,"name":"Llandybie","state_code":"CMN","country_code":"GB"}},{"type":"Feature","geometry":{"type":"Point","coordinates":[-4.30909,52.04166]},"properties":{"id":50349,"name":"Llandysul","state_code":"CMN","country_code":"GB"}},{"type":"Feature","geometry":{"type":"Point","coordinates":[-4.39139,51.77222]},"properties":{"id":50370,"name":"Llansteffan","state_code":"CMN","country_code":"GB"}},{"type":"Feature","geometry":{"type":"Point","coordinates":[-4.4667,52.04056]},"properties":{"id":50708,"name":"Newcastle Emlyn","state_code":"CMN","country_code":"GB"}},{"type":"Feature","geometry":{"type":"Point","coordinates":[-4.26575,52.0008]},"properties":{"id":50878,"name":"Pencader","state_code":"CMN","country_code":"GB"}},{"type":"Feature","geometry":{"type":"Point","coordinates":[-4.21718,51.75182]},"properties":{"id":50942,"name":"Pontyates","state_code":"CMN","country_code":"GB"}},{"type":"Feature","geometry":{"type":"Point","coordinates":[-4.1689,51.77826]},"properties":{"id":50943,"name":"Pontyberem","state_code":"CMN","country_code":"GB"}},{"type":"Feature","geometry":{"type":"Point","coordinates":[-4.49783,51.81989]},"properties":{"id":51167,"name":"Saint Clears","state_code":"CMN","country_code":"GB"}},{"type":"Feature","geometry":{"type":"Point","coordinates":[-4.24168,51.71988]},"properties":{"id":51671,"name":"Trimsaran","state_code":"CMN","country_code":"GB"}},{"type":"Feature","geometry":{"type":"Point","coordinates":[-4.10972,51.78361]},"properties":{"id":51677,"name":"Tumble","state_code":"CMN","country_code":"GB"}}]}