{"type":"FeatureCollection","features":[{"type":"Feature","geometry":{"type":"Point","coordinates":[-3.218,51.57452]},"properties":{"id":48813,"name":"Caerphilly","state_code":"CRF","country_code":"GB"}},{"type":"Feature","geometry":{"type":"Point","coordinates":[-3.18,51.48]},"properties":{"id":48854,"name":"Cardiff","state_code":"CRF","country_code":"GB"}},{"type":"Feature","geometry":{"type":"Point","coordinates":[-3.21398,51.43486]},"properties":{"id":49285,"name":"Dinas Powys","state_code":"CRF","country_code":"GB"}},{"type":"Feature","geometry":{"type":"Point","coordinates":[-3.07306,51.53389]},"properties":{"id":50518,"name":"Marshfield","state_code":"CRF","country_code":"GB"}},{"type":"Feature","geometry":{"type":"Point","coordinates":[-3.17342,51.4386]},"properties":{"id":50877,"name":"Penarth","state_code":"CRF","country_code":"GB"}},{"type":"Feature","geometry":{"type":"Point","coordinates":[-3.295,51.52889]},"properties":{"id":50891,"name":"Pentyrch","state_code":"CRF","country_code":"GB"}},{"type":"Feature","geometry":{"type":"Point","coordinates":[-3.25829,51.51864]},"properties":{"id":51021,"name":"Radyr","state_code":"CRF","country_code":"GB"}},{"type":"Feature","geometry":{"type":"Point","coordinates":[-3.26369,51.44776]},"properties":{"id":51803,"name":"Wenvoe","state_code":"CRF","country_code":"GB"}}]}