{"type":"FeatureCollection","features":[{"type":"Feature","geometry":{"type":"Point","coordinates":[-1.18454,53.57077]},"properties":{"id":48199,"name":"Adwick le Street","state_code":"DNC","country_code":"GB"}},{"type":"Feature","geometry":{"type":"Point","coordinates":[-1.05341,53.53518]},"properties":{"id":48280,"name":"Armthorpe","state_code":"DNC","country_code":"GB"}},{"type":"Feature","geometry":{"type":"Point","coordinates":[-1.15237,53.61639]},"properties":{"id":48301,"name":"Askern","state_code":"DNC","country_code":"GB"}},{"type":"Feature","geometry":{"type":"Point","coordinates":[-1.02174,53.50386]},"properties":{"id":48315,"name":"Auckley","state_code":"DNC","country_code":"GB"}},{"type":"Feature","geometry":{"type":"Point","coordinates":[-1.273,53.52408]},"properties":{"id":48396,"name":"Barnburgh","state_code":"DNC","country_code":"GB"}},{"type":"Feature","geometry":{"type":"Point","coordinates":[-1.01878,53.43146]},"properties":{"id":48432,"name":"Bawtry","state_code":"DNC","country_code":"GB"}},{"type":"Feature","geometry":{"type":"Point","coordinates":[-0.83333,53.4]},"properties":{"id":48445,"name":"Beckingham","state_code":"DNC","country_code":"GB"}},{"type":"Feature","geometry":{"type":"Point","coordinates":[-1.15,53.53333]},"properties":{"id":48474,"name":"Bentley","state_code":"DNC","country_code":"GB"}},{"type":"Feature","geometry":{"type":"Point","coordinates":[-1.04905,53.41933]},"properties":{"id":48517,"name":"Bircotes","state_code":"DNC","country_code":"GB"}},{"type":"Feature","geometry":{"type":"Point","coordinates":[-1.01998,53.7268]},"properties":{"id":48831,"name":"Camblesforth","state_code":"DNC","country_code":"GB"}},{"type":"Feature","geometry":{"type":"Point","coordinates":[-1.18002,53.61917]},"properties":{"id":48841,"name":"Campsall","state_code":"DNC","country_code":"GB"}},{"type":"Feature","geometry":{"type":"Point","coordinates":[-1.17648,53.58282]},"properties":{"id":48852,"name":"Carcroft","state_code":"DNC","country_code":"GB"}},{"type":"Feature","geometry":{"type":"Point","coordinates":[-1.23214,53.48188]},"properties":{"id":49089,"name":"Conisbrough","state_code":"DNC","country_code":"GB"}},{"type":"Feature","geometry":{"type":"Point","coordinates":[-1.08333,53.5]},"properties":{"id":49303,"name":"Doncaster","state_code":"DNC","country_code":"GB"}},{"type":"Feature","geometry":{"type":"Point","coordinates":[-0.99083,53.48696]},"properties":{"id":49559,"name":"Finningley","state_code":"DNC","country_code":"GB"}},{"type":"Feature","geometry":{"type":"Point","coordinates":[-1.06876,53.56211]},"properties":{"id":50195,"name":"Kirk Sandall","state_code":"DNC","country_code":"GB"}},{"type":"Feature","geometry":{"type":"Point","coordinates":[-1.22051,53.54296]},"properties":{"id":50515,"name":"Marr","state_code":"DNC","country_code":"GB"}},{"type":"Feature","geometry":{"type":"Point","coordinates":[-0.85032,53.44492]},"properties":{"id":50604,"name":"Misterton","state_code":"DNC","country_code":"GB"}},{"type":"Feature","geometry":{"type":"Point","coordinates":[-1.1,53.61667]},"properties":{"id":50633,"name":"Moss","state_code":"DNC","country_code":"GB"}},{"type":"Feature","geometry":{"type":"Point","coordinates":[-1.18333,53.63333]},"properties":{"id":50783,"name":"Norton","state_code":"DNC","country_code":"GB"}},{"type":"Feature","geometry":{"type":"Point","coordinates":[-1.07237,53.67093]},"properties":{"id":50932,"name":"Pollington","state_code":"DNC","country_code":"GB"}},{"type":"Feature","geometry":{"type":"Point","coordinates":[-1.01402,53.38281]},"properties":{"id":51031,"name":"Ranskill","state_code":"DNC","country_code":"GB"}},{"type":"Feature","geometry":{"type":"Point","coordinates":[-0.96319,53.69777]},"properties":{"id":51040,"name":"Rawcliffe","state_code":"DNC","country_code":"GB"}},{"type":"Feature","geometry":{"type":"Point","coordinates":[-1.02859,53.69112]},"properties":{"id":51335,"name":"Snaith","state_code":"DNC","country_code":"GB"}},{"type":"Feature","geometry":{"type":"Point","coordinates":[-1.28034,53.59709]},"properties":{"id":51352,"name":"South Elmsall","state_code":"DNC","country_code":"GB"}},{"type":"Feature","geometry":{"type":"Point","coordinates":[-1.03333,53.6]},"properties":{"id":51411,"name":"Stainforth","state_code":"DNC","country_code":"GB"}},{"type":"Feature","geometry":{"type":"Point","coordinates":[-0.96308,53.61122]},"properties":{"id":51596,"name":"Thorne","state_code":"DNC","country_code":"GB"}},{"type":"Feature","geometry":{"type":"Point","coordinates":[-1.10859,53.43194]},"properties":{"id":51619,"name":"Tickhill","state_code":"DNC","country_code":"GB"}},{"type":"Feature","geometry":{"type":"Point","coordinates":[-1.28677,53.61466]},"properties":{"id":51704,"name":"Upton","state_code":"DNC","country_code":"GB"}},{"type":"Feature","geometry":{"type":"Point","coordinates":[-1.14261,53.46726]},"properties":{"id":51724,"name":"Wadworth","state_code":"DNC","country_code":"GB"}}]}