{"type":"FeatureCollection","features":[{"type":"Feature","geometry":{"type":"Point","coordinates":[-3.50078,53.26827]},"properties":{"id":48581,"name":"Bodelwyddan","state_code":"DEN","country_code":"GB"}},{"type":"Feature","geometry":{"type":"Point","coordinates":[-3.41667,53.18333]},"properties":{"id":49259,"name":"Denbigh","state_code":"DEN","country_code":"GB"}},{"type":"Feature","geometry":{"type":"Point","coordinates":[-3.33333,53.08333]},"properties":{"id":49260,"name":"Denbighshire","state_code":"DEN","country_code":"GB"}},{"type":"Feature","geometry":{"type":"Point","coordinates":[-3.46667,53.2]},"properties":{"id":49905,"name":"Henllan","state_code":"DEN","country_code":"GB"}},{"type":"Feature","geometry":{"type":"Point","coordinates":[-3.30225,52.82507]},"properties":{"id":50366,"name":"Llanrhaeadr-ym-Mochnant","state_code":"DEN","country_code":"GB"}},{"type":"Feature","geometry":{"type":"Point","coordinates":[-3.46996,53.29203]},"properties":{"id":51073,"name":"Rhuddlan","state_code":"DEN","country_code":"GB"}},{"type":"Feature","geometry":{"type":"Point","coordinates":[-3.31782,53.11368]},"properties":{"id":51150,"name":"Ruthin","state_code":"DEN","country_code":"GB"}},{"type":"Feature","geometry":{"type":"Point","coordinates":[-3.44524,53.25815]},"properties":{"id":51164,"name":"Saint Asaph","state_code":"DEN","country_code":"GB"}},{"type":"Feature","geometry":{"type":"Point","coordinates":[-3.4203,53.22526]},"properties":{"id":51663,"name":"Trefnant","state_code":"DEN","country_code":"GB"}}]}