{"type":"FeatureCollection","features":[{"type":"Feature","geometry":{"type":"Point","coordinates":[-7.45731,56.98035]},"properties":{"id":48406,"name":"Barra","state_code":"ELS","country_code":"GB"}},{"type":"Feature","geometry":{"type":"Point","coordinates":[-7.34273,57.44737]},"properties":{"id":48471,"name":"Benbecula","state_code":"ELS","country_code":"GB"}},{"type":"Feature","geometry":{"type":"Point","coordinates":[-7.16667,57.66667]},"properties":{"id":49449,"name":"Eilean Siar","state_code":"ELS","country_code":"GB"}},{"type":"Feature","geometry":{"type":"Point","coordinates":[-6.38803,58.21901]},"properties":{"id":50079,"name":"Isle of Lewis","state_code":"ELS","country_code":"GB"}},{"type":"Feature","geometry":{"type":"Point","coordinates":[-7.34024,57.60581]},"properties":{"id":50080,"name":"Isle of North Uist","state_code":"ELS","country_code":"GB"}},{"type":"Feature","geometry":{"type":"Point","coordinates":[-7.33337,57.24562]},"properties":{"id":50081,"name":"Isle of South Uist","state_code":"ELS","country_code":"GB"}},{"type":"Feature","geometry":{"type":"Point","coordinates":[-6.19418,57.41288]},"properties":{"id":50967,"name":"Portree","state_code":"ELS","country_code":"GB"}},{"type":"Feature","geometry":{"type":"Point","coordinates":[-6.38649,58.20925]},"properties":{"id":51479,"name":"Stornoway","state_code":"ELS","country_code":"GB"}}]}