{"type":"FeatureCollection","features":[{"type":"Feature","geometry":{"type":"Point","coordinates":[-3.31226,56.33247]},"properties":{"id":48179,"name":"Abernethy","state_code":"FIF","country_code":"GB"}},{"type":"Feature","geometry":{"type":"Point","coordinates":[-2.70229,56.22315]},"properties":{"id":48258,"name":"Anstruther","state_code":"FIF","country_code":"GB"}},{"type":"Feature","geometry":{"type":"Point","coordinates":[-3.23428,56.29158]},"properties":{"id":48314,"name":"Auchtermuchty","state_code":"FIF","country_code":"GB"}},{"type":"Feature","geometry":{"type":"Point","coordinates":[-2.9294,56.37694]},"properties":{"id":48361,"name":"Balmullo","state_code":"FIF","country_code":"GB"}},{"type":"Feature","geometry":{"type":"Point","coordinates":[-3.4065,56.34842]},"properties":{"id":48681,"name":"Bridge of Earn","state_code":"FIF","country_code":"GB"}},{"type":"Feature","geometry":{"type":"Point","coordinates":[-3.03377,56.17149]},"properties":{"id":48745,"name":"Buckhaven","state_code":"FIF","country_code":"GB"}},{"type":"Feature","geometry":{"type":"Point","coordinates":[-3.12578,56.18474]},"properties":{"id":49046,"name":"Coaltown of Balgonie","state_code":"FIF","country_code":"GB"}},{"type":"Feature","geometry":{"type":"Point","coordinates":[-2.62676,56.26042]},"properties":{"id":49140,"name":"Crail","state_code":"FIF","country_code":"GB"}},{"type":"Feature","geometry":{"type":"Point","coordinates":[-3.01204,56.31876]},"properties":{"id":49209,"name":"Cupar","state_code":"FIF","country_code":"GB"}},{"type":"Feature","geometry":{"type":"Point","coordinates":[-3.06422,56.16018]},"properties":{"id":49413,"name":"East Wemyss","state_code":"FIF","country_code":"GB"}},{"type":"Feature","geometry":{"type":"Point","coordinates":[-3.21275,56.39234]},"properties":{"id":49482,"name":"Errol","state_code":"FIF","country_code":"GB"}},{"type":"Feature","geometry":{"type":"Point","coordinates":[-3.20389,56.25255]},"properties":{"id":49522,"name":"Falkland","state_code":"FIF","country_code":"GB"}},{"type":"Feature","geometry":{"type":"Point","coordinates":[-3.16667,56.25]},"properties":{"id":49552,"name":"Fife","state_code":"FIF","country_code":"GB"}},{"type":"Feature","geometry":{"type":"Point","coordinates":[-3.15861,56.24688]},"properties":{"id":49607,"name":"Freuchie","state_code":"FIF","country_code":"GB"}},{"type":"Feature","geometry":{"type":"Point","coordinates":[-3.17316,56.19514]},"properties":{"id":49660,"name":"Glenrothes","state_code":"FIF","country_code":"GB"}},{"type":"Feature","geometry":{"type":"Point","coordinates":[-3.04917,56.21081]},"properties":{"id":50121,"name":"Kennoway","state_code":"FIF","country_code":"GB"}},{"type":"Feature","geometry":{"type":"Point","coordinates":[-3.24241,56.17371]},"properties":{"id":50164,"name":"Kinglassie","state_code":"FIF","country_code":"GB"}},{"type":"Feature","geometry":{"type":"Point","coordinates":[-3.11693,56.26215]},"properties":{"id":50173,"name":"Kingskettle","state_code":"FIF","country_code":"GB"}},{"type":"Feature","geometry":{"type":"Point","coordinates":[-3.1239,56.27421]},"properties":{"id":50226,"name":"Ladybank","state_code":"FIF","country_code":"GB"}},{"type":"Feature","geometry":{"type":"Point","coordinates":[-3.21667,56.2]},"properties":{"id":50285,"name":"Leslie","state_code":"FIF","country_code":"GB"}},{"type":"Feature","geometry":{"type":"Point","coordinates":[-2.88253,56.38174]},"properties":{"id":50291,"name":"Leuchars","state_code":"FIF","country_code":"GB"}},{"type":"Feature","geometry":{"type":"Point","coordinates":[-3,56.2]},"properties":{"id":50292,"name":"Leven","state_code":"FIF","country_code":"GB"}},{"type":"Feature","geometry":{"type":"Point","coordinates":[-2.95296,56.2124]},"properties":{"id":50438,"name":"Lundin Links","state_code":"FIF","country_code":"GB"}},{"type":"Feature","geometry":{"type":"Point","coordinates":[-3.13517,56.20214]},"properties":{"id":50507,"name":"Markinch","state_code":"FIF","country_code":"GB"}},{"type":"Feature","geometry":{"type":"Point","coordinates":[-3.02157,56.18543]},"properties":{"id":50558,"name":"Methil","state_code":"FIF","country_code":"GB"}},{"type":"Feature","geometry":{"type":"Point","coordinates":[-3.2365,56.35079]},"properties":{"id":50704,"name":"Newburgh","state_code":"FIF","country_code":"GB"}},{"type":"Feature","geometry":{"type":"Point","coordinates":[-2.72839,56.21406]},"properties":{"id":50921,"name":"Pittenweem","state_code":"FIF","country_code":"GB"}},{"type":"Feature","geometry":{"type":"Point","coordinates":[-2.79902,56.33871]},"properties":{"id":51163,"name":"Saint Andrews","state_code":"FIF","country_code":"GB"}},{"type":"Feature","geometry":{"type":"Point","coordinates":[-2.76821,56.20651]},"properties":{"id":51173,"name":"Saint Monans","state_code":"FIF","country_code":"GB"}},{"type":"Feature","geometry":{"type":"Point","coordinates":[-3.15,56.16667]},"properties":{"id":51603,"name":"Thornton","state_code":"FIF","country_code":"GB"}},{"type":"Feature","geometry":{"type":"Point","coordinates":[-3.05274,56.19546]},"properties":{"id":51926,"name":"Windygates","state_code":"FIF","country_code":"GB"}}]}