{"type":"FeatureCollection","features":[{"type":"Feature","geometry":{"type":"Point","coordinates":[-7.5950403,54.4228702]},"properties":{"id":48347,"name":"Ballinamallard","state_code":"FMO","country_code":"GB"}},{"type":"Feature","geometry":{"type":"Point","coordinates":[-7.45886,54.51331]},"properties":{"id":49328,"name":"Dromore","state_code":"FMO","country_code":"GB"}},{"type":"Feature","geometry":{"type":"Point","coordinates":[-7.6389365,54.3448538]},"properties":{"id":49477,"name":"Enniskillen","state_code":"FMO","country_code":"GB"}},{"type":"Feature","geometry":{"type":"Point","coordinates":[-7.50299,54.44257]},"properties":{"id":49545,"name":"Fermanagh and Omagh","state_code":"FMO","country_code":"GB"}},{"type":"Feature","geometry":{"type":"Point","coordinates":[-7.31667,54.5]},"properties":{"id":49560,"name":"Fintona","state_code":"FMO","country_code":"GB"}},{"type":"Feature","geometry":{"type":"Point","coordinates":[-7.3,54.38333]},"properties":{"id":49566,"name":"Fivemiletown","state_code":"FMO","country_code":"GB"}},{"type":"Feature","geometry":{"type":"Point","coordinates":[-7.6334809,54.4720106]},"properties":{"id":50073,"name":"Irvinestown","state_code":"FMO","country_code":"GB"}},{"type":"Feature","geometry":{"type":"Point","coordinates":[-7.45,54.25]},"properties":{"id":50320,"name":"Lisnaskea","state_code":"FMO","country_code":"GB"}},{"type":"Feature","geometry":{"type":"Point","coordinates":[-7.3,54.6]},"properties":{"id":50811,"name":"Omagh","state_code":"FMO","country_code":"GB"}}]}