{"type":"FeatureCollection","features":[{"type":"Feature","geometry":{"type":"Point","coordinates":[-1.53234,51.19016]},"properties":{"id":48161,"name":"Abbotts Ann","state_code":"HAM","country_code":"GB"}},{"type":"Feature","geometry":{"type":"Point","coordinates":[-0.97469,51.14931]},"properties":{"id":48232,"name":"Alton","state_code":"HAM","country_code":"GB"}},{"type":"Feature","geometry":{"type":"Point","coordinates":[-1.49393,51.21135]},"properties":{"id":48249,"name":"Andover","state_code":"HAM","country_code":"GB"}},{"type":"Feature","geometry":{"type":"Point","coordinates":[-1.50719,51.19317]},"properties":{"id":48252,"name":"Anna Valley","state_code":"HAM","country_code":"GB"}},{"type":"Feature","geometry":{"type":"Point","coordinates":[-1.5471401,51.2586964]},"properties":{"id":153926,"name":"Basingstoke and Deane","state_code":"HAM","country_code":"GB"}},{"type":"Feature","geometry":{"type":"Point","coordinates":[-1.21476,50.95595]},"properties":{"id":48530,"name":"Bishops Waltham","state_code":"HAM","country_code":"GB"}},{"type":"Feature","geometry":{"type":"Point","coordinates":[-0.86245,51.11357]},"properties":{"id":48595,"name":"Bordon","state_code":"HAM","country_code":"GB"}},{"type":"Feature","geometry":{"type":"Point","coordinates":[-1.4937205,50.923293]},"properties":{"id":153933,"name":"Borough of Eastleigh","state_code":"HAM","country_code":"GB"}},{"type":"Feature","geometry":{"type":"Point","coordinates":[-1.2950036,50.8541516]},"properties":{"id":153934,"name":"Borough of Fareham","state_code":"HAM","country_code":"GB"}},{"type":"Feature","geometry":{"type":"Point","coordinates":[-1.1554927,50.8405437]},"properties":{"id":153937,"name":"Borough of Havant","state_code":"HAM","country_code":"GB"}},{"type":"Feature","geometry":{"type":"Point","coordinates":[-1.5748633,51.0260266]},"properties":{"id":153929,"name":"City of Winchester","state_code":"HAM","country_code":"GB"}},{"type":"Feature","geometry":{"type":"Point","coordinates":[-1.31143,50.99483]},"properties":{"id":49064,"name":"Colden Common","state_code":"HAM","country_code":"GB"}},{"type":"Feature","geometry":{"type":"Point","coordinates":[-1.33713,51.02385]},"properties":{"id":49083,"name":"Compton","state_code":"HAM","country_code":"GB"}},{"type":"Feature","geometry":{"type":"Point","coordinates":[-1.2679128,51.0399683]},"properties":{"id":153930,"name":"East Hampshire","state_code":"HAM","country_code":"GB"}},{"type":"Feature","geometry":{"type":"Point","coordinates":[-1.04945,51.10735]},"properties":{"id":49598,"name":"Four Marks","state_code":"HAM","country_code":"GB"}},{"type":"Feature","geometry":{"type":"Point","coordinates":[-1.2329815,50.8068466]},"properties":{"id":153935,"name":"Gosport","state_code":"HAM","country_code":"GB"}},{"type":"Feature","geometry":{"type":"Point","coordinates":[-1.25,51]},"properties":{"id":49796,"name":"Hampshire","state_code":"HAM","country_code":"GB"}},{"type":"Feature","geometry":{"type":"Point","coordinates":[-1.0474184,51.2762621]},"properties":{"id":153927,"name":"Hart","state_code":"HAM","country_code":"GB"}},{"type":"Feature","geometry":{"type":"Point","coordinates":[-1.2978,51.08862]},"properties":{"id":50168,"name":"Kings Worthy","state_code":"HAM","country_code":"GB"}},{"type":"Feature","geometry":{"type":"Point","coordinates":[-0.89238,51.04277]},"properties":{"id":50321,"name":"Liss","state_code":"HAM","country_code":"GB"}},{"type":"Feature","geometry":{"type":"Point","coordinates":[-1.17011,51.08624]},"properties":{"id":50685,"name":"New Alresford","state_code":"HAM","country_code":"GB"}},{"type":"Feature","geometry":{"type":"Point","coordinates":[-1.9589262,50.857555]},"properties":{"id":153931,"name":"New Forest","state_code":"HAM","country_code":"GB"}},{"type":"Feature","geometry":{"type":"Point","coordinates":[-1.26154,51.24389]},"properties":{"id":50835,"name":"Overton","state_code":"HAM","country_code":"GB"}},{"type":"Feature","geometry":{"type":"Point","coordinates":[-0.93375,51.00495]},"properties":{"id":50904,"name":"Petersfield","state_code":"HAM","country_code":"GB"}},{"type":"Feature","geometry":{"type":"Point","coordinates":[-1.1791316,50.8048152]},"properties":{"id":153936,"name":"Portsmouth","state_code":"HAM","country_code":"GB"}},{"type":"Feature","geometry":{"type":"Point","coordinates":[-0.8508439,51.2753495]},"properties":{"id":153928,"name":"Rushmoor","state_code":"HAM","country_code":"GB"}},{"type":"Feature","geometry":{"type":"Point","coordinates":[-1.9430019,50.9863663]},"properties":{"id":153932,"name":"Southampton","state_code":"HAM","country_code":"GB"}},{"type":"Feature","geometry":{"type":"Point","coordinates":[-1.18021,50.94404]},"properties":{"id":51530,"name":"Swanmore","state_code":"HAM","country_code":"GB"}},{"type":"Feature","geometry":{"type":"Point","coordinates":[-1.8311295,51.1337556]},"properties":{"id":153925,"name":"Test Valley","state_code":"HAM","country_code":"GB"}},{"type":"Feature","geometry":{"type":"Point","coordinates":[-1.3187,51.06513]},"properties":{"id":51922,"name":"Winchester","state_code":"HAM","country_code":"GB"}}]}