{"type":"FeatureCollection","features":[{"type":"Feature","geometry":{"type":"Point","coordinates":[-0.15398,52.03866]},"properties":{"id":48299,"name":"Ashwell","state_code":"HRT","country_code":"GB"}},{"type":"Feature","geometry":{"type":"Point","coordinates":[-0.18835,51.98781]},"properties":{"id":48342,"name":"Baldock","state_code":"HRT","country_code":"GB"}},{"type":"Feature","geometry":{"type":"Point","coordinates":[-0.0539,52.07821]},"properties":{"id":48423,"name":"Bassingbourn","state_code":"HRT","country_code":"GB"}},{"type":"Feature","geometry":{"type":"Point","coordinates":[0.15868,51.87113]},"properties":{"id":48529,"name":"Bishops Stortford","state_code":"HRT","country_code":"GB"}},{"type":"Feature","geometry":{"type":"Point","coordinates":[-0.01841,51.94612]},"properties":{"id":48762,"name":"Buntingford","state_code":"HRT","country_code":"GB"}},{"type":"Feature","geometry":{"type":"Point","coordinates":[-0.2367,51.85052]},"properties":{"id":49055,"name":"Codicote","state_code":"HRT","country_code":"GB"}},{"type":"Feature","geometry":{"type":"Point","coordinates":[-0.15956,51.85126]},"properties":{"id":49245,"name":"Datchworth","state_code":"HRT","country_code":"GB"}},{"type":"Feature","geometry":{"type":"Point","coordinates":[-0.01669,51.79014]},"properties":{"id":49706,"name":"Great Amwell","state_code":"HRT","country_code":"GB"}},{"type":"Feature","geometry":{"type":"Point","coordinates":[0.11158,51.77655]},"properties":{"id":49810,"name":"Harlow","state_code":"HRT","country_code":"GB"}},{"type":"Feature","geometry":{"type":"Point","coordinates":[-0.22419,51.76338]},"properties":{"id":49837,"name":"Hatfield","state_code":"HRT","country_code":"GB"}},{"type":"Feature","geometry":{"type":"Point","coordinates":[-0.07854,51.79588]},"properties":{"id":49913,"name":"Hertford","state_code":"HRT","country_code":"GB"}},{"type":"Feature","geometry":{"type":"Point","coordinates":[-0.25,51.83333]},"properties":{"id":49914,"name":"Hertfordshire","state_code":"HRT","country_code":"GB"}},{"type":"Feature","geometry":{"type":"Point","coordinates":[-0.01144,51.76148]},"properties":{"id":49957,"name":"Hoddesdon","state_code":"HRT","country_code":"GB"}},{"type":"Feature","geometry":{"type":"Point","coordinates":[-0.2998,51.85089]},"properties":{"id":50158,"name":"Kimpton","state_code":"HRT","country_code":"GB"}},{"type":"Feature","geometry":{"type":"Point","coordinates":[-0.18394,51.86674]},"properties":{"id":50218,"name":"Knebworth","state_code":"HRT","country_code":"GB"}},{"type":"Feature","geometry":{"type":"Point","coordinates":[-0.03333,51.78333]},"properties":{"id":50323,"name":"Little Amwell","state_code":"HRT","country_code":"GB"}},{"type":"Feature","geometry":{"type":"Point","coordinates":[0.18151,51.83324]},"properties":{"id":50328,"name":"Little Hallingbury","state_code":"HRT","country_code":"GB"}},{"type":"Feature","geometry":{"type":"Point","coordinates":[0.01514,52.08128]},"properties":{"id":50537,"name":"Melbourn","state_code":"HRT","country_code":"GB"}},{"type":"Feature","geometry":{"type":"Point","coordinates":[0.07188,51.85407]},"properties":{"id":50645,"name":"Much Hadham","state_code":"HRT","country_code":"GB"}},{"type":"Feature","geometry":{"type":"Point","coordinates":[0.13381,51.78353]},"properties":{"id":50802,"name":"Old Harlow","state_code":"HRT","country_code":"GB"}},{"type":"Feature","geometry":{"type":"Point","coordinates":[0.01309,51.89013]},"properties":{"id":50998,"name":"Puckeridge","state_code":"HRT","country_code":"GB"}},{"type":"Feature","geometry":{"type":"Point","coordinates":[0.0403,51.7718]},"properties":{"id":51133,"name":"Roydon","state_code":"HRT","country_code":"GB"}},{"type":"Feature","geometry":{"type":"Point","coordinates":[-0.02438,52.04832]},"properties":{"id":51134,"name":"Royston","state_code":"HRT","country_code":"GB"}},{"type":"Feature","geometry":{"type":"Point","coordinates":[0.24234,52.02337]},"properties":{"id":51161,"name":"Saffron Walden","state_code":"HRT","country_code":"GB"}},{"type":"Feature","geometry":{"type":"Point","coordinates":[0.15,51.81667]},"properties":{"id":51203,"name":"Sawbridgeworth","state_code":"HRT","country_code":"GB"}},{"type":"Feature","geometry":{"type":"Point","coordinates":[0.2,51.9]},"properties":{"id":51429,"name":"Stansted Mountfitchet","state_code":"HRT","country_code":"GB"}},{"type":"Feature","geometry":{"type":"Point","coordinates":[-0.20256,51.90224]},"properties":{"id":51440,"name":"Stevenage","state_code":"HRT","country_code":"GB"}},{"type":"Feature","geometry":{"type":"Point","coordinates":[-0.12758,51.91888]},"properties":{"id":51730,"name":"Walkern","state_code":"HRT","country_code":"GB"}},{"type":"Feature","geometry":{"type":"Point","coordinates":[-0.02875,51.81058]},"properties":{"id":51748,"name":"Ware","state_code":"HRT","country_code":"GB"}},{"type":"Feature","geometry":{"type":"Point","coordinates":[-0.11381,51.85842]},"properties":{"id":51778,"name":"Watton at Stone","state_code":"HRT","country_code":"GB"}},{"type":"Feature","geometry":{"type":"Point","coordinates":[-0.21359,51.8331]},"properties":{"id":51795,"name":"Welwyn","state_code":"HRT","country_code":"GB"}},{"type":"Feature","geometry":{"type":"Point","coordinates":[-0.20691,51.80174]},"properties":{"id":51796,"name":"Welwyn Garden City","state_code":"HRT","country_code":"GB"}},{"type":"Feature","geometry":{"type":"Point","coordinates":[-0.29371,51.81148]},"properties":{"id":51860,"name":"Wheathampstead","state_code":"HRT","country_code":"GB"}}]}