{"type":"FeatureCollection","features":[{"type":"Feature","geometry":{"type":"Point","coordinates":[-4.2551,57.69596]},"properties":{"id":48225,"name":"Alness","state_code":"HLD","country_code":"GB"}},{"type":"Feature","geometry":{"type":"Point","coordinates":[-4.46144,57.48345]},"properties":{"id":48440,"name":"Beauly","state_code":"HLD","country_code":"GB"}},{"type":"Feature","geometry":{"type":"Point","coordinates":[-4.43678,57.5663]},"properties":{"id":49091,"name":"Conon Bridge","state_code":"HLD","country_code":"GB"}},{"type":"Feature","geometry":{"type":"Point","coordinates":[-4.1415,57.48699]},"properties":{"id":49200,"name":"Culloden","state_code":"HLD","country_code":"GB"}},{"type":"Feature","geometry":{"type":"Point","coordinates":[-4.42721,57.59531]},"properties":{"id":49286,"name":"Dingwall","state_code":"HLD","country_code":"GB"}},{"type":"Feature","geometry":{"type":"Point","coordinates":[-4.47989,57.33438]},"properties":{"id":49332,"name":"Drumnadrochit","state_code":"HLD","country_code":"GB"}},{"type":"Feature","geometry":{"type":"Point","coordinates":[-4.34004,57.66385]},"properties":{"id":49493,"name":"Evanton","state_code":"HLD","country_code":"GB"}},{"type":"Feature","geometry":{"type":"Point","coordinates":[-4.13263,57.58087]},"properties":{"id":49592,"name":"Fortrose","state_code":"HLD","country_code":"GB"}},{"type":"Feature","geometry":{"type":"Point","coordinates":[-5,57.5]},"properties":{"id":49936,"name":"Highland","state_code":"HLD","country_code":"GB"}},{"type":"Feature","geometry":{"type":"Point","coordinates":[-4.16745,57.6886]},"properties":{"id":50060,"name":"Invergordon","state_code":"HLD","country_code":"GB"}},{"type":"Feature","geometry":{"type":"Point","coordinates":[-4.22398,57.47908]},"properties":{"id":50064,"name":"Inverness","state_code":"HLD","country_code":"GB"}},{"type":"Feature","geometry":{"type":"Point","coordinates":[-4.44178,57.5742]},"properties":{"id":50523,"name":"Maryburgh","state_code":"HLD","country_code":"GB"}},{"type":"Feature","geometry":{"type":"Point","coordinates":[-4.17592,57.45125]},"properties":{"id":50595,"name":"Milton of Leys","state_code":"HLD","country_code":"GB"}},{"type":"Feature","geometry":{"type":"Point","coordinates":[-4.45939,57.51976]},"properties":{"id":50647,"name":"Muir of Ord","state_code":"HLD","country_code":"GB"}},{"type":"Feature","geometry":{"type":"Point","coordinates":[-4.15141,57.47956]},"properties":{"id":51334,"name":"Smithton","state_code":"HLD","country_code":"GB"}},{"type":"Feature","geometry":{"type":"Point","coordinates":[-4.54195,57.58522]},"properties":{"id":51493,"name":"Strathpeffer","state_code":"HLD","country_code":"GB"}},{"type":"Feature","geometry":{"type":"Point","coordinates":[-5.16039,57.89872]},"properties":{"id":51693,"name":"Ullapool","state_code":"HLD","country_code":"GB"}}]}