{"type":"FeatureCollection","features":[{"type":"Feature","geometry":{"type":"Point","coordinates":[-2.83374,54.20179]},"properties":{"id":48282,"name":"Arnside","state_code":"LAN","country_code":"GB"}},{"type":"Feature","geometry":{"type":"Point","coordinates":[-2.18705,53.91711]},"properties":{"id":48400,"name":"Barnoldswick","state_code":"LAN","country_code":"GB"}},{"type":"Feature","geometry":{"type":"Point","coordinates":[-2.77603,53.96867]},"properties":{"id":48433,"name":"Bay Horse","state_code":"LAN","country_code":"GB"}},{"type":"Feature","geometry":{"type":"Point","coordinates":[-2.4236,53.8157]},"properties":{"id":48509,"name":"Billington","state_code":"LAN","country_code":"GB"}},{"type":"Feature","geometry":{"type":"Point","coordinates":[-2.80017,54.09632]},"properties":{"id":48588,"name":"Bolton le Sands","state_code":"LAN","country_code":"GB"}},{"type":"Feature","geometry":{"type":"Point","coordinates":[-2.76914,54.13163]},"properties":{"id":48865,"name":"Carnforth","state_code":"LAN","country_code":"GB"}},{"type":"Feature","geometry":{"type":"Point","coordinates":[-2.71903,54.07624]},"properties":{"id":48891,"name":"Caton","state_code":"LAN","country_code":"GB"}},{"type":"Feature","geometry":{"type":"Point","coordinates":[-2.76478,53.87965]},"properties":{"id":48893,"name":"Catterall","state_code":"LAN","country_code":"GB"}},{"type":"Feature","geometry":{"type":"Point","coordinates":[-2.35495,53.89228]},"properties":{"id":48932,"name":"Chatburn","state_code":"LAN","country_code":"GB"}},{"type":"Feature","geometry":{"type":"Point","coordinates":[-2.4,53.86667]},"properties":{"id":49037,"name":"Clitheroe","state_code":"LAN","country_code":"GB"}},{"type":"Feature","geometry":{"type":"Point","coordinates":[-2.79201,53.99362]},"properties":{"id":49623,"name":"Galgate","state_code":"LAN","country_code":"GB"}},{"type":"Feature","geometry":{"type":"Point","coordinates":[-2.77417,53.90081]},"properties":{"id":49630,"name":"Garstang","state_code":"LAN","country_code":"GB"}},{"type":"Feature","geometry":{"type":"Point","coordinates":[-2.67017,53.822]},"properties":{"id":49678,"name":"Goosnargh","state_code":"LAN","country_code":"GB"}},{"type":"Feature","geometry":{"type":"Point","coordinates":[-2.22302,54.00486]},"properties":{"id":49890,"name":"Hellifield","state_code":"LAN","country_code":"GB"}},{"type":"Feature","geometry":{"type":"Point","coordinates":[-2.51199,54.11823]},"properties":{"id":49923,"name":"High Bentham","state_code":"LAN","country_code":"GB"}},{"type":"Feature","geometry":{"type":"Point","coordinates":[-2.46849,54.15392]},"properties":{"id":50052,"name":"Ingleton","state_code":"LAN","country_code":"GB"}},{"type":"Feature","geometry":{"type":"Point","coordinates":[-2.59827,54.20259]},"properties":{"id":50198,"name":"Kirkby Lonsdale","state_code":"LAN","country_code":"GB"}},{"type":"Feature","geometry":{"type":"Point","coordinates":[-2.5,53.83333]},"properties":{"id":50235,"name":"Lancashire","state_code":"LAN","country_code":"GB"}},{"type":"Feature","geometry":{"type":"Point","coordinates":[-2.79988,54.04649]},"properties":{"id":50236,"name":"Lancaster","state_code":"LAN","country_code":"GB"}},{"type":"Feature","geometry":{"type":"Point","coordinates":[-2.45076,53.80217]},"properties":{"id":50242,"name":"Langho","state_code":"LAN","country_code":"GB"}},{"type":"Feature","geometry":{"type":"Point","coordinates":[-2.59964,53.83212]},"properties":{"id":50409,"name":"Longridge","state_code":"LAN","country_code":"GB"}},{"type":"Feature","geometry":{"type":"Point","coordinates":[-2.76939,54.22785]},"properties":{"id":50592,"name":"Milnthorpe","state_code":"LAN","country_code":"GB"}},{"type":"Feature","geometry":{"type":"Point","coordinates":[-2.86108,54.06835]},"properties":{"id":50627,"name":"Morecambe","state_code":"LAN","country_code":"GB"}},{"type":"Feature","geometry":{"type":"Point","coordinates":[-2.70452,53.76282]},"properties":{"id":50987,"name":"Preston","state_code":"LAN","country_code":"GB"}},{"type":"Feature","geometry":{"type":"Point","coordinates":[-2.33728,53.83355]},"properties":{"id":51159,"name":"Sabden","state_code":"LAN","country_code":"GB"}},{"type":"Feature","geometry":{"type":"Point","coordinates":[-2.2772,54.06865]},"properties":{"id":51238,"name":"Settle","state_code":"LAN","country_code":"GB"}},{"type":"Feature","geometry":{"type":"Point","coordinates":[-2.81667,54.16667]},"properties":{"id":51310,"name":"Silverdale","state_code":"LAN","country_code":"GB"}},{"type":"Feature","geometry":{"type":"Point","coordinates":[-2.76435,54.14715]},"properties":{"id":51759,"name":"Warton","state_code":"LAN","country_code":"GB"}},{"type":"Feature","geometry":{"type":"Point","coordinates":[-2.40712,53.82209]},"properties":{"id":51858,"name":"Whalley","state_code":"LAN","country_code":"GB"}}]}