{"type":"FeatureCollection","features":[{"type":"Feature","geometry":{"type":"Point","coordinates":[-1.18841,52.67368]},"properties":{"id":48257,"name":"Anstey","state_code":"LEC","country_code":"GB"}},{"type":"Feature","geometry":{"type":"Point","coordinates":[-0.95856,52.76331]},"properties":{"id":48285,"name":"Asfordby","state_code":"LEC","country_code":"GB"}},{"type":"Feature","geometry":{"type":"Point","coordinates":[-1.4732,52.74632]},"properties":{"id":48289,"name":"Ashby de la Zouch","state_code":"LEC","country_code":"GB"}},{"type":"Feature","geometry":{"type":"Point","coordinates":[-1.34274,52.67265]},"properties":{"id":48337,"name":"Bagworth","state_code":"LEC","country_code":"GB"}},{"type":"Feature","geometry":{"type":"Point","coordinates":[-1.37013,52.64718]},"properties":{"id":48391,"name":"Barlestone","state_code":"LEC","country_code":"GB"}},{"type":"Feature","geometry":{"type":"Point","coordinates":[-1.14601,52.75178]},"properties":{"id":48410,"name":"Barrow upon Soar","state_code":"LEC","country_code":"GB"}},{"type":"Feature","geometry":{"type":"Point","coordinates":[-1.12988,52.78574]},"properties":{"id":48792,"name":"Burton on the Wolds","state_code":"LEC","country_code":"GB"}},{"type":"Feature","geometry":{"type":"Point","coordinates":[-1.3702,52.72247]},"properties":{"id":49047,"name":"Coalville","state_code":"LEC","country_code":"GB"}},{"type":"Feature","geometry":{"type":"Point","coordinates":[-1.29395,52.62598]},"properties":{"id":49276,"name":"Desford","state_code":"LEC","country_code":"GB"}},{"type":"Feature","geometry":{"type":"Point","coordinates":[-1.538,52.72401]},"properties":{"id":49305,"name":"Donisthorpe","state_code":"LEC","country_code":"GB"}},{"type":"Feature","geometry":{"type":"Point","coordinates":[-1.25644,52.79548]},"properties":{"id":49841,"name":"Hathern","state_code":"LEC","country_code":"GB"}},{"type":"Feature","geometry":{"type":"Point","coordinates":[-1.39965,52.68554]},"properties":{"id":50039,"name":"Ibstock","state_code":"LEC","country_code":"GB"}},{"type":"Feature","geometry":{"type":"Point","coordinates":[-1.28506,52.80577]},"properties":{"id":50401,"name":"Long Whatton","state_code":"LEC","country_code":"GB"}},{"type":"Feature","geometry":{"type":"Point","coordinates":[-1.2,52.76667]},"properties":{"id":50418,"name":"Loughborough","state_code":"LEC","country_code":"GB"}},{"type":"Feature","geometry":{"type":"Point","coordinates":[-1.40174,52.62428]},"properties":{"id":50497,"name":"Market Bosworth","state_code":"LEC","country_code":"GB"}},{"type":"Feature","geometry":{"type":"Point","coordinates":[-1.27476,52.68747]},"properties":{"id":50506,"name":"Markfield","state_code":"LEC","country_code":"GB"}},{"type":"Feature","geometry":{"type":"Point","coordinates":[-1.50637,52.70644]},"properties":{"id":50535,"name":"Measham","state_code":"LEC","country_code":"GB"}},{"type":"Feature","geometry":{"type":"Point","coordinates":[-1.42522,52.8219]},"properties":{"id":50538,"name":"Melbourne","state_code":"LEC","country_code":"GB"}},{"type":"Feature","geometry":{"type":"Point","coordinates":[-1.53496,52.73698]},"properties":{"id":50613,"name":"Moira","state_code":"LEC","country_code":"GB"}},{"type":"Feature","geometry":{"type":"Point","coordinates":[-1.15,52.71667]},"properties":{"id":50643,"name":"Mountsorrel","state_code":"LEC","country_code":"GB"}},{"type":"Feature","geometry":{"type":"Point","coordinates":[-1.3422,52.62959]},"properties":{"id":50701,"name":"Newbold Verdon","state_code":"LEC","country_code":"GB"}},{"type":"Feature","geometry":{"type":"Point","coordinates":[-1.04749,52.70591]},"properties":{"id":51013,"name":"Queniborough","state_code":"LEC","country_code":"GB"}},{"type":"Feature","geometry":{"type":"Point","coordinates":[-1.17348,52.74461]},"properties":{"id":51014,"name":"Quorndon","state_code":"LEC","country_code":"GB"}},{"type":"Feature","geometry":{"type":"Point","coordinates":[-1.24137,52.64989]},"properties":{"id":51033,"name":"Ratby","state_code":"LEC","country_code":"GB"}},{"type":"Feature","geometry":{"type":"Point","coordinates":[-1.40582,52.72111]},"properties":{"id":51039,"name":"Ravenstone","state_code":"LEC","country_code":"GB"}},{"type":"Feature","geometry":{"type":"Point","coordinates":[-1.13739,52.70916]},"properties":{"id":51121,"name":"Rothley","state_code":"LEC","country_code":"GB"}},{"type":"Feature","geometry":{"type":"Point","coordinates":[-1.29021,52.7657]},"properties":{"id":51263,"name":"Shepshed","state_code":"LEC","country_code":"GB"}},{"type":"Feature","geometry":{"type":"Point","coordinates":[-1.10773,52.73286]},"properties":{"id":51304,"name":"Sileby","state_code":"LEC","country_code":"GB"}},{"type":"Feature","geometry":{"type":"Point","coordinates":[-1.24969,52.82144]},"properties":{"id":51519,"name":"Sutton Bonington","state_code":"LEC","country_code":"GB"}},{"type":"Feature","geometry":{"type":"Point","coordinates":[-1.55744,52.774]},"properties":{"id":51526,"name":"Swadlincote","state_code":"LEC","country_code":"GB"}},{"type":"Feature","geometry":{"type":"Point","coordinates":[-1.11288,52.80536]},"properties":{"id":52007,"name":"Wymeswold","state_code":"LEC","country_code":"GB"}}]}