{"type":"FeatureCollection","features":[{"type":"Feature","geometry":{"type":"Point","coordinates":[-3.17814,55.8703]},"properties":{"id":48513,"name":"Bilston","state_code":"MLN","country_code":"GB"}},{"type":"Feature","geometry":{"type":"Point","coordinates":[-3.1051,55.87329]},"properties":{"id":48592,"name":"Bonnyrigg","state_code":"MLN","country_code":"GB"}},{"type":"Feature","geometry":{"type":"Point","coordinates":[-3.06806,55.89317]},"properties":{"id":49222,"name":"Dalkeith","state_code":"MLN","country_code":"GB"}},{"type":"Feature","geometry":{"type":"Point","coordinates":[-3.04563,55.84594]},"properties":{"id":49680,"name":"Gorebridge","state_code":"MLN","country_code":"GB"}},{"type":"Feature","geometry":{"type":"Point","coordinates":[-3.15874,55.87945]},"properties":{"id":50375,"name":"Loanhead","state_code":"MLN","country_code":"GB"}},{"type":"Feature","geometry":{"type":"Point","coordinates":[-3.03875,55.87172]},"properties":{"id":50533,"name":"Mayfield","state_code":"MLN","country_code":"GB"}},{"type":"Feature","geometry":{"type":"Point","coordinates":[-3.09334,55.82347]},"properties":{"id":50576,"name":"Midlothian","state_code":"MLN","country_code":"GB"}},{"type":"Feature","geometry":{"type":"Point","coordinates":[-3.1888,55.6519]},"properties":{"id":50867,"name":"Peebles","state_code":"MLN","country_code":"GB"}},{"type":"Feature","geometry":{"type":"Point","coordinates":[-3.22608,55.83116]},"properties":{"id":50881,"name":"Penicuik","state_code":"MLN","country_code":"GB"}},{"type":"Feature","geometry":{"type":"Point","coordinates":[-3.13625,55.85075]},"properties":{"id":51107,"name":"Rosewell","state_code":"MLN","country_code":"GB"}},{"type":"Feature","geometry":{"type":"Point","coordinates":[-3.16895,55.85749]},"properties":{"id":51108,"name":"Roslin","state_code":"MLN","country_code":"GB"}},{"type":"Feature","geometry":{"type":"Point","coordinates":[-3.35607,55.74972]},"properties":{"id":51825,"name":"West Linton","state_code":"MLN","country_code":"GB"}}]}