{"type":"FeatureCollection","features":[{"type":"Feature","geometry":{"type":"Point","coordinates":[-6.51918,54.8087]},"properties":{"id":48460,"name":"Bellaghy","state_code":"MUL","country_code":"GB"}},{"type":"Feature","geometry":{"type":"Point","coordinates":[-6.56227,54.77723]},"properties":{"id":48881,"name":"Castledawson","state_code":"MUL","country_code":"GB"}},{"type":"Feature","geometry":{"type":"Point","coordinates":[-6.70166,54.5418]},"properties":{"id":49045,"name":"Coalisland","state_code":"MUL","country_code":"GB"}},{"type":"Feature","geometry":{"type":"Point","coordinates":[-6.74595,54.64305]},"properties":{"id":49096,"name":"Cookstown","state_code":"MUL","country_code":"GB"}},{"type":"Feature","geometry":{"type":"Point","coordinates":[-6.76667,54.8]},"properties":{"id":49323,"name":"Draperstown","state_code":"MUL","country_code":"GB"}},{"type":"Feature","geometry":{"type":"Point","coordinates":[-6.76723,54.50344]},"properties":{"id":49353,"name":"Dungannon","state_code":"MUL","country_code":"GB"}},{"type":"Feature","geometry":{"type":"Point","coordinates":[-6.60656,54.75356]},"properties":{"id":50467,"name":"Magherafelt","state_code":"MUL","country_code":"GB"}},{"type":"Feature","geometry":{"type":"Point","coordinates":[-6.79097,54.6219]},"properties":{"id":50567,"name":"Mid Ulster","state_code":"MUL","country_code":"GB"}},{"type":"Feature","geometry":{"type":"Point","coordinates":[-6.66956,54.69229]},"properties":{"id":50616,"name":"Moneymore","state_code":"MUL","country_code":"GB"}}]}