{"type":"FeatureCollection","features":[{"type":"Feature","geometry":{"type":"Point","coordinates":[1.54757,52.63681]},"properties":{"id":48190,"name":"Acle","state_code":"NFK","country_code":"GB"}},{"type":"Feature","geometry":{"type":"Point","coordinates":[0.78574,52.60435]},"properties":{"id":48292,"name":"Ashill","state_code":"NFK","country_code":"GB"}},{"type":"Feature","geometry":{"type":"Point","coordinates":[1.01572,52.51779]},"properties":{"id":48310,"name":"Attleborough","state_code":"NFK","country_code":"GB"}},{"type":"Feature","geometry":{"type":"Point","coordinates":[1.25107,52.79672]},"properties":{"id":48327,"name":"Aylsham","state_code":"NFK","country_code":"GB"}},{"type":"Feature","geometry":{"type":"Point","coordinates":[1.21885,52.63884]},"properties":{"id":48636,"name":"Bowthorpe","state_code":"NFK","country_code":"GB"}},{"type":"Feature","geometry":{"type":"Point","coordinates":[1.05899,52.85369]},"properties":{"id":48704,"name":"Briston","state_code":"NFK","country_code":"GB"}},{"type":"Feature","geometry":{"type":"Point","coordinates":[1.37076,52.54175]},"properties":{"id":48723,"name":"Brooke","state_code":"NFK","country_code":"GB"}},{"type":"Feature","geometry":{"type":"Point","coordinates":[1.43509,52.62426]},"properties":{"id":48735,"name":"Brundall","state_code":"NFK","country_code":"GB"}},{"type":"Feature","geometry":{"type":"Point","coordinates":[1.72377,52.6508309]},"properties":{"id":48818,"name":"Caister-on-Sea","state_code":"NFK","country_code":"GB"}},{"type":"Feature","geometry":{"type":"Point","coordinates":[1.16667,52.76667]},"properties":{"id":48898,"name":"Cawston","state_code":"NFK","country_code":"GB"}},{"type":"Feature","geometry":{"type":"Point","coordinates":[0.3579,52.75604]},"properties":{"id":49030,"name":"Clenchwarton","state_code":"NFK","country_code":"GB"}},{"type":"Feature","geometry":{"type":"Point","coordinates":[1.36653,52.72804]},"properties":{"id":49076,"name":"Coltishall","state_code":"NFK","country_code":"GB"}},{"type":"Feature","geometry":{"type":"Point","coordinates":[1.2097,52.65914]},"properties":{"id":49113,"name":"Costessey","state_code":"NFK","country_code":"GB"}},{"type":"Feature","geometry":{"type":"Point","coordinates":[1.24334,52.60482]},"properties":{"id":49161,"name":"Cringleford","state_code":"NFK","country_code":"GB"}},{"type":"Feature","geometry":{"type":"Point","coordinates":[1.29892,52.93123]},"properties":{"id":49166,"name":"Cromer","state_code":"NFK","country_code":"GB"}},{"type":"Feature","geometry":{"type":"Point","coordinates":[0.50339,52.84549]},"properties":{"id":49274,"name":"Dersingham","state_code":"NFK","country_code":"GB"}},{"type":"Feature","geometry":{"type":"Point","coordinates":[0.93333,52.68333]},"properties":{"id":49393,"name":"East Dereham","state_code":"NFK","country_code":"GB"}},{"type":"Feature","geometry":{"type":"Point","coordinates":[0.8477,52.82996]},"properties":{"id":49520,"name":"Fakenham","state_code":"NFK","country_code":"GB"}},{"type":"Feature","geometry":{"type":"Point","coordinates":[1.01049,52.78182]},"properties":{"id":49595,"name":"Foulsham","state_code":"NFK","country_code":"GB"}},{"type":"Feature","geometry":{"type":"Point","coordinates":[1.7273353,52.5778559]},"properties":{"id":49683,"name":"Gorleston-on-Sea","state_code":"NFK","country_code":"GB"}},{"type":"Feature","geometry":{"type":"Point","coordinates":[1.7314845,52.6071742]},"properties":{"id":49736,"name":"Great Yarmouth","state_code":"NFK","country_code":"GB"}},{"type":"Feature","geometry":{"type":"Point","coordinates":[0.54846,52.77312]},"properties":{"id":49754,"name":"Grimston","state_code":"NFK","country_code":"GB"}},{"type":"Feature","geometry":{"type":"Point","coordinates":[0.86436,52.5572]},"properties":{"id":49755,"name":"Griston","state_code":"NFK","country_code":"GB"}},{"type":"Feature","geometry":{"type":"Point","coordinates":[0.49387,52.90782]},"properties":{"id":49870,"name":"Heacham","state_code":"NFK","country_code":"GB"}},{"type":"Feature","geometry":{"type":"Point","coordinates":[1.6831985,52.6940106]},"properties":{"id":49898,"name":"Hemsby","state_code":"NFK","country_code":"GB"}},{"type":"Feature","geometry":{"type":"Point","coordinates":[1.17359,52.59761]},"properties":{"id":49916,"name":"Hethersett","state_code":"NFK","country_code":"GB"}},{"type":"Feature","geometry":{"type":"Point","coordinates":[0.98422,52.57969]},"properties":{"id":49948,"name":"Hingham","state_code":"NFK","country_code":"GB"}},{"type":"Feature","geometry":{"type":"Point","coordinates":[1.7198668,52.5437518]},"properties":{"id":49986,"name":"Hopton on Sea","state_code":"NFK","country_code":"GB"}},{"type":"Feature","geometry":{"type":"Point","coordinates":[1.46294,52.7046]},"properties":{"id":49993,"name":"Horning","state_code":"NFK","country_code":"GB"}},{"type":"Feature","geometry":{"type":"Point","coordinates":[1.24015,52.70153]},"properties":{"id":49996,"name":"Horsford","state_code":"NFK","country_code":"GB"}},{"type":"Feature","geometry":{"type":"Point","coordinates":[1.41054,52.7149]},"properties":{"id":50012,"name":"Hoveton","state_code":"NFK","country_code":"GB"}},{"type":"Feature","geometry":{"type":"Point","coordinates":[0.5,52.95]},"properties":{"id":50025,"name":"Hunstanton","state_code":"NFK","country_code":"GB"}},{"type":"Feature","geometry":{"type":"Point","coordinates":[0.39516,52.75172]},"properties":{"id":50162,"name":"King's Lynn","state_code":"NFK","country_code":"GB"}},{"type":"Feature","geometry":{"type":"Point","coordinates":[1.48616,52.62104]},"properties":{"id":50310,"name":"Lingwood","state_code":"NFK","country_code":"GB"}},{"type":"Feature","geometry":{"type":"Point","coordinates":[1.48183,52.5327]},"properties":{"id":50384,"name":"Loddon","state_code":"NFK","country_code":"GB"}},{"type":"Feature","geometry":{"type":"Point","coordinates":[1.23478,52.48803]},"properties":{"id":50399,"name":"Long Stratton","state_code":"NFK","country_code":"GB"}},{"type":"Feature","geometry":{"type":"Point","coordinates":[1.63636,52.70464]},"properties":{"id":50521,"name":"Martham","state_code":"NFK","country_code":"GB"}},{"type":"Feature","geometry":{"type":"Point","coordinates":[1.0325,52.65905]},"properties":{"id":50527,"name":"Mattishall","state_code":"NFK","country_code":"GB"}},{"type":"Feature","geometry":{"type":"Point","coordinates":[1.23327,52.55913]},"properties":{"id":50650,"name":"Mulbarton","state_code":"NFK","country_code":"GB"}},{"type":"Feature","geometry":{"type":"Point","coordinates":[1.4297,52.87842]},"properties":{"id":50652,"name":"Mundesley","state_code":"NFK","country_code":"GB"}},{"type":"Feature","geometry":{"type":"Point","coordinates":[0.64991,52.5093]},"properties":{"id":50653,"name":"Mundford","state_code":"NFK","country_code":"GB"}},{"type":"Feature","geometry":{"type":"Point","coordinates":[0.77539,52.64994]},"properties":{"id":50669,"name":"Necton","state_code":"NFK","country_code":"GB"}},{"type":"Feature","geometry":{"type":"Point","coordinates":[1,52.66667]},"properties":{"id":50745,"name":"Norfolk","state_code":"NFK","country_code":"GB"}},{"type":"Feature","geometry":{"type":"Point","coordinates":[0.94611,52.7464]},"properties":{"id":50754,"name":"North Elmham","state_code":"NFK","country_code":"GB"}},{"type":"Feature","geometry":{"type":"Point","coordinates":[1.38746,52.82121]},"properties":{"id":50769,"name":"North Walsham","state_code":"NFK","country_code":"GB"}},{"type":"Feature","geometry":{"type":"Point","coordinates":[1.29834,52.62783]},"properties":{"id":50785,"name":"Norwich","state_code":"NFK","country_code":"GB"}},{"type":"Feature","geometry":{"type":"Point","coordinates":[1.6893887,52.6755898]},"properties":{"id":50815,"name":"Ormesby St Margaret","state_code":"NFK","country_code":"GB"}},{"type":"Feature","geometry":{"type":"Point","coordinates":[1.339,52.91623]},"properties":{"id":50834,"name":"Overstrand","state_code":"NFK","country_code":"GB"}},{"type":"Feature","geometry":{"type":"Point","coordinates":[1.34961,52.56756]},"properties":{"id":50950,"name":"Poringland","state_code":"NFK","country_code":"GB"}},{"type":"Feature","geometry":{"type":"Point","coordinates":[1.38032,52.66254]},"properties":{"id":51015,"name":"Rackheath","state_code":"NFK","country_code":"GB"}},{"type":"Feature","geometry":{"type":"Point","coordinates":[1.57122,52.56054]},"properties":{"id":51056,"name":"Reedham","state_code":"NFK","country_code":"GB"}},{"type":"Feature","geometry":{"type":"Point","coordinates":[1.11099,52.7632]},"properties":{"id":51057,"name":"Reepham","state_code":"NFK","country_code":"GB"}},{"type":"Feature","geometry":{"type":"Point","coordinates":[1.20931,52.94078]},"properties":{"id":51271,"name":"Sheringham","state_code":"NFK","country_code":"GB"}},{"type":"Feature","geometry":{"type":"Point","coordinates":[0.88577,52.62923]},"properties":{"id":51282,"name":"Shipdham","state_code":"NFK","country_code":"GB"}},{"type":"Feature","geometry":{"type":"Point","coordinates":[0.50099,52.87882]},"properties":{"id":51336,"name":"Snettisham","state_code":"NFK","country_code":"GB"}},{"type":"Feature","geometry":{"type":"Point","coordinates":[1.32027,52.68529]},"properties":{"id":51390,"name":"Spixworth","state_code":"NFK","country_code":"GB"}},{"type":"Feature","geometry":{"type":"Point","coordinates":[1.51783,52.77079]},"properties":{"id":51414,"name":"Stalham","state_code":"NFK","country_code":"GB"}},{"type":"Feature","geometry":{"type":"Point","coordinates":[0.5132,52.57051]},"properties":{"id":51461,"name":"Stoke Ferry","state_code":"NFK","country_code":"GB"}},{"type":"Feature","geometry":{"type":"Point","coordinates":[0.6857,52.6477]},"properties":{"id":51527,"name":"Swaffham","state_code":"NFK","country_code":"GB"}},{"type":"Feature","geometry":{"type":"Point","coordinates":[1.31175,52.6277]},"properties":{"id":51608,"name":"Thorpe Hamlet","state_code":"NFK","country_code":"GB"}},{"type":"Feature","geometry":{"type":"Point","coordinates":[1.55617,52.52881]},"properties":{"id":51614,"name":"Thurlton","state_code":"NFK","country_code":"GB"}},{"type":"Feature","geometry":{"type":"Point","coordinates":[0.83333,52.56667]},"properties":{"id":51777,"name":"Watton","state_code":"NFK","country_code":"GB"}},{"type":"Feature","geometry":{"type":"Point","coordinates":[0.61485,52.4644]},"properties":{"id":51784,"name":"Weeting","state_code":"NFK","country_code":"GB"}},{"type":"Feature","geometry":{"type":"Point","coordinates":[0.8511,52.95164]},"properties":{"id":51793,"name":"Wells-next-the-Sea","state_code":"NFK","country_code":"GB"}}]}