{"type":"FeatureCollection","features":[{"type":"Feature","geometry":{"type":"Point","coordinates":[-5.89966,54.10823]},"properties":{"id":48254,"name":"Annalong","state_code":"NMD","country_code":"GB"}},{"type":"Feature","geometry":{"type":"Point","coordinates":[-6.28333,54.35]},"properties":{"id":48366,"name":"Banbridge","state_code":"NMD","country_code":"GB"}},{"type":"Feature","geometry":{"type":"Point","coordinates":[-5.94446,54.2569]},"properties":{"id":48887,"name":"Castlewellan","state_code":"NMD","country_code":"GB"}},{"type":"Feature","geometry":{"type":"Point","coordinates":[-6.6,54.08333]},"properties":{"id":49178,"name":"Crossmaglen","state_code":"NMD","country_code":"GB"}},{"type":"Feature","geometry":{"type":"Point","coordinates":[-6.36126,54.37256]},"properties":{"id":49642,"name":"Gilford","state_code":"NMD","country_code":"GB"}},{"type":"Feature","geometry":{"type":"Point","coordinates":[-6.00308,54.06196]},"properties":{"id":50145,"name":"Kilkeel","state_code":"NMD","country_code":"GB"}},{"type":"Feature","geometry":{"type":"Point","coordinates":[-5.88979,54.21804]},"properties":{"id":50707,"name":"Newcastle","state_code":"NMD","country_code":"GB"}},{"type":"Feature","geometry":{"type":"Point","coordinates":[-6.33739,54.17841]},"properties":{"id":50725,"name":"Newry","state_code":"NMD","country_code":"GB"}},{"type":"Feature","geometry":{"type":"Point","coordinates":[-6.06687,54.23616]},"properties":{"id":50726,"name":"Newry Mourne and Down","state_code":"NMD","country_code":"GB"}},{"type":"Feature","geometry":{"type":"Point","coordinates":[-6.16667,54.25]},"properties":{"id":51034,"name":"Rathfriland","state_code":"NMD","country_code":"GB"}},{"type":"Feature","geometry":{"type":"Point","coordinates":[-6.2,54.1]},"properties":{"id":51113,"name":"Rostrevor","state_code":"NMD","country_code":"GB"}},{"type":"Feature","geometry":{"type":"Point","coordinates":[-6.25731,54.10148]},"properties":{"id":51756,"name":"Warrenpoint","state_code":"NMD","country_code":"GB"}}]}