{"type":"FeatureCollection","features":[{"type":"Feature","geometry":{"type":"Point","coordinates":[-0.26009,52.369]},"properties":{"id":48206,"name":"Alconbury","state_code":"PTE","country_code":"GB"}},{"type":"Feature","geometry":{"type":"Point","coordinates":[-0.40821,52.63181]},"properties":{"id":48394,"name":"Barnack","state_code":"PTE","country_code":"GB"}},{"type":"Feature","geometry":{"type":"Point","coordinates":[-0.35173,52.71311]},"properties":{"id":48425,"name":"Baston","state_code":"PTE","country_code":"GB"}},{"type":"Feature","geometry":{"type":"Point","coordinates":[-0.34603,52.57319]},"properties":{"id":48888,"name":"Castor","state_code":"PTE","country_code":"GB"}},{"type":"Feature","geometry":{"type":"Point","coordinates":[-0.12978,52.74523]},"properties":{"id":49128,"name":"Cowbit","state_code":"PTE","country_code":"GB"}},{"type":"Feature","geometry":{"type":"Point","coordinates":[-0.16849,52.67571]},"properties":{"id":49182,"name":"Crowland","state_code":"PTE","country_code":"GB"}},{"type":"Feature","geometry":{"type":"Point","coordinates":[0.20857,52.64244]},"properties":{"id":49472,"name":"Emneth","state_code":"PTE","country_code":"GB"}},{"type":"Feature","geometry":{"type":"Point","coordinates":[-0.19209,52.608]},"properties":{"id":49509,"name":"Eye","state_code":"PTE","country_code":"GB"}},{"type":"Feature","geometry":{"type":"Point","coordinates":[-0.02008,52.68434]},"properties":{"id":49635,"name":"Gedney Hill","state_code":"PTE","country_code":"GB"}},{"type":"Feature","geometry":{"type":"Point","coordinates":[-0.29629,52.63921]},"properties":{"id":49661,"name":"Glinton","state_code":"PTE","country_code":"GB"}},{"type":"Feature","geometry":{"type":"Point","coordinates":[-0.34676,52.63233]},"properties":{"id":49892,"name":"Helpston","state_code":"PTE","country_code":"GB"}},{"type":"Feature","geometry":{"type":"Point","coordinates":[0.01442,52.80401]},"properties":{"id":49958,"name":"Holbeach","state_code":"PTE","country_code":"GB"}},{"type":"Feature","geometry":{"type":"Point","coordinates":[-0.3404,52.69834]},"properties":{"id":50247,"name":"Langtoft","state_code":"PTE","country_code":"GB"}},{"type":"Feature","geometry":{"type":"Point","coordinates":[0.08828,52.55131]},"properties":{"id":50491,"name":"March","state_code":"PTE","country_code":"GB"}},{"type":"Feature","geometry":{"type":"Point","coordinates":[-0.31629,52.67654]},"properties":{"id":50498,"name":"Market Deeping","state_code":"PTE","country_code":"GB"}},{"type":"Feature","geometry":{"type":"Point","coordinates":[-0.08274,52.74668]},"properties":{"id":50640,"name":"Moulton Chapel","state_code":"PTE","country_code":"GB"}},{"type":"Feature","geometry":{"type":"Point","coordinates":[-0.29818,52.65868]},"properties":{"id":50775,"name":"Northborough","state_code":"PTE","country_code":"GB"}},{"type":"Feature","geometry":{"type":"Point","coordinates":[-0.46732,52.48093]},"properties":{"id":50830,"name":"Oundle","state_code":"PTE","country_code":"GB"}},{"type":"Feature","geometry":{"type":"Point","coordinates":[-0.25,52.58333]},"properties":{"id":50900,"name":"Peterborough","state_code":"PTE","country_code":"GB"}},{"type":"Feature","geometry":{"type":"Point","coordinates":[-0.16256,52.81303]},"properties":{"id":50913,"name":"Pinchbeck","state_code":"PTE","country_code":"GB"}},{"type":"Feature","geometry":{"type":"Point","coordinates":[-0.10932,52.45058]},"properties":{"id":51028,"name":"Ramsey","state_code":"PTE","country_code":"GB"}},{"type":"Feature","geometry":{"type":"Point","coordinates":[-0.28422,52.43984]},"properties":{"id":51205,"name":"Sawtry","state_code":"PTE","country_code":"GB"}},{"type":"Feature","geometry":{"type":"Point","coordinates":[-0.15141,52.78709]},"properties":{"id":51385,"name":"Spalding","state_code":"PTE","country_code":"GB"}},{"type":"Feature","geometry":{"type":"Point","coordinates":[-0.28894,52.48788]},"properties":{"id":51451,"name":"Stilton","state_code":"PTE","country_code":"GB"}},{"type":"Feature","geometry":{"type":"Point","coordinates":[0.1855,52.76995]},"properties":{"id":51520,"name":"Sutton Bridge","state_code":"PTE","country_code":"GB"}},{"type":"Feature","geometry":{"type":"Point","coordinates":[0.27389,52.70546]},"properties":{"id":51578,"name":"Terrington Saint John","state_code":"PTE","country_code":"GB"}},{"type":"Feature","geometry":{"type":"Point","coordinates":[0.29732,52.75813]},"properties":{"id":51579,"name":"Terrington St Clement","state_code":"PTE","country_code":"GB"}},{"type":"Feature","geometry":{"type":"Point","coordinates":[-0.10815,52.62147]},"properties":{"id":51598,"name":"Thorney","state_code":"PTE","country_code":"GB"}},{"type":"Feature","geometry":{"type":"Point","coordinates":[-0.37868,52.73879]},"properties":{"id":51613,"name":"Thurlby","state_code":"PTE","country_code":"GB"}},{"type":"Feature","geometry":{"type":"Point","coordinates":[-0.42001,52.57851]},"properties":{"id":51744,"name":"Wansford","state_code":"PTE","country_code":"GB"}},{"type":"Feature","geometry":{"type":"Point","coordinates":[0.17406,52.69782]},"properties":{"id":51833,"name":"West Walton","state_code":"PTE","country_code":"GB"}},{"type":"Feature","geometry":{"type":"Point","coordinates":[-0.03639,52.79934]},"properties":{"id":51859,"name":"Whaplode","state_code":"PTE","country_code":"GB"}},{"type":"Feature","geometry":{"type":"Point","coordinates":[-0.13016,52.55804]},"properties":{"id":51883,"name":"Whittlesey","state_code":"PTE","country_code":"GB"}},{"type":"Feature","geometry":{"type":"Point","coordinates":[0.15938,52.66622]},"properties":{"id":51941,"name":"Wisbech","state_code":"PTE","country_code":"GB"}},{"type":"Feature","geometry":{"type":"Point","coordinates":[-0.44048,52.60698]},"properties":{"id":51949,"name":"Wittering","state_code":"PTE","country_code":"GB"}},{"type":"Feature","geometry":{"type":"Point","coordinates":[-0.25852,52.51768]},"properties":{"id":52017,"name":"Yaxley","state_code":"PTE","country_code":"GB"}}]}