{"type":"FeatureCollection","features":[{"type":"Feature","geometry":{"type":"Point","coordinates":[-1.08275,50.68634]},"properties":{"id":48469,"name":"Bembridge","state_code":"POR","country_code":"GB"}},{"type":"Feature","geometry":{"type":"Point","coordinates":[-0.83067,50.79606]},"properties":{"id":48518,"name":"Birdham","state_code":"POR","country_code":"GB"}},{"type":"Feature","geometry":{"type":"Point","coordinates":[-0.85384,50.83088]},"properties":{"id":48614,"name":"Bosham","state_code":"POR","country_code":"GB"}},{"type":"Feature","geometry":{"type":"Point","coordinates":[-1.06344,50.84654]},"properties":{"id":49112,"name":"Cosham","state_code":"POR","country_code":"GB"}},{"type":"Feature","geometry":{"type":"Point","coordinates":[-1.01824,50.89411]},"properties":{"id":49135,"name":"Cowplain","state_code":"POR","country_code":"GB"}},{"type":"Feature","geometry":{"type":"Point","coordinates":[-1.06744,50.90395]},"properties":{"id":49264,"name":"Denmead","state_code":"POR","country_code":"GB"}},{"type":"Feature","geometry":{"type":"Point","coordinates":[-0.87444,50.76969]},"properties":{"id":49415,"name":"East Wittering","state_code":"POR","country_code":"GB"}},{"type":"Feature","geometry":{"type":"Point","coordinates":[-0.93697,50.84779]},"properties":{"id":49474,"name":"Emsworth","state_code":"POR","country_code":"GB"}},{"type":"Feature","geometry":{"type":"Point","coordinates":[-1.17929,50.85162]},"properties":{"id":49526,"name":"Fareham","state_code":"POR","country_code":"GB"}},{"type":"Feature","geometry":{"type":"Point","coordinates":[-1.12902,50.79509]},"properties":{"id":49688,"name":"Gosport","state_code":"POR","country_code":"GB"}},{"type":"Feature","geometry":{"type":"Point","coordinates":[-0.98559,50.8567]},"properties":{"id":49846,"name":"Havant","state_code":"POR","country_code":"GB"}},{"type":"Feature","geometry":{"type":"Point","coordinates":[-0.96869,50.7838]},"properties":{"id":49864,"name":"Hayling Island","state_code":"POR","country_code":"GB"}},{"type":"Feature","geometry":{"type":"Point","coordinates":[-1.20174,50.80169]},"properties":{"id":50269,"name":"Lee-on-the-Solent","state_code":"POR","country_code":"GB"}},{"type":"Feature","geometry":{"type":"Point","coordinates":[-1.06667,50.8]},"properties":{"id":50971,"name":"Portsmouth","state_code":"POR","country_code":"GB"}},{"type":"Feature","geometry":{"type":"Point","coordinates":[-1.1621,50.72999]},"properties":{"id":51152,"name":"Ryde","state_code":"POR","country_code":"GB"}},{"type":"Feature","geometry":{"type":"Point","coordinates":[-1.11164,50.71956]},"properties":{"id":51227,"name":"Seaview","state_code":"POR","country_code":"GB"}},{"type":"Feature","geometry":{"type":"Point","coordinates":[-0.78979,50.73501]},"properties":{"id":51236,"name":"Selsey","state_code":"POR","country_code":"GB"}},{"type":"Feature","geometry":{"type":"Point","coordinates":[-0.88388,50.96924]},"properties":{"id":51354,"name":"South Harting","state_code":"POR","country_code":"GB"}},{"type":"Feature","geometry":{"type":"Point","coordinates":[-0.97697,50.78773]},"properties":{"id":51355,"name":"South Hayling","state_code":"POR","country_code":"GB"}},{"type":"Feature","geometry":{"type":"Point","coordinates":[-1.08593,50.79205]},"properties":{"id":51379,"name":"Southsea","state_code":"POR","country_code":"GB"}},{"type":"Feature","geometry":{"type":"Point","coordinates":[-1.11159,50.69688]},"properties":{"id":51404,"name":"St. Helens","state_code":"POR","country_code":"GB"}},{"type":"Feature","geometry":{"type":"Point","coordinates":[-1.0304,50.88067]},"properties":{"id":51772,"name":"Waterlooville","state_code":"POR","country_code":"GB"}},{"type":"Feature","geometry":{"type":"Point","coordinates":[-1.18815,50.89924]},"properties":{"id":51892,"name":"Wickham","state_code":"POR","country_code":"GB"}}]}