{"type":"FeatureCollection","features":[{"type":"Feature","geometry":{"type":"Point","coordinates":[-3.86693,56.62196]},"properties":{"id":48173,"name":"Aberfeldy","state_code":"PKN","country_code":"GB"}},{"type":"Feature","geometry":{"type":"Point","coordinates":[-3.51733,56.41729]},"properties":{"id":48223,"name":"Almondbank","state_code":"PKN","country_code":"GB"}},{"type":"Feature","geometry":{"type":"Point","coordinates":[-3.51707,56.50058]},"properties":{"id":48373,"name":"Bankfoot","state_code":"PKN","country_code":"GB"}},{"type":"Feature","geometry":{"type":"Point","coordinates":[-3.97882,56.3688]},"properties":{"id":49085,"name":"Comrie","state_code":"PKN","country_code":"GB"}},{"type":"Feature","geometry":{"type":"Point","coordinates":[-3.83891,56.37268]},"properties":{"id":49160,"name":"Crieff","state_code":"PKN","country_code":"GB"}},{"type":"Feature","geometry":{"type":"Point","coordinates":[-3.47007,56.45308]},"properties":{"id":50436,"name":"Luncarty","state_code":"PKN","country_code":"GB"}},{"type":"Feature","geometry":{"type":"Point","coordinates":[-3.57832,56.41737]},"properties":{"id":50560,"name":"Methven","state_code":"PKN","country_code":"GB"}},{"type":"Feature","geometry":{"type":"Point","coordinates":[-3.43139,56.39522]},"properties":{"id":50898,"name":"Perth","state_code":"PKN","country_code":"GB"}},{"type":"Feature","geometry":{"type":"Point","coordinates":[-3.75,56.5]},"properties":{"id":50899,"name":"Perth and Kinross","state_code":"PKN","country_code":"GB"}},{"type":"Feature","geometry":{"type":"Point","coordinates":[-3.73432,56.70514]},"properties":{"id":50917,"name":"Pitlochry","state_code":"PKN","country_code":"GB"}},{"type":"Feature","geometry":{"type":"Point","coordinates":[-3.40507,56.41942]},"properties":{"id":51215,"name":"Scone","state_code":"PKN","country_code":"GB"}},{"type":"Feature","geometry":{"type":"Point","coordinates":[-3.45184,56.4854]},"properties":{"id":51425,"name":"Stanley","state_code":"PKN","country_code":"GB"}}]}