{"type":"FeatureCollection","features":[{"type":"Feature","geometry":{"type":"Point","coordinates":[-1.11923,54.37356]},"properties":{"id":48510,"name":"Bilsdale","state_code":"RCC","country_code":"GB"}},{"type":"Feature","geometry":{"type":"Point","coordinates":[-0.98139,54.54265]},"properties":{"id":48593,"name":"Boosbeck","state_code":"RCC","country_code":"GB"}},{"type":"Feature","geometry":{"type":"Point","coordinates":[-0.93929,54.56661]},"properties":{"id":48726,"name":"Brotton","state_code":"RCC","country_code":"GB"}},{"type":"Feature","geometry":{"type":"Point","coordinates":[-0.44813,54.32385]},"properties":{"id":48777,"name":"Burniston","state_code":"RCC","country_code":"GB"}},{"type":"Feature","geometry":{"type":"Point","coordinates":[-0.91073,54.46606]},"properties":{"id":49230,"name":"Danby","state_code":"RCC","country_code":"GB"}},{"type":"Feature","geometry":{"type":"Point","coordinates":[-1.05606,54.53478]},"properties":{"id":49764,"name":"Guisborough","state_code":"RCC","country_code":"GB"}},{"type":"Feature","geometry":{"type":"Point","coordinates":[-1.10687,54.44983]},"properties":{"id":50051,"name":"Ingleby Greenhow","state_code":"RCC","country_code":"GB"}},{"type":"Feature","geometry":{"type":"Point","coordinates":[-0.93218,54.27014]},"properties":{"id":50201,"name":"Kirkbymoorside","state_code":"RCC","country_code":"GB"}},{"type":"Feature","geometry":{"type":"Point","coordinates":[-0.95864,54.53787]},"properties":{"id":50308,"name":"Lingdale","state_code":"RCC","country_code":"GB"}},{"type":"Feature","geometry":{"type":"Point","coordinates":[-0.89459,54.55543]},"properties":{"id":50386,"name":"Loftus","state_code":"RCC","country_code":"GB"}},{"type":"Feature","geometry":{"type":"Point","coordinates":[-1.01959,54.59147]},"properties":{"id":50519,"name":"Marske-by-the-Sea","state_code":"RCC","country_code":"GB"}},{"type":"Feature","geometry":{"type":"Point","coordinates":[-1.04224,54.57848]},"properties":{"id":50690,"name":"New Marske","state_code":"RCC","country_code":"GB"}},{"type":"Feature","geometry":{"type":"Point","coordinates":[-1.05999,54.61657]},"properties":{"id":51048,"name":"Redcar","state_code":"RCC","country_code":"GB"}},{"type":"Feature","geometry":{"type":"Point","coordinates":[-1,54.55]},"properties":{"id":51049,"name":"Redcar and Cleveland","state_code":"RCC","country_code":"GB"}},{"type":"Feature","geometry":{"type":"Point","coordinates":[-0.97367,54.58237]},"properties":{"id":51187,"name":"Saltburn-by-the-Sea","state_code":"RCC","country_code":"GB"}},{"type":"Feature","geometry":{"type":"Point","coordinates":[-0.89869,54.56908]},"properties":{"id":51324,"name":"Skinningrove","state_code":"RCC","country_code":"GB"}},{"type":"Feature","geometry":{"type":"Point","coordinates":[-0.66484,54.45506]},"properties":{"id":51330,"name":"Sleights","state_code":"RCC","country_code":"GB"}},{"type":"Feature","geometry":{"type":"Point","coordinates":[-0.61498,54.48774]},"properties":{"id":51868,"name":"Whitby","state_code":"RCC","country_code":"GB"}}]}