{"type":"FeatureCollection","features":[{"type":"Feature","geometry":{"type":"Point","coordinates":[0.12033,51.6495]},"properties":{"id":48187,"name":"Abridge","state_code":"RDB","country_code":"GB"}},{"type":"Feature","geometry":{"type":"Point","coordinates":[0.07596,51.61999]},"properties":{"id":48964,"name":"Chigwell","state_code":"RDB","country_code":"GB"}},{"type":"Feature","geometry":{"type":"Point","coordinates":[0.08612,51.61185]},"properties":{"id":49696,"name":"Grange Hill","state_code":"RDB","country_code":"GB"}},{"type":"Feature","geometry":{"type":"Point","coordinates":[0.10716,51.60836]},"properties":{"id":49780,"name":"Hainault","state_code":"RDB","country_code":"GB"}},{"type":"Feature","geometry":{"type":"Point","coordinates":[0.09781,51.67426]},"properties":{"id":51592,"name":"Theydon Bois","state_code":"RDB","country_code":"GB"}}]}