{"type":"FeatureCollection","features":[{"type":"Feature","geometry":{"type":"Point","coordinates":[-0.69094,52.91636]},"properties":{"id":48411,"name":"Barrowby","state_code":"RUT","country_code":"GB"}},{"type":"Feature","geometry":{"type":"Point","coordinates":[-0.38333,52.76667]},"properties":{"id":48623,"name":"Bourne","state_code":"RUT","country_code":"GB"}},{"type":"Feature","geometry":{"type":"Point","coordinates":[-0.60834,52.45775]},"properties":{"id":48698,"name":"Brigstock","state_code":"RUT","country_code":"GB"}},{"type":"Feature","geometry":{"type":"Point","coordinates":[-0.62056,52.8066]},"properties":{"id":49075,"name":"Colsterworth","state_code":"RUT","country_code":"GB"}},{"type":"Feature","geometry":{"type":"Point","coordinates":[-0.68939,52.49637]},"properties":{"id":49103,"name":"Corby","state_code":"RUT","country_code":"GB"}},{"type":"Feature","geometry":{"type":"Point","coordinates":[-0.51817,52.81262]},"properties":{"id":49104,"name":"Corby Glen","state_code":"RUT","country_code":"GB"}},{"type":"Feature","geometry":{"type":"Point","coordinates":[-0.6633,52.71384]},"properties":{"id":49116,"name":"Cottesmore","state_code":"RUT","country_code":"GB"}},{"type":"Feature","geometry":{"type":"Point","coordinates":[-0.66667,52.66667]},"properties":{"id":49292,"name":"District of Rutland","state_code":"RUT","country_code":"GB"}},{"type":"Feature","geometry":{"type":"Point","coordinates":[-0.50571,52.62733]},"properties":{"id":49422,"name":"Easton on the Hill","state_code":"RUT","country_code":"GB"}},{"type":"Feature","geometry":{"type":"Point","coordinates":[-0.63189,52.63786]},"properties":{"id":49443,"name":"Edith Weston","state_code":"RUT","country_code":"GB"}},{"type":"Feature","geometry":{"type":"Point","coordinates":[-0.59601,52.66722]},"properties":{"id":49473,"name":"Empingham","state_code":"RUT","country_code":"GB"}},{"type":"Feature","geometry":{"type":"Point","coordinates":[-0.4525,52.70187]},"properties":{"id":49485,"name":"Essendine","state_code":"RUT","country_code":"GB"}},{"type":"Feature","geometry":{"type":"Point","coordinates":[-0.63463,52.69106]},"properties":{"id":49508,"name":"Exton","state_code":"RUT","country_code":"GB"}},{"type":"Feature","geometry":{"type":"Point","coordinates":[-0.64184,52.91149]},"properties":{"id":49699,"name":"Grantham","state_code":"RUT","country_code":"GB"}},{"type":"Feature","geometry":{"type":"Point","coordinates":[-0.66685,52.93507]},"properties":{"id":49718,"name":"Great Gonerby","state_code":"RUT","country_code":"GB"}},{"type":"Feature","geometry":{"type":"Point","coordinates":[-0.63068,52.72059]},"properties":{"id":49748,"name":"Greetham","state_code":"RUT","country_code":"GB"}},{"type":"Feature","geometry":{"type":"Point","coordinates":[-0.55459,52.62804]},"properties":{"id":50130,"name":"Ketton","state_code":"RUT","country_code":"GB"}},{"type":"Feature","geometry":{"type":"Point","coordinates":[-0.75385,52.69152]},"properties":{"id":50241,"name":"Langham","state_code":"RUT","country_code":"GB"}},{"type":"Feature","geometry":{"type":"Point","coordinates":[-0.70038,52.63223]},"properties":{"id":50488,"name":"Manton","state_code":"RUT","country_code":"GB"}},{"type":"Feature","geometry":{"type":"Point","coordinates":[-0.6863,52.73806]},"properties":{"id":50502,"name":"Market Overton","state_code":"RUT","country_code":"GB"}},{"type":"Feature","geometry":{"type":"Point","coordinates":[-0.88693,52.76588]},"properties":{"id":50544,"name":"Melton Mowbray","state_code":"RUT","country_code":"GB"}},{"type":"Feature","geometry":{"type":"Point","coordinates":[-0.63704,52.59669]},"properties":{"id":50625,"name":"Morcott","state_code":"RUT","country_code":"GB"}},{"type":"Feature","geometry":{"type":"Point","coordinates":[-0.61987,52.62108]},"properties":{"id":50759,"name":"North Luffenham","state_code":"RUT","country_code":"GB"}},{"type":"Feature","geometry":{"type":"Point","coordinates":[-0.73333,52.66667]},"properties":{"id":50792,"name":"Oakham","state_code":"RUT","country_code":"GB"}},{"type":"Feature","geometry":{"type":"Point","coordinates":[-0.46846,52.68585]},"properties":{"id":51154,"name":"Ryhall","state_code":"RUT","country_code":"GB"}},{"type":"Feature","geometry":{"type":"Point","coordinates":[-0.66759,52.57489]},"properties":{"id":51225,"name":"Seaton","state_code":"RUT","country_code":"GB"}},{"type":"Feature","geometry":{"type":"Point","coordinates":[-0.61232,52.60857]},"properties":{"id":51359,"name":"South Luffenham","state_code":"RUT","country_code":"GB"}},{"type":"Feature","geometry":{"type":"Point","coordinates":[-0.62811,52.76476]},"properties":{"id":51368,"name":"South Witham","state_code":"RUT","country_code":"GB"}},{"type":"Feature","geometry":{"type":"Point","coordinates":[-0.48333,52.65]},"properties":{"id":51417,"name":"Stamford","state_code":"RUT","country_code":"GB"}},{"type":"Feature","geometry":{"type":"Point","coordinates":[-0.72272,52.58803]},"properties":{"id":51703,"name":"Uppingham","state_code":"RUT","country_code":"GB"}}]}