{"type":"FeatureCollection","features":[{"type":"Feature","geometry":{"type":"Point","coordinates":[-4.57894,55.85582]},"properties":{"id":48682,"name":"Bridge of Weir","state_code":"RFW","country_code":"GB"}},{"type":"Feature","geometry":{"type":"Point","coordinates":[-4.4057,55.90137]},"properties":{"id":49043,"name":"Clydebank","state_code":"RFW","country_code":"GB"}},{"type":"Feature","geometry":{"type":"Point","coordinates":[-4.48598,55.83327]},"properties":{"id":49450,"name":"Elderslie","state_code":"RFW","country_code":"GB"}},{"type":"Feature","geometry":{"type":"Point","coordinates":[-4.45028,55.9005]},"properties":{"id":49483,"name":"Erskine","state_code":"RFW","country_code":"GB"}},{"type":"Feature","geometry":{"type":"Point","coordinates":[-4.55201,55.86859]},"properties":{"id":50010,"name":"Houston","state_code":"RFW","country_code":"GB"}},{"type":"Feature","geometry":{"type":"Point","coordinates":[-4.55733,55.8106]},"properties":{"id":50014,"name":"Howwood","state_code":"RFW","country_code":"GB"}},{"type":"Feature","geometry":{"type":"Point","coordinates":[-4.43842,55.88995]},"properties":{"id":50048,"name":"Inchinnan","state_code":"RFW","country_code":"GB"}},{"type":"Feature","geometry":{"type":"Point","coordinates":[-4.51605,55.82906]},"properties":{"id":50096,"name":"Johnstone","state_code":"RFW","country_code":"GB"}},{"type":"Feature","geometry":{"type":"Point","coordinates":[-4.55356,55.8362]},"properties":{"id":50139,"name":"Kilbarchan","state_code":"RFW","country_code":"GB"}},{"type":"Feature","geometry":{"type":"Point","coordinates":[-4.49337,55.84834]},"properties":{"id":50315,"name":"Linwood","state_code":"RFW","country_code":"GB"}},{"type":"Feature","geometry":{"type":"Point","coordinates":[-4.63034,55.79521]},"properties":{"id":50380,"name":"Lochwinnoch","state_code":"RFW","country_code":"GB"}},{"type":"Feature","geometry":{"type":"Point","coordinates":[-4.43254,55.83173]},"properties":{"id":50848,"name":"Paisley","state_code":"RFW","country_code":"GB"}},{"type":"Feature","geometry":{"type":"Point","coordinates":[-4.39253,55.87197]},"properties":{"id":51060,"name":"Renfrew","state_code":"RFW","country_code":"GB"}},{"type":"Feature","geometry":{"type":"Point","coordinates":[-4.5,55.83333]},"properties":{"id":51061,"name":"Renfrewshire","state_code":"RFW","country_code":"GB"}}]}