{"type":"FeatureCollection","features":[{"type":"Feature","geometry":{"type":"Point","coordinates":[-1.29034,54.58881]},"properties":{"id":48506,"name":"Billingham","state_code":"STT","country_code":"GB"}},{"type":"Feature","geometry":{"type":"Point","coordinates":[-1.43333,54.58333]},"properties":{"id":48538,"name":"Bishopton","state_code":"STT","country_code":"GB"}},{"type":"Feature","geometry":{"type":"Point","coordinates":[-1.39117,54.59004]},"properties":{"id":48860,"name":"Carlton","state_code":"STT","country_code":"GB"}},{"type":"Feature","geometry":{"type":"Point","coordinates":[-1.35043,54.52521]},"properties":{"id":49373,"name":"Eaglescliffe","state_code":"STT","country_code":"GB"}},{"type":"Feature","geometry":{"type":"Point","coordinates":[-1.44952,54.65329]},"properties":{"id":51229,"name":"Sedgefield","state_code":"STT","country_code":"GB"}},{"type":"Feature","geometry":{"type":"Point","coordinates":[-1.42191,54.60529]},"properties":{"id":51450,"name":"Stillington","state_code":"STT","country_code":"GB"}},{"type":"Feature","geometry":{"type":"Point","coordinates":[-1.33333,54.55]},"properties":{"id":51460,"name":"Stockton-on-Tees","state_code":"STT","country_code":"GB"}},{"type":"Feature","geometry":{"type":"Point","coordinates":[-1.3,54.53333]},"properties":{"id":51594,"name":"Thornaby-on-Tees","state_code":"STT","country_code":"GB"}},{"type":"Feature","geometry":{"type":"Point","coordinates":[-1.35793,54.50364]},"properties":{"id":52011,"name":"Yarm","state_code":"STT","country_code":"GB"}}]}