{"type":"FeatureCollection","features":[{"type":"Feature","geometry":{"type":"Point","coordinates":[1.27974,51.27883]},"properties":{"id":48286,"name":"Ash","state_code":"TWH","country_code":"GB"}},{"type":"Feature","geometry":{"type":"Point","coordinates":[1.20157,51.22539]},"properties":{"id":48326,"name":"Aylesham","state_code":"TWH","country_code":"GB"}},{"type":"Feature","geometry":{"type":"Point","coordinates":[1.15734,51.2057]},"properties":{"id":48385,"name":"Barham","state_code":"TWH","country_code":"GB"}},{"type":"Feature","geometry":{"type":"Point","coordinates":[1.3048,51.37575]},"properties":{"id":48516,"name":"Birchington-on-Sea","state_code":"TWH","country_code":"GB"}},{"type":"Feature","geometry":{"type":"Point","coordinates":[1.1264,51.24513]},"properties":{"id":48679,"name":"Bridge","state_code":"TWH","country_code":"GB"}},{"type":"Feature","geometry":{"type":"Point","coordinates":[1.43938,51.35908]},"properties":{"id":48712,"name":"Broadstairs","state_code":"TWH","country_code":"GB"}},{"type":"Feature","geometry":{"type":"Point","coordinates":[1.07992,51.27904]},"properties":{"id":48846,"name":"Canterbury","state_code":"TWH","country_code":"GB"}},{"type":"Feature","geometry":{"type":"Point","coordinates":[1.21165,51.10339]},"properties":{"id":48851,"name":"Capel le Ferne","state_code":"TWH","country_code":"GB"}},{"type":"Feature","geometry":{"type":"Point","coordinates":[1.40432,51.22322]},"properties":{"id":49248,"name":"Deal","state_code":"TWH","country_code":"GB"}},{"type":"Feature","geometry":{"type":"Point","coordinates":[1.31257,51.12598]},"properties":{"id":49317,"name":"Dover","state_code":"TWH","country_code":"GB"}},{"type":"Feature","geometry":{"type":"Point","coordinates":[0.99392,51.02544]},"properties":{"id":49371,"name":"Dymchurch","state_code":"TWH","country_code":"GB"}},{"type":"Feature","geometry":{"type":"Point","coordinates":[1.30776,51.24639]},"properties":{"id":49426,"name":"Eastry","state_code":"TWH","country_code":"GB"}},{"type":"Feature","geometry":{"type":"Point","coordinates":[1.2662,51.1971]},"properties":{"id":49513,"name":"Eythorne","state_code":"TWH","country_code":"GB"}},{"type":"Feature","geometry":{"type":"Point","coordinates":[1.16734,51.08169]},"properties":{"id":49581,"name":"Folkestone","state_code":"TWH","country_code":"GB"}},{"type":"Feature","geometry":{"type":"Point","coordinates":[1.16176,51.11276]},"properties":{"id":49853,"name":"Hawkinge","state_code":"TWH","country_code":"GB"}},{"type":"Feature","geometry":{"type":"Point","coordinates":[1.12857,51.373]},"properties":{"id":49911,"name":"Herne Bay","state_code":"TWH","country_code":"GB"}},{"type":"Feature","geometry":{"type":"Point","coordinates":[1.16687,51.27445]},"properties":{"id":50334,"name":"Littlebourne","state_code":"TWH","country_code":"GB"}},{"type":"Feature","geometry":{"type":"Point","coordinates":[1.08896,51.12951]},"properties":{"id":50446,"name":"Lyminge","state_code":"TWH","country_code":"GB"}},{"type":"Feature","geometry":{"type":"Point","coordinates":[1.02808,51.07773]},"properties":{"id":50449,"name":"Lympne","state_code":"TWH","country_code":"GB"}},{"type":"Feature","geometry":{"type":"Point","coordinates":[1.38617,51.38132]},"properties":{"id":50496,"name":"Margate","state_code":"TWH","country_code":"GB"}},{"type":"Feature","geometry":{"type":"Point","coordinates":[1.41797,51.33568]},"properties":{"id":51029,"name":"Ramsgate","state_code":"TWH","country_code":"GB"}},{"type":"Feature","geometry":{"type":"Point","coordinates":[1.41667,51.36667]},"properties":{"id":51176,"name":"Saint Peters","state_code":"TWH","country_code":"GB"}},{"type":"Feature","geometry":{"type":"Point","coordinates":[1.33776,51.27223]},"properties":{"id":51196,"name":"Sandwich","state_code":"TWH","country_code":"GB"}},{"type":"Feature","geometry":{"type":"Point","coordinates":[1.23049,51.18713]},"properties":{"id":51260,"name":"Shepherdswell","state_code":"TWH","country_code":"GB"}},{"type":"Feature","geometry":{"type":"Point","coordinates":[0.9771,51.01003]},"properties":{"id":51402,"name":"St Mary's Bay","state_code":"TWH","country_code":"GB"}},{"type":"Feature","geometry":{"type":"Point","coordinates":[1.12155,51.30132]},"properties":{"id":51507,"name":"Sturry","state_code":"TWH","country_code":"GB"}},{"type":"Feature","geometry":{"type":"Point","coordinates":[1.33673,51.38239]},"properties":{"id":51842,"name":"Westgate on Sea","state_code":"TWH","country_code":"GB"}},{"type":"Feature","geometry":{"type":"Point","coordinates":[1.21463,51.27168]},"properties":{"id":51931,"name":"Wingham","state_code":"TWH","country_code":"GB"}},{"type":"Feature","geometry":{"type":"Point","coordinates":[1.1794,51.1738]},"properties":{"id":51983,"name":"Wootton","state_code":"TWH","country_code":"GB"}}]}