{"type":"FeatureCollection","features":[{"type":"Feature","geometry":{"type":"Point","coordinates":[-3.01743,51.82098]},"properties":{"id":48175,"name":"Abergavenny","state_code":"TOF","country_code":"GB"}},{"type":"Feature","geometry":{"type":"Point","coordinates":[-2.95378,51.60952]},"properties":{"id":48811,"name":"Caerleon","state_code":"TOF","country_code":"GB"}},{"type":"Feature","geometry":{"type":"Point","coordinates":[-3.02281,51.65446]},"properties":{"id":49218,"name":"Cwmbran","state_code":"TOF","country_code":"GB"}},{"type":"Feature","geometry":{"type":"Point","coordinates":[-2.90806,51.66583]},"properties":{"id":50360,"name":"Llangybi","state_code":"TOF","country_code":"GB"}},{"type":"Feature","geometry":{"type":"Point","coordinates":[-2.99835,51.58774]},"properties":{"id":50720,"name":"Newport","state_code":"TOF","country_code":"GB"}},{"type":"Feature","geometry":{"type":"Point","coordinates":[-3.04444,51.70111]},"properties":{"id":50946,"name":"Pontypool","state_code":"TOF","country_code":"GB"}},{"type":"Feature","geometry":{"type":"Point","coordinates":[-3.05136,51.70146]},"properties":{"id":51644,"name":"Torfaen County Borough","state_code":"TOF","country_code":"GB"}}]}