{"type":"FeatureCollection","features":[{"type":"Feature","geometry":{"type":"Point","coordinates":[-1.30128,53.62876]},"properties":{"id":48334,"name":"Badsworth","state_code":"WKF","country_code":"GB"}},{"type":"Feature","geometry":{"type":"Point","coordinates":[-1.6337,53.70291]},"properties":{"id":48429,"name":"Batley","state_code":"WKF","country_code":"GB"}},{"type":"Feature","geometry":{"type":"Point","coordinates":[-1.26128,53.72394]},"properties":{"id":48807,"name":"Byram","state_code":"WKF","country_code":"GB"}},{"type":"Feature","geometry":{"type":"Point","coordinates":[-1.36256,53.72587]},"properties":{"id":48883,"name":"Castleford","state_code":"WKF","country_code":"GB"}},{"type":"Feature","geometry":{"type":"Point","coordinates":[-1.49895,53.68085]},"properties":{"id":49004,"name":"City and Borough of Wakefield","state_code":"WKF","country_code":"GB"}},{"type":"Feature","geometry":{"type":"Point","coordinates":[-1.42968,53.65639]},"properties":{"id":49164,"name":"Crofton","state_code":"WKF","country_code":"GB"}},{"type":"Feature","geometry":{"type":"Point","coordinates":[-1.26901,53.67566]},"properties":{"id":49238,"name":"Darrington","state_code":"WKF","country_code":"GB"}},{"type":"Feature","geometry":{"type":"Point","coordinates":[-1.62907,53.69076]},"properties":{"id":49279,"name":"Dewsbury","state_code":"WKF","country_code":"GB"}},{"type":"Feature","geometry":{"type":"Point","coordinates":[-1.27948,53.71058]},"properties":{"id":49550,"name":"Ferrybridge","state_code":"WKF","country_code":"GB"}},{"type":"Feature","geometry":{"type":"Point","coordinates":[-1.3769,53.63288]},"properties":{"id":49564,"name":"Fitzwilliam","state_code":"WKF","country_code":"GB"}},{"type":"Feature","geometry":{"type":"Point","coordinates":[-1.56014,53.66051]},"properties":{"id":49988,"name":"Horbury","state_code":"WKF","country_code":"GB"}},{"type":"Feature","geometry":{"type":"Point","coordinates":[-1.25639,53.70778]},"properties":{"id":50220,"name":"Knottingley","state_code":"WKF","country_code":"GB"}},{"type":"Feature","geometry":{"type":"Point","coordinates":[-1.30857,53.76322]},"properties":{"id":50268,"name":"Ledsham","state_code":"WKF","country_code":"GB"}},{"type":"Feature","geometry":{"type":"Point","coordinates":[-1.49697,53.72947]},"properties":{"id":50385,"name":"Lofthouse","state_code":"WKF","country_code":"GB"}},{"type":"Feature","geometry":{"type":"Point","coordinates":[-1.32334,53.65023]},"properties":{"id":50420,"name":"Low Ackworth","state_code":"WKF","country_code":"GB"}},{"type":"Feature","geometry":{"type":"Point","coordinates":[-1.40318,53.72887]},"properties":{"id":50559,"name":"Methley","state_code":"WKF","country_code":"GB"}},{"type":"Feature","geometry":{"type":"Point","coordinates":[-1.59762,53.65079]},"properties":{"id":50572,"name":"Middlestown","state_code":"WKF","country_code":"GB"}},{"type":"Feature","geometry":{"type":"Point","coordinates":[-1.23751,53.7616]},"properties":{"id":50618,"name":"Monk Fryston","state_code":"WKF","country_code":"GB"}},{"type":"Feature","geometry":{"type":"Point","coordinates":[-1.58006,53.67978]},"properties":{"id":50821,"name":"Ossett","state_code":"WKF","country_code":"GB"}},{"type":"Feature","geometry":{"type":"Point","coordinates":[-1.31269,53.69107]},"properties":{"id":50938,"name":"Pontefract","state_code":"WKF","country_code":"GB"}},{"type":"Feature","geometry":{"type":"Point","coordinates":[-1.41071,53.62204]},"properties":{"id":51155,"name":"Ryhill","state_code":"WKF","country_code":"GB"}},{"type":"Feature","geometry":{"type":"Point","coordinates":[-1.41294,53.66956]},"properties":{"id":51249,"name":"Sharlston","state_code":"WKF","country_code":"GB"}},{"type":"Feature","geometry":{"type":"Point","coordinates":[-1.24609,53.77672]},"properties":{"id":51360,"name":"South Milford","state_code":"WKF","country_code":"GB"}},{"type":"Feature","geometry":{"type":"Point","coordinates":[-1.49768,53.68331]},"properties":{"id":51726,"name":"Wakefield","state_code":"WKF","country_code":"GB"}}]}