{"type":"FeatureCollection","features":[{"type":"Feature","geometry":{"type":"Point","coordinates":[-0.7081,51.55936]},"properties":{"id":49094,"name":"Cookham","state_code":"WNM","country_code":"GB"}},{"type":"Feature","geometry":{"type":"Point","coordinates":[-0.71986,51.52279]},"properties":{"id":50473,"name":"Maidenhead","state_code":"WNM","country_code":"GB"}},{"type":"Feature","geometry":{"type":"Point","coordinates":[-0.77415,51.56933]},"properties":{"id":50512,"name":"Marlow","state_code":"WNM","country_code":"GB"}},{"type":"Feature","geometry":{"type":"Point","coordinates":[-0.66667,51.46667]},"properties":{"id":51129,"name":"Royal Borough of Windsor and Maidenhead","state_code":"WNM","country_code":"GB"}},{"type":"Feature","geometry":{"type":"Point","coordinates":[-0.56651,51.40343]},"properties":{"id":51719,"name":"Virginia Water","state_code":"WNM","country_code":"GB"}},{"type":"Feature","geometry":{"type":"Point","coordinates":[-0.77239,51.49225]},"properties":{"id":51870,"name":"White Waltham","state_code":"WNM","country_code":"GB"}}]}