{"type":"FeatureCollection","features":[{"type":"Feature","geometry":{"type":"Point","coordinates":[-3.06667,53.06667]},"properties":{"id":48737,"name":"Brymbo","state_code":"WRX","country_code":"GB"}},{"type":"Feature","geometry":{"type":"Point","coordinates":[-3.03808,53.10953]},"properties":{"id":48810,"name":"Caergwrle","state_code":"WRX","country_code":"GB"}},{"type":"Feature","geometry":{"type":"Point","coordinates":[-3.05738,52.93586]},"properties":{"id":48976,"name":"Chirk","state_code":"WRX","country_code":"GB"}},{"type":"Feature","geometry":{"type":"Point","coordinates":[-3.06234,53.05391]},"properties":{"id":49057,"name":"Coedpoeth","state_code":"WRX","country_code":"GB"}},{"type":"Feature","geometry":{"type":"Point","coordinates":[-3.08106,52.75941]},"properties":{"id":49596,"name":"Four Crosses","state_code":"WRX","country_code":"GB"}},{"type":"Feature","geometry":{"type":"Point","coordinates":[-2.97062,53.08539]},"properties":{"id":49749,"name":"Gresford","state_code":"WRX","country_code":"GB"}},{"type":"Feature","geometry":{"type":"Point","coordinates":[-3.15712,52.69634]},"properties":{"id":49763,"name":"Guilsfield","state_code":"WRX","country_code":"GB"}},{"type":"Feature","geometry":{"type":"Point","coordinates":[-3.03333,53.11667]},"properties":{"id":49983,"name":"Hope","state_code":"WRX","country_code":"GB"}},{"type":"Feature","geometry":{"type":"Point","coordinates":[-3.27187,52.7657]},"properties":{"id":50355,"name":"Llanfyllin","state_code":"WRX","country_code":"GB"}},{"type":"Feature","geometry":{"type":"Point","coordinates":[-3.17127,52.96829]},"properties":{"id":50358,"name":"Llangollen","state_code":"WRX","country_code":"GB"}},{"type":"Feature","geometry":{"type":"Point","coordinates":[-2.96106,53.0239]},"properties":{"id":50493,"name":"Marchwiel","state_code":"WRX","country_code":"GB"}},{"type":"Feature","geometry":{"type":"Point","coordinates":[-2.93333,52.96667]},"properties":{"id":50836,"name":"Overton","state_code":"WRX","country_code":"GB"}},{"type":"Feature","geometry":{"type":"Point","coordinates":[-3.05814,53.00974]},"properties":{"id":51070,"name":"Rhosllanerchrugog","state_code":"WRX","country_code":"GB"}},{"type":"Feature","geometry":{"type":"Point","coordinates":[-2.94478,53.10921]},"properties":{"id":51112,"name":"Rossett","state_code":"WRX","country_code":"GB"}},{"type":"Feature","geometry":{"type":"Point","coordinates":[-3.03883,52.9878]},"properties":{"id":51136,"name":"Ruabon","state_code":"WRX","country_code":"GB"}},{"type":"Feature","geometry":{"type":"Point","coordinates":[-3.12003,53.1148]},"properties":{"id":51668,"name":"Treuddyn","state_code":"WRX","country_code":"GB"}},{"type":"Feature","geometry":{"type":"Point","coordinates":[-3,53]},"properties":{"id":51998,"name":"Wrexham","state_code":"WRX","country_code":"GB"}}]}