{"type":"FeatureCollection","features":[{"type":"Feature","geometry":{"type":"Point","coordinates":[40.34102,43.16197]},"properties":{"id":52054,"name":"Bich’vinta","state_code":"AB","country_code":"GE"}},{"type":"Feature","geometry":{"type":"Point","coordinates":[41.15333,42.87167]},"properties":{"id":52063,"name":"Dranda","state_code":"AB","country_code":"GE"}},{"type":"Feature","geometry":{"type":"Point","coordinates":[40.27124,43.27858]},"properties":{"id":52065,"name":"Gagra","state_code":"AB","country_code":"GE"}},{"type":"Feature","geometry":{"type":"Point","coordinates":[41.73808,42.62655]},"properties":{"id":52066,"name":"Gali","state_code":"AB","country_code":"GE"}},{"type":"Feature","geometry":{"type":"Point","coordinates":[40.07944,43.38111]},"properties":{"id":52067,"name":"Gantiadi","state_code":"AB","country_code":"GE"}},{"type":"Feature","geometry":{"type":"Point","coordinates":[40.62067,43.10547]},"properties":{"id":52073,"name":"Gudauta","state_code":"AB","country_code":"GE"}},{"type":"Feature","geometry":{"type":"Point","coordinates":[41.07067,42.97877]},"properties":{"id":52078,"name":"Kelasuri","state_code":"AB","country_code":"GE"}},{"type":"Feature","geometry":{"type":"Point","coordinates":[41.46863,42.71232]},"properties":{"id":52105,"name":"Och’amch’ire","state_code":"AB","country_code":"GE"}},{"type":"Feature","geometry":{"type":"Point","coordinates":[40.6965,43.09236]},"properties":{"id":52111,"name":"P’rimorsk’oe","state_code":"AB","country_code":"GE"}},{"type":"Feature","geometry":{"type":"Point","coordinates":[40.9893,43.00697]},"properties":{"id":52122,"name":"Sokhumi","state_code":"AB","country_code":"GE"}},{"type":"Feature","geometry":{"type":"Point","coordinates":[40.83833,43.08056]},"properties":{"id":52123,"name":"Stantsiya Novyy Afon","state_code":"AB","country_code":"GE"}},{"type":"Feature","geometry":{"type":"Point","coordinates":[41.68007,42.84035]},"properties":{"id":52130,"name":"Tqvarch'eli","state_code":"AB","country_code":"GE"}}]}