{"type":"FeatureCollection","features":[{"type":"Feature","geometry":{"type":"Point","coordinates":[44.48333,42.12597]},"properties":{"id":52041,"name":"Akhalgori","state_code":"MM","country_code":"GE"}},{"type":"Feature","geometry":{"type":"Point","coordinates":[44.60097,41.84569]},"properties":{"id":52064,"name":"Dzegvi","state_code":"MM","country_code":"GE"}},{"type":"Feature","geometry":{"type":"Point","coordinates":[44.47616,42.47797]},"properties":{"id":52072,"name":"Gudauri","state_code":"MM","country_code":"GE"}},{"type":"Feature","geometry":{"type":"Point","coordinates":[43.93667,42.39972]},"properties":{"id":52075,"name":"Java","state_code":"MM","country_code":"GE"}},{"type":"Feature","geometry":{"type":"Point","coordinates":[44.71875,41.84514]},"properties":{"id":52100,"name":"Mtskheta","state_code":"MM","country_code":"GE"}},{"type":"Feature","geometry":{"type":"Point","coordinates":[44.68912,42.3506]},"properties":{"id":52109,"name":"P’asanauri","state_code":"MM","country_code":"GE"}},{"type":"Feature","geometry":{"type":"Point","coordinates":[44.64333,42.65667]},"properties":{"id":52124,"name":"Step’antsminda","state_code":"MM","country_code":"GE"}},{"type":"Feature","geometry":{"type":"Point","coordinates":[44.77264,42.13181]},"properties":{"id":52145,"name":"Zhinvali","state_code":"MM","country_code":"GE"}}]}