{"type":"FeatureCollection","features":[{"type":"Feature","geometry":{"type":"Point","coordinates":[43.16222,42.52111]},"properties":{"id":52047,"name":"Ambrolauri","state_code":"RL","country_code":"GE"}},{"type":"Feature","geometry":{"type":"Point","coordinates":[43.1,42.56667]},"properties":{"id":52048,"name":"Ambrolauris Munitsip’alit’et’i","state_code":"RL","country_code":"GE"}},{"type":"Feature","geometry":{"type":"Point","coordinates":[42.72226,42.78893]},"properties":{"id":52092,"name":"Lent’ekhi","state_code":"RL","country_code":"GE"}},{"type":"Feature","geometry":{"type":"Point","coordinates":[43.4425,42.57944]},"properties":{"id":52106,"name":"Oni","state_code":"RL","country_code":"GE"}}]}