{"type":"FeatureCollection","features":[{"type":"Feature","geometry":{"type":"Point","coordinates":[43.82382,42.03761]},"properties":{"id":52038,"name":"Agara","state_code":"SK","country_code":"GE"}},{"type":"Feature","geometry":{"type":"Point","coordinates":[44.11578,41.98422]},"properties":{"id":52070,"name":"Gori","state_code":"SK","country_code":"GE"}},{"type":"Feature","geometry":{"type":"Point","coordinates":[44.11667,42.06667]},"properties":{"id":52071,"name":"Goris Munitsip’alit’et’i","state_code":"SK","country_code":"GE"}},{"type":"Feature","geometry":{"type":"Point","coordinates":[44.42568,41.9252]},"properties":{"id":52077,"name":"Kaspi","state_code":"SK","country_code":"GE"}},{"type":"Feature","geometry":{"type":"Point","coordinates":[43.59994,41.99414]},"properties":{"id":52080,"name":"Khashuri","state_code":"SK","country_code":"GE"}},{"type":"Feature","geometry":{"type":"Point","coordinates":[43.55556,42.02431]},"properties":{"id":52125,"name":"Surami","state_code":"SK","country_code":"GE"}},{"type":"Feature","geometry":{"type":"Point","coordinates":[43.96861,42.22764]},"properties":{"id":52139,"name":"Ts’khinvali","state_code":"SK","country_code":"GE"}}]}