{"type":"FeatureCollection","features":[{"type":"Feature","geometry":{"type":"Point","coordinates":[-0.24169,11.0616]},"properties":{"id":52161,"name":"Bawku","state_code":"UE","country_code":"GH"}},{"type":"Feature","geometry":{"type":"Point","coordinates":[-0.85139,10.78556]},"properties":{"id":52167,"name":"Bolgatanga","state_code":"UE","country_code":"GH"}},{"type":"Feature","geometry":{"type":"Point","coordinates":[-1.0921,10.89557]},"properties":{"id":52193,"name":"Navrongo","state_code":"UE","country_code":"GH"}}]}