{"type":"FeatureCollection","features":[{"type":"Feature","geometry":{"type":"Point","coordinates":[-1.94856,5.36073]},"properties":{"id":52147,"name":"Aboso","state_code":"WP","country_code":"GH"}},{"type":"Feature","geometry":{"type":"Point","coordinates":[-2.24181,4.86641]},"properties":{"id":52160,"name":"Axim","state_code":"WP","country_code":"GH"}},{"type":"Feature","geometry":{"type":"Point","coordinates":[-2.31938,6.46346]},"properties":{"id":52166,"name":"Bibiani","state_code":"WP","country_code":"GH"}},{"type":"Feature","geometry":{"type":"Point","coordinates":[-2.14295,5.43385]},"properties":{"id":52197,"name":"Prestea","state_code":"WP","country_code":"GH"}},{"type":"Feature","geometry":{"type":"Point","coordinates":[-1.75773,4.92678]},"properties":{"id":52201,"name":"Sekondi-Takoradi","state_code":"WP","country_code":"GH"}},{"type":"Feature","geometry":{"type":"Point","coordinates":[-1.66437,5.01806]},"properties":{"id":52202,"name":"Shama Junction","state_code":"WP","country_code":"GH"}},{"type":"Feature","geometry":{"type":"Point","coordinates":[-1.76029,4.89816]},"properties":{"id":52207,"name":"Takoradi","state_code":"WP","country_code":"GH"}},{"type":"Feature","geometry":{"type":"Point","coordinates":[-1.98956,5.30383]},"properties":{"id":52209,"name":"Tarkwa","state_code":"WP","country_code":"GH"}}]}