{"type":"FeatureCollection","features":[{"type":"Feature","geometry":{"type":"Point","coordinates":[-2.8236043,5.8214385]},"properties":{"id":149119,"name":"Aowin","state_code":"WN","country_code":"GH"}},{"type":"Feature","geometry":{"type":"Point","coordinates":[-3.0038395,6.8161445]},"properties":{"id":149120,"name":"Bia East","state_code":"WN","country_code":"GH"}},{"type":"Feature","geometry":{"type":"Point","coordinates":[-3.0662888,6.5689417]},"properties":{"id":149121,"name":"Bia West","state_code":"WN","country_code":"GH"}},{"type":"Feature","geometry":{"type":"Point","coordinates":[-2.3567507,6.3021004]},"properties":{"id":149122,"name":"Bibiani-Anhwiaso-Bekwai","state_code":"WN","country_code":"GH"}},{"type":"Feature","geometry":{"type":"Point","coordinates":[-2.7661515,6.2224091]},"properties":{"id":149123,"name":"Bodi","state_code":"WN","country_code":"GH"}},{"type":"Feature","geometry":{"type":"Point","coordinates":[-2.8420614,6.3333157]},"properties":{"id":149124,"name":"Juaboso","state_code":"WN","country_code":"GH"}},{"type":"Feature","geometry":{"type":"Point","coordinates":[-2.8813362,6.0428548]},"properties":{"id":149125,"name":"Sefwi-Akontombra","state_code":"WN","country_code":"GH"}},{"type":"Feature","geometry":{"type":"Point","coordinates":[-2.5005915,6.2196567]},"properties":{"id":149126,"name":"Sefwi-Wiawso","state_code":"WN","country_code":"GH"}},{"type":"Feature","geometry":{"type":"Point","coordinates":[-3.0086971,6.1082416]},"properties":{"id":149127,"name":"Suaman","state_code":"WN","country_code":"GH"}}]}