{"type":"FeatureCollection","features":[{"type":"Feature","geometry":{"type":"Point","coordinates":[-14.65,13.43333]},"properties":{"id":52222,"name":"Bansang","state_code":"M","country_code":"GM"}},{"type":"Feature","geometry":{"type":"Point","coordinates":[-14.93333,13.53333]},"properties":{"id":52228,"name":"Brikama Nding","state_code":"M","country_code":"GM"}},{"type":"Feature","geometry":{"type":"Point","coordinates":[-15.31667,13.56667]},"properties":{"id":52233,"name":"Dankunku","state_code":"M","country_code":"GM"}},{"type":"Feature","geometry":{"type":"Point","coordinates":[-14.93333,13.5]},"properties":{"id":52236,"name":"Denton","state_code":"M","country_code":"GM"}},{"type":"Feature","geometry":{"type":"Point","coordinates":[-14.75,13.5]},"properties":{"id":52246,"name":"Fulladu West","state_code":"M","country_code":"GM"}},{"type":"Feature","geometry":{"type":"Point","coordinates":[-14.78333,13.43333]},"properties":{"id":52247,"name":"Galleh Manda","state_code":"M","country_code":"GM"}},{"type":"Feature","geometry":{"type":"Point","coordinates":[-14.76374,13.54039]},"properties":{"id":52248,"name":"Georgetown","state_code":"M","country_code":"GM"}},{"type":"Feature","geometry":{"type":"Point","coordinates":[-14.96667,13.55]},"properties":{"id":52252,"name":"Jakhaly","state_code":"M","country_code":"GM"}},{"type":"Feature","geometry":{"type":"Point","coordinates":[-14.76515,13.53564]},"properties":{"id":52254,"name":"Janjanbureh","state_code":"M","country_code":"GM"}},{"type":"Feature","geometry":{"type":"Point","coordinates":[-15.18333,13.61667]},"properties":{"id":52258,"name":"Jarreng","state_code":"M","country_code":"GM"}},{"type":"Feature","geometry":{"type":"Point","coordinates":[-15.03333,13.66667]},"properties":{"id":52265,"name":"Karantaba","state_code":"M","country_code":"GM"}},{"type":"Feature","geometry":{"type":"Point","coordinates":[-14.93333,13.78333]},"properties":{"id":52266,"name":"Kass Wollof","state_code":"M","country_code":"GM"}},{"type":"Feature","geometry":{"type":"Point","coordinates":[-14.88977,13.67085]},"properties":{"id":52280,"name":"Kuntaur","state_code":"M","country_code":"GM"}},{"type":"Feature","geometry":{"type":"Point","coordinates":[-14.66667,13.53333]},"properties":{"id":52281,"name":"Kunting","state_code":"M","country_code":"GM"}},{"type":"Feature","geometry":{"type":"Point","coordinates":[-15.36667,13.71667]},"properties":{"id":52285,"name":"Lower Saloum","state_code":"M","country_code":"GM"}},{"type":"Feature","geometry":{"type":"Point","coordinates":[-15.08333,13.63333]},"properties":{"id":52287,"name":"Niamina East","state_code":"M","country_code":"GM"}},{"type":"Feature","geometry":{"type":"Point","coordinates":[-15.25,13.58333]},"properties":{"id":52288,"name":"Niamina West","state_code":"M","country_code":"GM"}},{"type":"Feature","geometry":{"type":"Point","coordinates":[-14.91667,13.66667]},"properties":{"id":52289,"name":"Niani","state_code":"M","country_code":"GM"}},{"type":"Feature","geometry":{"type":"Point","coordinates":[-15.091,13.729]},"properties":{"id":52290,"name":"Nianija","state_code":"M","country_code":"GM"}},{"type":"Feature","geometry":{"type":"Point","coordinates":[-15.06667,13.61667]},"properties":{"id":52294,"name":"Pateh Sam","state_code":"M","country_code":"GM"}},{"type":"Feature","geometry":{"type":"Point","coordinates":[-15.2,13.58333]},"properties":{"id":52298,"name":"Sami","state_code":"M","country_code":"GM"}},{"type":"Feature","geometry":{"type":"Point","coordinates":[-14.58333,13.58333]},"properties":{"id":52299,"name":"Sami District","state_code":"M","country_code":"GM"}},{"type":"Feature","geometry":{"type":"Point","coordinates":[-14.91667,13.55]},"properties":{"id":52303,"name":"Saruja","state_code":"M","country_code":"GM"}},{"type":"Feature","geometry":{"type":"Point","coordinates":[-14.91667,13.61667]},"properties":{"id":52309,"name":"Sukuta","state_code":"M","country_code":"GM"}},{"type":"Feature","geometry":{"type":"Point","coordinates":[-15.2,13.75]},"properties":{"id":52317,"name":"Upper Saloum","state_code":"M","country_code":"GM"}},{"type":"Feature","geometry":{"type":"Point","coordinates":[-14.87884,13.69094]},"properties":{"id":52318,"name":"Wassu","state_code":"M","country_code":"GM"}}]}