{"type":"FeatureCollection","features":[{"type":"Feature","geometry":{"type":"Point","coordinates":[-14.16667,10.33333]},"properties":{"id":52323,"name":"Boffa","state_code":"B","country_code":"GN"}},{"type":"Feature","geometry":{"type":"Point","coordinates":[-14.29055,10.93217]},"properties":{"id":52325,"name":"Boké","state_code":"B","country_code":"GN"}},{"type":"Feature","geometry":{"type":"Point","coordinates":[-14.41667,11.08333]},"properties":{"id":52324,"name":"Boke Prefecture","state_code":"B","country_code":"GN"}},{"type":"Feature","geometry":{"type":"Point","coordinates":[-13.58333,10.41667]},"properties":{"id":52332,"name":"Fria","state_code":"B","country_code":"GN"}},{"type":"Feature","geometry":{"type":"Point","coordinates":[-13.200333,11.754096]},"properties":{"id":52333,"name":"Gaoual","state_code":"B","country_code":"GN"}},{"type":"Feature","geometry":{"type":"Point","coordinates":[-13.2477875,11.7243435]},"properties":{"id":52334,"name":"Gaoual Prefecture","state_code":"B","country_code":"GN"}},{"type":"Feature","geometry":{"type":"Point","coordinates":[-13.55,10.4]},"properties":{"id":52339,"name":"Kimbo","state_code":"B","country_code":"GN"}},{"type":"Feature","geometry":{"type":"Point","coordinates":[-13.3,12.48333]},"properties":{"id":52342,"name":"Koundara","state_code":"B","country_code":"GN"}},{"type":"Feature","geometry":{"type":"Point","coordinates":[-13.16667,12.41667]},"properties":{"id":52343,"name":"Koundara Prefecture","state_code":"B","country_code":"GN"}},{"type":"Feature","geometry":{"type":"Point","coordinates":[-14.36667,10.7]},"properties":{"id":52364,"name":"Sanguéya","state_code":"B","country_code":"GN"}},{"type":"Feature","geometry":{"type":"Point","coordinates":[-13.1224,12.5311]},"properties":{"id":52374,"name":"Youkounkoun","state_code":"B","country_code":"GN"}}]}