{"type":"FeatureCollection","features":[{"type":"Feature","geometry":{"type":"Point","coordinates":[10.64882,1.03225]},"properties":{"id":52376,"name":"Acurenam","state_code":"CS","country_code":"GQ"}},{"type":"Feature","geometry":{"type":"Point","coordinates":[10.46716,1.58113]},"properties":{"id":52380,"name":"Bicurga","state_code":"CS","country_code":"GQ"}},{"type":"Feature","geometry":{"type":"Point","coordinates":[10.55124,1.43677]},"properties":{"id":52384,"name":"Evinayong","state_code":"CS","country_code":"GQ"}}]}