{"type":"FeatureCollection","features":[{"type":"Feature","geometry":{"type":"Point","coordinates":[24.24545,41.07463]},"properties":{"id":53375,"name":"Ágios Athanásios","state_code":"A2","country_code":"GR"}},{"type":"Feature","geometry":{"type":"Point","coordinates":[24.9845113,39.539105]},"properties":{"id":154260,"name":"Agios Efstratios","state_code":"A2","country_code":"GR"}},{"type":"Feature","geometry":{"type":"Point","coordinates":[25.87644,40.84995]},"properties":{"id":52440,"name":"Alexandroupoli","state_code":"A2","country_code":"GR"}},{"type":"Feature","geometry":{"type":"Point","coordinates":[24.36007,40.96346]},"properties":{"id":52456,"name":"Amygdaleónas","state_code":"A2","country_code":"GR"}},{"type":"Feature","geometry":{"type":"Point","coordinates":[25.55186,41.08139]},"properties":{"id":53398,"name":"Áratos","state_code":"A2","country_code":"GR"}},{"type":"Feature","geometry":{"type":"Point","coordinates":[25.59041,41.07]},"properties":{"id":52502,"name":"Arísvi","state_code":"A2","country_code":"GR"}},{"type":"Feature","geometry":{"type":"Point","coordinates":[25.69494,41.08131]},"properties":{"id":52497,"name":"Arrianá","state_code":"A2","country_code":"GR"}},{"type":"Feature","geometry":{"type":"Point","coordinates":[24.80441,40.96279]},"properties":{"id":53408,"name":"Ávato","state_code":"A2","country_code":"GR"}},{"type":"Feature","geometry":{"type":"Point","coordinates":[26.0894052,38.374514]},"properties":{"id":154252,"name":"Chios","state_code":"A2","country_code":"GR"}},{"type":"Feature","geometry":{"type":"Point","coordinates":[24.20843,41.13056]},"properties":{"id":52535,"name":"Choristí","state_code":"A2","country_code":"GR"}},{"type":"Feature","geometry":{"type":"Point","coordinates":[24.71088,40.93328]},"properties":{"id":52538,"name":"Chrysochóri","state_code":"A2","country_code":"GR"}},{"type":"Feature","geometry":{"type":"Point","coordinates":[24.69389,40.98556]},"properties":{"id":52539,"name":"Chrysoúpolis","state_code":"A2","country_code":"GR"}},{"type":"Feature","geometry":{"type":"Point","coordinates":[26.49611,41.34806]},"properties":{"id":52555,"name":"Didymóteicho","state_code":"A2","country_code":"GR"}},{"type":"Feature","geometry":{"type":"Point","coordinates":[24.1473,41.15283]},"properties":{"id":52565,"name":"Dráma","state_code":"A2","country_code":"GR"}},{"type":"Feature","geometry":{"type":"Point","coordinates":[24.97237,41.27558]},"properties":{"id":52571,"name":"Echínos","state_code":"A2","country_code":"GR"}},{"type":"Feature","geometry":{"type":"Point","coordinates":[24.24373,40.8203]},"properties":{"id":52576,"name":"Elaiochóri","state_code":"A2","country_code":"GR"}},{"type":"Feature","geometry":{"type":"Point","coordinates":[24.25431,40.84666]},"properties":{"id":52579,"name":"Eleftherés","state_code":"A2","country_code":"GR"}},{"type":"Feature","geometry":{"type":"Point","coordinates":[24.25139,40.91389]},"properties":{"id":52578,"name":"Eleftheroúpolis","state_code":"A2","country_code":"GR"}},{"type":"Feature","geometry":{"type":"Point","coordinates":[24.8,40.98333]},"properties":{"id":53418,"name":"Évlalo","state_code":"A2","country_code":"GR"}},{"type":"Feature","geometry":{"type":"Point","coordinates":[26.17234,40.89305]},"properties":{"id":52616,"name":"Féres","state_code":"A2","country_code":"GR"}},{"type":"Feature","geometry":{"type":"Point","coordinates":[25.63333,41.11667]},"properties":{"id":52603,"name":"Fillýra","state_code":"A2","country_code":"GR"}},{"type":"Feature","geometry":{"type":"Point","coordinates":[24.04724,41.06013]},"properties":{"id":52610,"name":"Fotolívos","state_code":"A2","country_code":"GR"}},{"type":"Feature","geometry":{"type":"Point","coordinates":[26.3176132,37.5797847]},"properties":{"id":154259,"name":"Fournoi Korseon","state_code":"A2","country_code":"GR"}},{"type":"Feature","geometry":{"type":"Point","coordinates":[24.18968,41.08266]},"properties":{"id":52612,"name":"Fteliá","state_code":"A2","country_code":"GR"}},{"type":"Feature","geometry":{"type":"Point","coordinates":[24.96248,41.06165]},"properties":{"id":52632,"name":"Genisséa","state_code":"A2","country_code":"GR"}},{"type":"Feature","geometry":{"type":"Point","coordinates":[25.18573,41.12747]},"properties":{"id":53420,"name":"Íasmos","state_code":"A2","country_code":"GR"}},{"type":"Feature","geometry":{"type":"Point","coordinates":[25.9416643,37.5973962]},"properties":{"id":154253,"name":"Ikaria","state_code":"A2","country_code":"GR"}},{"type":"Feature","geometry":{"type":"Point","coordinates":[24.78859,40.94931]},"properties":{"id":52661,"name":"Iliokentima","state_code":"A2","country_code":"GR"}},{"type":"Feature","geometry":{"type":"Point","coordinates":[24.18333,41.05]},"properties":{"id":52679,"name":"Kalampáki","state_code":"A2","country_code":"GR"}},{"type":"Feature","geometry":{"type":"Point","coordinates":[23.90667,41.14653]},"properties":{"id":52690,"name":"Kalí Vrýsi","state_code":"A2","country_code":"GR"}},{"type":"Feature","geometry":{"type":"Point","coordinates":[24.21527,41.1728]},"properties":{"id":52683,"name":"Kallífytos","state_code":"A2","country_code":"GR"}},{"type":"Feature","geometry":{"type":"Point","coordinates":[24.0857,41.10543]},"properties":{"id":52691,"name":"Kalós Agrós","state_code":"A2","country_code":"GR"}},{"type":"Feature","geometry":{"type":"Point","coordinates":[25.47456,40.47501]},"properties":{"id":52696,"name":"Kamariótissa","state_code":"A2","country_code":"GR"}},{"type":"Feature","geometry":{"type":"Point","coordinates":[26.47676,41.64551]},"properties":{"id":52723,"name":"Kastaniés","state_code":"A2","country_code":"GR"}},{"type":"Feature","geometry":{"type":"Point","coordinates":[23.86667,41.35]},"properties":{"id":52815,"name":"Káto Nevrokópi","state_code":"A2","country_code":"GR"}},{"type":"Feature","geometry":{"type":"Point","coordinates":[24.40687,40.93959]},"properties":{"id":52735,"name":"Kavála","state_code":"A2","country_code":"GR"}},{"type":"Feature","geometry":{"type":"Point","coordinates":[26.5147,41.56225]},"properties":{"id":52737,"name":"Kavýli","state_code":"A2","country_code":"GR"}},{"type":"Feature","geometry":{"type":"Point","coordinates":[24.70595,40.85591]},"properties":{"id":52739,"name":"Keramotí","state_code":"A2","country_code":"GR"}},{"type":"Feature","geometry":{"type":"Point","coordinates":[24.93869,41.14788]},"properties":{"id":52748,"name":"Kimméria","state_code":"A2","country_code":"GR"}},{"type":"Feature","geometry":{"type":"Point","coordinates":[24.30805,40.9269]},"properties":{"id":52755,"name":"Kokkinóchoma","state_code":"A2","country_code":"GR"}},{"type":"Feature","geometry":{"type":"Point","coordinates":[25.40535,41.11917]},"properties":{"id":52762,"name":"Komotiní","state_code":"A2","country_code":"GR"}},{"type":"Feature","geometry":{"type":"Point","coordinates":[24.29647,41.01396]},"properties":{"id":52785,"name":"Krinídes","state_code":"A2","country_code":"GR"}},{"type":"Feature","geometry":{"type":"Point","coordinates":[26.22905,41.57542]},"properties":{"id":52798,"name":"Kyprínos","state_code":"A2","country_code":"GR"}},{"type":"Feature","geometry":{"type":"Point","coordinates":[24.28915,41.099]},"properties":{"id":52829,"name":"Kýria","state_code":"A2","country_code":"GR"}},{"type":"Feature","geometry":{"type":"Point","coordinates":[26.46067,41.45102]},"properties":{"id":52834,"name":"Lagós","state_code":"A2","country_code":"GR"}},{"type":"Feature","geometry":{"type":"Point","coordinates":[26.38522,41.26957]},"properties":{"id":52876,"name":"Lávara","state_code":"A2","country_code":"GR"}},{"type":"Feature","geometry":{"type":"Point","coordinates":[25.0755253,39.9090413]},"properties":{"id":154254,"name":"Lemnos","state_code":"A2","country_code":"GR"}},{"type":"Feature","geometry":{"type":"Point","coordinates":[25.0409859,39.1710726]},"properties":{"id":154255,"name":"Lesbos","state_code":"A2","country_code":"GR"}},{"type":"Feature","geometry":{"type":"Point","coordinates":[24.5765,40.62741]},"properties":{"id":52853,"name":"Limenária","state_code":"A2","country_code":"GR"}},{"type":"Feature","geometry":{"type":"Point","coordinates":[25.6857,41.06413]},"properties":{"id":52882,"name":"Lýkeio","state_code":"A2","country_code":"GR"}},{"type":"Feature","geometry":{"type":"Point","coordinates":[23.8157,41.19351]},"properties":{"id":52935,"name":"Mikrópolis","state_code":"A2","country_code":"GR"}},{"type":"Feature","geometry":{"type":"Point","coordinates":[24.92084,41.24384]},"properties":{"id":52959,"name":"Mýki","state_code":"A2","country_code":"GR"}},{"type":"Feature","geometry":{"type":"Point","coordinates":[26.5154529,39.0995382]},"properties":{"id":154261,"name":"Mytilene","state_code":"A2","country_code":"GR"}},{"type":"Feature","geometry":{"type":"Point","coordinates":[24.3165,40.86442]},"properties":{"id":53011,"name":"Néa Iraklítsa","state_code":"A2","country_code":"GR"}},{"type":"Feature","geometry":{"type":"Point","coordinates":[24.51132,40.96148]},"properties":{"id":53013,"name":"Néa Karváli","state_code":"A2","country_code":"GR"}},{"type":"Feature","geometry":{"type":"Point","coordinates":[24.70726,40.90621]},"properties":{"id":53014,"name":"Néa Karyá","state_code":"A2","country_code":"GR"}},{"type":"Feature","geometry":{"type":"Point","coordinates":[24.3013,40.83854]},"properties":{"id":53031,"name":"Néa Péramos","state_code":"A2","country_code":"GR"}},{"type":"Feature","geometry":{"type":"Point","coordinates":[26.54318,41.58449]},"properties":{"id":53040,"name":"Néa Výssa","state_code":"A2","country_code":"GR"}},{"type":"Feature","geometry":{"type":"Point","coordinates":[26.4574,41.51131]},"properties":{"id":52967,"name":"Neochóri","state_code":"A2","country_code":"GR"}},{"type":"Feature","geometry":{"type":"Point","coordinates":[24.14311,40.94739]},"properties":{"id":52976,"name":"Nikísiani","state_code":"A2","country_code":"GR"}},{"type":"Feature","geometry":{"type":"Point","coordinates":[26.215269,38.5145746]},"properties":{"id":154257,"name":"Oinousses","state_code":"A2","country_code":"GR"}},{"type":"Feature","geometry":{"type":"Point","coordinates":[26.52972,41.50306]},"properties":{"id":53062,"name":"Orestiáda","state_code":"A2","country_code":"GR"}},{"type":"Feature","geometry":{"type":"Point","coordinates":[24.89438,41.30506]},"properties":{"id":53161,"name":"Páchni","state_code":"A2","country_code":"GR"}},{"type":"Feature","geometry":{"type":"Point","coordinates":[24.35083,40.90495]},"properties":{"id":53078,"name":"Palaió Tsiflíki","state_code":"A2","country_code":"GR"}},{"type":"Feature","geometry":{"type":"Point","coordinates":[24.17747,40.94338]},"properties":{"id":53071,"name":"Palaiochóri","state_code":"A2","country_code":"GR"}},{"type":"Feature","geometry":{"type":"Point","coordinates":[23.90039,40.76663]},"properties":{"id":53093,"name":"Paralía Ofryníou","state_code":"A2","country_code":"GR"}},{"type":"Feature","geometry":{"type":"Point","coordinates":[24.5,41.26667]},"properties":{"id":53096,"name":"Paranésti","state_code":"A2","country_code":"GR"}},{"type":"Feature","geometry":{"type":"Point","coordinates":[26.26577,40.95755]},"properties":{"id":53173,"name":"Péplos","state_code":"A2","country_code":"GR"}},{"type":"Feature","geometry":{"type":"Point","coordinates":[24.89847,41.10056]},"properties":{"id":53117,"name":"Peteinós","state_code":"A2","country_code":"GR"}},{"type":"Feature","geometry":{"type":"Point","coordinates":[24.84092,41.08742]},"properties":{"id":53118,"name":"Petrochóri","state_code":"A2","country_code":"GR"}},{"type":"Feature","geometry":{"type":"Point","coordinates":[24.01731,41.1947]},"properties":{"id":53120,"name":"Petroússa","state_code":"A2","country_code":"GR"}},{"type":"Feature","geometry":{"type":"Point","coordinates":[24.72859,40.71633]},"properties":{"id":53140,"name":"Potamiá","state_code":"A2","country_code":"GR"}},{"type":"Feature","geometry":{"type":"Point","coordinates":[24.57787,40.7409]},"properties":{"id":53150,"name":"Prínos","state_code":"A2","country_code":"GR"}},{"type":"Feature","geometry":{"type":"Point","coordinates":[23.96667,41.18333]},"properties":{"id":53145,"name":"Prosotsáni","state_code":"A2","country_code":"GR"}},{"type":"Feature","geometry":{"type":"Point","coordinates":[25.5584773,38.5414418]},"properties":{"id":154258,"name":"Psara","state_code":"A2","country_code":"GR"}},{"type":"Feature","geometry":{"type":"Point","coordinates":[26.42771,41.6249]},"properties":{"id":53201,"name":"Rízia","state_code":"A2","country_code":"GR"}},{"type":"Feature","geometry":{"type":"Point","coordinates":[25.6351504,37.7135674]},"properties":{"id":154256,"name":"Samos","state_code":"A2","country_code":"GR"}},{"type":"Feature","geometry":{"type":"Point","coordinates":[25.52222,40.47333]},"properties":{"id":53205,"name":"Samothráki","state_code":"A2","country_code":"GR"}},{"type":"Feature","geometry":{"type":"Point","coordinates":[25.69306,41.02861]},"properties":{"id":53264,"name":"Sápes","state_code":"A2","country_code":"GR"}},{"type":"Feature","geometry":{"type":"Point","coordinates":[24.99408,41.13382]},"properties":{"id":53266,"name":"Sélero","state_code":"A2","country_code":"GR"}},{"type":"Feature","geometry":{"type":"Point","coordinates":[24.02755,41.11067]},"properties":{"id":53216,"name":"Sitagroí","state_code":"A2","country_code":"GR"}},{"type":"Feature","geometry":{"type":"Point","coordinates":[24.86667,41.23333]},"properties":{"id":53230,"name":"Smínthi","state_code":"A2","country_code":"GR"}},{"type":"Feature","geometry":{"type":"Point","coordinates":[26.29944,41.19194]},"properties":{"id":53235,"name":"Souflí","state_code":"A2","country_code":"GR"}},{"type":"Feature","geometry":{"type":"Point","coordinates":[24.70944,40.77806]},"properties":{"id":53282,"name":"Thásos","state_code":"A2","country_code":"GR"}},{"type":"Feature","geometry":{"type":"Point","coordinates":[26.29455,41.02878]},"properties":{"id":53298,"name":"Tycheró","state_code":"A2","country_code":"GR"}},{"type":"Feature","geometry":{"type":"Point","coordinates":[24.00215,41.31661]},"properties":{"id":53345,"name":"Vólakas","state_code":"A2","country_code":"GR"}},{"type":"Feature","geometry":{"type":"Point","coordinates":[25.8940422,39.1760525]},"properties":{"id":154262,"name":"West Lesbos","state_code":"A2","country_code":"GR"}},{"type":"Feature","geometry":{"type":"Point","coordinates":[24.888,41.13488]},"properties":{"id":53353,"name":"Xánthi","state_code":"A2","country_code":"GR"}},{"type":"Feature","geometry":{"type":"Point","coordinates":[24.10385,41.19206]},"properties":{"id":53350,"name":"Xiropótamos","state_code":"A2","country_code":"GR"}},{"type":"Feature","geometry":{"type":"Point","coordinates":[25.42022,40.97437]},"properties":{"id":53351,"name":"Xylaganí","state_code":"A2","country_code":"GR"}},{"type":"Feature","geometry":{"type":"Point","coordinates":[24.38132,41.0132]},"properties":{"id":53365,"name":"Zygós","state_code":"A2","country_code":"GR"}}]}