{"type":"FeatureCollection","features":[{"type":"Feature","geometry":{"type":"Point","coordinates":[24.63495,35.25459]},"properties":{"id":52415,"name":"Agía Foteiní","state_code":"M","country_code":"GR"}},{"type":"Feature","geometry":{"type":"Point","coordinates":[24.68818,35.09707]},"properties":{"id":52416,"name":"Agía Galíni","state_code":"M","country_code":"GR"}},{"type":"Feature","geometry":{"type":"Point","coordinates":[23.92675,35.51778]},"properties":{"id":52418,"name":"Agía Marína","state_code":"M","country_code":"GR"}},{"type":"Feature","geometry":{"type":"Point","coordinates":[25.00131,35.13715]},"properties":{"id":52427,"name":"Agía Varvára","state_code":"M","country_code":"GR"}},{"type":"Feature","geometry":{"type":"Point","coordinates":[24.96667,35.06667]},"properties":{"id":53371,"name":"Ágioi Déka","state_code":"M","country_code":"GR"}},{"type":"Feature","geometry":{"type":"Point","coordinates":[25.71524,35.19106]},"properties":{"id":53380,"name":"Ágios Nikólaos","state_code":"M","country_code":"GR"}},{"type":"Feature","geometry":{"type":"Point","coordinates":[25.16667,35.23333]},"properties":{"id":52467,"name":"Ano Arhanes","state_code":"M","country_code":"GR"}},{"type":"Feature","geometry":{"type":"Point","coordinates":[24.88412,35.29084]},"properties":{"id":52480,"name":"Anógeia","state_code":"M","country_code":"GR"}},{"type":"Feature","geometry":{"type":"Point","coordinates":[25.26538,35.14634]},"properties":{"id":52493,"name":"Arkalochóri","state_code":"M","country_code":"GR"}},{"type":"Feature","geometry":{"type":"Point","coordinates":[25.09277,35.04321]},"properties":{"id":52512,"name":"Asímion","state_code":"M","country_code":"GR"}},{"type":"Feature","geometry":{"type":"Point","coordinates":[24.43378,35.35253]},"properties":{"id":52517,"name":"Atsipópoulo","state_code":"M","country_code":"GR"}},{"type":"Feature","geometry":{"type":"Point","coordinates":[24.02921,35.51124]},"properties":{"id":52530,"name":"Chaniá","state_code":"M","country_code":"GR"}},{"type":"Feature","geometry":{"type":"Point","coordinates":[24.13711,35.20176]},"properties":{"id":52544,"name":"Chóra Sfakíon","state_code":"M","country_code":"GR"}},{"type":"Feature","geometry":{"type":"Point","coordinates":[23.97488,35.49955]},"properties":{"id":52546,"name":"Darátsos","state_code":"M","country_code":"GR"}},{"type":"Feature","geometry":{"type":"Point","coordinates":[25.72127,35.265]},"properties":{"id":52582,"name":"Eloúnda","state_code":"M","country_code":"GR"}},{"type":"Feature","geometry":{"type":"Point","coordinates":[23.96341,35.49864]},"properties":{"id":52623,"name":"Galatás","state_code":"M","country_code":"GR"}},{"type":"Feature","geometry":{"type":"Point","coordinates":[25.06694,35.32531]},"properties":{"id":52648,"name":"Gázi","state_code":"M","country_code":"GR"}},{"type":"Feature","geometry":{"type":"Point","coordinates":[24.26013,35.36225]},"properties":{"id":52633,"name":"Georgioupolis","state_code":"M","country_code":"GR"}},{"type":"Feature","geometry":{"type":"Point","coordinates":[23.87818,35.51721]},"properties":{"id":52636,"name":"Geráni","state_code":"M","country_code":"GR"}},{"type":"Feature","geometry":{"type":"Point","coordinates":[24.94963,35.13281]},"properties":{"id":52654,"name":"Gérgeri","state_code":"M","country_code":"GR"}},{"type":"Feature","geometry":{"type":"Point","coordinates":[25.2774,35.32626]},"properties":{"id":52641,"name":"Goúrnes","state_code":"M","country_code":"GR"}},{"type":"Feature","geometry":{"type":"Point","coordinates":[25.69127,35.01467]},"properties":{"id":52642,"name":"Gra Liyiá","state_code":"M","country_code":"GR"}},{"type":"Feature","geometry":{"type":"Point","coordinates":[25.1442,35.3387]},"properties":{"id":153541,"name":"Heraklion","state_code":"M","country_code":"GR"}},{"type":"Feature","geometry":{"type":"Point","coordinates":[25.74234,35.01186]},"properties":{"id":52659,"name":"Ierápetra","state_code":"M","country_code":"GR"}},{"type":"Feature","geometry":{"type":"Point","coordinates":[25.14341,35.32787]},"properties":{"id":52666,"name":"Irákleion","state_code":"M","country_code":"GR"}},{"type":"Feature","geometry":{"type":"Point","coordinates":[24.17507,35.45046]},"properties":{"id":52692,"name":"Kalýves","state_code":"M","country_code":"GR"}},{"type":"Feature","geometry":{"type":"Point","coordinates":[25.33773,35.20902]},"properties":{"id":52728,"name":"Kastélli","state_code":"M","country_code":"GR"}},{"type":"Feature","geometry":{"type":"Point","coordinates":[24.08572,34.8346]},"properties":{"id":52726,"name":"Kastrí","state_code":"M","country_code":"GR"}},{"type":"Feature","geometry":{"type":"Point","coordinates":[24.99827,35.20271]},"properties":{"id":52806,"name":"Káto Asítai","state_code":"M","country_code":"GR"}},{"type":"Feature","geometry":{"type":"Point","coordinates":[25.31353,35.32934]},"properties":{"id":52809,"name":"Káto Goúves","state_code":"M","country_code":"GR"}},{"type":"Feature","geometry":{"type":"Point","coordinates":[25.7528,35.03258]},"properties":{"id":52738,"name":"Kentrí","state_code":"M","country_code":"GR"}},{"type":"Feature","geometry":{"type":"Point","coordinates":[23.65375,35.49459]},"properties":{"id":52822,"name":"Kíssamos","state_code":"M","country_code":"GR"}},{"type":"Feature","geometry":{"type":"Point","coordinates":[25.2581,35.32827]},"properties":{"id":52756,"name":"Kokkíni Cháni","state_code":"M","country_code":"GR"}},{"type":"Feature","geometry":{"type":"Point","coordinates":[23.77995,35.54115]},"properties":{"id":52760,"name":"Kolympári","state_code":"M","country_code":"GR"}},{"type":"Feature","geometry":{"type":"Point","coordinates":[25.64459,35.15821]},"properties":{"id":52787,"name":"Kritsá","state_code":"M","country_code":"GR"}},{"type":"Feature","geometry":{"type":"Point","coordinates":[24.98291,35.23062]},"properties":{"id":52789,"name":"Krousón","state_code":"M","country_code":"GR"}},{"type":"Feature","geometry":{"type":"Point","coordinates":[25.39275,35.32297]},"properties":{"id":52855,"name":"Limín Khersonísou","state_code":"M","country_code":"GR"}},{"type":"Feature","geometry":{"type":"Point","coordinates":[25.46262,35.28367]},"properties":{"id":52953,"name":"Mália","state_code":"M","country_code":"GR"}},{"type":"Feature","geometry":{"type":"Point","coordinates":[24.8733,35.05143]},"properties":{"id":52948,"name":"Moíres","state_code":"M","country_code":"GR"}},{"type":"Feature","geometry":{"type":"Point","coordinates":[25.42305,35.26342]},"properties":{"id":52939,"name":"Mokhós","state_code":"M","country_code":"GR"}},{"type":"Feature","geometry":{"type":"Point","coordinates":[24.01253,35.48228]},"properties":{"id":52944,"name":"Mourniés","state_code":"M","country_code":"GR"}},{"type":"Feature","geometry":{"type":"Point","coordinates":[24.15554,35.53885]},"properties":{"id":52946,"name":"Mouzourás","state_code":"M","country_code":"GR"}},{"type":"Feature","geometry":{"type":"Point","coordinates":[25.15895,35.33977]},"properties":{"id":52999,"name":"Néa Alikarnassós","state_code":"M","country_code":"GR"}},{"type":"Feature","geometry":{"type":"Point","coordinates":[25.6617,35.0092]},"properties":{"id":53000,"name":"Néa Anatolí","state_code":"M","country_code":"GR"}},{"type":"Feature","geometry":{"type":"Point","coordinates":[25.60415,35.25627]},"properties":{"id":52973,"name":"Neápoli","state_code":"M","country_code":"GR"}},{"type":"Feature","geometry":{"type":"Point","coordinates":[24.03995,35.47587]},"properties":{"id":52971,"name":"Nerokoúros","state_code":"M","country_code":"GR"}},{"type":"Feature","geometry":{"type":"Point","coordinates":[25.12985,35.32969]},"properties":{"id":52986,"name":"Nomós Irakleíou","state_code":"M","country_code":"GR"}},{"type":"Feature","geometry":{"type":"Point","coordinates":[24.58333,35.25]},"properties":{"id":52991,"name":"Nomós Rethýmnis","state_code":"M","country_code":"GR"}},{"type":"Feature","geometry":{"type":"Point","coordinates":[23.68185,35.23128]},"properties":{"id":53079,"name":"Palaióchora","state_code":"M","country_code":"GR"}},{"type":"Feature","geometry":{"type":"Point","coordinates":[26.25429,35.19793]},"properties":{"id":53083,"name":"Palekastro","state_code":"M","country_code":"GR"}},{"type":"Feature","geometry":{"type":"Point","coordinates":[24.69091,35.41815]},"properties":{"id":53163,"name":"Pánormos","state_code":"M","country_code":"GR"}},{"type":"Feature","geometry":{"type":"Point","coordinates":[24.70345,35.3703]},"properties":{"id":53176,"name":"Pérama","state_code":"M","country_code":"GR"}},{"type":"Feature","geometry":{"type":"Point","coordinates":[23.99421,35.48491]},"properties":{"id":53114,"name":"Perivólia","state_code":"M","country_code":"GR"}},{"type":"Feature","geometry":{"type":"Point","coordinates":[24.08653,35.51672]},"properties":{"id":53124,"name":"Pithári","state_code":"M","country_code":"GR"}},{"type":"Feature","geometry":{"type":"Point","coordinates":[25.09985,35.20555]},"properties":{"id":53142,"name":"Profítis Ilías","state_code":"M","country_code":"GR"}},{"type":"Feature","geometry":{"type":"Point","coordinates":[25.15191,35.00611]},"properties":{"id":53185,"name":"Pýrgos","state_code":"M","country_code":"GR"}},{"type":"Feature","geometry":{"type":"Point","coordinates":[24.48232,35.36555]},"properties":{"id":53187,"name":"Rethymno","state_code":"M","country_code":"GR"}},{"type":"Feature","geometry":{"type":"Point","coordinates":[25.72796,35.25757]},"properties":{"id":53210,"name":"Schísma Eloúndas","state_code":"M","country_code":"GR"}},{"type":"Feature","geometry":{"type":"Point","coordinates":[25.52021,35.3077]},"properties":{"id":53272,"name":"Sísion","state_code":"M","country_code":"GR"}},{"type":"Feature","geometry":{"type":"Point","coordinates":[26.10467,35.20783]},"properties":{"id":53217,"name":"Sitia","state_code":"M","country_code":"GR"}},{"type":"Feature","geometry":{"type":"Point","coordinates":[25.18684,35.28262]},"properties":{"id":53219,"name":"Skalánion","state_code":"M","country_code":"GR"}},{"type":"Feature","geometry":{"type":"Point","coordinates":[24.07344,35.48717]},"properties":{"id":53237,"name":"Soúda","state_code":"M","country_code":"GR"}},{"type":"Feature","geometry":{"type":"Point","coordinates":[25.43292,35.29257]},"properties":{"id":53244,"name":"Stalís","state_code":"M","country_code":"GR"}},{"type":"Feature","geometry":{"type":"Point","coordinates":[25.28091,35.18798]},"properties":{"id":53281,"name":"Thrapsanón","state_code":"M","country_code":"GR"}},{"type":"Feature","geometry":{"type":"Point","coordinates":[25.01587,35.29607]},"properties":{"id":53302,"name":"Tílisos","state_code":"M","country_code":"GR"}},{"type":"Feature","geometry":{"type":"Point","coordinates":[24.06274,35.47623]},"properties":{"id":53296,"name":"Tsikalariá","state_code":"M","country_code":"GR"}},{"type":"Feature","geometry":{"type":"Point","coordinates":[24.76851,35.07286]},"properties":{"id":53299,"name":"Tympáki","state_code":"M","country_code":"GR"}},{"type":"Feature","geometry":{"type":"Point","coordinates":[24.43857,35.35864]},"properties":{"id":53321,"name":"Violí Charáki","state_code":"M","country_code":"GR"}},{"type":"Feature","geometry":{"type":"Point","coordinates":[24.20109,35.37585]},"properties":{"id":53337,"name":"Vrýses","state_code":"M","country_code":"GR"}},{"type":"Feature","geometry":{"type":"Point","coordinates":[24.90412,35.1303]},"properties":{"id":53359,"name":"Zarós","state_code":"M","country_code":"GR"}},{"type":"Feature","geometry":{"type":"Point","coordinates":[24.82944,35.29502]},"properties":{"id":53364,"name":"Zonianá","state_code":"M","country_code":"GR"}}]}