{"type":"FeatureCollection","features":[{"type":"Feature","geometry":{"type":"Point","coordinates":[-90.63489,14.4774]},"properties":{"id":53430,"name":"Amatitlán","state_code":"01","country_code":"GT"}},{"type":"Feature","geometry":{"type":"Point","coordinates":[-90.49983,14.70289]},"properties":{"id":53453,"name":"Chinautla","state_code":"01","country_code":"GT"}},{"type":"Feature","geometry":{"type":"Point","coordinates":[-90.51568,14.81794]},"properties":{"id":53458,"name":"Chuarrancho","state_code":"01","country_code":"GT"}},{"type":"Feature","geometry":{"type":"Point","coordinates":[-90.44083,14.46528]},"properties":{"id":53496,"name":"Fraijanes","state_code":"01","country_code":"GT"}},{"type":"Feature","geometry":{"type":"Point","coordinates":[-90.51327,14.64072]},"properties":{"id":53500,"name":"Guatemala City","state_code":"01","country_code":"GT"}},{"type":"Feature","geometry":{"type":"Point","coordinates":[-90.60711,14.63077]},"properties":{"id":53534,"name":"Mixco","state_code":"01","country_code":"GT"}},{"type":"Feature","geometry":{"type":"Point","coordinates":[-90.35721,14.66715]},"properties":{"id":53616,"name":"Palencia","state_code":"01","country_code":"GT"}},{"type":"Feature","geometry":{"type":"Point","coordinates":[-90.56196,14.50189]},"properties":{"id":53628,"name":"Petapa","state_code":"01","country_code":"GT"}},{"type":"Feature","geometry":{"type":"Point","coordinates":[-90.37228,14.76414]},"properties":{"id":53690,"name":"San José del Golfo","state_code":"01","country_code":"GT"}},{"type":"Feature","geometry":{"type":"Point","coordinates":[-90.41288,14.546]},"properties":{"id":53688,"name":"San José Pinula","state_code":"01","country_code":"GT"}},{"type":"Feature","geometry":{"type":"Point","coordinates":[-90.64417,14.71889]},"properties":{"id":53698,"name":"San Juan Sacatepéquez","state_code":"01","country_code":"GT"}},{"type":"Feature","geometry":{"type":"Point","coordinates":[-90.45318,14.77943]},"properties":{"id":53724,"name":"San Pedro Ayampuc","state_code":"01","country_code":"GT"}},{"type":"Feature","geometry":{"type":"Point","coordinates":[-90.64253,14.68612]},"properties":{"id":53730,"name":"San Pedro Sacatepéquez","state_code":"01","country_code":"GT"}},{"type":"Feature","geometry":{"type":"Point","coordinates":[-90.59493,14.76462]},"properties":{"id":53736,"name":"San Raimundo","state_code":"01","country_code":"GT"}},{"type":"Feature","geometry":{"type":"Point","coordinates":[-90.49925,14.57047]},"properties":{"id":53752,"name":"Santa Catarina Pinula","state_code":"01","country_code":"GT"}},{"type":"Feature","geometry":{"type":"Point","coordinates":[-90.53425,14.48285]},"properties":{"id":53798,"name":"Villa Canales","state_code":"01","country_code":"GT"}},{"type":"Feature","geometry":{"type":"Point","coordinates":[-90.58544,14.52512]},"properties":{"id":53799,"name":"Villa Nueva","state_code":"01","country_code":"GT"}}]}