{"type":"FeatureCollection","features":[{"type":"Feature","geometry":{"type":"Point","coordinates":[-90.785,14.305]},"properties":{"id":53491,"name":"Escuintla","state_code":"05","country_code":"GT"}},{"type":"Feature","geometry":{"type":"Point","coordinates":[-90.64333,14.22528]},"properties":{"id":53498,"name":"Guanagazapa","state_code":"05","country_code":"GT"}},{"type":"Feature","geometry":{"type":"Point","coordinates":[-90.7075,13.93333]},"properties":{"id":53508,"name":"Iztapa","state_code":"05","country_code":"GT"}},{"type":"Feature","geometry":{"type":"Point","coordinates":[-90.94722,14.23083]},"properties":{"id":53517,"name":"La Democracia","state_code":"05","country_code":"GT"}},{"type":"Feature","geometry":{"type":"Point","coordinates":[-91.05383,14.08213]},"properties":{"id":53519,"name":"La Gomera","state_code":"05","country_code":"GT"}},{"type":"Feature","geometry":{"type":"Point","coordinates":[-90.84806,14.20306]},"properties":{"id":53530,"name":"Masagua","state_code":"05","country_code":"GT"}},{"type":"Feature","geometry":{"type":"Point","coordinates":[-91.3,14.2]},"properties":{"id":53605,"name":"Nueva Concepción","state_code":"05","country_code":"GT"}},{"type":"Feature","geometry":{"type":"Point","coordinates":[-90.69659,14.40358]},"properties":{"id":53618,"name":"Palín","state_code":"05","country_code":"GT"}},{"type":"Feature","geometry":{"type":"Point","coordinates":[-90.82166,13.9274]},"properties":{"id":53635,"name":"Puerto San José","state_code":"05","country_code":"GT"}},{"type":"Feature","geometry":{"type":"Point","coordinates":[-90.63613,14.41466]},"properties":{"id":53740,"name":"San Vicente Pacaya","state_code":"05","country_code":"GT"}},{"type":"Feature","geometry":{"type":"Point","coordinates":[-91.02339,14.33505]},"properties":{"id":53762,"name":"Santa Lucía Cotzumalguapa","state_code":"05","country_code":"GT"}},{"type":"Feature","geometry":{"type":"Point","coordinates":[-90.965,14.30611]},"properties":{"id":53781,"name":"Siquinalá","state_code":"05","country_code":"GT"}},{"type":"Feature","geometry":{"type":"Point","coordinates":[-91.36063,14.28356]},"properties":{"id":53793,"name":"Tiquisate","state_code":"05","country_code":"GT"}}]}