{"type":"FeatureCollection","features":[{"type":"Feature","geometry":{"type":"Point","coordinates":[-89.41704,16.51178]},"properties":{"id":53479,"name":"Dolores","state_code":"17","country_code":"GT"}},{"type":"Feature","geometry":{"type":"Point","coordinates":[-89.89941,16.92258]},"properties":{"id":53494,"name":"Flores","state_code":"17","country_code":"GT"}},{"type":"Feature","geometry":{"type":"Point","coordinates":[-90.11698,16.7885]},"properties":{"id":53520,"name":"La Libertad","state_code":"17","country_code":"GT"}},{"type":"Feature","geometry":{"type":"Point","coordinates":[-89.15229,17.06606]},"properties":{"id":53533,"name":"Melchor de Mencos","state_code":"17","country_code":"GT"}},{"type":"Feature","geometry":{"type":"Point","coordinates":[-89.89709,16.92381]},"properties":{"id":53560,"name":"Municipio de Flores","state_code":"17","country_code":"GT"}},{"type":"Feature","geometry":{"type":"Point","coordinates":[-89.58912,16.35687]},"properties":{"id":53576,"name":"Municipio de Poptún","state_code":"17","country_code":"GT"}},{"type":"Feature","geometry":{"type":"Point","coordinates":[-90.39883,17.49541]},"properties":{"id":53578,"name":"Municipio de San Andrés","state_code":"17","country_code":"GT"}},{"type":"Feature","geometry":{"type":"Point","coordinates":[-89.90979,16.91289]},"properties":{"id":53582,"name":"Municipio de San Benito","state_code":"17","country_code":"GT"}},{"type":"Feature","geometry":{"type":"Point","coordinates":[-89.90877,16.72425]},"properties":{"id":53584,"name":"Municipio de San Francisco","state_code":"17","country_code":"GT"}},{"type":"Feature","geometry":{"type":"Point","coordinates":[-89.66878,16.77305]},"properties":{"id":53589,"name":"Municipio de Santa Ana","state_code":"17","country_code":"GT"}},{"type":"Feature","geometry":{"type":"Point","coordinates":[-90.16339,16.3316]},"properties":{"id":53596,"name":"Municipio de Sayaxché","state_code":"17","country_code":"GT"}},{"type":"Feature","geometry":{"type":"Point","coordinates":[-89.41694,16.33111]},"properties":{"id":53631,"name":"Poptún","state_code":"17","country_code":"GT"}},{"type":"Feature","geometry":{"type":"Point","coordinates":[-89.91667,16.96667]},"properties":{"id":53649,"name":"San Andrés","state_code":"17","country_code":"GT"}},{"type":"Feature","geometry":{"type":"Point","coordinates":[-89.91898,16.91675]},"properties":{"id":53665,"name":"San Benito","state_code":"17","country_code":"GT"}},{"type":"Feature","geometry":{"type":"Point","coordinates":[-89.93333,16.8]},"properties":{"id":53673,"name":"San Francisco","state_code":"17","country_code":"GT"}},{"type":"Feature","geometry":{"type":"Point","coordinates":[-89.9,16.98333]},"properties":{"id":53681,"name":"San José","state_code":"17","country_code":"GT"}},{"type":"Feature","geometry":{"type":"Point","coordinates":[-89.44028,16.19889]},"properties":{"id":53704,"name":"San Luis","state_code":"17","country_code":"GT"}},{"type":"Feature","geometry":{"type":"Point","coordinates":[-89.83333,16.8]},"properties":{"id":53743,"name":"Santa Ana","state_code":"17","country_code":"GT"}},{"type":"Feature","geometry":{"type":"Point","coordinates":[-90.18801,16.52446]},"properties":{"id":53776,"name":"Sayaxché","state_code":"17","country_code":"GT"}}]}