{"type":"FeatureCollection","features":[{"type":"Feature","geometry":{"type":"Point","coordinates":[-92.07682,14.85354]},"properties":{"id":53443,"name":"Catarina","state_code":"12","country_code":"GT"}},{"type":"Feature","geometry":{"type":"Point","coordinates":[-92.14039,14.67737]},"properties":{"id":53459,"name":"Ciudad Tecún Umán","state_code":"12","country_code":"GT"}},{"type":"Feature","geometry":{"type":"Point","coordinates":[-91.74971,15.08937]},"properties":{"id":53467,"name":"Comitancillo","state_code":"12","country_code":"GT"}},{"type":"Feature","geometry":{"type":"Point","coordinates":[-91.8446,15.2394]},"properties":{"id":53472,"name":"Concepción Tutuapa","state_code":"12","country_code":"GT"}},{"type":"Feature","geometry":{"type":"Point","coordinates":[-91.81757,14.76865]},"properties":{"id":53487,"name":"El Quetzal","state_code":"12","country_code":"GT"}},{"type":"Feature","geometry":{"type":"Point","coordinates":[-91.97631,14.91447]},"properties":{"id":53488,"name":"El Rodeo","state_code":"12","country_code":"GT"}},{"type":"Feature","geometry":{"type":"Point","coordinates":[-91.93416,14.86375]},"properties":{"id":53490,"name":"El Tumbador","state_code":"12","country_code":"GT"}},{"type":"Feature","geometry":{"type":"Point","coordinates":[-91.82564,14.94135]},"properties":{"id":53493,"name":"Esquipulas Palo Gordo","state_code":"12","country_code":"GT"}},{"type":"Feature","geometry":{"type":"Point","coordinates":[-91.93256,15.16375]},"properties":{"id":53506,"name":"Ixchiguán","state_code":"12","country_code":"GT"}},{"type":"Feature","geometry":{"type":"Point","coordinates":[-91.82233,14.80104]},"properties":{"id":53522,"name":"La Reforma","state_code":"12","country_code":"GT"}},{"type":"Feature","geometry":{"type":"Point","coordinates":[-92.05788,14.91132]},"properties":{"id":53529,"name":"Malacatán","state_code":"12","country_code":"GT"}},{"type":"Feature","geometry":{"type":"Point","coordinates":[-91.86738,15.28795]},"properties":{"id":53558,"name":"Municipio de Concepción Tutuapa","state_code":"12","country_code":"GT"}},{"type":"Feature","geometry":{"type":"Point","coordinates":[-92.10548,14.91829]},"properties":{"id":53568,"name":"Municipio de Malacatán","state_code":"12","country_code":"GT"}},{"type":"Feature","geometry":{"type":"Point","coordinates":[-91.65541,15.19243]},"properties":{"id":53597,"name":"Municipio de Sipacapa","state_code":"12","country_code":"GT"}},{"type":"Feature","geometry":{"type":"Point","coordinates":[-91.82457,15.15638]},"properties":{"id":53598,"name":"Municipio de Tejutla","state_code":"12","country_code":"GT"}},{"type":"Feature","geometry":{"type":"Point","coordinates":[-91.91946,14.79174]},"properties":{"id":53607,"name":"Nuevo Progreso","state_code":"12","country_code":"GT"}},{"type":"Feature","geometry":{"type":"Point","coordinates":[-92.19298,14.50998]},"properties":{"id":53609,"name":"Ocós","state_code":"12","country_code":"GT"}},{"type":"Feature","geometry":{"type":"Point","coordinates":[-92.03521,14.72152]},"properties":{"id":53615,"name":"Pajapita","state_code":"12","country_code":"GT"}},{"type":"Feature","geometry":{"type":"Point","coordinates":[-91.68463,15.0382]},"properties":{"id":53642,"name":"Río Blanco","state_code":"12","country_code":"GT"}},{"type":"Feature","geometry":{"type":"Point","coordinates":[-91.73154,14.9606]},"properties":{"id":53660,"name":"San Antonio Sacatepéquez","state_code":"12","country_code":"GT"}},{"type":"Feature","geometry":{"type":"Point","coordinates":[-91.78123,14.90505]},"properties":{"id":53669,"name":"San Cristóbal Cucho","state_code":"12","country_code":"GT"}},{"type":"Feature","geometry":{"type":"Point","coordinates":[-91.97317,15.23443]},"properties":{"id":53686,"name":"San José Ojetenam","state_code":"12","country_code":"GT"}},{"type":"Feature","geometry":{"type":"Point","coordinates":[-91.96667,15.21667]},"properties":{"id":53687,"name":"San José Ojetenán","state_code":"12","country_code":"GT"}},{"type":"Feature","geometry":{"type":"Point","coordinates":[-91.73534,15.03087]},"properties":{"id":53700,"name":"San Lorenzo","state_code":"12","country_code":"GT"}},{"type":"Feature","geometry":{"type":"Point","coordinates":[-91.79444,14.96389]},"properties":{"id":53708,"name":"San Marcos","state_code":"12","country_code":"GT"}},{"type":"Feature","geometry":{"type":"Point","coordinates":[-91.74785,15.27247]},"properties":{"id":53718,"name":"San Miguel Ixtahuacán","state_code":"12","country_code":"GT"}},{"type":"Feature","geometry":{"type":"Point","coordinates":[-92.00415,14.93269]},"properties":{"id":53721,"name":"San Pablo","state_code":"12","country_code":"GT"}},{"type":"Feature","geometry":{"type":"Point","coordinates":[-91.76172,14.96807]},"properties":{"id":53729,"name":"San Pedro Sacatepéquez","state_code":"12","country_code":"GT"}},{"type":"Feature","geometry":{"type":"Point","coordinates":[-91.91388,14.93052]},"properties":{"id":53735,"name":"San Rafael Pie de la Cuesta","state_code":"12","country_code":"GT"}},{"type":"Feature","geometry":{"type":"Point","coordinates":[-92.04892,15.14963]},"properties":{"id":53779,"name":"Sibinal","state_code":"12","country_code":"GT"}},{"type":"Feature","geometry":{"type":"Point","coordinates":[-91.63416,15.21246]},"properties":{"id":53780,"name":"Sipacapa","state_code":"12","country_code":"GT"}},{"type":"Feature","geometry":{"type":"Point","coordinates":[-92.06721,15.24058]},"properties":{"id":53785,"name":"Tacaná","state_code":"12","country_code":"GT"}},{"type":"Feature","geometry":{"type":"Point","coordinates":[-91.92225,15.08349]},"properties":{"id":53787,"name":"Tajumulco","state_code":"12","country_code":"GT"}},{"type":"Feature","geometry":{"type":"Point","coordinates":[-91.80635,15.12254]},"properties":{"id":53792,"name":"Tejutla","state_code":"12","country_code":"GT"}}]}