{"type":"FeatureCollection","features":[{"type":"Feature","geometry":{"type":"Point","coordinates":[-90.62871,15.10452]},"properties":{"id":53474,"name":"Cubulco","state_code":"15","country_code":"GT"}},{"type":"Feature","geometry":{"type":"Point","coordinates":[-90.48799,14.96055]},"properties":{"id":53482,"name":"El Chol","state_code":"15","country_code":"GT"}},{"type":"Feature","geometry":{"type":"Point","coordinates":[-90.52292,14.91649]},"properties":{"id":53497,"name":"Granados","state_code":"15","country_code":"GT"}},{"type":"Feature","geometry":{"type":"Point","coordinates":[-90.2,15.26667]},"properties":{"id":53636,"name":"Purulhá","state_code":"15","country_code":"GT"}},{"type":"Feature","geometry":{"type":"Point","coordinates":[-90.49255,15.0853]},"properties":{"id":53640,"name":"Rabinal","state_code":"15","country_code":"GT"}},{"type":"Feature","geometry":{"type":"Point","coordinates":[-90.31806,15.10278]},"properties":{"id":53645,"name":"Salamá","state_code":"15","country_code":"GT"}},{"type":"Feature","geometry":{"type":"Point","coordinates":[-90.2405,15.06032]},"properties":{"id":53680,"name":"San Jerónimo","state_code":"15","country_code":"GT"}},{"type":"Feature","geometry":{"type":"Point","coordinates":[-90.39442,15.09472]},"properties":{"id":53716,"name":"San Miguel Chicaj","state_code":"15","country_code":"GT"}}]}