{"type":"FeatureCollection","features":[{"type":"Feature","geometry":{"type":"Point","coordinates":[-87.31667,15.63333]},"properties":{"id":53857,"name":"Arizona","state_code":"AT","country_code":"HN"}},{"type":"Feature","geometry":{"type":"Point","coordinates":[-87.31667,15.68333]},"properties":{"id":53860,"name":"Atenas de San Cristóbal","state_code":"AT","country_code":"HN"}},{"type":"Feature","geometry":{"type":"Point","coordinates":[-86.71667,15.8]},"properties":{"id":53921,"name":"Corozal","state_code":"AT","country_code":"HN"}},{"type":"Feature","geometry":{"type":"Point","coordinates":[-86.93333,15.7]},"properties":{"id":53974,"name":"El Pino","state_code":"AT","country_code":"HN"}},{"type":"Feature","geometry":{"type":"Point","coordinates":[-86.93333,15.75]},"properties":{"id":53976,"name":"El Porvenir","state_code":"AT","country_code":"HN"}},{"type":"Feature","geometry":{"type":"Point","coordinates":[-87.43333,15.76667]},"properties":{"id":53995,"name":"El Triunfo de la Cruz","state_code":"AT","country_code":"HN"}},{"type":"Feature","geometry":{"type":"Point","coordinates":[-87.25622,15.66291]},"properties":{"id":54001,"name":"Esparta","state_code":"AT","country_code":"HN"}},{"type":"Feature","geometry":{"type":"Point","coordinates":[-86.50414,15.69586]},"properties":{"id":54041,"name":"Jutiapa","state_code":"AT","country_code":"HN"}},{"type":"Feature","geometry":{"type":"Point","coordinates":[-86.78221,15.75971]},"properties":{"id":54048,"name":"La Ceiba","state_code":"AT","country_code":"HN"}},{"type":"Feature","geometry":{"type":"Point","coordinates":[-87.135,15.59865]},"properties":{"id":54071,"name":"La Masica","state_code":"AT","country_code":"HN"}},{"type":"Feature","geometry":{"type":"Point","coordinates":[-87,15.71667]},"properties":{"id":54080,"name":"La Unión","state_code":"AT","country_code":"HN"}},{"type":"Feature","geometry":{"type":"Point","coordinates":[-87.65,15.58333]},"properties":{"id":54127,"name":"Mezapa","state_code":"AT","country_code":"HN"}},{"type":"Feature","geometry":{"type":"Point","coordinates":[-86.49845,15.79556]},"properties":{"id":54145,"name":"Nueva Armenia","state_code":"AT","country_code":"HN"}},{"type":"Feature","geometry":{"type":"Point","coordinates":[-86.68333,15.81667]},"properties":{"id":54208,"name":"Sambo Creek","state_code":"AT","country_code":"HN"}},{"type":"Feature","geometry":{"type":"Point","coordinates":[-87.15,15.6]},"properties":{"id":54212,"name":"San Antonio","state_code":"AT","country_code":"HN"}},{"type":"Feature","geometry":{"type":"Point","coordinates":[-87.01736,15.65246]},"properties":{"id":54226,"name":"San Francisco","state_code":"AT","country_code":"HN"}},{"type":"Feature","geometry":{"type":"Point","coordinates":[-87.23333,15.58333]},"properties":{"id":54259,"name":"San Juan Pueblo","state_code":"AT","country_code":"HN"}},{"type":"Feature","geometry":{"type":"Point","coordinates":[-87.06667,15.65]},"properties":{"id":54290,"name":"Santa Ana","state_code":"AT","country_code":"HN"}},{"type":"Feature","geometry":{"type":"Point","coordinates":[-87.46731,15.77425]},"properties":{"id":54334,"name":"Tela","state_code":"AT","country_code":"HN"}},{"type":"Feature","geometry":{"type":"Point","coordinates":[-87.55,15.75]},"properties":{"id":54341,"name":"Tornabé","state_code":"AT","country_code":"HN"}}]}