{"type":"FeatureCollection","features":[{"type":"Feature","geometry":{"type":"Point","coordinates":[-87.26667,14.45]},"properties":{"id":53835,"name":"Agalteca","state_code":"FM","country_code":"HN"}},{"type":"Feature","geometry":{"type":"Point","coordinates":[-87.4699,13.78226]},"properties":{"id":53848,"name":"Alubarén","state_code":"FM","country_code":"HN"}},{"type":"Feature","geometry":{"type":"Point","coordinates":[-87.2168,14.50464]},"properties":{"id":53892,"name":"Cedros","state_code":"FM","country_code":"HN"}},{"type":"Feature","geometry":{"type":"Point","coordinates":[-87.25,13.81667]},"properties":{"id":53895,"name":"Cerro Grande","state_code":"FM","country_code":"HN"}},{"type":"Feature","geometry":{"type":"Point","coordinates":[-87.18333,14.21667]},"properties":{"id":53905,"name":"Cofradía","state_code":"FM","country_code":"HN"}},{"type":"Feature","geometry":{"type":"Point","coordinates":[-87.57,13.83]},"properties":{"id":53928,"name":"Curarén","state_code":"FM","country_code":"HN"}},{"type":"Feature","geometry":{"type":"Point","coordinates":[-87.24806,14.14975]},"properties":{"id":53933,"name":"Distrito Central","state_code":"FM","country_code":"HN"}},{"type":"Feature","geometry":{"type":"Point","coordinates":[-87.11667,14.13333]},"properties":{"id":53945,"name":"El Chimbo","state_code":"FM","country_code":"HN"}},{"type":"Feature","geometry":{"type":"Point","coordinates":[-87.1,14.66667]},"properties":{"id":53951,"name":"El Escanito","state_code":"FM","country_code":"HN"}},{"type":"Feature","geometry":{"type":"Point","coordinates":[-87.06667,14.75]},"properties":{"id":53952,"name":"El Escaño de Tepale","state_code":"FM","country_code":"HN"}},{"type":"Feature","geometry":{"type":"Point","coordinates":[-87.1,14.55]},"properties":{"id":53953,"name":"El Guante","state_code":"FM","country_code":"HN"}},{"type":"Feature","geometry":{"type":"Point","coordinates":[-87.3,14.6]},"properties":{"id":53954,"name":"El Guantillo","state_code":"FM","country_code":"HN"}},{"type":"Feature","geometry":{"type":"Point","coordinates":[-87.46667,13.76667]},"properties":{"id":53955,"name":"El Guapinol","state_code":"FM","country_code":"HN"}},{"type":"Feature","geometry":{"type":"Point","coordinates":[-87.26667,14.11667]},"properties":{"id":53959,"name":"El Lolo","state_code":"FM","country_code":"HN"}},{"type":"Feature","geometry":{"type":"Point","coordinates":[-87.11667,14.7]},"properties":{"id":53972,"name":"El Pedernal","state_code":"FM","country_code":"HN"}},{"type":"Feature","geometry":{"type":"Point","coordinates":[-87.21039,14.72009]},"properties":{"id":53979,"name":"El Porvenir","state_code":"FM","country_code":"HN"}},{"type":"Feature","geometry":{"type":"Point","coordinates":[-87.21667,14.51667]},"properties":{"id":53990,"name":"El Suyatal","state_code":"FM","country_code":"HN"}},{"type":"Feature","geometry":{"type":"Point","coordinates":[-87.16667,14.03333]},"properties":{"id":53991,"name":"El Tablón","state_code":"FM","country_code":"HN"}},{"type":"Feature","geometry":{"type":"Point","coordinates":[-87.06667,14.06667]},"properties":{"id":53992,"name":"El Terrero","state_code":"FM","country_code":"HN"}},{"type":"Feature","geometry":{"type":"Point","coordinates":[-86.81667,14.53333]},"properties":{"id":54012,"name":"Guaimaca","state_code":"FM","country_code":"HN"}},{"type":"Feature","geometry":{"type":"Point","coordinates":[-87.06667,14.46667]},"properties":{"id":54053,"name":"La Ermita","state_code":"FM","country_code":"HN"}},{"type":"Feature","geometry":{"type":"Point","coordinates":[-87.50421,13.70662]},"properties":{"id":54069,"name":"La Libertad","state_code":"FM","country_code":"HN"}},{"type":"Feature","geometry":{"type":"Point","coordinates":[-87.32874,13.73113]},"properties":{"id":54084,"name":"La Venta","state_code":"FM","country_code":"HN"}},{"type":"Feature","geometry":{"type":"Point","coordinates":[-87.47908,14.0559]},"properties":{"id":54102,"name":"Lepaterique","state_code":"FM","country_code":"HN"}},{"type":"Feature","geometry":{"type":"Point","coordinates":[-87.05633,13.87197]},"properties":{"id":54118,"name":"Maraita","state_code":"FM","country_code":"HN"}},{"type":"Feature","geometry":{"type":"Point","coordinates":[-87.09892,14.94113]},"properties":{"id":54119,"name":"Marale","state_code":"FM","country_code":"HN"}},{"type":"Feature","geometry":{"type":"Point","coordinates":[-87.28333,14.6]},"properties":{"id":54123,"name":"Mata de Plátano","state_code":"FM","country_code":"HN"}},{"type":"Feature","geometry":{"type":"Point","coordinates":[-87.31667,14.08333]},"properties":{"id":54124,"name":"Mateo","state_code":"FM","country_code":"HN"}},{"type":"Feature","geometry":{"type":"Point","coordinates":[-87.15307,13.75]},"properties":{"id":54146,"name":"Nueva Armenia","state_code":"FM","country_code":"HN"}},{"type":"Feature","geometry":{"type":"Point","coordinates":[-87.29583,13.93389]},"properties":{"id":54155,"name":"Ojojona","state_code":"FM","country_code":"HN"}},{"type":"Feature","geometry":{"type":"Point","coordinates":[-86.9576,14.80645]},"properties":{"id":54161,"name":"Orica","state_code":"FM","country_code":"HN"}},{"type":"Feature","geometry":{"type":"Point","coordinates":[-87.35,14.5]},"properties":{"id":54193,"name":"Quebradas","state_code":"FM","country_code":"HN"}},{"type":"Feature","geometry":{"type":"Point","coordinates":[-87.46528,13.82583]},"properties":{"id":54196,"name":"Reitoca","state_code":"FM","country_code":"HN"}},{"type":"Feature","geometry":{"type":"Point","coordinates":[-87.21667,14.16667]},"properties":{"id":54198,"name":"Río Abajo","state_code":"FM","country_code":"HN"}},{"type":"Feature","geometry":{"type":"Point","coordinates":[-87.25917,13.80778]},"properties":{"id":54204,"name":"Sabanagrande","state_code":"FM","country_code":"HN"}},{"type":"Feature","geometry":{"type":"Point","coordinates":[-86.98951,14.03859]},"properties":{"id":54218,"name":"San Antonio de Oriente","state_code":"FM","country_code":"HN"}},{"type":"Feature","geometry":{"type":"Point","coordinates":[-87.18554,13.891]},"properties":{"id":54222,"name":"San Buenaventura","state_code":"FM","country_code":"HN"}},{"type":"Feature","geometry":{"type":"Point","coordinates":[-87.04759,14.73795]},"properties":{"id":54236,"name":"San Ignacio","state_code":"FM","country_code":"HN"}},{"type":"Feature","geometry":{"type":"Point","coordinates":[-87.03333,14.26667]},"properties":{"id":54260,"name":"San Juan de Flores","state_code":"FM","country_code":"HN"}},{"type":"Feature","geometry":{"type":"Point","coordinates":[-87.49233,13.74572]},"properties":{"id":54276,"name":"San Miguelito","state_code":"FM","country_code":"HN"}},{"type":"Feature","geometry":{"type":"Point","coordinates":[-87.21,13.94]},"properties":{"id":54291,"name":"Santa Ana","state_code":"FM","country_code":"HN"}},{"type":"Feature","geometry":{"type":"Point","coordinates":[-87.09175,14.12595]},"properties":{"id":54305,"name":"Santa Lucía","state_code":"FM","country_code":"HN"}},{"type":"Feature","geometry":{"type":"Point","coordinates":[-87.06941,14.41393]},"properties":{"id":54325,"name":"Talanga","state_code":"FM","country_code":"HN"}},{"type":"Feature","geometry":{"type":"Point","coordinates":[-87.33333,14.15]},"properties":{"id":54350,"name":"Támara","state_code":"FM","country_code":"HN"}},{"type":"Feature","geometry":{"type":"Point","coordinates":[-87.06977,13.98467]},"properties":{"id":54329,"name":"Tatumbla","state_code":"FM","country_code":"HN"}},{"type":"Feature","geometry":{"type":"Point","coordinates":[-87.20681,14.0818]},"properties":{"id":54333,"name":"Tegucigalpa","state_code":"FM","country_code":"HN"}},{"type":"Feature","geometry":{"type":"Point","coordinates":[-87.03333,14.15]},"properties":{"id":54354,"name":"Valle de Ángeles","state_code":"FM","country_code":"HN"}},{"type":"Feature","geometry":{"type":"Point","coordinates":[-87.40242,14.51313]},"properties":{"id":54356,"name":"Vallecillo","state_code":"FM","country_code":"HN"}},{"type":"Feature","geometry":{"type":"Point","coordinates":[-86.96667,14.16667]},"properties":{"id":54361,"name":"Villa de San Francisco","state_code":"FM","country_code":"HN"}},{"type":"Feature","geometry":{"type":"Point","coordinates":[-87.13333,14.03333]},"properties":{"id":54359,"name":"Villa Nueva","state_code":"FM","country_code":"HN"}},{"type":"Feature","geometry":{"type":"Point","coordinates":[-87.21667,14.01667]},"properties":{"id":54367,"name":"Yaguacire","state_code":"FM","country_code":"HN"}},{"type":"Feature","geometry":{"type":"Point","coordinates":[-87.4,14.26667]},"properties":{"id":54377,"name":"Zambrano","state_code":"FM","country_code":"HN"}}]}