{"type":"FeatureCollection","features":[{"type":"Feature","geometry":{"type":"Point","coordinates":[-88.42819,14.50834]},"properties":{"id":53871,"name":"Belén","state_code":"LE","country_code":"HN"}},{"type":"Feature","geometry":{"type":"Point","coordinates":[-88.55913,14.06072]},"properties":{"id":53884,"name":"Candelaria","state_code":"LE","country_code":"HN"}},{"type":"Feature","geometry":{"type":"Point","coordinates":[-88.8772,14.31189]},"properties":{"id":53906,"name":"Cololaca","state_code":"LE","country_code":"HN"}},{"type":"Feature","geometry":{"type":"Point","coordinates":[-88.75,14.08333]},"properties":{"id":53940,"name":"El Achiotal","state_code":"LE","country_code":"HN"}},{"type":"Feature","geometry":{"type":"Point","coordinates":[-88.46667,14.23333]},"properties":{"id":54000,"name":"Erandique","state_code":"LE","country_code":"HN"}},{"type":"Feature","geometry":{"type":"Point","coordinates":[-88.58194,14.59028]},"properties":{"id":54010,"name":"Gracias","state_code":"LE","country_code":"HN"}},{"type":"Feature","geometry":{"type":"Point","coordinates":[-88.56812,14.12869]},"properties":{"id":54017,"name":"Gualcince","state_code":"LE","country_code":"HN"}},{"type":"Feature","geometry":{"type":"Point","coordinates":[-88.85161,14.20784]},"properties":{"id":54020,"name":"Guarita","state_code":"LE","country_code":"HN"}},{"type":"Feature","geometry":{"type":"Point","coordinates":[-88.5609,14.4728]},"properties":{"id":54047,"name":"La Campa","state_code":"LE","country_code":"HN"}},{"type":"Feature","geometry":{"type":"Point","coordinates":[-88.4636,14.66441]},"properties":{"id":54063,"name":"La Iguala","state_code":"LE","country_code":"HN"}},{"type":"Feature","geometry":{"type":"Point","coordinates":[-88.58333,14.8]},"properties":{"id":54067,"name":"La Libertad","state_code":"LE","country_code":"HN"}},{"type":"Feature","geometry":{"type":"Point","coordinates":[-88.4,14.81667]},"properties":{"id":54081,"name":"La Unión","state_code":"LE","country_code":"HN"}},{"type":"Feature","geometry":{"type":"Point","coordinates":[-88.68584,14.07156]},"properties":{"id":54085,"name":"La Virtud","state_code":"LE","country_code":"HN"}},{"type":"Feature","geometry":{"type":"Point","coordinates":[-88.6504,14.6793]},"properties":{"id":54091,"name":"Las Flores","state_code":"LE","country_code":"HN"}},{"type":"Feature","geometry":{"type":"Point","coordinates":[-88.6,14.8]},"properties":{"id":54093,"name":"Las Tejeras","state_code":"LE","country_code":"HN"}},{"type":"Feature","geometry":{"type":"Point","coordinates":[-88.58333,14.78333]},"properties":{"id":54101,"name":"Lepaera","state_code":"LE","country_code":"HN"}},{"type":"Feature","geometry":{"type":"Point","coordinates":[-88.6244,14.04293]},"properties":{"id":54117,"name":"Mapulaca","state_code":"LE","country_code":"HN"}},{"type":"Feature","geometry":{"type":"Point","coordinates":[-88.46319,14.06261]},"properties":{"id":54174,"name":"Piraera","state_code":"LE","country_code":"HN"}},{"type":"Feature","geometry":{"type":"Point","coordinates":[-88.54981,14.21968]},"properties":{"id":54210,"name":"San Andrés","state_code":"LE","country_code":"HN"}},{"type":"Feature","geometry":{"type":"Point","coordinates":[-88.37189,14.12435]},"properties":{"id":54227,"name":"San Francisco","state_code":"LE","country_code":"HN"}},{"type":"Feature","geometry":{"type":"Point","coordinates":[-88.77477,14.15492]},"properties":{"id":54258,"name":"San Juan Guarita","state_code":"LE","country_code":"HN"}},{"type":"Feature","geometry":{"type":"Point","coordinates":[-88.6705,14.44435]},"properties":{"id":54269,"name":"San Manuel Colohete","state_code":"LE","country_code":"HN"}},{"type":"Feature","geometry":{"type":"Point","coordinates":[-88.60126,14.41614]},"properties":{"id":54272,"name":"San Marcos de Caiquin","state_code":"LE","country_code":"HN"}},{"type":"Feature","geometry":{"type":"Point","coordinates":[-88.41667,14.73333]},"properties":{"id":54285,"name":"San Rafael","state_code":"LE","country_code":"HN"}},{"type":"Feature","geometry":{"type":"Point","coordinates":[-88.73487,14.34594]},"properties":{"id":54287,"name":"San Sebastián","state_code":"LE","country_code":"HN"}},{"type":"Feature","geometry":{"type":"Point","coordinates":[-88.52684,14.34427]},"properties":{"id":54297,"name":"Santa Cruz","state_code":"LE","country_code":"HN"}},{"type":"Feature","geometry":{"type":"Point","coordinates":[-88.728,14.6811]},"properties":{"id":54326,"name":"Talgua","state_code":"LE","country_code":"HN"}},{"type":"Feature","geometry":{"type":"Point","coordinates":[-88.76768,14.21276]},"properties":{"id":54327,"name":"Tambla","state_code":"LE","country_code":"HN"}},{"type":"Feature","geometry":{"type":"Point","coordinates":[-88.48333,14.75]},"properties":{"id":54328,"name":"Taragual","state_code":"LE","country_code":"HN"}},{"type":"Feature","geometry":{"type":"Point","coordinates":[-88.7314,14.2433]},"properties":{"id":54340,"name":"Tomalá","state_code":"LE","country_code":"HN"}},{"type":"Feature","geometry":{"type":"Point","coordinates":[-88.7084,14.1471]},"properties":{"id":54353,"name":"Valladolid","state_code":"LE","country_code":"HN"}},{"type":"Feature","geometry":{"type":"Point","coordinates":[-88.56193,14.00522]},"properties":{"id":54364,"name":"Virginia","state_code":"LE","country_code":"HN"}}]}