{"type":"FeatureCollection","features":[{"type":"Feature","geometry":{"type":"Point","coordinates":[-86,14.78333]},"properties":{"id":53856,"name":"Arimís","state_code":"OL","country_code":"HN"}},{"type":"Feature","geometry":{"type":"Point","coordinates":[-86.65,14.55]},"properties":{"id":53883,"name":"Campamento","state_code":"OL","country_code":"HN"}},{"type":"Feature","geometry":{"type":"Point","coordinates":[-85.54261,14.60384]},"properties":{"id":53890,"name":"Catacamas","state_code":"OL","country_code":"HN"}},{"type":"Feature","geometry":{"type":"Point","coordinates":[-86.65,14.61667]},"properties":{"id":53917,"name":"Concordia","state_code":"OL","country_code":"HN"}},{"type":"Feature","geometry":{"type":"Point","coordinates":[-85.53333,15.1]},"properties":{"id":53938,"name":"Dulce Nombre de Culmí","state_code":"OL","country_code":"HN"}},{"type":"Feature","geometry":{"type":"Point","coordinates":[-86.03333,14.83333]},"properties":{"id":53956,"name":"El Guayabito","state_code":"OL","country_code":"HN"}},{"type":"Feature","geometry":{"type":"Point","coordinates":[-86.68764,14.8872]},"properties":{"id":53986,"name":"El Rosario","state_code":"OL","country_code":"HN"}},{"type":"Feature","geometry":{"type":"Point","coordinates":[-86.36667,14.46667]},"properties":{"id":53987,"name":"El Rusio","state_code":"OL","country_code":"HN"}},{"type":"Feature","geometry":{"type":"Point","coordinates":[-86.5576,15.27763]},"properties":{"id":54002,"name":"Esquipulas del Norte","state_code":"OL","country_code":"HN"}},{"type":"Feature","geometry":{"type":"Point","coordinates":[-86.07076,15.02521]},"properties":{"id":54015,"name":"Gualaco","state_code":"OL","country_code":"HN"}},{"type":"Feature","geometry":{"type":"Point","coordinates":[-86.33333,14.91667]},"properties":{"id":54021,"name":"Guarizama","state_code":"OL","country_code":"HN"}},{"type":"Feature","geometry":{"type":"Point","coordinates":[-86.37624,15.15133]},"properties":{"id":54022,"name":"Guata","state_code":"OL","country_code":"HN"}},{"type":"Feature","geometry":{"type":"Point","coordinates":[-86.83333,14.71667]},"properties":{"id":54023,"name":"Guayape","state_code":"OL","country_code":"HN"}},{"type":"Feature","geometry":{"type":"Point","coordinates":[-86.51521,15.07902]},"properties":{"id":54032,"name":"Jano","state_code":"OL","country_code":"HN"}},{"type":"Feature","geometry":{"type":"Point","coordinates":[-86.21944,14.66667]},"properties":{"id":54042,"name":"Juticalpa","state_code":"OL","country_code":"HN"}},{"type":"Feature","geometry":{"type":"Point","coordinates":[-86.08333,14.71667]},"properties":{"id":54043,"name":"Jutiquile","state_code":"OL","country_code":"HN"}},{"type":"Feature","geometry":{"type":"Point","coordinates":[-86.23333,14.7]},"properties":{"id":54049,"name":"La Concepción","state_code":"OL","country_code":"HN"}},{"type":"Feature","geometry":{"type":"Point","coordinates":[-86.35,15.05]},"properties":{"id":54057,"name":"La Estancia","state_code":"OL","country_code":"HN"}},{"type":"Feature","geometry":{"type":"Point","coordinates":[-86.38333,15.08333]},"properties":{"id":54061,"name":"La Guata","state_code":"OL","country_code":"HN"}},{"type":"Feature","geometry":{"type":"Point","coordinates":[-86.6891,15.09759]},"properties":{"id":54082,"name":"La Unión","state_code":"OL","country_code":"HN"}},{"type":"Feature","geometry":{"type":"Point","coordinates":[-86.1,14.7]},"properties":{"id":54087,"name":"Laguna Seca","state_code":"OL","country_code":"HN"}},{"type":"Feature","geometry":{"type":"Point","coordinates":[-86.8,15.06667]},"properties":{"id":54115,"name":"Mangulile","state_code":"OL","country_code":"HN"}},{"type":"Feature","geometry":{"type":"Point","coordinates":[-86.38333,14.91667]},"properties":{"id":54116,"name":"Manto","state_code":"OL","country_code":"HN"}},{"type":"Feature","geometry":{"type":"Point","coordinates":[-86.11819,14.84183]},"properties":{"id":54137,"name":"Municipio de San Francisco de La Paz","state_code":"OL","country_code":"HN"}},{"type":"Feature","geometry":{"type":"Point","coordinates":[-85.97,14.36]},"properties":{"id":54166,"name":"Patuca","state_code":"OL","country_code":"HN"}},{"type":"Feature","geometry":{"type":"Point","coordinates":[-85.96667,14.73333]},"properties":{"id":54189,"name":"Punuare","state_code":"OL","country_code":"HN"}},{"type":"Feature","geometry":{"type":"Point","coordinates":[-86.61996,14.81052]},"properties":{"id":54207,"name":"Salamá","state_code":"OL","country_code":"HN"}},{"type":"Feature","geometry":{"type":"Point","coordinates":[-85.69487,15.29467]},"properties":{"id":54224,"name":"San Esteban","state_code":"OL","country_code":"HN"}},{"type":"Feature","geometry":{"type":"Point","coordinates":[-86.1,14.63333]},"properties":{"id":54228,"name":"San Francisco de Becerra","state_code":"OL","country_code":"HN"}},{"type":"Feature","geometry":{"type":"Point","coordinates":[-86.2,14.9]},"properties":{"id":54234,"name":"San Francisco de la Paz","state_code":"OL","country_code":"HN"}},{"type":"Feature","geometry":{"type":"Point","coordinates":[-85.7,14.93333]},"properties":{"id":54252,"name":"San José de Río Tinto","state_code":"OL","country_code":"HN"}},{"type":"Feature","geometry":{"type":"Point","coordinates":[-86.25,14.55]},"properties":{"id":54278,"name":"San Nicolás","state_code":"OL","country_code":"HN"}},{"type":"Feature","geometry":{"type":"Point","coordinates":[-85.95,14.76667]},"properties":{"id":54307,"name":"Santa María del Real","state_code":"OL","country_code":"HN"}},{"type":"Feature","geometry":{"type":"Point","coordinates":[-86.51521,14.76205]},"properties":{"id":54318,"name":"Silca","state_code":"OL","country_code":"HN"}},{"type":"Feature","geometry":{"type":"Point","coordinates":[-86.82,14.95]},"properties":{"id":54373,"name":"Yocón","state_code":"OL","country_code":"HN"}},{"type":"Feature","geometry":{"type":"Point","coordinates":[-86.26667,14.6]},"properties":{"id":54379,"name":"Zopilotepe","state_code":"OL","country_code":"HN"}}]}