{"type":"FeatureCollection","features":[{"type":"Feature","geometry":{"type":"Point","coordinates":[-87.55111,13.46889]},"properties":{"id":53840,"name":"Agua Fría","state_code":"VA","country_code":"HN"}},{"type":"Feature","geometry":{"type":"Point","coordinates":[-87.68643,13.44815]},"properties":{"id":53847,"name":"Alianza","state_code":"VA","country_code":"HN"}},{"type":"Feature","geometry":{"type":"Point","coordinates":[-87.65389,13.29222]},"properties":{"id":53849,"name":"Amapala","state_code":"VA","country_code":"HN"}},{"type":"Feature","geometry":{"type":"Point","coordinates":[-87.71028,13.74222]},"properties":{"id":53853,"name":"Aramecina","state_code":"VA","country_code":"HN"}},{"type":"Feature","geometry":{"type":"Point","coordinates":[-87.68121,13.81562]},"properties":{"id":53887,"name":"Caridad","state_code":"VA","country_code":"HN"}},{"type":"Feature","geometry":{"type":"Point","coordinates":[-87.66667,13.46667]},"properties":{"id":53950,"name":"El Cubolero","state_code":"VA","country_code":"HN"}},{"type":"Feature","geometry":{"type":"Point","coordinates":[-87.51528,13.46639]},"properties":{"id":53997,"name":"El Tular","state_code":"VA","country_code":"HN"}},{"type":"Feature","geometry":{"type":"Point","coordinates":[-87.61667,13.58333]},"properties":{"id":54009,"name":"Goascorán","state_code":"VA","country_code":"HN"}},{"type":"Feature","geometry":{"type":"Point","coordinates":[-87.43889,13.53167]},"properties":{"id":54044,"name":"Jícaro Galán","state_code":"VA","country_code":"HN"}},{"type":"Feature","geometry":{"type":"Point","coordinates":[-87.72444,13.51222]},"properties":{"id":54045,"name":"La Alianza","state_code":"VA","country_code":"HN"}},{"type":"Feature","geometry":{"type":"Point","coordinates":[-87.41333,13.45361]},"properties":{"id":54050,"name":"La Criba","state_code":"VA","country_code":"HN"}},{"type":"Feature","geometry":{"type":"Point","coordinates":[-87.6525,13.62083]},"properties":{"id":54090,"name":"Langue","state_code":"VA","country_code":"HN"}},{"type":"Feature","geometry":{"type":"Point","coordinates":[-87.52477,13.52209]},"properties":{"id":54139,"name":"Nacaome","state_code":"VA","country_code":"HN"}},{"type":"Feature","geometry":{"type":"Point","coordinates":[-87.53278,13.66139]},"properties":{"id":54230,"name":"San Francisco de Coray","state_code":"VA","country_code":"HN"}},{"type":"Feature","geometry":{"type":"Point","coordinates":[-87.40743,13.45149]},"properties":{"id":54263,"name":"San Lorenzo","state_code":"VA","country_code":"HN"}}]}