{"type":"FeatureCollection","features":[{"type":"Feature","geometry":{"type":"Point","coordinates":[15.13389,45.0025]},"properties":{"id":54422,"name":"Brinje","state_code":"09","country_code":"HR"}},{"type":"Feature","geometry":{"type":"Point","coordinates":[15.37472,44.54611]},"properties":{"id":54501,"name":"Gospić","state_code":"09","country_code":"HR"}},{"type":"Feature","geometry":{"type":"Point","coordinates":[15.07389,44.5275]},"properties":{"id":54633,"name":"Karlobag","state_code":"09","country_code":"HR"}},{"type":"Feature","geometry":{"type":"Point","coordinates":[15.42472,44.60389]},"properties":{"id":54690,"name":"Lički Osik","state_code":"09","country_code":"HR"}},{"type":"Feature","geometry":{"type":"Point","coordinates":[14.88667,44.55778]},"properties":{"id":54758,"name":"Novalja","state_code":"09","country_code":"HR"}},{"type":"Feature","geometry":{"type":"Point","coordinates":[15.2375,44.86944]},"properties":{"id":54796,"name":"Otočac","state_code":"09","country_code":"HR"}},{"type":"Feature","geometry":{"type":"Point","coordinates":[15.38333,44.64944]},"properties":{"id":54802,"name":"Perušić","state_code":"09","country_code":"HR"}},{"type":"Feature","geometry":{"type":"Point","coordinates":[15.62123,44.88053]},"properties":{"id":54812,"name":"Plitvička Jezera","state_code":"09","country_code":"HR"}},{"type":"Feature","geometry":{"type":"Point","coordinates":[15.17917,44.63917]},"properties":{"id":54824,"name":"Popovača","state_code":"09","country_code":"HR"}},{"type":"Feature","geometry":{"type":"Point","coordinates":[14.90583,44.98944]},"properties":{"id":54884,"name":"Senj","state_code":"09","country_code":"HR"}}]}