{"type":"FeatureCollection","features":[{"type":"Feature","geometry":{"type":"Point","coordinates":[15.99639,46.04111]},"properties":{"id":54390,"name":"Bedekovčina","state_code":"02","country_code":"HR"}},{"type":"Feature","geometry":{"type":"Point","coordinates":[16.20415,46.12785]},"properties":{"id":54430,"name":"Budinščina","state_code":"02","country_code":"HR"}},{"type":"Feature","geometry":{"type":"Point","coordinates":[15.83786,46.19708]},"properties":{"id":55026,"name":"Đurmanec","state_code":"02","country_code":"HR"}},{"type":"Feature","geometry":{"type":"Point","coordinates":[15.97069,45.97955]},"properties":{"id":54510,"name":"Grad Donja Stubica","state_code":"02","country_code":"HR"}},{"type":"Feature","geometry":{"type":"Point","coordinates":[15.74615,46.04977]},"properties":{"id":54523,"name":"Grad Klanjec","state_code":"02","country_code":"HR"}},{"type":"Feature","geometry":{"type":"Point","coordinates":[15.87258,46.15968]},"properties":{"id":54526,"name":"Grad Krapina","state_code":"02","country_code":"HR"}},{"type":"Feature","geometry":{"type":"Point","coordinates":[15.90855,46.02808]},"properties":{"id":54566,"name":"Grad Zabok","state_code":"02","country_code":"HR"}},{"type":"Feature","geometry":{"type":"Point","coordinates":[16.07695,46.09198]},"properties":{"id":54568,"name":"Grad Zlatar","state_code":"02","country_code":"HR"}},{"type":"Feature","geometry":{"type":"Point","coordinates":[15.88194,46.20724]},"properties":{"id":54622,"name":"Jesenje","state_code":"02","country_code":"HR"}},{"type":"Feature","geometry":{"type":"Point","coordinates":[15.74418,46.04982]},"properties":{"id":54648,"name":"Klanjec","state_code":"02","country_code":"HR"}},{"type":"Feature","geometry":{"type":"Point","coordinates":[16.17763,46.05435]},"properties":{"id":54657,"name":"Konjščina","state_code":"02","country_code":"HR"}},{"type":"Feature","geometry":{"type":"Point","coordinates":[15.87889,46.16083]},"properties":{"id":54667,"name":"Krapina","state_code":"02","country_code":"HR"}},{"type":"Feature","geometry":{"type":"Point","coordinates":[15.67556,46.0775]},"properties":{"id":54674,"name":"Kumrovec","state_code":"02","country_code":"HR"}},{"type":"Feature","geometry":{"type":"Point","coordinates":[16.03528,46.09472]},"properties":{"id":54725,"name":"Mače","state_code":"02","country_code":"HR"}},{"type":"Feature","geometry":{"type":"Point","coordinates":[16.11111,46.00611]},"properties":{"id":54714,"name":"Marija Bistrica","state_code":"02","country_code":"HR"}},{"type":"Feature","geometry":{"type":"Point","coordinates":[15.97222,46.13306]},"properties":{"id":54731,"name":"Mihovljan","state_code":"02","country_code":"HR"}},{"type":"Feature","geometry":{"type":"Point","coordinates":[15.91507,45.99672]},"properties":{"id":54791,"name":"Oroslavje","state_code":"02","country_code":"HR"}},{"type":"Feature","geometry":{"type":"Point","coordinates":[15.75083,46.16417]},"properties":{"id":54832,"name":"Pregrada","state_code":"02","country_code":"HR"}},{"type":"Feature","geometry":{"type":"Point","coordinates":[15.92361,46.16639]},"properties":{"id":54851,"name":"Radoboj","state_code":"02","country_code":"HR"}},{"type":"Feature","geometry":{"type":"Point","coordinates":[15.93238,45.97585]},"properties":{"id":54918,"name":"Stubičke Toplice","state_code":"02","country_code":"HR"}},{"type":"Feature","geometry":{"type":"Point","coordinates":[15.90704,46.08224]},"properties":{"id":54930,"name":"Sveti Križ Začretje","state_code":"02","country_code":"HR"}},{"type":"Feature","geometry":{"type":"Point","coordinates":[15.915,46.02944]},"properties":{"id":55001,"name":"Zabok","state_code":"02","country_code":"HR"}},{"type":"Feature","geometry":{"type":"Point","coordinates":[16.07083,46.09417]},"properties":{"id":55010,"name":"Zlatar","state_code":"02","country_code":"HR"}},{"type":"Feature","geometry":{"type":"Point","coordinates":[16.08527,46.04788]},"properties":{"id":55011,"name":"Zlatar Bistrica","state_code":"02","country_code":"HR"}}]}