{"type":"FeatureCollection","features":[{"type":"Feature","geometry":{"type":"Point","coordinates":[16.91694,46.20694]},"properties":{"id":54469,"name":"Drnje","state_code":"06","country_code":"HR"}},{"type":"Feature","geometry":{"type":"Point","coordinates":[16.87011,46.24989]},"properties":{"id":55024,"name":"Đelekovec","state_code":"06","country_code":"HR"}},{"type":"Feature","geometry":{"type":"Point","coordinates":[17.07168,46.03972]},"properties":{"id":55027,"name":"Đurđevac","state_code":"06","country_code":"HR"}},{"type":"Feature","geometry":{"type":"Point","coordinates":[17.2,46.05]},"properties":{"id":54481,"name":"Ferdinandovac","state_code":"06","country_code":"HR"}},{"type":"Feature","geometry":{"type":"Point","coordinates":[17.05806,46.19583]},"properties":{"id":54492,"name":"Gola","state_code":"06","country_code":"HR"}},{"type":"Feature","geometry":{"type":"Point","coordinates":[16.39079,46.10977]},"properties":{"id":54496,"name":"Gornja Rijeka","state_code":"06","country_code":"HR"}},{"type":"Feature","geometry":{"type":"Point","coordinates":[16.83333,46.16667]},"properties":{"id":54524,"name":"Grad Koprivnica","state_code":"06","country_code":"HR"}},{"type":"Feature","geometry":{"type":"Point","coordinates":[16.56667,46.03333]},"properties":{"id":54527,"name":"Grad Križevci","state_code":"06","country_code":"HR"}},{"type":"Feature","geometry":{"type":"Point","coordinates":[16.96278,46.15694]},"properties":{"id":54594,"name":"Hlebine","state_code":"06","country_code":"HR"}},{"type":"Feature","geometry":{"type":"Point","coordinates":[17.11556,46.02944]},"properties":{"id":54626,"name":"Kalinovac","state_code":"06","country_code":"HR"}},{"type":"Feature","geometry":{"type":"Point","coordinates":[16.8275,46.16278]},"properties":{"id":54659,"name":"Koprivnica","state_code":"06","country_code":"HR"}},{"type":"Feature","geometry":{"type":"Point","coordinates":[16.81629,46.19907]},"properties":{"id":54660,"name":"Koprivnički Ivanec","state_code":"06","country_code":"HR"}},{"type":"Feature","geometry":{"type":"Point","coordinates":[16.5425,46.02194]},"properties":{"id":54670,"name":"Križevci","state_code":"06","country_code":"HR"}},{"type":"Feature","geometry":{"type":"Point","coordinates":[16.85667,46.2975]},"properties":{"id":54685,"name":"Legrad","state_code":"06","country_code":"HR"}},{"type":"Feature","geometry":{"type":"Point","coordinates":[17.03167,46.10917]},"properties":{"id":54738,"name":"Molve","state_code":"06","country_code":"HR"}},{"type":"Feature","geometry":{"type":"Point","coordinates":[17.15215,46.09834]},"properties":{"id":54765,"name":"Novo Virje","state_code":"06","country_code":"HR"}},{"type":"Feature","geometry":{"type":"Point","coordinates":[16.89167,46.19222]},"properties":{"id":54803,"name":"Peteranec","state_code":"06","country_code":"HR"}},{"type":"Feature","geometry":{"type":"Point","coordinates":[16.70667,46.18389]},"properties":{"id":54854,"name":"Rasinja","state_code":"06","country_code":"HR"}},{"type":"Feature","geometry":{"type":"Point","coordinates":[16.76694,46.13028]},"properties":{"id":54857,"name":"Reka","state_code":"06","country_code":"HR"}},{"type":"Feature","geometry":{"type":"Point","coordinates":[16.93583,46.18833]},"properties":{"id":54888,"name":"Sigetec","state_code":"06","country_code":"HR"}},{"type":"Feature","geometry":{"type":"Point","coordinates":[16.99,46.06722]},"properties":{"id":54972,"name":"Virje","state_code":"06","country_code":"HR"}}]}