{"type":"FeatureCollection","features":[{"type":"Feature","geometry":{"type":"Point","coordinates":[15.91972,43.68]},"properties":{"id":54424,"name":"Brodarica","state_code":"15","country_code":"HR"}},{"type":"Feature","geometry":{"type":"Point","coordinates":[16.15556,43.8625]},"properties":{"id":54468,"name":"Drniš","state_code":"15","country_code":"HR"}},{"type":"Feature","geometry":{"type":"Point","coordinates":[16.16667,43.83333]},"properties":{"id":54512,"name":"Grad Drniš","state_code":"15","country_code":"HR"}},{"type":"Feature","geometry":{"type":"Point","coordinates":[15.89602,43.73576]},"properties":{"id":54572,"name":"Grad Šibenik","state_code":"15","country_code":"HR"}},{"type":"Feature","geometry":{"type":"Point","coordinates":[15.965,43.98278]},"properties":{"id":54646,"name":"Kistanje","state_code":"15","country_code":"HR"}},{"type":"Feature","geometry":{"type":"Point","coordinates":[16.19662,44.04063]},"properties":{"id":54652,"name":"Knin","state_code":"15","country_code":"HR"}},{"type":"Feature","geometry":{"type":"Point","coordinates":[15.58988,43.82043]},"properties":{"id":54745,"name":"Murter","state_code":"15","country_code":"HR"}},{"type":"Feature","geometry":{"type":"Point","coordinates":[15.60024,43.80959]},"properties":{"id":54746,"name":"Murter-Kornati","state_code":"15","country_code":"HR"}},{"type":"Feature","geometry":{"type":"Point","coordinates":[15.67278,43.81917]},"properties":{"id":54808,"name":"Pirovac","state_code":"15","country_code":"HR"}},{"type":"Feature","geometry":{"type":"Point","coordinates":[15.92302,43.58632]},"properties":{"id":54839,"name":"Primošten","state_code":"15","country_code":"HR"}},{"type":"Feature","geometry":{"type":"Point","coordinates":[16.09737,43.95798]},"properties":{"id":54843,"name":"Promina","state_code":"15","country_code":"HR"}},{"type":"Feature","geometry":{"type":"Point","coordinates":[15.97,43.52472]},"properties":{"id":54864,"name":"Rogoznica","state_code":"15","country_code":"HR"}},{"type":"Feature","geometry":{"type":"Point","coordinates":[15.97086,43.5362]},"properties":{"id":54865,"name":"Rogoznica Općina","state_code":"15","country_code":"HR"}},{"type":"Feature","geometry":{"type":"Point","coordinates":[15.90583,43.72722]},"properties":{"id":55030,"name":"Šibenik","state_code":"15","country_code":"HR"}},{"type":"Feature","geometry":{"type":"Point","coordinates":[15.92361,43.82028]},"properties":{"id":54894,"name":"Skradin","state_code":"15","country_code":"HR"}},{"type":"Feature","geometry":{"type":"Point","coordinates":[15.64333,43.80417]},"properties":{"id":54936,"name":"Tisno","state_code":"15","country_code":"HR"}},{"type":"Feature","geometry":{"type":"Point","coordinates":[15.74444,43.75547]},"properties":{"id":54940,"name":"Tribunj","state_code":"15","country_code":"HR"}},{"type":"Feature","geometry":{"type":"Point","coordinates":[15.78278,43.76083]},"properties":{"id":54981,"name":"Vodice","state_code":"15","country_code":"HR"}}]}