{"type":"FeatureCollection","features":[{"type":"Feature","geometry":{"type":"Point","coordinates":[16.51833,46.40417]},"properties":{"id":54392,"name":"Belica","state_code":"20","country_code":"HR"}},{"type":"Feature","geometry":{"type":"Point","coordinates":[16.43389,46.38444]},"properties":{"id":55015,"name":"Čakovec","state_code":"20","country_code":"HR"}},{"type":"Feature","geometry":{"type":"Point","coordinates":[16.58472,46.44861]},"properties":{"id":54451,"name":"Dekanovec","state_code":"20","country_code":"HR"}},{"type":"Feature","geometry":{"type":"Point","coordinates":[16.6,46.4325]},"properties":{"id":54455,"name":"Domašinec","state_code":"20","country_code":"HR"}},{"type":"Feature","geometry":{"type":"Point","coordinates":[16.68083,46.38417]},"properties":{"id":54493,"name":"Goričan","state_code":"20","country_code":"HR"}},{"type":"Feature","geometry":{"type":"Point","coordinates":[16.43333,46.38583]},"properties":{"id":54570,"name":"Grad Čakovec","state_code":"20","country_code":"HR"}},{"type":"Feature","geometry":{"type":"Point","coordinates":[16.64389,46.39528]},"properties":{"id":54595,"name":"Hodošan","state_code":"20","country_code":"HR"}},{"type":"Feature","geometry":{"type":"Point","coordinates":[16.47667,46.36833]},"properties":{"id":54606,"name":"Ivanovec","state_code":"20","country_code":"HR"}},{"type":"Feature","geometry":{"type":"Point","coordinates":[16.81806,46.355]},"properties":{"id":54663,"name":"Kotoriba","state_code":"20","country_code":"HR"}},{"type":"Feature","geometry":{"type":"Point","coordinates":[16.40167,46.33028]},"properties":{"id":54675,"name":"Kuršanec","state_code":"20","country_code":"HR"}},{"type":"Feature","geometry":{"type":"Point","coordinates":[16.38333,46.43333]},"properties":{"id":54697,"name":"Lopatinec","state_code":"20","country_code":"HR"}},{"type":"Feature","geometry":{"type":"Point","coordinates":[16.43361,46.42417]},"properties":{"id":54726,"name":"Mačkovec","state_code":"20","country_code":"HR"}},{"type":"Feature","geometry":{"type":"Point","coordinates":[16.52893,46.37616]},"properties":{"id":54711,"name":"Mala Subotica","state_code":"20","country_code":"HR"}},{"type":"Feature","geometry":{"type":"Point","coordinates":[16.44806,46.40861]},"properties":{"id":54730,"name":"Mihovljan","state_code":"20","country_code":"HR"}},{"type":"Feature","geometry":{"type":"Point","coordinates":[16.44111,46.50944]},"properties":{"id":54744,"name":"Mursko Središće","state_code":"20","country_code":"HR"}},{"type":"Feature","geometry":{"type":"Point","coordinates":[16.3875,46.37583]},"properties":{"id":54749,"name":"Nedelišće","state_code":"20","country_code":"HR"}},{"type":"Feature","geometry":{"type":"Point","coordinates":[16.46215,46.42839]},"properties":{"id":54764,"name":"Novo Selo Rok","state_code":"20","country_code":"HR"}},{"type":"Feature","geometry":{"type":"Point","coordinates":[16.50694,46.33167]},"properties":{"id":54788,"name":"Orehovica","state_code":"20","country_code":"HR"}},{"type":"Feature","geometry":{"type":"Point","coordinates":[16.47611,46.49528]},"properties":{"id":54801,"name":"Peklenica","state_code":"20","country_code":"HR"}},{"type":"Feature","geometry":{"type":"Point","coordinates":[16.54306,46.46472]},"properties":{"id":54818,"name":"Podturen","state_code":"20","country_code":"HR"}},{"type":"Feature","geometry":{"type":"Point","coordinates":[16.61556,46.335]},"properties":{"id":54834,"name":"Prelog","state_code":"20","country_code":"HR"}},{"type":"Feature","geometry":{"type":"Point","coordinates":[16.4825,46.3925]},"properties":{"id":54836,"name":"Pribislavec","state_code":"20","country_code":"HR"}},{"type":"Feature","geometry":{"type":"Point","coordinates":[16.42167,46.40889]},"properties":{"id":55029,"name":"Šenkovec","state_code":"20","country_code":"HR"}},{"type":"Feature","geometry":{"type":"Point","coordinates":[16.415,46.36889]},"properties":{"id":54915,"name":"Strahoninec","state_code":"20","country_code":"HR"}},{"type":"Feature","geometry":{"type":"Point","coordinates":[16.38525,46.42853]},"properties":{"id":54929,"name":"Sveti Juraj na Bregu","state_code":"20","country_code":"HR"}},{"type":"Feature","geometry":{"type":"Point","coordinates":[16.45778,46.47806]},"properties":{"id":54988,"name":"Vratišinec","state_code":"20","country_code":"HR"}}]}