{"type":"FeatureCollection","features":[{"type":"Feature","geometry":{"type":"Point","coordinates":[-73.3449,18.5011]},"properties":{"id":55049,"name":"Anse-à-Veau","state_code":"GA","country_code":"HT"}},{"type":"Feature","geometry":{"type":"Point","coordinates":[-74.31317,18.55037]},"properties":{"id":55083,"name":"Chambellan","state_code":"GA","country_code":"HT"}},{"type":"Feature","geometry":{"type":"Point","coordinates":[-73.88942,18.56766]},"properties":{"id":55086,"name":"Corail","state_code":"GA","country_code":"HT"}},{"type":"Feature","geometry":{"type":"Point","coordinates":[-74.42167,18.56107]},"properties":{"id":55089,"name":"Dame-Marie","state_code":"GA","country_code":"HT"}},{"type":"Feature","geometry":{"type":"Point","coordinates":[-74.2,18.58333]},"properties":{"id":55111,"name":"Jeremi","state_code":"GA","country_code":"HT"}},{"type":"Feature","geometry":{"type":"Point","coordinates":[-74.11667,18.65]},"properties":{"id":55112,"name":"Jérémie","state_code":"GA","country_code":"HT"}},{"type":"Feature","geometry":{"type":"Point","coordinates":[-74.30786,18.64901]},"properties":{"id":55119,"name":"Les Abricots","state_code":"GA","country_code":"HT"}},{"type":"Feature","geometry":{"type":"Point","coordinates":[-74.4528,18.4049]},"properties":{"id":55122,"name":"Les Irois","state_code":"GA","country_code":"HT"}},{"type":"Feature","geometry":{"type":"Point","coordinates":[-74.25777,18.56039]},"properties":{"id":55132,"name":"Moron","state_code":"GA","country_code":"HT"}},{"type":"Feature","geometry":{"type":"Point","coordinates":[-73.23495,18.47611]},"properties":{"id":55139,"name":"Petite Rivière de Nippes","state_code":"GA","country_code":"HT"}}]}