{"type":"FeatureCollection","features":[{"type":"Feature","geometry":{"type":"Point","coordinates":[-72.91667,19.81667]},"properties":{"id":55051,"name":"Arcahaie","state_code":"NO","country_code":"HT"}},{"type":"Feature","geometry":{"type":"Point","coordinates":[-72.88333,19.83333]},"properties":{"id":55062,"name":"Arrondissement de Port-de-Paix","state_code":"NO","country_code":"HT"}},{"type":"Feature","geometry":{"type":"Point","coordinates":[-72.66667,19.85]},"properties":{"id":55063,"name":"Arrondissement de Saint-Louis du Nord","state_code":"NO","country_code":"HT"}},{"type":"Feature","geometry":{"type":"Point","coordinates":[-73.25,19.75]},"properties":{"id":55068,"name":"Arrondissement du Môle Saint-Nicolas","state_code":"NO","country_code":"HT"}},{"type":"Feature","geometry":{"type":"Point","coordinates":[-73.20943,19.66307]},"properties":{"id":55071,"name":"Baie de Henne","state_code":"NO","country_code":"HT"}},{"type":"Feature","geometry":{"type":"Point","coordinates":[-73.33769,19.69142]},"properties":{"id":55074,"name":"Bombardopolis","state_code":"NO","country_code":"HT"}},{"type":"Feature","geometry":{"type":"Point","coordinates":[-72.79949,19.79445]},"properties":{"id":55097,"name":"Fond Bassin Bleu","state_code":"NO","country_code":"HT"}},{"type":"Feature","geometry":{"type":"Point","coordinates":[-73.19131,19.85379]},"properties":{"id":55110,"name":"Jean-Rabel","state_code":"NO","country_code":"HT"}},{"type":"Feature","geometry":{"type":"Point","coordinates":[-73.37605,19.807]},"properties":{"id":55133,"name":"Môle Saint-Nicolas","state_code":"NO","country_code":"HT"}},{"type":"Feature","geometry":{"type":"Point","coordinates":[-73.15499,19.63011]},"properties":{"id":55138,"name":"Petite Anse","state_code":"NO","country_code":"HT"}},{"type":"Feature","geometry":{"type":"Point","coordinates":[-72.83037,19.93984]},"properties":{"id":55147,"name":"Port-de-Paix","state_code":"NO","country_code":"HT"}},{"type":"Feature","geometry":{"type":"Point","coordinates":[-72.72138,19.93397]},"properties":{"id":55153,"name":"Saint-Louis du Nord","state_code":"NO","country_code":"HT"}},{"type":"Feature","geometry":{"type":"Point","coordinates":[-72.83333,19.93333]},"properties":{"id":55161,"name":"Ti Port-de-Paix","state_code":"NO","country_code":"HT"}}]}