{"type":"FeatureCollection","features":[{"type":"Feature","geometry":{"type":"Point","coordinates":[-71.75,18.05]},"properties":{"id":55048,"name":"Anse-à-Pitre","state_code":"SE","country_code":"HT"}},{"type":"Feature","geometry":{"type":"Point","coordinates":[-72.85,18.25]},"properties":{"id":55053,"name":"Arrondissement de Bainet","state_code":"SE","country_code":"HT"}},{"type":"Feature","geometry":{"type":"Point","coordinates":[-72.5,18.33333]},"properties":{"id":55057,"name":"Arrondissement de Jacmel","state_code":"SE","country_code":"HT"}},{"type":"Feature","geometry":{"type":"Point","coordinates":[-72.06638,18.23768]},"properties":{"id":55073,"name":"Belle-Anse","state_code":"SE","country_code":"HT"}},{"type":"Feature","geometry":{"type":"Point","coordinates":[-72.39545,18.2311]},"properties":{"id":55081,"name":"Cayes-Jacmel","state_code":"SE","country_code":"HT"}},{"type":"Feature","geometry":{"type":"Point","coordinates":[-72.53539,18.23427]},"properties":{"id":55109,"name":"Jacmel","state_code":"SE","country_code":"HT"}},{"type":"Feature","geometry":{"type":"Point","coordinates":[-73.00287,18.18872]},"properties":{"id":55114,"name":"Kotdefè","state_code":"SE","country_code":"HT"}},{"type":"Feature","geometry":{"type":"Point","coordinates":[-72.32289,18.23167]},"properties":{"id":55125,"name":"Marigot","state_code":"SE","country_code":"HT"}},{"type":"Feature","geometry":{"type":"Point","coordinates":[-71.84157,18.24384]},"properties":{"id":55157,"name":"Thiotte","state_code":"SE","country_code":"HT"}}]}