{"type":"FeatureCollection","features":[{"type":"Feature","geometry":{"type":"Point","coordinates":[21.2,48.28333]},"properties":{"id":55170,"name":"Abaújszántó","state_code":"BZ","country_code":"HU"}},{"type":"Feature","geometry":{"type":"Point","coordinates":[20.88046,48.06982]},"properties":{"id":55186,"name":"Alsózsolca","state_code":"BZ","country_code":"HU"}},{"type":"Feature","geometry":{"type":"Point","coordinates":[20.26667,48.18333]},"properties":{"id":55194,"name":"Arló","state_code":"BZ","country_code":"HU"}},{"type":"Feature","geometry":{"type":"Point","coordinates":[20.85832,48.13058]},"properties":{"id":55195,"name":"Arnót","state_code":"BZ","country_code":"HU"}},{"type":"Feature","geometry":{"type":"Point","coordinates":[20.96667,48.21667]},"properties":{"id":55196,"name":"Aszaló","state_code":"BZ","country_code":"HU"}},{"type":"Feature","geometry":{"type":"Point","coordinates":[21.18333,48.15]},"properties":{"id":55235,"name":"Bekecs","state_code":"BZ","country_code":"HU"}},{"type":"Feature","geometry":{"type":"Point","coordinates":[20.96667,48.05]},"properties":{"id":55311,"name":"Bőcs","state_code":"BZ","country_code":"HU"}},{"type":"Feature","geometry":{"type":"Point","coordinates":[20.53333,47.9]},"properties":{"id":55252,"name":"Bogács","state_code":"BZ","country_code":"HU"}},{"type":"Feature","geometry":{"type":"Point","coordinates":[20.8,48.21667]},"properties":{"id":55254,"name":"Boldva","state_code":"BZ","country_code":"HU"}},{"type":"Feature","geometry":{"type":"Point","coordinates":[20.25,48.11667]},"properties":{"id":55258,"name":"Borsodnádasd","state_code":"BZ","country_code":"HU"}},{"type":"Feature","geometry":{"type":"Point","coordinates":[21.89195,48.25561]},"properties":{"id":55321,"name":"Cigánd","state_code":"BZ","country_code":"HU"}},{"type":"Feature","geometry":{"type":"Point","coordinates":[21.87651,48.30338]},"properties":{"id":55322,"name":"Cigándi Járás","state_code":"BZ","country_code":"HU"}},{"type":"Feature","geometry":{"type":"Point","coordinates":[20.73333,48.3]},"properties":{"id":55396,"name":"Edelény","state_code":"BZ","country_code":"HU"}},{"type":"Feature","geometry":{"type":"Point","coordinates":[20.77506,48.40864]},"properties":{"id":55397,"name":"Edelényi Járás","state_code":"BZ","country_code":"HU"}},{"type":"Feature","geometry":{"type":"Point","coordinates":[20.81667,47.93333]},"properties":{"id":55404,"name":"Emőd","state_code":"BZ","country_code":"HU"}},{"type":"Feature","geometry":{"type":"Point","coordinates":[21.13333,48.33333]},"properties":{"id":55405,"name":"Encs","state_code":"BZ","country_code":"HU"}},{"type":"Feature","geometry":{"type":"Point","coordinates":[21.08169,48.39948]},"properties":{"id":55407,"name":"Encsi Járás","state_code":"BZ","country_code":"HU"}},{"type":"Feature","geometry":{"type":"Point","coordinates":[20.31667,48.18333]},"properties":{"id":55416,"name":"Farkaslyuk","state_code":"BZ","country_code":"HU"}},{"type":"Feature","geometry":{"type":"Point","coordinates":[20.86667,48.1]},"properties":{"id":55426,"name":"Felsőzsolca","state_code":"BZ","country_code":"HU"}},{"type":"Feature","geometry":{"type":"Point","coordinates":[20.96667,48.1]},"properties":{"id":55448,"name":"Gesztely","state_code":"BZ","country_code":"HU"}},{"type":"Feature","geometry":{"type":"Point","coordinates":[21.28333,48.46667]},"properties":{"id":55477,"name":"Gönc","state_code":"BZ","country_code":"HU"}},{"type":"Feature","geometry":{"type":"Point","coordinates":[21.28307,48.39948]},"properties":{"id":55478,"name":"Gönci Járás","state_code":"BZ","country_code":"HU"}},{"type":"Feature","geometry":{"type":"Point","coordinates":[21,48.25]},"properties":{"id":55494,"name":"Halmaj","state_code":"BZ","country_code":"HU"}},{"type":"Feature","geometry":{"type":"Point","coordinates":[20.75,47.96667]},"properties":{"id":55498,"name":"Harsány","state_code":"BZ","country_code":"HU"}},{"type":"Feature","geometry":{"type":"Point","coordinates":[20.95,47.9]},"properties":{"id":55503,"name":"Hejőbába","state_code":"BZ","country_code":"HU"}},{"type":"Feature","geometry":{"type":"Point","coordinates":[20.98333,48.06667]},"properties":{"id":55508,"name":"Hernádnémeti","state_code":"BZ","country_code":"HU"}},{"type":"Feature","geometry":{"type":"Point","coordinates":[20.66667,48.3]},"properties":{"id":55532,"name":"Izsófalva","state_code":"BZ","country_code":"HU"}},{"type":"Feature","geometry":{"type":"Point","coordinates":[20.25,48.15]},"properties":{"id":55540,"name":"Járdánháza","state_code":"BZ","country_code":"HU"}},{"type":"Feature","geometry":{"type":"Point","coordinates":[21.80537,48.3113]},"properties":{"id":55569,"name":"Karcsa","state_code":"BZ","country_code":"HU"}},{"type":"Feature","geometry":{"type":"Point","coordinates":[20.63333,48.25]},"properties":{"id":55575,"name":"Kazincbarcika","state_code":"BZ","country_code":"HU"}},{"type":"Feature","geometry":{"type":"Point","coordinates":[20.57978,48.26371]},"properties":{"id":55576,"name":"Kazincbarcikai Járás","state_code":"BZ","country_code":"HU"}},{"type":"Feature","geometry":{"type":"Point","coordinates":[21.28208,48.19442]},"properties":{"id":55718,"name":"Mád","state_code":"BZ","country_code":"HU"}},{"type":"Feature","geometry":{"type":"Point","coordinates":[20.83333,48.01667]},"properties":{"id":55720,"name":"Mályi","state_code":"BZ","country_code":"HU"}},{"type":"Feature","geometry":{"type":"Point","coordinates":[21.05,48.18333]},"properties":{"id":55686,"name":"Megyaszó","state_code":"BZ","country_code":"HU"}},{"type":"Feature","geometry":{"type":"Point","coordinates":[20.91667,47.81667]},"properties":{"id":55689,"name":"Mezőcsát","state_code":"BZ","country_code":"HU"}},{"type":"Feature","geometry":{"type":"Point","coordinates":[20.91693,47.79841]},"properties":{"id":55690,"name":"Mezőcsáti Járás","state_code":"BZ","country_code":"HU"}},{"type":"Feature","geometry":{"type":"Point","coordinates":[20.7,47.83333]},"properties":{"id":55693,"name":"Mezőkeresztes","state_code":"BZ","country_code":"HU"}},{"type":"Feature","geometry":{"type":"Point","coordinates":[20.58333,47.81667]},"properties":{"id":55696,"name":"Mezőkövesd","state_code":"BZ","country_code":"HU"}},{"type":"Feature","geometry":{"type":"Point","coordinates":[20.63623,47.84876]},"properties":{"id":55697,"name":"Mezőkövesdi Járás","state_code":"BZ","country_code":"HU"}},{"type":"Feature","geometry":{"type":"Point","coordinates":[21.26667,48.15]},"properties":{"id":55701,"name":"Mezőzombor","state_code":"BZ","country_code":"HU"}},{"type":"Feature","geometry":{"type":"Point","coordinates":[20.78333,48.1]},"properties":{"id":55705,"name":"Miskolc","state_code":"BZ","country_code":"HU"}},{"type":"Feature","geometry":{"type":"Point","coordinates":[20.77353,48.08675]},"properties":{"id":55706,"name":"Miskolci Járás","state_code":"BZ","country_code":"HU"}},{"type":"Feature","geometry":{"type":"Point","coordinates":[21.15052,48.21102]},"properties":{"id":55710,"name":"Monok","state_code":"BZ","country_code":"HU"}},{"type":"Feature","geometry":{"type":"Point","coordinates":[20.68333,48.26667]},"properties":{"id":55737,"name":"Múcsony","state_code":"BZ","country_code":"HU"}},{"type":"Feature","geometry":{"type":"Point","coordinates":[20.83333,47.98333]},"properties":{"id":55769,"name":"Nyékládháza","state_code":"BZ","country_code":"HU"}},{"type":"Feature","geometry":{"type":"Point","coordinates":[21.43333,48.25]},"properties":{"id":55797,"name":"Olaszliszka","state_code":"BZ","country_code":"HU"}},{"type":"Feature","geometry":{"type":"Point","coordinates":[20.91667,48.11667]},"properties":{"id":55798,"name":"Onga","state_code":"BZ","country_code":"HU"}},{"type":"Feature","geometry":{"type":"Point","coordinates":[20.91667,48]},"properties":{"id":56151,"name":"Ónod","state_code":"BZ","country_code":"HU"}},{"type":"Feature","geometry":{"type":"Point","coordinates":[20.3,48.21667]},"properties":{"id":56154,"name":"Ózd","state_code":"BZ","country_code":"HU"}},{"type":"Feature","geometry":{"type":"Point","coordinates":[20.24874,48.18133]},"properties":{"id":56155,"name":"Ózdi Járás","state_code":"BZ","country_code":"HU"}},{"type":"Feature","geometry":{"type":"Point","coordinates":[21.25,48.08333]},"properties":{"id":55832,"name":"Prügy","state_code":"BZ","country_code":"HU"}},{"type":"Feature","geometry":{"type":"Point","coordinates":[20.43333,48.3]},"properties":{"id":55837,"name":"Putnok","state_code":"BZ","country_code":"HU"}},{"type":"Feature","geometry":{"type":"Point","coordinates":[20.46384,48.33694]},"properties":{"id":55838,"name":"Putnoki Járás","state_code":"BZ","country_code":"HU"}},{"type":"Feature","geometry":{"type":"Point","coordinates":[21.97069,48.32565]},"properties":{"id":55864,"name":"Ricse","state_code":"BZ","country_code":"HU"}},{"type":"Feature","geometry":{"type":"Point","coordinates":[20.63333,48.38333]},"properties":{"id":55867,"name":"Rudabánya","state_code":"BZ","country_code":"HU"}},{"type":"Feature","geometry":{"type":"Point","coordinates":[20.73333,48.16667]},"properties":{"id":55882,"name":"Sajóbábony","state_code":"BZ","country_code":"HU"}},{"type":"Feature","geometry":{"type":"Point","coordinates":[20.58333,48.28333]},"properties":{"id":55883,"name":"Sajókaza","state_code":"BZ","country_code":"HU"}},{"type":"Feature","geometry":{"type":"Point","coordinates":[20.9,48.05]},"properties":{"id":55884,"name":"Sajólád","state_code":"BZ","country_code":"HU"}},{"type":"Feature","geometry":{"type":"Point","coordinates":[21.03333,47.95]},"properties":{"id":55888,"name":"Sajóörös","state_code":"BZ","country_code":"HU"}},{"type":"Feature","geometry":{"type":"Point","coordinates":[20.71667,48.21667]},"properties":{"id":55885,"name":"Sajószentpéter","state_code":"BZ","country_code":"HU"}},{"type":"Feature","geometry":{"type":"Point","coordinates":[21,47.95]},"properties":{"id":55886,"name":"Sajószöged","state_code":"BZ","country_code":"HU"}},{"type":"Feature","geometry":{"type":"Point","coordinates":[20.83149,48.18171]},"properties":{"id":55887,"name":"Sajóvámos","state_code":"BZ","country_code":"HU"}},{"type":"Feature","geometry":{"type":"Point","coordinates":[20.66667,47.95]},"properties":{"id":55979,"name":"Sály","state_code":"BZ","country_code":"HU"}},{"type":"Feature","geometry":{"type":"Point","coordinates":[21.57383,48.3245]},"properties":{"id":55986,"name":"Sárospatak","state_code":"BZ","country_code":"HU"}},{"type":"Feature","geometry":{"type":"Point","coordinates":[21.52716,48.29575]},"properties":{"id":55987,"name":"Sárospataki Járás","state_code":"BZ","country_code":"HU"}},{"type":"Feature","geometry":{"type":"Point","coordinates":[21.65871,48.39492]},"properties":{"id":55994,"name":"Sátoraljaújhely","state_code":"BZ","country_code":"HU"}},{"type":"Feature","geometry":{"type":"Point","coordinates":[21.54394,48.45898]},"properties":{"id":55995,"name":"Sátoraljaújhelyi Járás","state_code":"BZ","country_code":"HU"}},{"type":"Feature","geometry":{"type":"Point","coordinates":[20.73333,48.4]},"properties":{"id":55933,"name":"Szendrő","state_code":"BZ","country_code":"HU"}},{"type":"Feature","geometry":{"type":"Point","coordinates":[20.66667,47.76667]},"properties":{"id":55941,"name":"Szentistván","state_code":"BZ","country_code":"HU"}},{"type":"Feature","geometry":{"type":"Point","coordinates":[21.2097,48.15993]},"properties":{"id":55948,"name":"Szerencs","state_code":"BZ","country_code":"HU"}},{"type":"Feature","geometry":{"type":"Point","coordinates":[21.16865,48.14929]},"properties":{"id":55949,"name":"Szerencsi Járás","state_code":"BZ","country_code":"HU"}},{"type":"Feature","geometry":{"type":"Point","coordinates":[20.93333,48.2]},"properties":{"id":55958,"name":"Szikszó","state_code":"BZ","country_code":"HU"}},{"type":"Feature","geometry":{"type":"Point","coordinates":[20.95507,48.30032]},"properties":{"id":55959,"name":"Szikszói Járás","state_code":"BZ","country_code":"HU"}},{"type":"Feature","geometry":{"type":"Point","coordinates":[20.8,48.15]},"properties":{"id":55961,"name":"Szirmabesenyő","state_code":"BZ","country_code":"HU"}},{"type":"Feature","geometry":{"type":"Point","coordinates":[21.13333,48.08333]},"properties":{"id":56005,"name":"Taktaharkány","state_code":"BZ","country_code":"HU"}},{"type":"Feature","geometry":{"type":"Point","coordinates":[21.18333,48.11667]},"properties":{"id":56006,"name":"Taktaszada","state_code":"BZ","country_code":"HU"}},{"type":"Feature","geometry":{"type":"Point","coordinates":[21.23333,48.23333]},"properties":{"id":56062,"name":"Tállya","state_code":"BZ","country_code":"HU"}},{"type":"Feature","geometry":{"type":"Point","coordinates":[21.35,48.13333]},"properties":{"id":56012,"name":"Tarcal","state_code":"BZ","country_code":"HU"}},{"type":"Feature","geometry":{"type":"Point","coordinates":[21.71667,48.2]},"properties":{"id":56033,"name":"Tiszakarád","state_code":"BZ","country_code":"HU"}},{"type":"Feature","geometry":{"type":"Point","coordinates":[21,47.78333]},"properties":{"id":56034,"name":"Tiszakeszi","state_code":"BZ","country_code":"HU"}},{"type":"Feature","geometry":{"type":"Point","coordinates":[21.07261,48.03774]},"properties":{"id":56038,"name":"Tiszalúc","state_code":"BZ","country_code":"HU"}},{"type":"Feature","geometry":{"type":"Point","coordinates":[21.08333,47.93333]},"properties":{"id":56048,"name":"Tiszaújváros","state_code":"BZ","country_code":"HU"}},{"type":"Feature","geometry":{"type":"Point","coordinates":[20.99321,47.92656]},"properties":{"id":56049,"name":"Tiszaújvárosi Járás","state_code":"BZ","country_code":"HU"}},{"type":"Feature","geometry":{"type":"Point","coordinates":[21.41667,48.11667]},"properties":{"id":56050,"name":"Tokaj","state_code":"BZ","country_code":"HU"}},{"type":"Feature","geometry":{"type":"Point","coordinates":[21.37002,48.14014]},"properties":{"id":56051,"name":"Tokaji Járás","state_code":"BZ","country_code":"HU"}},{"type":"Feature","geometry":{"type":"Point","coordinates":[21.45,48.28333]},"properties":{"id":56052,"name":"Tolcsva","state_code":"BZ","country_code":"HU"}}]}