{"type":"FeatureCollection","features":[{"type":"Feature","geometry":{"type":"Point","coordinates":[19.45208,46.84025]},"properties":{"id":56141,"name":"Ágasegyháza","state_code":"BK","country_code":"HU"}},{"type":"Feature","geometry":{"type":"Point","coordinates":[19.20423,46.69167]},"properties":{"id":55180,"name":"Akasztó","state_code":"BK","country_code":"HU"}},{"type":"Feature","geometry":{"type":"Point","coordinates":[18.9621,46.88208]},"properties":{"id":55191,"name":"Apostag","state_code":"BK","country_code":"HU"}},{"type":"Feature","geometry":{"type":"Point","coordinates":[19.3326,46.12648]},"properties":{"id":55287,"name":"Bácsalmás","state_code":"BK","country_code":"HU"}},{"type":"Feature","geometry":{"type":"Point","coordinates":[19.33063,46.10167]},"properties":{"id":55288,"name":"Bácsalmási Járás","state_code":"BK","country_code":"HU"}},{"type":"Feature","geometry":{"type":"Point","coordinates":[19.15621,46.125]},"properties":{"id":55289,"name":"Bácsbokod","state_code":"BK","country_code":"HU"}},{"type":"Feature","geometry":{"type":"Point","coordinates":[18.95307,46.18299]},"properties":{"id":55203,"name":"Baja","state_code":"BK","country_code":"HU"}},{"type":"Feature","geometry":{"type":"Point","coordinates":[19.01359,46.14507]},"properties":{"id":55204,"name":"Bajai Járás","state_code":"BK","country_code":"HU"}},{"type":"Feature","geometry":{"type":"Point","coordinates":[19.57092,46.86216]},"properties":{"id":55225,"name":"Ballószög","state_code":"BK","country_code":"HU"}},{"type":"Feature","geometry":{"type":"Point","coordinates":[18.95419,46.488]},"properties":{"id":55295,"name":"Bátya","state_code":"BK","country_code":"HU"}},{"type":"Feature","geometry":{"type":"Point","coordinates":[19.68074,46.68704]},"properties":{"id":55283,"name":"Bugac","state_code":"BK","country_code":"HU"}},{"type":"Feature","geometry":{"type":"Point","coordinates":[19.18361,46.42194]},"properties":{"id":55347,"name":"Császártöltés","state_code":"BK","country_code":"HU"}},{"type":"Feature","geometry":{"type":"Point","coordinates":[19.14667,46.18917]},"properties":{"id":55348,"name":"Csávoly","state_code":"BK","country_code":"HU"}},{"type":"Feature","geometry":{"type":"Point","coordinates":[19.26802,46.71543]},"properties":{"id":55331,"name":"Csengőd","state_code":"BK","country_code":"HU"}},{"type":"Feature","geometry":{"type":"Point","coordinates":[18.91722,45.995]},"properties":{"id":55386,"name":"Dávod","state_code":"BK","country_code":"HU"}},{"type":"Feature","geometry":{"type":"Point","coordinates":[18.99632,46.644]},"properties":{"id":55377,"name":"Dunapataj","state_code":"BK","country_code":"HU"}},{"type":"Feature","geometry":{"type":"Point","coordinates":[18.97127,46.91478]},"properties":{"id":55381,"name":"Dunavecse","state_code":"BK","country_code":"HU"}},{"type":"Feature","geometry":{"type":"Point","coordinates":[18.96296,46.39085]},"properties":{"id":55383,"name":"Dusnok","state_code":"BK","country_code":"HU"}},{"type":"Feature","geometry":{"type":"Point","coordinates":[18.98457,46.25352]},"properties":{"id":56147,"name":"Érsekcsanád","state_code":"BK","country_code":"HU"}},{"type":"Feature","geometry":{"type":"Point","coordinates":[19.18686,46.19713]},"properties":{"id":55424,"name":"Felsőszentiván","state_code":"BK","country_code":"HU"}},{"type":"Feature","geometry":{"type":"Point","coordinates":[19.72132,46.74221]},"properties":{"id":55439,"name":"Fülöpjakab","state_code":"BK","country_code":"HU"}},{"type":"Feature","geometry":{"type":"Point","coordinates":[19.23748,46.82075]},"properties":{"id":55440,"name":"Fülöpszállás","state_code":"BK","country_code":"HU"}},{"type":"Feature","geometry":{"type":"Point","coordinates":[19.04278,46.03194]},"properties":{"id":55446,"name":"Gara","state_code":"BK","country_code":"HU"}},{"type":"Feature","geometry":{"type":"Point","coordinates":[19.12056,46.39861]},"properties":{"id":55493,"name":"Hajós","state_code":"BK","country_code":"HU"}},{"type":"Feature","geometry":{"type":"Point","coordinates":[19.0311,46.69758]},"properties":{"id":55499,"name":"Harta","state_code":"BK","country_code":"HU"}},{"type":"Feature","geometry":{"type":"Point","coordinates":[19.62251,46.83661]},"properties":{"id":55504,"name":"Helvécia","state_code":"BK","country_code":"HU"}},{"type":"Feature","geometry":{"type":"Point","coordinates":[18.93917,45.95]},"properties":{"id":55505,"name":"Hercegszántó","state_code":"BK","country_code":"HU"}},{"type":"Feature","geometry":{"type":"Point","coordinates":[19.35172,46.80454]},"properties":{"id":55531,"name":"Izsák","state_code":"BK","country_code":"HU"}},{"type":"Feature","geometry":{"type":"Point","coordinates":[19.32583,46.29861]},"properties":{"id":55535,"name":"Jánoshalma","state_code":"BK","country_code":"HU"}},{"type":"Feature","geometry":{"type":"Point","coordinates":[19.31742,46.28283]},"properties":{"id":55536,"name":"Jánoshalmai Járás","state_code":"BK","country_code":"HU"}},{"type":"Feature","geometry":{"type":"Point","coordinates":[19.76065,46.56685]},"properties":{"id":55552,"name":"Jászszentlászló","state_code":"BK","country_code":"HU"}},{"type":"Feature","geometry":{"type":"Point","coordinates":[18.97283,46.52981]},"properties":{"id":55558,"name":"Kalocsa","state_code":"BK","country_code":"HU"}},{"type":"Feature","geometry":{"type":"Point","coordinates":[19.04211,46.55646]},"properties":{"id":55559,"name":"Kalocsai Járás","state_code":"BK","country_code":"HU"}},{"type":"Feature","geometry":{"type":"Point","coordinates":[19.20935,46.03398]},"properties":{"id":55574,"name":"Katymár","state_code":"BK","country_code":"HU"}},{"type":"Feature","geometry":{"type":"Point","coordinates":[19.25194,46.52528]},"properties":{"id":55578,"name":"Kecel","state_code":"BK","country_code":"HU"}},{"type":"Feature","geometry":{"type":"Point","coordinates":[19.69128,46.90618]},"properties":{"id":55579,"name":"Kecskemét","state_code":"BK","country_code":"HU"}},{"type":"Feature","geometry":{"type":"Point","coordinates":[19.58701,46.88283]},"properties":{"id":55580,"name":"Kecskeméti Járás","state_code":"BK","country_code":"HU"}},{"type":"Feature","geometry":{"type":"Point","coordinates":[19.61659,46.1968]},"properties":{"id":55581,"name":"Kelebia","state_code":"BK","country_code":"HU"}},{"type":"Feature","geometry":{"type":"Point","coordinates":[19.47806,46.93722]},"properties":{"id":55587,"name":"Kerekegyháza","state_code":"BK","country_code":"HU"}},{"type":"Feature","geometry":{"type":"Point","coordinates":[19.28528,46.62139]},"properties":{"id":55602,"name":"Kiskőrös","state_code":"BK","country_code":"HU"}},{"type":"Feature","geometry":{"type":"Point","coordinates":[19.33726,46.63309]},"properties":{"id":55603,"name":"Kiskőrösi Járás","state_code":"BK","country_code":"HU"}},{"type":"Feature","geometry":{"type":"Point","coordinates":[19.84458,46.71213]},"properties":{"id":55594,"name":"Kiskunfélegyháza","state_code":"BK","country_code":"HU"}},{"type":"Feature","geometry":{"type":"Point","coordinates":[19.77006,46.65721]},"properties":{"id":55595,"name":"Kiskunfélegyházi Járás","state_code":"BK","country_code":"HU"}},{"type":"Feature","geometry":{"type":"Point","coordinates":[19.48479,46.43402]},"properties":{"id":55596,"name":"Kiskunhalas","state_code":"BK","country_code":"HU"}},{"type":"Feature","geometry":{"type":"Point","coordinates":[19.53067,46.35832]},"properties":{"id":55597,"name":"Kiskunhalasi Járás","state_code":"BK","country_code":"HU"}},{"type":"Feature","geometry":{"type":"Point","coordinates":[19.74,46.49028]},"properties":{"id":55599,"name":"Kiskunmajsa","state_code":"BK","country_code":"HU"}},{"type":"Feature","geometry":{"type":"Point","coordinates":[19.72316,46.49608]},"properties":{"id":55600,"name":"Kiskunmajsai Járás","state_code":"BK","country_code":"HU"}},{"type":"Feature","geometry":{"type":"Point","coordinates":[19.48954,46.28009]},"properties":{"id":55608,"name":"Kisszállás","state_code":"BK","country_code":"HU"}},{"type":"Feature","geometry":{"type":"Point","coordinates":[19.41454,46.36091]},"properties":{"id":55626,"name":"Kunfehértó","state_code":"BK","country_code":"HU"}},{"type":"Feature","geometry":{"type":"Point","coordinates":[19.12575,47.02699]},"properties":{"id":55630,"name":"Kunszentmiklós","state_code":"BK","country_code":"HU"}},{"type":"Feature","geometry":{"type":"Point","coordinates":[19.15563,46.9481]},"properties":{"id":55631,"name":"Kunszentmiklósi Járás","state_code":"BK","country_code":"HU"}},{"type":"Feature","geometry":{"type":"Point","coordinates":[19.56171,47.02133]},"properties":{"id":55654,"name":"Lajosmizse","state_code":"BK","country_code":"HU"}},{"type":"Feature","geometry":{"type":"Point","coordinates":[19.99504,46.87601]},"properties":{"id":55655,"name":"Lakitelek","state_code":"BK","country_code":"HU"}},{"type":"Feature","geometry":{"type":"Point","coordinates":[19.26121,46.0587]},"properties":{"id":55672,"name":"Madaras","state_code":"BK","country_code":"HU"}},{"type":"Feature","geometry":{"type":"Point","coordinates":[19.38102,46.21509]},"properties":{"id":55731,"name":"Mélykút","state_code":"BK","country_code":"HU"}},{"type":"Feature","geometry":{"type":"Point","coordinates":[18.9059,46.04248]},"properties":{"id":55741,"name":"Nagybaracska","state_code":"BK","country_code":"HU"}},{"type":"Feature","geometry":{"type":"Point","coordinates":[19.05115,46.34051]},"properties":{"id":55765,"name":"Nemesnádudvar","state_code":"BK","country_code":"HU"}},{"type":"Feature","geometry":{"type":"Point","coordinates":[19.87836,46.86017]},"properties":{"id":55768,"name":"Nyárlőrinc","state_code":"BK","country_code":"HU"}},{"type":"Feature","geometry":{"type":"Point","coordinates":[19.47259,46.75087]},"properties":{"id":55799,"name":"Orgovány","state_code":"BK","country_code":"HU"}},{"type":"Feature","geometry":{"type":"Point","coordinates":[19.95156,46.62417]},"properties":{"id":55840,"name":"Pálmonostora","state_code":"BK","country_code":"HU"}},{"type":"Feature","geometry":{"type":"Point","coordinates":[19.00098,46.80101]},"properties":{"id":55903,"name":"Solt","state_code":"BK","country_code":"HU"}},{"type":"Feature","geometry":{"type":"Point","coordinates":[19.39389,46.57889]},"properties":{"id":55904,"name":"Soltvadkert","state_code":"BK","country_code":"HU"}},{"type":"Feature","geometry":{"type":"Point","coordinates":[18.99524,46.28181]},"properties":{"id":55997,"name":"Sükösd","state_code":"BK","country_code":"HU"}},{"type":"Feature","geometry":{"type":"Point","coordinates":[19.22324,46.87575]},"properties":{"id":55913,"name":"Szabadszállás","state_code":"BK","country_code":"HU"}},{"type":"Feature","geometry":{"type":"Point","coordinates":[19.01178,46.97565]},"properties":{"id":55917,"name":"Szalkszentmárton","state_code":"BK","country_code":"HU"}},{"type":"Feature","geometry":{"type":"Point","coordinates":[19.66103,46.55713]},"properties":{"id":55919,"name":"Szank","state_code":"BK","country_code":"HU"}},{"type":"Feature","geometry":{"type":"Point","coordinates":[19.91846,46.91892]},"properties":{"id":55942,"name":"Szentkirály","state_code":"BK","country_code":"HU"}},{"type":"Feature","geometry":{"type":"Point","coordinates":[19.02988,47.02095]},"properties":{"id":56016,"name":"Tass","state_code":"BK","country_code":"HU"}},{"type":"Feature","geometry":{"type":"Point","coordinates":[19.51436,46.54824]},"properties":{"id":56072,"name":"Tázlár","state_code":"BK","country_code":"HU"}},{"type":"Feature","geometry":{"type":"Point","coordinates":[19.99841,46.81279]},"properties":{"id":56021,"name":"Tiszaalpár","state_code":"BK","country_code":"HU"}},{"type":"Feature","geometry":{"type":"Point","coordinates":[20.10349,46.93261]},"properties":{"id":56035,"name":"Tiszakécske","state_code":"BK","country_code":"HU"}},{"type":"Feature","geometry":{"type":"Point","coordinates":[19.97298,46.86013]},"properties":{"id":56036,"name":"Tiszakécskei Járás","state_code":"BK","country_code":"HU"}},{"type":"Feature","geometry":{"type":"Point","coordinates":[19.5391,46.20605]},"properties":{"id":56055,"name":"Tompa","state_code":"BK","country_code":"HU"}},{"type":"Feature","geometry":{"type":"Point","coordinates":[19.75668,46.81674]},"properties":{"id":56111,"name":"Városföld","state_code":"BK","country_code":"HU"}},{"type":"Feature","geometry":{"type":"Point","coordinates":[18.98514,46.10782]},"properties":{"id":56091,"name":"Vaskút","state_code":"BK","country_code":"HU"}}]}