{"type":"FeatureCollection","features":[{"type":"Feature","geometry":{"type":"Point","coordinates":[20.6,47.46667]},"properties":{"id":55173,"name":"Abádszalók","state_code":"JN","country_code":"HU"}},{"type":"Feature","geometry":{"type":"Point","coordinates":[20.04219,47.42705]},"properties":{"id":55182,"name":"Alattyán","state_code":"JN","country_code":"HU"}},{"type":"Feature","geometry":{"type":"Point","coordinates":[20.26667,47.3]},"properties":{"id":55243,"name":"Besenyszög","state_code":"JN","country_code":"HU"}},{"type":"Feature","geometry":{"type":"Point","coordinates":[20.19753,46.95976]},"properties":{"id":55320,"name":"Cibakháza","state_code":"JN","country_code":"HU"}},{"type":"Feature","geometry":{"type":"Point","coordinates":[20.18701,46.8632]},"properties":{"id":55333,"name":"Cserkeszőlő","state_code":"JN","country_code":"HU"}},{"type":"Feature","geometry":{"type":"Point","coordinates":[20.53333,47.26667]},"properties":{"id":55419,"name":"Fegyvernek","state_code":"JN","country_code":"HU"}},{"type":"Feature","geometry":{"type":"Point","coordinates":[20.06667,47.38333]},"properties":{"id":55537,"name":"Jánoshida","state_code":"JN","country_code":"HU"}},{"type":"Feature","geometry":{"type":"Point","coordinates":[20.1,47.36667]},"properties":{"id":55541,"name":"Jászalsószentgyörgy","state_code":"JN","country_code":"HU"}},{"type":"Feature","geometry":{"type":"Point","coordinates":[20.15,47.51667]},"properties":{"id":55542,"name":"Jászapáti","state_code":"JN","country_code":"HU"}},{"type":"Feature","geometry":{"type":"Point","coordinates":[20.06567,47.46126]},"properties":{"id":55543,"name":"Jászapáti Járás","state_code":"JN","country_code":"HU"}},{"type":"Feature","geometry":{"type":"Point","coordinates":[19.98038,47.64238]},"properties":{"id":55553,"name":"Jászárokszállás","state_code":"JN","country_code":"HU"}},{"type":"Feature","geometry":{"type":"Point","coordinates":[19.91667,47.5]},"properties":{"id":55544,"name":"Jászberény","state_code":"JN","country_code":"HU"}},{"type":"Feature","geometry":{"type":"Point","coordinates":[19.86887,47.565]},"properties":{"id":55545,"name":"Jászberényi Járás","state_code":"JN","country_code":"HU"}},{"type":"Feature","geometry":{"type":"Point","coordinates":[20.01534,47.5661]},"properties":{"id":55546,"name":"Jászdózsa","state_code":"JN","country_code":"HU"}},{"type":"Feature","geometry":{"type":"Point","coordinates":[19.99086,47.52038]},"properties":{"id":55547,"name":"Jászjákóhalma","state_code":"JN","country_code":"HU"}},{"type":"Feature","geometry":{"type":"Point","coordinates":[20.21667,47.45]},"properties":{"id":55549,"name":"Jászkisér","state_code":"JN","country_code":"HU"}},{"type":"Feature","geometry":{"type":"Point","coordinates":[20.16667,47.36667]},"properties":{"id":55550,"name":"Jászladány","state_code":"JN","country_code":"HU"}},{"type":"Feature","geometry":{"type":"Point","coordinates":[20.18333,47.58333]},"properties":{"id":55551,"name":"Jászszentandrás","state_code":"JN","country_code":"HU"}},{"type":"Feature","geometry":{"type":"Point","coordinates":[20.93333,47.31667]},"properties":{"id":55567,"name":"Karcag","state_code":"JN","country_code":"HU"}},{"type":"Feature","geometry":{"type":"Point","coordinates":[20.84218,47.28583]},"properties":{"id":55568,"name":"Karcagi Járás","state_code":"JN","country_code":"HU"}},{"type":"Feature","geometry":{"type":"Point","coordinates":[20.68333,47.25]},"properties":{"id":55584,"name":"Kenderes","state_code":"JN","country_code":"HU"}},{"type":"Feature","geometry":{"type":"Point","coordinates":[20.33333,47.08333]},"properties":{"id":55585,"name":"Kengyel","state_code":"JN","country_code":"HU"}},{"type":"Feature","geometry":{"type":"Point","coordinates":[20.76667,47.21667]},"properties":{"id":55615,"name":"Kisújszállás","state_code":"JN","country_code":"HU"}},{"type":"Feature","geometry":{"type":"Point","coordinates":[20.63333,47.36667]},"properties":{"id":55627,"name":"Kunhegyes","state_code":"JN","country_code":"HU"}},{"type":"Feature","geometry":{"type":"Point","coordinates":[20.59199,47.40329]},"properties":{"id":55628,"name":"Kunhegyesi Járás","state_code":"JN","country_code":"HU"}},{"type":"Feature","geometry":{"type":"Point","coordinates":[20.8,47.43333]},"properties":{"id":55629,"name":"Kunmadaras","state_code":"JN","country_code":"HU"}},{"type":"Feature","geometry":{"type":"Point","coordinates":[20.28879,46.83916]},"properties":{"id":55632,"name":"Kunszentmárton","state_code":"JN","country_code":"HU"}},{"type":"Feature","geometry":{"type":"Point","coordinates":[20.25179,46.87698]},"properties":{"id":55633,"name":"Kunszentmártoni Járás","state_code":"JN","country_code":"HU"}},{"type":"Feature","geometry":{"type":"Point","coordinates":[20.63333,47]},"properties":{"id":55699,"name":"Mezőtúr","state_code":"JN","country_code":"HU"}},{"type":"Feature","geometry":{"type":"Point","coordinates":[20.59046,47.02495]},"properties":{"id":55700,"name":"Mezőtúri Járás","state_code":"JN","country_code":"HU"}},{"type":"Feature","geometry":{"type":"Point","coordinates":[20.4,46.9]},"properties":{"id":56156,"name":"Öcsöd","state_code":"JN","country_code":"HU"}},{"type":"Feature","geometry":{"type":"Point","coordinates":[20.23333,47.08333]},"properties":{"id":55874,"name":"Rákóczifalva","state_code":"JN","country_code":"HU"}},{"type":"Feature","geometry":{"type":"Point","coordinates":[20.26667,47.06667]},"properties":{"id":55875,"name":"Rákócziújfalu","state_code":"JN","country_code":"HU"}},{"type":"Feature","geometry":{"type":"Point","coordinates":[20.3,47.18333]},"properties":{"id":55915,"name":"Szajol","state_code":"JN","country_code":"HU"}},{"type":"Feature","geometry":{"type":"Point","coordinates":[20.20283,46.80259]},"properties":{"id":55932,"name":"Szelevény","state_code":"JN","country_code":"HU"}},{"type":"Feature","geometry":{"type":"Point","coordinates":[20.2,47.18333]},"properties":{"id":55964,"name":"Szolnok","state_code":"JN","country_code":"HU"}},{"type":"Feature","geometry":{"type":"Point","coordinates":[20.19839,47.2248]},"properties":{"id":55965,"name":"Szolnoki Járás","state_code":"JN","country_code":"HU"}},{"type":"Feature","geometry":{"type":"Point","coordinates":[20.48333,47.3]},"properties":{"id":56025,"name":"Tiszabő","state_code":"JN","country_code":"HU"}},{"type":"Feature","geometry":{"type":"Point","coordinates":[20.46667,47.45]},"properties":{"id":56024,"name":"Tiszabura","state_code":"JN","country_code":"HU"}},{"type":"Feature","geometry":{"type":"Point","coordinates":[20.25,46.98333]},"properties":{"id":56030,"name":"Tiszaföldvár","state_code":"JN","country_code":"HU"}},{"type":"Feature","geometry":{"type":"Point","coordinates":[20.76667,47.61667]},"properties":{"id":56031,"name":"Tiszafüred","state_code":"JN","country_code":"HU"}},{"type":"Feature","geometry":{"type":"Point","coordinates":[20.78879,47.53907]},"properties":{"id":56032,"name":"Tiszafüredi Járás","state_code":"JN","country_code":"HU"}},{"type":"Feature","geometry":{"type":"Point","coordinates":[20.31667,47.21667]},"properties":{"id":56041,"name":"Tiszapüspöki","state_code":"JN","country_code":"HU"}},{"type":"Feature","geometry":{"type":"Point","coordinates":[20.45,47.4]},"properties":{"id":56042,"name":"Tiszaroff","state_code":"JN","country_code":"HU"}},{"type":"Feature","geometry":{"type":"Point","coordinates":[20.4,47.38333]},"properties":{"id":56045,"name":"Tiszasüly","state_code":"JN","country_code":"HU"}},{"type":"Feature","geometry":{"type":"Point","coordinates":[20.73333,47.48333]},"properties":{"id":56043,"name":"Tiszaszentimre","state_code":"JN","country_code":"HU"}},{"type":"Feature","geometry":{"type":"Point","coordinates":[20.71949,47.55707]},"properties":{"id":56044,"name":"Tiszaszőlős","state_code":"JN","country_code":"HU"}},{"type":"Feature","geometry":{"type":"Point","coordinates":[20.41667,47.18333]},"properties":{"id":56084,"name":"Törökszentmiklós","state_code":"JN","country_code":"HU"}},{"type":"Feature","geometry":{"type":"Point","coordinates":[20.44859,47.18209]},"properties":{"id":56085,"name":"Törökszentmiklósi Járás","state_code":"JN","country_code":"HU"}},{"type":"Feature","geometry":{"type":"Point","coordinates":[20.15,47.1]},"properties":{"id":56077,"name":"Tószeg","state_code":"JN","country_code":"HU"}},{"type":"Feature","geometry":{"type":"Point","coordinates":[20.75,47.1]},"properties":{"id":56086,"name":"Túrkeve","state_code":"JN","country_code":"HU"}},{"type":"Feature","geometry":{"type":"Point","coordinates":[20.08333,47.3]},"properties":{"id":56164,"name":"Újszász","state_code":"JN","country_code":"HU"}},{"type":"Feature","geometry":{"type":"Point","coordinates":[20.13333,47.26667]},"properties":{"id":56118,"name":"Zagyvarékas","state_code":"JN","country_code":"HU"}}]}