{"type":"FeatureCollection","features":[{"type":"Feature","geometry":{"type":"Point","coordinates":[18.01555556,47.71]},"properties":{"id":149667,"name":"Ács","state_code":"KE","country_code":"HU"}},{"type":"Feature","geometry":{"type":"Point","coordinates":[18.07163056,47.40206944]},"properties":{"id":149601,"name":"Aka","state_code":"KE","country_code":"HU"}},{"type":"Feature","geometry":{"type":"Point","coordinates":[18.25538889,47.7287]},"properties":{"id":149602,"name":"Almásfüzitő","state_code":"KE","country_code":"HU"}},{"type":"Feature","geometry":{"type":"Point","coordinates":[18.00313889,47.5095]},"properties":{"id":149668,"name":"Ászár","state_code":"KE","country_code":"HU"}},{"type":"Feature","geometry":{"type":"Point","coordinates":[17.97861111,47.64166667]},"properties":{"id":149608,"name":"Bábolna","state_code":"KE","country_code":"HU"}},{"type":"Feature","geometry":{"type":"Point","coordinates":[18.55583333,47.72722222]},"properties":{"id":149603,"name":"Bajót","state_code":"KE","country_code":"HU"}},{"type":"Feature","geometry":{"type":"Point","coordinates":[17.90243056,47.46548056]},"properties":{"id":149604,"name":"Bakonybánk","state_code":"KE","country_code":"HU"}},{"type":"Feature","geometry":{"type":"Point","coordinates":[18.09916111,47.44851944]},"properties":{"id":149606,"name":"Bakonysárkány","state_code":"KE","country_code":"HU"}},{"type":"Feature","geometry":{"type":"Point","coordinates":[17.96018056,47.47208056]},"properties":{"id":149605,"name":"Bakonyszombathely","state_code":"KE","country_code":"HU"}},{"type":"Feature","geometry":{"type":"Point","coordinates":[17.92116944,47.64986111]},"properties":{"id":149607,"name":"Bana","state_code":"KE","country_code":"HU"}},{"type":"Feature","geometry":{"type":"Point","coordinates":[18.38611111,47.57111111]},"properties":{"id":149609,"name":"Bánhida","state_code":"KE","country_code":"HU"}},{"type":"Feature","geometry":{"type":"Point","coordinates":[17.91896944,47.5114]},"properties":{"id":149610,"name":"Bársonyos","state_code":"KE","country_code":"HU"}},{"type":"Feature","geometry":{"type":"Point","coordinates":[18.14206111,47.50203056]},"properties":{"id":149613,"name":"Császár","state_code":"KE","country_code":"HU"}},{"type":"Feature","geometry":{"type":"Point","coordinates":[17.97628889,47.38031944]},"properties":{"id":149611,"name":"Csatka","state_code":"KE","country_code":"HU"}},{"type":"Feature","geometry":{"type":"Point","coordinates":[18.08686111,47.68118056]},"properties":{"id":149614,"name":"Csém","state_code":"KE","country_code":"HU"}},{"type":"Feature","geometry":{"type":"Point","coordinates":[18.06365,47.57863056]},"properties":{"id":149615,"name":"Csép","state_code":"KE","country_code":"HU"}},{"type":"Feature","geometry":{"type":"Point","coordinates":[18.71303889,47.69346944]},"properties":{"id":149612,"name":"Csolnok","state_code":"KE","country_code":"HU"}},{"type":"Feature","geometry":{"type":"Point","coordinates":[18.22463056,47.51881111]},"properties":{"id":149616,"name":"Dad","state_code":"KE","country_code":"HU"}},{"type":"Feature","geometry":{"type":"Point","coordinates":[18.72,47.6625]},"properties":{"id":149620,"name":"Dág","state_code":"KE","country_code":"HU"}},{"type":"Feature","geometry":{"type":"Point","coordinates":[18.91436944,47.7648]},"properties":{"id":149621,"name":"Dömös","state_code":"KE","country_code":"HU"}},{"type":"Feature","geometry":{"type":"Point","coordinates":[18.73641,47.72095]},"properties":{"id":149617,"name":"Dorog","state_code":"KE","country_code":"HU"}},{"type":"Feature","geometry":{"type":"Point","coordinates":[18.3217,47.72961111]},"properties":{"id":149618,"name":"Dunaalmás","state_code":"KE","country_code":"HU"}},{"type":"Feature","geometry":{"type":"Point","coordinates":[18.37958056,47.70566944]},"properties":{"id":149619,"name":"Dunaszentmiklós","state_code":"KE","country_code":"HU"}},{"type":"Feature","geometry":{"type":"Point","coordinates":[18.63558056,47.64708056]},"properties":{"id":149622,"name":"Epöl","state_code":"KE","country_code":"HU"}},{"type":"Feature","geometry":{"type":"Point","coordinates":[18.74027778,47.78555556]},"properties":{"id":149623,"name":"Esztergom","state_code":"KE","country_code":"HU"}},{"type":"Feature","geometry":{"type":"Point","coordinates":[18.07201111,47.53168889]},"properties":{"id":149624,"name":"Ete","state_code":"KE","country_code":"HU"}},{"type":"Feature","geometry":{"type":"Point","coordinates":[18.64178056,47.59186944]},"properties":{"id":149625,"name":"Gyermely","state_code":"KE","country_code":"HU"}},{"type":"Feature","geometry":{"type":"Point","coordinates":[18.51063889,47.64703056]},"properties":{"id":149626,"name":"Héreg","state_code":"KE","country_code":"HU"}},{"type":"Feature","geometry":{"type":"Point","coordinates":[18.30683056,47.52311111]},"properties":{"id":149627,"name":"Kecskéd","state_code":"KE","country_code":"HU"}},{"type":"Feature","geometry":{"type":"Point","coordinates":[17.93891944,47.51635]},"properties":{"id":149628,"name":"Kerékteleki","state_code":"KE","country_code":"HU"}},{"type":"Feature","geometry":{"type":"Point","coordinates":[18.7952,47.71358056]},"properties":{"id":149629,"name":"Kesztölc","state_code":"KE","country_code":"HU"}},{"type":"Feature","geometry":{"type":"Point","coordinates":[18.02666667,47.50166667]},"properties":{"id":149630,"name":"Kisbér","state_code":"KE","country_code":"HU"}},{"type":"Feature","geometry":{"type":"Point","coordinates":[18.0971,47.6544]},"properties":{"id":149631,"name":"Kisigmánd","state_code":"KE","country_code":"HU"}},{"type":"Feature","geometry":{"type":"Point","coordinates":[18.21536111,47.60668056]},"properties":{"id":149632,"name":"Kocs","state_code":"KE","country_code":"HU"}},{"type":"Feature","geometry":{"type":"Point","coordinates":[18.11913,47.74318]},"properties":{"id":149633,"name":"Komárom","state_code":"KE","country_code":"HU"}},{"type":"Feature","geometry":{"type":"Point","coordinates":[18.26048056,47.54678056]},"properties":{"id":149634,"name":"Kömlőd","state_code":"KE","country_code":"HU"}},{"type":"Feature","geometry":{"type":"Point","coordinates":[18.32696944,47.54533889]},"properties":{"id":149635,"name":"Környe","state_code":"KE","country_code":"HU"}},{"type":"Feature","geometry":{"type":"Point","coordinates":[18.49611111,47.74694444]},"properties":{"id":149637,"name":"Lábatlan","state_code":"KE","country_code":"HU"}},{"type":"Feature","geometry":{"type":"Point","coordinates":[18.7702,47.68268056]},"properties":{"id":149636,"name":"Leányvár","state_code":"KE","country_code":"HU"}},{"type":"Feature","geometry":{"type":"Point","coordinates":[18.7076,47.62746944]},"properties":{"id":149640,"name":"Máriahalom","state_code":"KE","country_code":"HU"}},{"type":"Feature","geometry":{"type":"Point","coordinates":[18.18465,47.6712]},"properties":{"id":149638,"name":"Mocsa","state_code":"KE","country_code":"HU"}},{"type":"Feature","geometry":{"type":"Point","coordinates":[18.60351,47.72806]},"properties":{"id":149639,"name":"Mogyorósbánya","state_code":"KE","country_code":"HU"}},{"type":"Feature","geometry":{"type":"Point","coordinates":[18.05568889,47.63253056]},"properties":{"id":149641,"name":"Nagyigmánd","state_code":"KE","country_code":"HU"}},{"type":"Feature","geometry":{"type":"Point","coordinates":[18.60163056,47.68481111]},"properties":{"id":149642,"name":"Nagysáp","state_code":"KE","country_code":"HU"}},{"type":"Feature","geometry":{"type":"Point","coordinates":[18.26075,47.69873056]},"properties":{"id":149643,"name":"Naszály","state_code":"KE","country_code":"HU"}},{"type":"Feature","geometry":{"type":"Point","coordinates":[18.3451,47.7329]},"properties":{"id":149644,"name":"Neszmély","state_code":"KE","country_code":"HU"}},{"type":"Feature","geometry":{"type":"Point","coordinates":[18.55666667,47.76027778]},"properties":{"id":149645,"name":"Nyergesújfalu","state_code":"KE","country_code":"HU"}},{"type":"Feature","geometry":{"type":"Point","coordinates":[18.31638889,47.48916667]},"properties":{"id":149646,"name":"Oroszlány","state_code":"KE","country_code":"HU"}},{"type":"Feature","geometry":{"type":"Point","coordinates":[18.81488889,47.6771]},"properties":{"id":149647,"name":"Piliscsév","state_code":"KE","country_code":"HU"}},{"type":"Feature","geometry":{"type":"Point","coordinates":[18.87551944,47.78403889]},"properties":{"id":149648,"name":"Pilismarót","state_code":"KE","country_code":"HU"}},{"type":"Feature","geometry":{"type":"Point","coordinates":[17.91865,47.43058056]},"properties":{"id":149649,"name":"Réde","state_code":"KE","country_code":"HU"}},{"type":"Feature","geometry":{"type":"Point","coordinates":[18.68096944,47.67465278]},"properties":{"id":149654,"name":"Sárisáp","state_code":"KE","country_code":"HU"}},{"type":"Feature","geometry":{"type":"Point","coordinates":[18.02876111,47.37083889]},"properties":{"id":149655,"name":"Súr","state_code":"KE","country_code":"HU"}},{"type":"Feature","geometry":{"type":"Point","coordinates":[18.44145,47.75675]},"properties":{"id":149656,"name":"Süttő","state_code":"KE","country_code":"HU"}},{"type":"Feature","geometry":{"type":"Point","coordinates":[18.16313056,47.55713056]},"properties":{"id":149652,"name":"Szákszend","state_code":"KE","country_code":"HU"}},{"type":"Feature","geometry":{"type":"Point","coordinates":[18.3418,47.68253]},"properties":{"id":149651,"name":"Szomód","state_code":"KE","country_code":"HU"}},{"type":"Feature","geometry":{"type":"Point","coordinates":[18.66328889,47.59305]},"properties":{"id":149650,"name":"Szomor","state_code":"KE","country_code":"HU"}},{"type":"Feature","geometry":{"type":"Point","coordinates":[18.16666667,47.73333333]},"properties":{"id":149653,"name":"Szőny","state_code":"KE","country_code":"HU"}},{"type":"Feature","geometry":{"type":"Point","coordinates":[18.44358,47.6618]},"properties":{"id":149657,"name":"Tardos","state_code":"KE","country_code":"HU"}},{"type":"Feature","geometry":{"type":"Point","coordinates":[18.51083333,47.61055556]},"properties":{"id":149658,"name":"Tarján","state_code":"KE","country_code":"HU"}},{"type":"Feature","geometry":{"type":"Point","coordinates":[18.00366111,47.59135]},"properties":{"id":149661,"name":"Tárkány","state_code":"KE","country_code":"HU"}},{"type":"Feature","geometry":{"type":"Point","coordinates":[18.39485,47.58616]},"properties":{"id":149659,"name":"Tatabánya","state_code":"KE","country_code":"HU"}},{"type":"Feature","geometry":{"type":"Point","coordinates":[18.68946,47.7339]},"properties":{"id":149660,"name":"Tokodaltáró","state_code":"KE","country_code":"HU"}},{"type":"Feature","geometry":{"type":"Point","coordinates":[18.73786944,47.64246944]},"properties":{"id":149669,"name":"Úny","state_code":"KE","country_code":"HU"}},{"type":"Feature","geometry":{"type":"Point","coordinates":[18.39731944,47.47526944]},"properties":{"id":149662,"name":"Várgesztes","state_code":"KE","country_code":"HU"}},{"type":"Feature","geometry":{"type":"Point","coordinates":[18.08346944,47.48721111]},"properties":{"id":149663,"name":"Vérteskethely","state_code":"KE","country_code":"HU"}},{"type":"Feature","geometry":{"type":"Point","coordinates":[18.36705,47.50973889]},"properties":{"id":149664,"name":"Vértessomló","state_code":"KE","country_code":"HU"}},{"type":"Feature","geometry":{"type":"Point","coordinates":[18.3803,47.61883889]},"properties":{"id":149665,"name":"Vértesszőlős","state_code":"KE","country_code":"HU"}},{"type":"Feature","geometry":{"type":"Point","coordinates":[18.45643889,47.62838889]},"properties":{"id":149666,"name":"Vértestolna","state_code":"KE","country_code":"HU"}}]}