{"type":"FeatureCollection","features":[{"type":"Feature","geometry":{"type":"Point","coordinates":[19.29614,48.07296]},"properties":{"id":55210,"name":"Balassagyarmat","state_code":"NO","country_code":"HU"}},{"type":"Feature","geometry":{"type":"Point","coordinates":[19.30594,48.01657]},"properties":{"id":55211,"name":"Balassagyarmati Járás","state_code":"NO","country_code":"HU"}},{"type":"Feature","geometry":{"type":"Point","coordinates":[19.84076,47.96962]},"properties":{"id":55293,"name":"Bátonyterenye","state_code":"NO","country_code":"HU"}},{"type":"Feature","geometry":{"type":"Point","coordinates":[19.87345,47.97691]},"properties":{"id":55294,"name":"Bátonyterenyei Járás","state_code":"NO","country_code":"HU"}},{"type":"Feature","geometry":{"type":"Point","coordinates":[19.40715,47.87057]},"properties":{"id":55237,"name":"Bercel","state_code":"NO","country_code":"HU"}},{"type":"Feature","geometry":{"type":"Point","coordinates":[19.54381,47.88352]},"properties":{"id":55286,"name":"Buják","state_code":"NO","country_code":"HU"}},{"type":"Feature","geometry":{"type":"Point","coordinates":[19.04317,47.93968]},"properties":{"id":55363,"name":"Diósjenő","state_code":"NO","country_code":"HU"}},{"type":"Feature","geometry":{"type":"Point","coordinates":[19.20231,47.99619]},"properties":{"id":56148,"name":"Érsekvadkert","state_code":"NO","country_code":"HU"}},{"type":"Feature","geometry":{"type":"Point","coordinates":[19.58519,47.78017]},"properties":{"id":55518,"name":"Héhalom","state_code":"NO","country_code":"HU"}},{"type":"Feature","geometry":{"type":"Point","coordinates":[19.67762,47.83238]},"properties":{"id":55533,"name":"Jobbágyi","state_code":"NO","country_code":"HU"}},{"type":"Feature","geometry":{"type":"Point","coordinates":[19.69686,48.16353]},"properties":{"id":55565,"name":"Karancskeszi","state_code":"NO","country_code":"HU"}},{"type":"Feature","geometry":{"type":"Point","coordinates":[19.73333,48.15]},"properties":{"id":55566,"name":"Karancslapujtő","state_code":"NO","country_code":"HU"}},{"type":"Feature","geometry":{"type":"Point","coordinates":[19.86143,48.04952]},"properties":{"id":55577,"name":"Kazár","state_code":"NO","country_code":"HU"}},{"type":"Feature","geometry":{"type":"Point","coordinates":[19.98257,48.03809]},"properties":{"id":55725,"name":"Mátranovák","state_code":"NO","country_code":"HU"}},{"type":"Feature","geometry":{"type":"Point","coordinates":[19.94762,48.03267]},"properties":{"id":55726,"name":"Mátraterenye","state_code":"NO","country_code":"HU"}},{"type":"Feature","geometry":{"type":"Point","coordinates":[19.78049,47.97421]},"properties":{"id":55727,"name":"Mátraverebély","state_code":"NO","country_code":"HU"}},{"type":"Feature","geometry":{"type":"Point","coordinates":[19.0905,48.00503]},"properties":{"id":55759,"name":"Nagyoroszi","state_code":"NO","country_code":"HU"}},{"type":"Feature","geometry":{"type":"Point","coordinates":[19.59618,47.79528]},"properties":{"id":55807,"name":"Palotás","state_code":"NO","country_code":"HU"}},{"type":"Feature","geometry":{"type":"Point","coordinates":[19.69829,47.92019]},"properties":{"id":55844,"name":"Pásztó","state_code":"NO","country_code":"HU"}},{"type":"Feature","geometry":{"type":"Point","coordinates":[19.60648,47.87012]},"properties":{"id":55845,"name":"Pásztói Járás","state_code":"NO","country_code":"HU"}},{"type":"Feature","geometry":{"type":"Point","coordinates":[19.1372,47.92816]},"properties":{"id":55877,"name":"Rétság","state_code":"NO","country_code":"HU"}},{"type":"Feature","geometry":{"type":"Point","coordinates":[19.16101,47.91741]},"properties":{"id":55878,"name":"Rétsági Járás","state_code":"NO","country_code":"HU"}},{"type":"Feature","geometry":{"type":"Point","coordinates":[19.5301,48.03695]},"properties":{"id":55865,"name":"Rimóc","state_code":"NO","country_code":"HU"}},{"type":"Feature","geometry":{"type":"Point","coordinates":[19.25723,47.92618]},"properties":{"id":55866,"name":"Romhány","state_code":"NO","country_code":"HU"}},{"type":"Feature","geometry":{"type":"Point","coordinates":[19.80303,48.09872]},"properties":{"id":55889,"name":"Salgótarján","state_code":"NO","country_code":"HU"}},{"type":"Feature","geometry":{"type":"Point","coordinates":[19.81548,48.10048]},"properties":{"id":55890,"name":"Salgótarjáni Járás","state_code":"NO","country_code":"HU"}},{"type":"Feature","geometry":{"type":"Point","coordinates":[19.82303,48.16374]},"properties":{"id":55907,"name":"Somoskőújfalu","state_code":"NO","country_code":"HU"}},{"type":"Feature","geometry":{"type":"Point","coordinates":[19.52019,48.08057]},"properties":{"id":55972,"name":"Szécsény","state_code":"NO","country_code":"HU"}},{"type":"Feature","geometry":{"type":"Point","coordinates":[19.55156,48.07301]},"properties":{"id":55973,"name":"Szécsényi Járás","state_code":"NO","country_code":"HU"}},{"type":"Feature","geometry":{"type":"Point","coordinates":[19.69218,47.85923]},"properties":{"id":55968,"name":"Szurdokpüspöki","state_code":"NO","country_code":"HU"}},{"type":"Feature","geometry":{"type":"Point","coordinates":[19.7461,47.95371]},"properties":{"id":56011,"name":"Tar","state_code":"NO","country_code":"HU"}}]}