{"type":"FeatureCollection","features":[{"type":"Feature","geometry":{"type":"Point","coordinates":[22.06273,48.17664]},"properties":{"id":55177,"name":"Ajak","state_code":"SZ","country_code":"HU"}},{"type":"Feature","geometry":{"type":"Point","coordinates":[22.11167,48.17642]},"properties":{"id":55187,"name":"Anarcs","state_code":"SZ","country_code":"HU"}},{"type":"Feature","geometry":{"type":"Point","coordinates":[21.93539,47.96431]},"properties":{"id":55189,"name":"Apagy","state_code":"SZ","country_code":"HU"}},{"type":"Feature","geometry":{"type":"Point","coordinates":[22.25916,48.20595]},"properties":{"id":55193,"name":"Aranyosapáti","state_code":"SZ","country_code":"HU"}},{"type":"Feature","geometry":{"type":"Point","coordinates":[22.08333,48]},"properties":{"id":55208,"name":"Baktalórántháza","state_code":"SZ","country_code":"HU"}},{"type":"Feature","geometry":{"type":"Point","coordinates":[22.02449,48.00436]},"properties":{"id":55209,"name":"Baktalórántházai Járás","state_code":"SZ","country_code":"HU"}},{"type":"Feature","geometry":{"type":"Point","coordinates":[21.86314,47.77066]},"properties":{"id":55224,"name":"Balkány","state_code":"SZ","country_code":"HU"}},{"type":"Feature","geometry":{"type":"Point","coordinates":[21.75,47.73333]},"properties":{"id":55307,"name":"Bököny","state_code":"SZ","country_code":"HU"}},{"type":"Feature","geometry":{"type":"Point","coordinates":[21.65,48.1]},"properties":{"id":55285,"name":"Buj","state_code":"SZ","country_code":"HU"}},{"type":"Feature","geometry":{"type":"Point","coordinates":[22.68096,47.83582]},"properties":{"id":55329,"name":"Csenger","state_code":"SZ","country_code":"HU"}},{"type":"Feature","geometry":{"type":"Point","coordinates":[22.5981,47.83045]},"properties":{"id":55330,"name":"Csengeri Járás","state_code":"SZ","country_code":"HU"}},{"type":"Feature","geometry":{"type":"Point","coordinates":[21.92624,48.11648]},"properties":{"id":55356,"name":"Demecser","state_code":"SZ","country_code":"HU"}},{"type":"Feature","geometry":{"type":"Point","coordinates":[22.06339,48.26246]},"properties":{"id":55391,"name":"Döge","state_code":"SZ","country_code":"HU"}},{"type":"Feature","geometry":{"type":"Point","coordinates":[21.93333,48.23333]},"properties":{"id":55367,"name":"Dombrád","state_code":"SZ","country_code":"HU"}},{"type":"Feature","geometry":{"type":"Point","coordinates":[22.11667,47.73333]},"properties":{"id":55406,"name":"Encsencs","state_code":"SZ","country_code":"HU"}},{"type":"Feature","geometry":{"type":"Point","coordinates":[22.51667,47.98333]},"properties":{"id":55420,"name":"Fehérgyarmat","state_code":"SZ","country_code":"HU"}},{"type":"Feature","geometry":{"type":"Point","coordinates":[22.63014,48.00436]},"properties":{"id":55421,"name":"Fehérgyarmati Járás","state_code":"SZ","country_code":"HU"}},{"type":"Feature","geometry":{"type":"Point","coordinates":[22.10009,48.27133]},"properties":{"id":55435,"name":"Fényeslitke","state_code":"SZ","country_code":"HU"}},{"type":"Feature","geometry":{"type":"Point","coordinates":[21.95,48.15]},"properties":{"id":55473,"name":"Gégény","state_code":"SZ","country_code":"HU"}},{"type":"Feature","geometry":{"type":"Point","coordinates":[22.11667,48.13333]},"properties":{"id":55454,"name":"Gyulaháza","state_code":"SZ","country_code":"HU"}},{"type":"Feature","geometry":{"type":"Point","coordinates":[22.20153,47.91834]},"properties":{"id":55513,"name":"Hodász","state_code":"SZ","country_code":"HU"}},{"type":"Feature","geometry":{"type":"Point","coordinates":[21.70953,48.12329]},"properties":{"id":55524,"name":"Ibrány","state_code":"SZ","country_code":"HU"}},{"type":"Feature","geometry":{"type":"Point","coordinates":[21.69344,48.12794]},"properties":{"id":55525,"name":"Ibrányi Járás","state_code":"SZ","country_code":"HU"}},{"type":"Feature","geometry":{"type":"Point","coordinates":[21.93929,47.86081]},"properties":{"id":55636,"name":"Kállósemjén","state_code":"SZ","country_code":"HU"}},{"type":"Feature","geometry":{"type":"Point","coordinates":[21.58333,47.88333]},"properties":{"id":55637,"name":"Kálmánháza","state_code":"SZ","country_code":"HU"}},{"type":"Feature","geometry":{"type":"Point","coordinates":[22.15,47.93333]},"properties":{"id":55639,"name":"Kántorjánosi","state_code":"SZ","country_code":"HU"}},{"type":"Feature","geometry":{"type":"Point","coordinates":[21.88333,48.11667]},"properties":{"id":55641,"name":"Kék","state_code":"SZ","country_code":"HU"}},{"type":"Feature","geometry":{"type":"Point","coordinates":[21.80625,48.07532]},"properties":{"id":55582,"name":"Kemecse","state_code":"SZ","country_code":"HU"}},{"type":"Feature","geometry":{"type":"Point","coordinates":[21.88414,48.10048]},"properties":{"id":55583,"name":"Kemecsei Járás","state_code":"SZ","country_code":"HU"}},{"type":"Feature","geometry":{"type":"Point","coordinates":[22.00393,47.84244]},"properties":{"id":55605,"name":"Kisléta","state_code":"SZ","country_code":"HU"}},{"type":"Feature","geometry":{"type":"Point","coordinates":[22.08333,48.21667]},"properties":{"id":55612,"name":"Kisvárda","state_code":"SZ","country_code":"HU"}},{"type":"Feature","geometry":{"type":"Point","coordinates":[22.06415,48.221]},"properties":{"id":55613,"name":"Kisvárdai Járás","state_code":"SZ","country_code":"HU"}},{"type":"Feature","geometry":{"type":"Point","coordinates":[22.38333,47.93912]},"properties":{"id":55616,"name":"Kocsord","state_code":"SZ","country_code":"HU"}},{"type":"Feature","geometry":{"type":"Point","coordinates":[21.71667,48.05]},"properties":{"id":55646,"name":"Kótaj","state_code":"SZ","country_code":"HU"}},{"type":"Feature","geometry":{"type":"Point","coordinates":[21.98537,47.96282]},"properties":{"id":55662,"name":"Levelek","state_code":"SZ","country_code":"HU"}},{"type":"Feature","geometry":{"type":"Point","coordinates":[22.19107,48.32149]},"properties":{"id":55721,"name":"Mándok","state_code":"SZ","country_code":"HU"}},{"type":"Feature","geometry":{"type":"Point","coordinates":[22.02501,47.88303]},"properties":{"id":55723,"name":"Máriapócs","state_code":"SZ","country_code":"HU"}},{"type":"Feature","geometry":{"type":"Point","coordinates":[22.32348,47.95528]},"properties":{"id":55728,"name":"Mátészalka","state_code":"SZ","country_code":"HU"}},{"type":"Feature","geometry":{"type":"Point","coordinates":[22.31892,47.92961]},"properties":{"id":55729,"name":"Mátészalkai Járás","state_code":"SZ","country_code":"HU"}},{"type":"Feature","geometry":{"type":"Point","coordinates":[22.38038,47.78824]},"properties":{"id":55732,"name":"Mérk","state_code":"SZ","country_code":"HU"}},{"type":"Feature","geometry":{"type":"Point","coordinates":[21.53333,47.96667]},"properties":{"id":55743,"name":"Nagycserkesz","state_code":"SZ","country_code":"HU"}},{"type":"Feature","geometry":{"type":"Point","coordinates":[22.30423,48.05759]},"properties":{"id":55744,"name":"Nagydobos","state_code":"SZ","country_code":"HU"}},{"type":"Feature","geometry":{"type":"Point","coordinates":[22.39159,47.86547]},"properties":{"id":55746,"name":"Nagyecsed","state_code":"SZ","country_code":"HU"}},{"type":"Feature","geometry":{"type":"Point","coordinates":[21.76104,48.13266]},"properties":{"id":55747,"name":"Nagyhalász","state_code":"SZ","country_code":"HU"}},{"type":"Feature","geometry":{"type":"Point","coordinates":[21.84082,47.87491]},"properties":{"id":55751,"name":"Nagykálló","state_code":"SZ","country_code":"HU"}},{"type":"Feature","geometry":{"type":"Point","coordinates":[21.84753,47.79994]},"properties":{"id":55752,"name":"Nagykállói Járás","state_code":"SZ","country_code":"HU"}},{"type":"Feature","geometry":{"type":"Point","coordinates":[21.86763,47.93797]},"properties":{"id":55764,"name":"Napkor","state_code":"SZ","country_code":"HU"}},{"type":"Feature","geometry":{"type":"Point","coordinates":[22.13333,47.83333]},"properties":{"id":55775,"name":"Nyírbátor","state_code":"SZ","country_code":"HU"}},{"type":"Feature","geometry":{"type":"Point","coordinates":[22.11755,47.77553]},"properties":{"id":55776,"name":"Nyírbátori Járás","state_code":"SZ","country_code":"HU"}},{"type":"Feature","geometry":{"type":"Point","coordinates":[22.13333,47.7]},"properties":{"id":55777,"name":"Nyírbéltek","state_code":"SZ","country_code":"HU"}},{"type":"Feature","geometry":{"type":"Point","coordinates":[22.06561,47.8034]},"properties":{"id":55774,"name":"Nyírbogát","state_code":"SZ","country_code":"HU"}},{"type":"Feature","geometry":{"type":"Point","coordinates":[21.88242,48.05723]},"properties":{"id":55773,"name":"Nyírbogdány","state_code":"SZ","country_code":"HU"}},{"type":"Feature","geometry":{"type":"Point","coordinates":[22.3363,47.90383]},"properties":{"id":55778,"name":"Nyírcsaholy","state_code":"SZ","country_code":"HU"}},{"type":"Feature","geometry":{"type":"Point","coordinates":[21.71671,47.95539]},"properties":{"id":55779,"name":"Nyíregyháza","state_code":"SZ","country_code":"HU"}},{"type":"Feature","geometry":{"type":"Point","coordinates":[21.64463,47.97691]},"properties":{"id":55780,"name":"Nyíregyházi Járás","state_code":"SZ","country_code":"HU"}},{"type":"Feature","geometry":{"type":"Point","coordinates":[22.09781,47.88622]},"properties":{"id":55781,"name":"Nyírgyulaj","state_code":"SZ","country_code":"HU"}},{"type":"Feature","geometry":{"type":"Point","coordinates":[22.10463,48.09477]},"properties":{"id":55782,"name":"Nyírkarász","state_code":"SZ","country_code":"HU"}},{"type":"Feature","geometry":{"type":"Point","coordinates":[22.04476,47.69315]},"properties":{"id":55783,"name":"Nyírlugos","state_code":"SZ","country_code":"HU"}},{"type":"Feature","geometry":{"type":"Point","coordinates":[22.2,48.06667]},"properties":{"id":55784,"name":"Nyírmada","state_code":"SZ","country_code":"HU"}},{"type":"Feature","geometry":{"type":"Point","coordinates":[22.26667,47.91667]},"properties":{"id":55785,"name":"Nyírmeggyes","state_code":"SZ","country_code":"HU"}},{"type":"Feature","geometry":{"type":"Point","coordinates":[21.96445,47.73976]},"properties":{"id":55786,"name":"Nyírmihálydi","state_code":"SZ","country_code":"HU"}},{"type":"Feature","geometry":{"type":"Point","coordinates":[21.8,47.98333]},"properties":{"id":55788,"name":"Nyírpazony","state_code":"SZ","country_code":"HU"}},{"type":"Feature","geometry":{"type":"Point","coordinates":[22.03333,48.11667]},"properties":{"id":55789,"name":"Nyírtass","state_code":"SZ","country_code":"HU"}},{"type":"Feature","geometry":{"type":"Point","coordinates":[21.63333,48.01667]},"properties":{"id":55790,"name":"Nyírtelek","state_code":"SZ","country_code":"HU"}},{"type":"Feature","geometry":{"type":"Point","coordinates":[22.18683,47.81667]},"properties":{"id":55791,"name":"Nyírvasvári","state_code":"SZ","country_code":"HU"}},{"type":"Feature","geometry":{"type":"Point","coordinates":[22.05,47.93333]},"properties":{"id":56150,"name":"Ófehértó","state_code":"SZ","country_code":"HU"}},{"type":"Feature","geometry":{"type":"Point","coordinates":[22.5081,47.91862]},"properties":{"id":56157,"name":"Ököritófülpös","state_code":"SZ","country_code":"HU"}},{"type":"Feature","geometry":{"type":"Point","coordinates":[22.32617,47.99771]},"properties":{"id":56153,"name":"Ópályi","state_code":"SZ","country_code":"HU"}},{"type":"Feature","geometry":{"type":"Point","coordinates":[22,48.16667]},"properties":{"id":55846,"name":"Pátroha","state_code":"SZ","country_code":"HU"}},{"type":"Feature","geometry":{"type":"Point","coordinates":[22.07485,48.06084]},"properties":{"id":55815,"name":"Petneháza","state_code":"SZ","country_code":"HU"}},{"type":"Feature","geometry":{"type":"Point","coordinates":[22.56667,47.88333]},"properties":{"id":55830,"name":"Porcsalma","state_code":"SZ","country_code":"HU"}},{"type":"Feature","geometry":{"type":"Point","coordinates":[21.46429,48.12372]},"properties":{"id":55862,"name":"Rakamaz","state_code":"SZ","country_code":"HU"}},{"type":"Feature","geometry":{"type":"Point","coordinates":[21.91667,47.76667]},"properties":{"id":55916,"name":"Szakoly","state_code":"SZ","country_code":"HU"}},{"type":"Feature","geometry":{"type":"Point","coordinates":[22.36582,48.04561]},"properties":{"id":55918,"name":"Szamosszeg","state_code":"SZ","country_code":"HU"}},{"type":"Feature","geometry":{"type":"Point","coordinates":[22.53744,48.1048]},"properties":{"id":56015,"name":"Tarpa","state_code":"SZ","country_code":"HU"}},{"type":"Feature","geometry":{"type":"Point","coordinates":[21.65,48.15]},"properties":{"id":56022,"name":"Tiszabercel","state_code":"SZ","country_code":"HU"}},{"type":"Feature","geometry":{"type":"Point","coordinates":[22.15,48.36667]},"properties":{"id":56023,"name":"Tiszabezdéd","state_code":"SZ","country_code":"HU"}},{"type":"Feature","geometry":{"type":"Point","coordinates":[21.25,48.03333]},"properties":{"id":56027,"name":"Tiszadada","state_code":"SZ","country_code":"HU"}},{"type":"Feature","geometry":{"type":"Point","coordinates":[21.16667,48.01667]},"properties":{"id":56028,"name":"Tiszadob","state_code":"SZ","country_code":"HU"}},{"type":"Feature","geometry":{"type":"Point","coordinates":[21.46667,48.05]},"properties":{"id":56029,"name":"Tiszaeszlár","state_code":"SZ","country_code":"HU"}},{"type":"Feature","geometry":{"type":"Point","coordinates":[21.38333,48.01667]},"properties":{"id":56037,"name":"Tiszalök","state_code":"SZ","country_code":"HU"}},{"type":"Feature","geometry":{"type":"Point","coordinates":[21.48333,48.1]},"properties":{"id":56039,"name":"Tiszanagyfalu","state_code":"SZ","country_code":"HU"}},{"type":"Feature","geometry":{"type":"Point","coordinates":[21.35,47.96667]},"properties":{"id":56046,"name":"Tiszavasvári","state_code":"SZ","country_code":"HU"}},{"type":"Feature","geometry":{"type":"Point","coordinates":[21.36545,47.98606]},"properties":{"id":56047,"name":"Tiszavasvári Járás","state_code":"SZ","country_code":"HU"}},{"type":"Feature","geometry":{"type":"Point","coordinates":[22.18333,48.26667]},"properties":{"id":56056,"name":"Tornyospálca","state_code":"SZ","country_code":"HU"}},{"type":"Feature","geometry":{"type":"Point","coordinates":[22.46667,47.96667]},"properties":{"id":56057,"name":"Tunyogmatolcs","state_code":"SZ","country_code":"HU"}},{"type":"Feature","geometry":{"type":"Point","coordinates":[22.11762,48.34407]},"properties":{"id":56059,"name":"Tuzsér","state_code":"SZ","country_code":"HU"}},{"type":"Feature","geometry":{"type":"Point","coordinates":[22.5633,47.85378]},"properties":{"id":56060,"name":"Tyukod","state_code":"SZ","country_code":"HU"}},{"type":"Feature","geometry":{"type":"Point","coordinates":[21.68333,47.8]},"properties":{"id":56160,"name":"Újfehértó","state_code":"SZ","country_code":"HU"}},{"type":"Feature","geometry":{"type":"Point","coordinates":[22.16761,48.00574]},"properties":{"id":56088,"name":"Vaja","state_code":"SZ","country_code":"HU"}},{"type":"Feature","geometry":{"type":"Point","coordinates":[22.31325,48.12542]},"properties":{"id":56114,"name":"Vásárosnamény","state_code":"SZ","country_code":"HU"}},{"type":"Feature","geometry":{"type":"Point","coordinates":[22.35859,48.17981]},"properties":{"id":56115,"name":"Vásárosnaményi Járás","state_code":"SZ","country_code":"HU"}},{"type":"Feature","geometry":{"type":"Point","coordinates":[22.17614,48.40906]},"properties":{"id":56134,"name":"Záhony","state_code":"SZ","country_code":"HU"}},{"type":"Feature","geometry":{"type":"Point","coordinates":[22.18925,48.34914]},"properties":{"id":56135,"name":"Záhonyi Járás","state_code":"SZ","country_code":"HU"}}]}