{"type":"FeatureCollection","features":[{"type":"Feature","geometry":{"type":"Point","coordinates":[105.93333,-1.91667]},"properties":{"id":56329,"name":"Bangka","state_code":"BB","country_code":"ID"}},{"type":"Feature","geometry":{"type":"Point","coordinates":[105.53741,-1.95839]},"properties":{"id":56330,"name":"Bangka Barat","state_code":"BB","country_code":"ID"}},{"type":"Feature","geometry":{"type":"Point","coordinates":[106.01257,-2.66803]},"properties":{"id":56331,"name":"Bangka Selatan","state_code":"BB","country_code":"ID"}},{"type":"Feature","geometry":{"type":"Point","coordinates":[106.1142,-2.33989]},"properties":{"id":56332,"name":"Bangka Tengah","state_code":"BB","country_code":"ID"}},{"type":"Feature","geometry":{"type":"Point","coordinates":[107.7,-2.86667]},"properties":{"id":56350,"name":"Belitung","state_code":"BB","country_code":"ID"}},{"type":"Feature","geometry":{"type":"Point","coordinates":[108.15216,-2.9627]},"properties":{"id":56351,"name":"Belitung Timur","state_code":"BB","country_code":"ID"}},{"type":"Feature","geometry":{"type":"Point","coordinates":[108.26667,-2.88333]},"properties":{"id":56859,"name":"Manggar","state_code":"BB","country_code":"ID"}},{"type":"Feature","geometry":{"type":"Point","coordinates":[105.16228,-2.06719]},"properties":{"id":56881,"name":"Muntok","state_code":"BB","country_code":"ID"}},{"type":"Feature","geometry":{"type":"Point","coordinates":[106.11377,-2.12914]},"properties":{"id":56912,"name":"Pangkalpinang","state_code":"BB","country_code":"ID"}},{"type":"Feature","geometry":{"type":"Point","coordinates":[106.12215,-1.85442]},"properties":{"id":57009,"name":"Sungailiat","state_code":"BB","country_code":"ID"}},{"type":"Feature","geometry":{"type":"Point","coordinates":[107.63477,-2.73353]},"properties":{"id":57017,"name":"Tanjung Pandan","state_code":"BB","country_code":"ID"}}]}