{"type":"FeatureCollection","features":[{"type":"Feature","geometry":{"type":"Point","coordinates":[102.26554,-3.80044]},"properties":{"id":56217,"name":"Bengkulu","state_code":"BE","country_code":"ID"}},{"type":"Feature","geometry":{"type":"Point","coordinates":[103.03333,-4.35]},"properties":{"id":56355,"name":"Bengkulu Selatan","state_code":"BE","country_code":"ID"}},{"type":"Feature","geometry":{"type":"Point","coordinates":[102.12616,-3.20679]},"properties":{"id":56356,"name":"Bengkulu Tengah","state_code":"BE","country_code":"ID"}},{"type":"Feature","geometry":{"type":"Point","coordinates":[102.05,-3.33333]},"properties":{"id":56357,"name":"Bengkulu Utara","state_code":"BE","country_code":"ID"}},{"type":"Feature","geometry":{"type":"Point","coordinates":[102.5207,-3.4703]},"properties":{"id":56258,"name":"Curup","state_code":"BE","country_code":"ID"}},{"type":"Feature","geometry":{"type":"Point","coordinates":[103.36109,-4.78179]},"properties":{"id":56444,"name":"Kaur","state_code":"BE","country_code":"ID"}},{"type":"Feature","geometry":{"type":"Point","coordinates":[102.56424,-3.60194]},"properties":{"id":56449,"name":"Kepahiang","state_code":"BE","country_code":"ID"}},{"type":"Feature","geometry":{"type":"Point","coordinates":[102.3349,-3.24278]},"properties":{"id":56492,"name":"Lebong","state_code":"BE","country_code":"ID"}},{"type":"Feature","geometry":{"type":"Point","coordinates":[101.54766,-3.07438]},"properties":{"id":56544,"name":"Mukomuko","state_code":"BE","country_code":"ID"}},{"type":"Feature","geometry":{"type":"Point","coordinates":[102.71667,-3.43333]},"properties":{"id":56609,"name":"Rejang Lebong","state_code":"BE","country_code":"ID"}},{"type":"Feature","geometry":{"type":"Point","coordinates":[102.47429,-3.96644]},"properties":{"id":56619,"name":"Seluma","state_code":"BE","country_code":"ID"}}]}