{"type":"FeatureCollection","features":[{"type":"Feature","geometry":{"type":"Point","coordinates":[109.66393,1.06911]},"properties":{"id":150090,"name":"Bengkayang","state_code":"KB","country_code":"ID"}},{"type":"Feature","geometry":{"type":"Point","coordinates":[112.8,0.83333]},"properties":{"id":150091,"name":"Kapuas Hulu","state_code":"KB","country_code":"ID"}},{"type":"Feature","geometry":{"type":"Point","coordinates":[110.10402,-1.06023]},"properties":{"id":150092,"name":"Kayong Utara","state_code":"KB","country_code":"ID"}},{"type":"Feature","geometry":{"type":"Point","coordinates":[109.98333333,-1.85]},"properties":{"id":150093,"name":"Ketapang","state_code":"KB","country_code":"ID"}},{"type":"Feature","geometry":{"type":"Point","coordinates":[109.51865,-0.31924]},"properties":{"id":150094,"name":"Kubu Raya","state_code":"KB","country_code":"ID"}},{"type":"Feature","geometry":{"type":"Point","coordinates":[109.75917,0.42373]},"properties":{"id":150095,"name":"Landak","state_code":"KB","country_code":"ID"}},{"type":"Feature","geometry":{"type":"Point","coordinates":[111.03333333,-2.46666667]},"properties":{"id":150096,"name":"Manismata","state_code":"KB","country_code":"ID"}},{"type":"Feature","geometry":{"type":"Point","coordinates":[111.698,-0.33617]},"properties":{"id":150097,"name":"Melawi","state_code":"KB","country_code":"ID"}},{"type":"Feature","geometry":{"type":"Point","coordinates":[109.16667,0.25]},"properties":{"id":150098,"name":"Mempawah","state_code":"KB","country_code":"ID"}},{"type":"Feature","geometry":{"type":"Point","coordinates":[108.9624,1.1768]},"properties":{"id":150099,"name":"Pemangkat","state_code":"KB","country_code":"ID"}},{"type":"Feature","geometry":{"type":"Point","coordinates":[109.34138889,-0.02055556]},"properties":{"id":150100,"name":"Pontianak","state_code":"KB","country_code":"ID"}},{"type":"Feature","geometry":{"type":"Point","coordinates":[109.35,1.43333]},"properties":{"id":150101,"name":"Sambas","state_code":"KB","country_code":"ID"}},{"type":"Feature","geometry":{"type":"Point","coordinates":[110.58888889,0.11944444]},"properties":{"id":150102,"name":"Sanggau","state_code":"KB","country_code":"ID"}},{"type":"Feature","geometry":{"type":"Point","coordinates":[110.95066,0.03485]},"properties":{"id":150103,"name":"Sekadau","state_code":"KB","country_code":"ID"}},{"type":"Feature","geometry":{"type":"Point","coordinates":[108.98333333,0.9]},"properties":{"id":150104,"name":"Singkawang","state_code":"KB","country_code":"ID"}},{"type":"Feature","geometry":{"type":"Point","coordinates":[111.49805556,0.06805556]},"properties":{"id":150105,"name":"Sintang","state_code":"KB","country_code":"ID"}}]}