{"type":"FeatureCollection","features":[{"type":"Feature","geometry":{"type":"Point","coordinates":[128.91975,-3.33984]},"properties":{"id":56175,"name":"Amahai","state_code":"MA","country_code":"ID"}},{"type":"Feature","geometry":{"type":"Point","coordinates":[128.18333,-3.69583]},"properties":{"id":56178,"name":"Ambon","state_code":"MA","country_code":"ID"}},{"type":"Feature","geometry":{"type":"Point","coordinates":[126.68413,-3.32767]},"properties":{"id":56384,"name":"Buru","state_code":"MA","country_code":"ID"}},{"type":"Feature","geometry":{"type":"Point","coordinates":[126.59271,-3.52187]},"properties":{"id":56385,"name":"Buru Selatan","state_code":"MA","country_code":"ID"}},{"type":"Feature","geometry":{"type":"Point","coordinates":[134.46991,-6.17059]},"properties":{"id":56451,"name":"Kepulauan Aru","state_code":"MA","country_code":"ID"}},{"type":"Feature","geometry":{"type":"Point","coordinates":[126.17386,-7.8296]},"properties":{"id":56513,"name":"Maluku Barat Daya","state_code":"MA","country_code":"ID"}},{"type":"Feature","geometry":{"type":"Point","coordinates":[128.9675,-3.29167]},"properties":{"id":56514,"name":"Maluku Tengah","state_code":"MA","country_code":"ID"}},{"type":"Feature","geometry":{"type":"Point","coordinates":[132.73333,-5.75]},"properties":{"id":56515,"name":"Maluku Tenggara","state_code":"MA","country_code":"ID"}},{"type":"Feature","geometry":{"type":"Point","coordinates":[131.38,-7.61186]},"properties":{"id":56516,"name":"Maluku Tenggara Barat","state_code":"MA","country_code":"ID"}},{"type":"Feature","geometry":{"type":"Point","coordinates":[128.42996,-3.1027]},"properties":{"id":56621,"name":"Seram Bagian Barat","state_code":"MA","country_code":"ID"}},{"type":"Feature","geometry":{"type":"Point","coordinates":[130.39167,-3.39851]},"properties":{"id":56622,"name":"Seram Bagian Timur","state_code":"MA","country_code":"ID"}},{"type":"Feature","geometry":{"type":"Point","coordinates":[132.75229,-5.62878]},"properties":{"id":57041,"name":"Tual","state_code":"MA","country_code":"ID"}}]}