{"type":"FeatureCollection","features":[{"type":"Feature","geometry":{"type":"Point","coordinates":[138.46344,-5.3795]},"properties":{"id":56321,"name":"Asmat","state_code":"PS","country_code":"ID"}},{"type":"Feature","geometry":{"type":"Point","coordinates":[140.36349,-5.70519]},"properties":{"id":56376,"name":"Boven Digoel","state_code":"PS","country_code":"ID"}},{"type":"Feature","geometry":{"type":"Point","coordinates":[139.34441,-6.49971]},"properties":{"id":56529,"name":"Mappi","state_code":"PS","country_code":"ID"}},{"type":"Feature","geometry":{"type":"Point","coordinates":[139.66667,-7.66667]},"properties":{"id":56533,"name":"Merauke","state_code":"PS","country_code":"ID"}}]}