{"type":"FeatureCollection","features":[{"type":"Feature","geometry":{"type":"Point","coordinates":[101.29054,1.05949]},"properties":{"id":56188,"name":"Balaipungut","state_code":"RI","country_code":"ID"}},{"type":"Feature","geometry":{"type":"Point","coordinates":[104.02491,1.14937]},"properties":{"id":56208,"name":"Batam","state_code":"RI","country_code":"ID"}},{"type":"Feature","geometry":{"type":"Point","coordinates":[102.5096,0.9838]},"properties":{"id":56354,"name":"Bengkalis","state_code":"RI","country_code":"ID"}},{"type":"Feature","geometry":{"type":"Point","coordinates":[101.44316,1.66711]},"properties":{"id":56270,"name":"Dumai","state_code":"RI","country_code":"ID"}},{"type":"Feature","geometry":{"type":"Point","coordinates":[103.16667,-0.33333]},"properties":{"id":56424,"name":"Indragiri Hilir","state_code":"RI","country_code":"ID"}},{"type":"Feature","geometry":{"type":"Point","coordinates":[102.31667,-0.55]},"properties":{"id":56425,"name":"Indragiri Hulu","state_code":"RI","country_code":"ID"}},{"type":"Feature","geometry":{"type":"Point","coordinates":[101.2131,0.2344]},"properties":{"id":56436,"name":"Kampar","state_code":"RI","country_code":"ID"}},{"type":"Feature","geometry":{"type":"Point","coordinates":[102.69539,0.97488]},"properties":{"id":56453,"name":"Kepulauan Meranti","state_code":"RI","country_code":"ID"}},{"type":"Feature","geometry":{"type":"Point","coordinates":[101.45857,-0.47532]},"properties":{"id":56471,"name":"Kuantan Singingi","state_code":"RI","country_code":"ID"}},{"type":"Feature","geometry":{"type":"Point","coordinates":[101.44167,0.51667]},"properties":{"id":56927,"name":"Pekanbaru","state_code":"RI","country_code":"ID"}},{"type":"Feature","geometry":{"type":"Point","coordinates":[102.18607,0.20822]},"properties":{"id":56586,"name":"Pelalawan","state_code":"RI","country_code":"ID"}},{"type":"Feature","geometry":{"type":"Point","coordinates":[100.82514,2.16599]},"properties":{"id":56611,"name":"Rokan Hilir","state_code":"RI","country_code":"ID"}},{"type":"Feature","geometry":{"type":"Point","coordinates":[100.48333,0.88333]},"properties":{"id":56612,"name":"Rokan Hulu","state_code":"RI","country_code":"ID"}},{"type":"Feature","geometry":{"type":"Point","coordinates":[102.01355,0.97453]},"properties":{"id":56626,"name":"Siak","state_code":"RI","country_code":"ID"}}]}