{"type":"FeatureCollection","features":[{"type":"Feature","geometry":{"type":"Point","coordinates":[124.08333,0.75]},"properties":{"id":56368,"name":"Bolaang Mongondow","state_code":"SA","country_code":"ID"}},{"type":"Feature","geometry":{"type":"Point","coordinates":[123.75961,0.40912]},"properties":{"id":56369,"name":"Bolaang Mongondow Selatan","state_code":"SA","country_code":"ID"}},{"type":"Feature","geometry":{"type":"Point","coordinates":[124.50256,0.72073]},"properties":{"id":56370,"name":"Bolaang Mongondow Timur","state_code":"SA","country_code":"ID"}},{"type":"Feature","geometry":{"type":"Point","coordinates":[123.41766,0.78527]},"properties":{"id":56371,"name":"Bolaang Mongondow Utara","state_code":"SA","country_code":"ID"}},{"type":"Feature","geometry":{"type":"Point","coordinates":[125.55,3.5]},"properties":{"id":56454,"name":"Kepulauan Sangihe","state_code":"SA","country_code":"ID"}},{"type":"Feature","geometry":{"type":"Point","coordinates":[126.78085,4.31178]},"properties":{"id":56456,"name":"Kepulauan Talaud","state_code":"SA","country_code":"ID"}},{"type":"Feature","geometry":{"type":"Point","coordinates":[124.97444,1.48833]},"properties":{"id":56835,"name":"Laikit Laikit II (Dimembe)","state_code":"SA","country_code":"ID"}},{"type":"Feature","geometry":{"type":"Point","coordinates":[124.84892,1.48218]},"properties":{"id":56858,"name":"Manado","state_code":"SA","country_code":"ID"}},{"type":"Feature","geometry":{"type":"Point","coordinates":[124.83,1.2537]},"properties":{"id":56536,"name":"Minahasa","state_code":"SA","country_code":"ID"}},{"type":"Feature","geometry":{"type":"Point","coordinates":[124.59708,1.21291]},"properties":{"id":56537,"name":"Minahasa Selatan","state_code":"SA","country_code":"ID"}},{"type":"Feature","geometry":{"type":"Point","coordinates":[124.7925,1.05633]},"properties":{"id":56538,"name":"Minahasa Tenggara","state_code":"SA","country_code":"ID"}},{"type":"Feature","geometry":{"type":"Point","coordinates":[124.96,1.4025]},"properties":{"id":56539,"name":"Minahasa Utara","state_code":"SA","country_code":"ID"}},{"type":"Feature","geometry":{"type":"Point","coordinates":[125.37512,2.11728]},"properties":{"id":56627,"name":"Siau Tagulandang Biaro","state_code":"SA","country_code":"ID"}},{"type":"Feature","geometry":{"type":"Point","coordinates":[124.80379,1.31678]},"properties":{"id":57035,"name":"Tomohon","state_code":"SA","country_code":"ID"}},{"type":"Feature","geometry":{"type":"Point","coordinates":[124.91261,1.3054]},"properties":{"id":57037,"name":"Tondano","state_code":"SA","country_code":"ID"}}]}