{"type":"FeatureCollection","features":[{"type":"Feature","geometry":{"type":"Point","coordinates":[98.8311,2.6814]},"properties":{"id":56177,"name":"Ambarita","state_code":"SU","country_code":"ID"}},{"type":"Feature","geometry":{"type":"Point","coordinates":[99.55,2.78333]},"properties":{"id":56320,"name":"Asahan","state_code":"SU","country_code":"ID"}},{"type":"Feature","geometry":{"type":"Point","coordinates":[99.75,2.05]},"properties":{"id":56194,"name":"Bandar","state_code":"SU","country_code":"ID"}},{"type":"Feature","geometry":{"type":"Point","coordinates":[99.52652,3.16166]},"properties":{"id":56348,"name":"Batu Bara","state_code":"SU","country_code":"ID"}},{"type":"Feature","geometry":{"type":"Point","coordinates":[98.6832,3.7755]},"properties":{"id":56216,"name":"Belawan","state_code":"SU","country_code":"ID"}},{"type":"Feature","geometry":{"type":"Point","coordinates":[98.50889,3.19468]},"properties":{"id":56218,"name":"Berastagi","state_code":"SU","country_code":"ID"}},{"type":"Feature","geometry":{"type":"Point","coordinates":[98.4854,3.6001]},"properties":{"id":56222,"name":"Binjai","state_code":"SU","country_code":"ID"}},{"type":"Feature","geometry":{"type":"Point","coordinates":[98.23333,2.86667]},"properties":{"id":56394,"name":"Dairi","state_code":"SU","country_code":"ID"}},{"type":"Feature","geometry":{"type":"Point","coordinates":[98.66667,3.41667]},"properties":{"id":56396,"name":"Deli Serdang","state_code":"SU","country_code":"ID"}},{"type":"Feature","geometry":{"type":"Point","coordinates":[98.6839,3.5078]},"properties":{"id":56261,"name":"Deli Tua","state_code":"SU","country_code":"ID"}},{"type":"Feature","geometry":{"type":"Point","coordinates":[97.6143,1.2888]},"properties":{"id":56290,"name":"Gunungsitoli","state_code":"SU","country_code":"ID"}},{"type":"Feature","geometry":{"type":"Point","coordinates":[98.50376,2.26551]},"properties":{"id":56423,"name":"Humbang Hasundutan","state_code":"SU","country_code":"ID"}},{"type":"Feature","geometry":{"type":"Point","coordinates":[98.4908,3.1001]},"properties":{"id":56306,"name":"Kabanjahe","state_code":"SU","country_code":"ID"}},{"type":"Feature","geometry":{"type":"Point","coordinates":[98.3,3.11667]},"properties":{"id":56442,"name":"Karo","state_code":"SU","country_code":"ID"}},{"type":"Feature","geometry":{"type":"Point","coordinates":[99.6158,2.9845]},"properties":{"id":56717,"name":"Kisaran","state_code":"SU","country_code":"ID"}},{"type":"Feature","geometry":{"type":"Point","coordinates":[100.1,2.26667]},"properties":{"id":56479,"name":"Labuhan Batu","state_code":"SU","country_code":"ID"}},{"type":"Feature","geometry":{"type":"Point","coordinates":[100.0976,1.983]},"properties":{"id":56480,"name":"Labuhan Batu Selatan","state_code":"SU","country_code":"ID"}},{"type":"Feature","geometry":{"type":"Point","coordinates":[99.63776,2.33349]},"properties":{"id":56481,"name":"Labuhan Batu Utara","state_code":"SU","country_code":"ID"}},{"type":"Feature","geometry":{"type":"Point","coordinates":[98.6738,3.7278]},"properties":{"id":56832,"name":"Labuhan Deli","state_code":"SU","country_code":"ID"}},{"type":"Feature","geometry":{"type":"Point","coordinates":[98.21667,3.71667]},"properties":{"id":56489,"name":"Langkat","state_code":"SU","country_code":"ID"}},{"type":"Feature","geometry":{"type":"Point","coordinates":[99.25495,0.78378]},"properties":{"id":56523,"name":"Mandailing Natal","state_code":"SU","country_code":"ID"}},{"type":"Feature","geometry":{"type":"Point","coordinates":[98.66667,3.58333]},"properties":{"id":56867,"name":"Medan","state_code":"SU","country_code":"ID"}},{"type":"Feature","geometry":{"type":"Point","coordinates":[97.76667,1.03333]},"properties":{"id":56559,"name":"Nias","state_code":"SU","country_code":"ID"}},{"type":"Feature","geometry":{"type":"Point","coordinates":[97.58606,1.05966]},"properties":{"id":56560,"name":"Nias Barat","state_code":"SU","country_code":"ID"}},{"type":"Feature","geometry":{"type":"Point","coordinates":[97.31964,1.33037]},"properties":{"id":56561,"name":"Nias Utara","state_code":"SU","country_code":"ID"}},{"type":"Feature","geometry":{"type":"Point","coordinates":[99.99207,1.44684]},"properties":{"id":56569,"name":"Padang Lawas","state_code":"SU","country_code":"ID"}},{"type":"Feature","geometry":{"type":"Point","coordinates":[99.67346,1.46011]},"properties":{"id":56570,"name":"Padang Lawas Utara","state_code":"SU","country_code":"ID"}},{"type":"Feature","geometry":{"type":"Point","coordinates":[99.27146,1.37952]},"properties":{"id":56894,"name":"Padangsidempuan","state_code":"SU","country_code":"ID"}},{"type":"Feature","geometry":{"type":"Point","coordinates":[98.28333,2.56667]},"properties":{"id":56572,"name":"Pakpak Bharat","state_code":"SU","country_code":"ID"}},{"type":"Feature","geometry":{"type":"Point","coordinates":[98.2782,4.0238]},"properties":{"id":56910,"name":"Pangkalan Brandan","state_code":"SU","country_code":"ID"}},{"type":"Feature","geometry":{"type":"Point","coordinates":[98.9349,2.663]},"properties":{"id":56914,"name":"Parapat","state_code":"SU","country_code":"ID"}},{"type":"Feature","geometry":{"type":"Point","coordinates":[99.17352,3.11313]},"properties":{"id":56926,"name":"Pekan Bahapal","state_code":"SU","country_code":"ID"}},{"type":"Feature","geometry":{"type":"Point","coordinates":[99.0687,2.9595]},"properties":{"id":56930,"name":"Pematangsiantar","state_code":"SU","country_code":"ID"}},{"type":"Feature","geometry":{"type":"Point","coordinates":[98.956,3.5679]},"properties":{"id":56932,"name":"Perbaungan","state_code":"SU","country_code":"ID"}},{"type":"Feature","geometry":{"type":"Point","coordinates":[98.864,3.6253]},"properties":{"id":56933,"name":"Percut","state_code":"SU","country_code":"ID"}},{"type":"Feature","geometry":{"type":"Point","coordinates":[99.83333,2.1]},"properties":{"id":56951,"name":"Rantauprapat","state_code":"SU","country_code":"ID"}},{"type":"Feature","geometry":{"type":"Point","coordinates":[98.71525,2.64025]},"properties":{"id":56615,"name":"Samosir","state_code":"SU","country_code":"ID"}},{"type":"Feature","geometry":{"type":"Point","coordinates":[99.03333,3.36667]},"properties":{"id":56624,"name":"Serdang Bedagai","state_code":"SU","country_code":"ID"}},{"type":"Feature","geometry":{"type":"Point","coordinates":[98.78117,1.74016]},"properties":{"id":56973,"name":"Sibolga","state_code":"SU","country_code":"ID"}},{"type":"Feature","geometry":{"type":"Point","coordinates":[99,2.9]},"properties":{"id":56633,"name":"Simalungun","state_code":"SU","country_code":"ID"}},{"type":"Feature","geometry":{"type":"Point","coordinates":[98.45025,3.73335]},"properties":{"id":57000,"name":"Stabat","state_code":"SU","country_code":"ID"}},{"type":"Feature","geometry":{"type":"Point","coordinates":[98.6151,3.5765]},"properties":{"id":57010,"name":"Sunggal","state_code":"SU","country_code":"ID"}},{"type":"Feature","geometry":{"type":"Point","coordinates":[99.8,2.96667]},"properties":{"id":57021,"name":"Tanjungbalai","state_code":"SU","country_code":"ID"}},{"type":"Feature","geometry":{"type":"Point","coordinates":[98.3699,4.0613]},"properties":{"id":57022,"name":"Tanjungtiram","state_code":"SU","country_code":"ID"}},{"type":"Feature","geometry":{"type":"Point","coordinates":[99.25,1.51667]},"properties":{"id":56670,"name":"Tapanuli Selatan","state_code":"SU","country_code":"ID"}},{"type":"Feature","geometry":{"type":"Point","coordinates":[98.66667,1.9]},"properties":{"id":56671,"name":"Tapanuli Tengah","state_code":"SU","country_code":"ID"}},{"type":"Feature","geometry":{"type":"Point","coordinates":[99.0707,2.0028]},"properties":{"id":56672,"name":"Tapanuli Utara","state_code":"SU","country_code":"ID"}},{"type":"Feature","geometry":{"type":"Point","coordinates":[99.1625,3.3285]},"properties":{"id":57027,"name":"Tebingtinggi","state_code":"SU","country_code":"ID"}},{"type":"Feature","geometry":{"type":"Point","coordinates":[99.8164,3.001]},"properties":{"id":57029,"name":"Teluk Nibung","state_code":"SU","country_code":"ID"}},{"type":"Feature","geometry":{"type":"Point","coordinates":[98.8608,2.6521]},"properties":{"id":57036,"name":"Tomok Bolon","state_code":"SU","country_code":"ID"}},{"type":"Feature","geometry":{"type":"Point","coordinates":[98.5231,2.8985]},"properties":{"id":57038,"name":"Tongging","state_code":"SU","country_code":"ID"}},{"type":"Feature","geometry":{"type":"Point","coordinates":[98.8576,2.6689]},"properties":{"id":57043,"name":"Tuktuk Sonak","state_code":"SU","country_code":"ID"}}]}