{"type":"FeatureCollection","features":[{"type":"Feature","geometry":{"type":"Point","coordinates":[104.16695,-4.12891]},"properties":{"id":56212,"name":"Baturaja","state_code":"SS","country_code":"ID"}},{"type":"Feature","geometry":{"type":"Point","coordinates":[99.09256,3.22667]},"properties":{"id":56402,"name":"Empat Lawang","state_code":"SS","country_code":"ID"}},{"type":"Feature","geometry":{"type":"Point","coordinates":[103.54279,-3.78514]},"properties":{"id":56833,"name":"Lahat","state_code":"SS","country_code":"ID"}},{"type":"Feature","geometry":{"type":"Point","coordinates":[103.5428,-3.7864]},"properties":{"id":56834,"name":"Lahat Regency","state_code":"SS","country_code":"ID"}},{"type":"Feature","geometry":{"type":"Point","coordinates":[102.8614,-3.2945]},"properties":{"id":56847,"name":"Lubuklinggau","state_code":"SS","country_code":"ID"}},{"type":"Feature","geometry":{"type":"Point","coordinates":[103.6141,-4.2327]},"properties":{"id":56542,"name":"Muara Enim","state_code":"SS","country_code":"ID"}},{"type":"Feature","geometry":{"type":"Point","coordinates":[103.75,-2.41667]},"properties":{"id":56548,"name":"Musi Banyuasin","state_code":"SS","country_code":"ID"}},{"type":"Feature","geometry":{"type":"Point","coordinates":[103.2,-3.08333]},"properties":{"id":56549,"name":"Musi Rawas","state_code":"SS","country_code":"ID"}},{"type":"Feature","geometry":{"type":"Point","coordinates":[103.29346,-2.48533]},"properties":{"id":56550,"name":"Musi Rawas Utara","state_code":"SS","country_code":"ID"}},{"type":"Feature","geometry":{"type":"Point","coordinates":[104.62727,-3.43186]},"properties":{"id":56563,"name":"Ogan Ilir","state_code":"SS","country_code":"ID"}},{"type":"Feature","geometry":{"type":"Point","coordinates":[105.36667,-3.36667]},"properties":{"id":56564,"name":"Ogan Komering Ilir","state_code":"SS","country_code":"ID"}},{"type":"Feature","geometry":{"type":"Point","coordinates":[104.03333,-4.13333]},"properties":{"id":56565,"name":"Ogan Komering Ulu","state_code":"SS","country_code":"ID"}},{"type":"Feature","geometry":{"type":"Point","coordinates":[104.00659,-4.65728]},"properties":{"id":56566,"name":"Ogan Komering Ulu Selatan","state_code":"SS","country_code":"ID"}},{"type":"Feature","geometry":{"type":"Point","coordinates":[104.75209,-3.85679]},"properties":{"id":56567,"name":"Ogan Komering Ulu Timur","state_code":"SS","country_code":"ID"}},{"type":"Feature","geometry":{"type":"Point","coordinates":[103.24694,-4.02506]},"properties":{"id":56895,"name":"Pagar Alam","state_code":"SS","country_code":"ID"}},{"type":"Feature","geometry":{"type":"Point","coordinates":[104.7458,-2.91673]},"properties":{"id":56898,"name":"Palembang","state_code":"SS","country_code":"ID"}},{"type":"Feature","geometry":{"type":"Point","coordinates":[104.08722,-3.21342]},"properties":{"id":56589,"name":"Penukal Abab Lematang Ilir","state_code":"SS","country_code":"ID"}},{"type":"Feature","geometry":{"type":"Point","coordinates":[104.23056,-3.43447]},"properties":{"id":56939,"name":"Prabumulih","state_code":"SS","country_code":"ID"}},{"type":"Feature","geometry":{"type":"Point","coordinates":[103.80465,-3.93728]},"properties":{"id":57020,"name":"Tanjungagung","state_code":"SS","country_code":"ID"}}]}