{"type":"FeatureCollection","features":[{"type":"Feature","geometry":{"type":"Point","coordinates":[110.36667,-7.9]},"properties":{"id":56338,"name":"Bantul","state_code":"YO","country_code":"ID"}},{"type":"Feature","geometry":{"type":"Point","coordinates":[110.61667,-7.98333]},"properties":{"id":56414,"name":"Gunung Kidul","state_code":"YO","country_code":"ID"}},{"type":"Feature","geometry":{"type":"Point","coordinates":[110.02694,-7.645]},"properties":{"id":56473,"name":"Kulon Progo","state_code":"YO","country_code":"ID"}},{"type":"Feature","geometry":{"type":"Point","coordinates":[110.32333,-7.68167]},"properties":{"id":56637,"name":"Sleman","state_code":"YO","country_code":"ID"}},{"type":"Feature","geometry":{"type":"Point","coordinates":[110.36472,-7.80139]},"properties":{"id":57061,"name":"Yogyakarta","state_code":"YO","country_code":"ID"}}]}