{"type":"FeatureCollection","features":[{"type":"Feature","geometry":{"type":"Point","coordinates":[34.94236,32.68889]},"properties":{"id":57440,"name":"Atlit","state_code":"HA","country_code":"IL"}},{"type":"Feature","geometry":{"type":"Point","coordinates":[34.90459,32.51888]},"properties":{"id":57455,"name":"Caesarea","state_code":"HA","country_code":"IL"}},{"type":"Feature","geometry":{"type":"Point","coordinates":[35.04686,32.69383]},"properties":{"id":57457,"name":"Daliyat al Karmel","state_code":"HA","country_code":"IL"}},{"type":"Feature","geometry":{"type":"Point","coordinates":[34.95153,32.59812]},"properties":{"id":57461,"name":"El Fureidīs","state_code":"HA","country_code":"IL"}},{"type":"Feature","geometry":{"type":"Point","coordinates":[34.9039,32.44192]},"properties":{"id":57473,"name":"Hadera","state_code":"HA","country_code":"IL"}},{"type":"Feature","geometry":{"type":"Point","coordinates":[34.9885,32.81841]},"properties":{"id":57474,"name":"Haifa","state_code":"HA","country_code":"IL"}},{"type":"Feature","geometry":{"type":"Point","coordinates":[35.11402,32.7615]},"properties":{"id":57480,"name":"Ibṭīn","state_code":"HA","country_code":"IL"}},{"type":"Feature","geometry":{"type":"Point","coordinates":[35.04425,32.76622]},"properties":{"id":57521,"name":"Nesher","state_code":"HA","country_code":"IL"}},{"type":"Feature","geometry":{"type":"Point","coordinates":[35.11323,32.81149]},"properties":{"id":57535,"name":"Qiryat Ata","state_code":"HA","country_code":"IL"}},{"type":"Feature","geometry":{"type":"Point","coordinates":[35.08583,32.8275]},"properties":{"id":57536,"name":"Qiryat Bialik","state_code":"HA","country_code":"IL"}},{"type":"Feature","geometry":{"type":"Point","coordinates":[35.0776,32.83706]},"properties":{"id":57538,"name":"Qiryat Moẕqin","state_code":"HA","country_code":"IL"}},{"type":"Feature","geometry":{"type":"Point","coordinates":[35.06973,32.84966]},"properties":{"id":57540,"name":"Qiryat Yam","state_code":"HA","country_code":"IL"}},{"type":"Feature","geometry":{"type":"Point","coordinates":[35.09901,32.74907]},"properties":{"id":57547,"name":"Rekhasim","state_code":"HA","country_code":"IL"}},{"type":"Feature","geometry":{"type":"Point","coordinates":[34.97183,32.76021]},"properties":{"id":57569,"name":"Tirat Karmel","state_code":"HA","country_code":"IL"}},{"type":"Feature","geometry":{"type":"Point","coordinates":[35.15349,32.51725]},"properties":{"id":57570,"name":"Umm el Faḥm","state_code":"HA","country_code":"IL"}}]}