{"type":"FeatureCollection","features":[{"type":"Feature","geometry":{"type":"Point","coordinates":[35.40029,32.83693]},"properties":{"id":57581,"name":"‘Eilabun","state_code":"Z","country_code":"IL"}},{"type":"Feature","geometry":{"type":"Point","coordinates":[35.32984,32.79212]},"properties":{"id":57583,"name":"‘Uzeir","state_code":"Z","country_code":"IL"}},{"type":"Feature","geometry":{"type":"Point","coordinates":[35.07647,32.92814]},"properties":{"id":57435,"name":"Acre","state_code":"Z","country_code":"IL"}},{"type":"Feature","geometry":{"type":"Point","coordinates":[35.2892,32.60907]},"properties":{"id":57436,"name":"Afula","state_code":"Z","country_code":"IL"}},{"type":"Feature","geometry":{"type":"Point","coordinates":[35.15716,32.73898]},"properties":{"id":57442,"name":"Basmat Ṭab‘ūn","state_code":"Z","country_code":"IL"}},{"type":"Feature","geometry":{"type":"Point","coordinates":[35.38152,32.96464]},"properties":{"id":57445,"name":"Beit Jann","state_code":"Z","country_code":"IL"}},{"type":"Feature","geometry":{"type":"Point","coordinates":[35.49632,32.49728]},"properties":{"id":57448,"name":"Bet She’an","state_code":"Z","country_code":"IL"}},{"type":"Feature","geometry":{"type":"Point","coordinates":[35.22069,32.77732]},"properties":{"id":57454,"name":"Bīr el Maksūr","state_code":"Z","country_code":"IL"}},{"type":"Feature","geometry":{"type":"Point","coordinates":[35.36486,32.80636]},"properties":{"id":57453,"name":"Bu‘eina","state_code":"Z","country_code":"IL"}},{"type":"Feature","geometry":{"type":"Point","coordinates":[35.33345,32.97747]},"properties":{"id":57452,"name":"Buqei‘a","state_code":"Z","country_code":"IL"}},{"type":"Feature","geometry":{"type":"Point","coordinates":[35.37123,32.69256]},"properties":{"id":57456,"name":"Dabbūrīya","state_code":"Z","country_code":"IL"}},{"type":"Feature","geometry":{"type":"Point","coordinates":[35.36365,32.86196]},"properties":{"id":57458,"name":"Deir Ḥannā","state_code":"Z","country_code":"IL"}},{"type":"Feature","geometry":{"type":"Point","coordinates":[35.09837,32.98338]},"properties":{"id":57462,"name":"El Mazra‘a","state_code":"Z","country_code":"IL"}},{"type":"Feature","geometry":{"type":"Point","coordinates":[35.31622,32.72339]},"properties":{"id":57464,"name":"Er Reina","state_code":"Z","country_code":"IL"}},{"type":"Feature","geometry":{"type":"Point","coordinates":[35.14805,32.9941]},"properties":{"id":57465,"name":"Esh Sheikh Dannūn","state_code":"Z","country_code":"IL"}},{"type":"Feature","geometry":{"type":"Point","coordinates":[35.34835,33.01711]},"properties":{"id":57578,"name":"Ḥurfeish","state_code":"Z","country_code":"IL"}},{"type":"Feature","geometry":{"type":"Point","coordinates":[35.32365,32.68164]},"properties":{"id":57481,"name":"Iksāl","state_code":"Z","country_code":"IL"}},{"type":"Feature","geometry":{"type":"Point","coordinates":[35.44694,33.02216]},"properties":{"id":57486,"name":"Jīsh","state_code":"Z","country_code":"IL"}},{"type":"Feature","geometry":{"type":"Point","coordinates":[35.15705,32.9282]},"properties":{"id":57485,"name":"Judeida Makr","state_code":"Z","country_code":"IL"}},{"type":"Feature","geometry":{"type":"Point","coordinates":[35.21171,32.86856]},"properties":{"id":57502,"name":"Kābūl","state_code":"Z","country_code":"IL"}},{"type":"Feature","geometry":{"type":"Point","coordinates":[35.44122,32.72129]},"properties":{"id":57487,"name":"Kafr Kammā","state_code":"Z","country_code":"IL"}},{"type":"Feature","geometry":{"type":"Point","coordinates":[35.34242,32.7466]},"properties":{"id":57488,"name":"Kafr Kannā","state_code":"Z","country_code":"IL"}},{"type":"Feature","geometry":{"type":"Point","coordinates":[35.26009,32.81034]},"properties":{"id":57489,"name":"Kafr Mandā","state_code":"Z","country_code":"IL"}},{"type":"Feature","geometry":{"type":"Point","coordinates":[35.42147,32.64521]},"properties":{"id":57490,"name":"Kafr Miṣr","state_code":"Z","country_code":"IL"}},{"type":"Feature","geometry":{"type":"Point","coordinates":[35.30501,32.91708]},"properties":{"id":57492,"name":"Karmi’el","state_code":"Z","country_code":"IL"}},{"type":"Feature","geometry":{"type":"Point","coordinates":[35.24848,32.83155]},"properties":{"id":57493,"name":"Kaukab Abū el Hījā","state_code":"Z","country_code":"IL"}},{"type":"Feature","geometry":{"type":"Point","coordinates":[35.11348,33.08607]},"properties":{"id":57495,"name":"Kefar Rosh HaNiqra","state_code":"Z","country_code":"IL"}},{"type":"Feature","geometry":{"type":"Point","coordinates":[35.42118,32.68655]},"properties":{"id":57497,"name":"Kefar Tavor","state_code":"Z","country_code":"IL"}},{"type":"Feature","geometry":{"type":"Point","coordinates":[35.27793,32.99385]},"properties":{"id":57498,"name":"Kefar Weradim","state_code":"Z","country_code":"IL"}},{"type":"Feature","geometry":{"type":"Point","coordinates":[35.1623,32.95451]},"properties":{"id":57501,"name":"Kfar Yasif","state_code":"Z","country_code":"IL"}},{"type":"Feature","geometry":{"type":"Point","coordinates":[35.26667,33.01667]},"properties":{"id":57577,"name":"maalot Tarshīhā","state_code":"Z","country_code":"IL"}},{"type":"Feature","geometry":{"type":"Point","coordinates":[35.40703,32.88984]},"properties":{"id":57506,"name":"Maghār","state_code":"Z","country_code":"IL"}},{"type":"Feature","geometry":{"type":"Point","coordinates":[35.5795,33.27918]},"properties":{"id":57508,"name":"Metulla","state_code":"Z","country_code":"IL"}},{"type":"Feature","geometry":{"type":"Point","coordinates":[35.25658,33.02781]},"properties":{"id":57513,"name":"Mi‘ilyā","state_code":"Z","country_code":"IL"}},{"type":"Feature","geometry":{"type":"Point","coordinates":[35.23986,32.67597]},"properties":{"id":57511,"name":"Migdal Ha‘Emeq","state_code":"Z","country_code":"IL"}},{"type":"Feature","geometry":{"type":"Point","coordinates":[35.09814,33.00892]},"properties":{"id":57516,"name":"Nahariyya","state_code":"Z","country_code":"IL"}},{"type":"Feature","geometry":{"type":"Point","coordinates":[35.31679,32.93444]},"properties":{"id":57518,"name":"Naḥf","state_code":"Z","country_code":"IL"}},{"type":"Feature","geometry":{"type":"Point","coordinates":[35.29722,32.70056]},"properties":{"id":57517,"name":"Nazareth","state_code":"Z","country_code":"IL"}},{"type":"Feature","geometry":{"type":"Point","coordinates":[35.23333,32.95]},"properties":{"id":57519,"name":"Nefat ‘Akko","state_code":"Z","country_code":"IL"}},{"type":"Feature","geometry":{"type":"Point","coordinates":[35.34885,32.63063]},"properties":{"id":57520,"name":"Nein","state_code":"Z","country_code":"IL"}},{"type":"Feature","geometry":{"type":"Point","coordinates":[35.30893,33.04895]},"properties":{"id":57532,"name":"Pasuta","state_code":"Z","country_code":"IL"}},{"type":"Feature","geometry":{"type":"Point","coordinates":[35.57212,33.20733]},"properties":{"id":57539,"name":"Qiryat Shemona","state_code":"Z","country_code":"IL"}},{"type":"Feature","geometry":{"type":"Point","coordinates":[35.1707,32.70444]},"properties":{"id":57545,"name":"Ramat Yishay","state_code":"Z","country_code":"IL"}},{"type":"Feature","geometry":{"type":"Point","coordinates":[35.54258,32.96894]},"properties":{"id":57551,"name":"Rosh Pinna","state_code":"Z","country_code":"IL"}},{"type":"Feature","geometry":{"type":"Point","coordinates":[35.30571,32.77802]},"properties":{"id":57552,"name":"Rumat Heib","state_code":"Z","country_code":"IL"}},{"type":"Feature","geometry":{"type":"Point","coordinates":[35.496,32.96465]},"properties":{"id":57553,"name":"Safed","state_code":"Z","country_code":"IL"}},{"type":"Feature","geometry":{"type":"Point","coordinates":[35.34136,32.94266]},"properties":{"id":57561,"name":"Sājūr","state_code":"Z","country_code":"IL"}},{"type":"Feature","geometry":{"type":"Point","coordinates":[35.29707,32.86422]},"properties":{"id":57554,"name":"Sakhnīn","state_code":"Z","country_code":"IL"}},{"type":"Feature","geometry":{"type":"Point","coordinates":[35.36931,32.89443]},"properties":{"id":57555,"name":"Sallama","state_code":"Z","country_code":"IL"}},{"type":"Feature","geometry":{"type":"Point","coordinates":[35.14452,33.07216]},"properties":{"id":57558,"name":"Shelomi","state_code":"Z","country_code":"IL"}},{"type":"Feature","geometry":{"type":"Point","coordinates":[35.39252,32.69464]},"properties":{"id":57559,"name":"Shibli","state_code":"Z","country_code":"IL"}},{"type":"Feature","geometry":{"type":"Point","coordinates":[35.33408,32.60606]},"properties":{"id":57562,"name":"Sūlam","state_code":"Z","country_code":"IL"}},{"type":"Feature","geometry":{"type":"Point","coordinates":[35.1987,32.85301]},"properties":{"id":57563,"name":"Tamra","state_code":"Z","country_code":"IL"}},{"type":"Feature","geometry":{"type":"Point","coordinates":[35.53124,32.79221]},"properties":{"id":57566,"name":"Tiberias","state_code":"Z","country_code":"IL"}},{"type":"Feature","geometry":{"type":"Point","coordinates":[35.22359,32.70302]},"properties":{"id":57567,"name":"Timrat","state_code":"Z","country_code":"IL"}},{"type":"Feature","geometry":{"type":"Point","coordinates":[35.50435,32.70619]},"properties":{"id":57572,"name":"Yavne’el","state_code":"Z","country_code":"IL"}}]}