{"type":"FeatureCollection","features":[{"type":"Feature","geometry":{"type":"Point","coordinates":[82.42641,22.02463]},"properties":{"id":57619,"name":"Akaltara","state_code":"CT","country_code":"IN"}},{"type":"Feature","geometry":{"type":"Point","coordinates":[80.74608,20.77644]},"properties":{"id":57672,"name":"Ambagarh Chauki","state_code":"CT","country_code":"IN"}},{"type":"Feature","geometry":{"type":"Point","coordinates":[83.19537,23.11892]},"properties":{"id":57670,"name":"Ambikapur","state_code":"CT","country_code":"IN"}},{"type":"Feature","geometry":{"type":"Point","coordinates":[81.96912,21.19639]},"properties":{"id":57728,"name":"Arang","state_code":"CT","country_code":"IN"}},{"type":"Feature","geometry":{"type":"Point","coordinates":[82.56051,23.26206]},"properties":{"id":57812,"name":"Baikunthpur","state_code":"CT","country_code":"IN"}},{"type":"Feature","geometry":{"type":"Point","coordinates":[81.20578,20.73081]},"properties":{"id":57830,"name":"Balod","state_code":"CT","country_code":"IN"}},{"type":"Feature","geometry":{"type":"Point","coordinates":[82.48171,22.1389]},"properties":{"id":57831,"name":"Baloda","state_code":"CT","country_code":"IN"}},{"type":"Feature","geometry":{"type":"Point","coordinates":[82.16062,21.65678]},"properties":{"id":57832,"name":"Baloda Bazar","state_code":"CT","country_code":"IN"}},{"type":"Feature","geometry":{"type":"Point","coordinates":[82.8267,21.27885]},"properties":{"id":57898,"name":"Basna","state_code":"CT","country_code":"IN"}},{"type":"Feature","geometry":{"type":"Point","coordinates":[81.73828,19.26794]},"properties":{"id":57900,"name":"Bastar","state_code":"CT","country_code":"IN"}},{"type":"Feature","geometry":{"type":"Point","coordinates":[81.53423,21.71556]},"properties":{"id":57931,"name":"Bemetara","state_code":"CT","country_code":"IN"}},{"type":"Feature","geometry":{"type":"Point","coordinates":[80.93218,21.0919]},"properties":{"id":58013,"name":"Bhanpuri","state_code":"CT","country_code":"IN"}},{"type":"Feature","geometry":{"type":"Point","coordinates":[81.94711,21.735]},"properties":{"id":58015,"name":"Bhatapara","state_code":"CT","country_code":"IN"}},{"type":"Feature","geometry":{"type":"Point","coordinates":[81.7,21.15]},"properties":{"id":57969,"name":"Bhatgaon","state_code":"CT","country_code":"IN"}},{"type":"Feature","geometry":{"type":"Point","coordinates":[81.4285,21.20919]},"properties":{"id":57981,"name":"Bhilai","state_code":"CT","country_code":"IN"}},{"type":"Feature","geometry":{"type":"Point","coordinates":[80.7761,18.84322]},"properties":{"id":58032,"name":"Bijapur","state_code":"CT","country_code":"IN"}},{"type":"Feature","geometry":{"type":"Point","coordinates":[82.13333,22.38333]},"properties":{"id":58055,"name":"Bilaspur","state_code":"CT","country_code":"IN"}},{"type":"Feature","geometry":{"type":"Point","coordinates":[82.64234,22.03532]},"properties":{"id":131593,"name":"Champa","state_code":"CT","country_code":"IN"}},{"type":"Feature","geometry":{"type":"Point","coordinates":[80.99788,21.52316]},"properties":{"id":131538,"name":"Chhuikhadan","state_code":"CT","country_code":"IN"}},{"type":"Feature","geometry":{"type":"Point","coordinates":[81.3386752,18.899848]},"properties":{"id":153519,"name":"Dantewada","state_code":"CT","country_code":"IN"}},{"type":"Feature","geometry":{"type":"Point","coordinates":[82.61667,21.45]},"properties":{"id":131690,"name":"Deori","state_code":"CT","country_code":"IN"}},{"type":"Feature","geometry":{"type":"Point","coordinates":[81.54874,20.70718]},"properties":{"id":131712,"name":"Dhamtari","state_code":"CT","country_code":"IN"}},{"type":"Feature","geometry":{"type":"Point","coordinates":[80.85077,20.97172]},"properties":{"id":131787,"name":"Dongargaon","state_code":"CT","country_code":"IN"}},{"type":"Feature","geometry":{"type":"Point","coordinates":[80.75459,21.18893]},"properties":{"id":131788,"name":"Dongargarh","state_code":"CT","country_code":"IN"}},{"type":"Feature","geometry":{"type":"Point","coordinates":[81.4,21.15]},"properties":{"id":131801,"name":"Durg","state_code":"CT","country_code":"IN"}},{"type":"Feature","geometry":{"type":"Point","coordinates":[81.10013,21.66667]},"properties":{"id":131897,"name":"Gandai","state_code":"CT","country_code":"IN"}},{"type":"Feature","geometry":{"type":"Point","coordinates":[82.06221,20.63323]},"properties":{"id":131926,"name":"Gariaband","state_code":"CT","country_code":"IN"}},{"type":"Feature","geometry":{"type":"Point","coordinates":[81.90107,22.75449]},"properties":{"id":131927,"name":"Gaurela","state_code":"CT","country_code":"IN"}},{"type":"Feature","geometry":{"type":"Point","coordinates":[83.3517,22.17427]},"properties":{"id":131938,"name":"Gharghoda","state_code":"CT","country_code":"IN"}},{"type":"Feature","geometry":{"type":"Point","coordinates":[81.39894,18.97431]},"properties":{"id":132048,"name":"Gidam","state_code":"CT","country_code":"IN"}},{"type":"Feature","geometry":{"type":"Point","coordinates":[82.02131,19.08136]},"properties":{"id":132186,"name":"Jagdalpur","state_code":"CT","country_code":"IN"}},{"type":"Feature","geometry":{"type":"Point","coordinates":[82.5778,22.00922]},"properties":{"id":132312,"name":"Janjgir","state_code":"CT","country_code":"IN"}},{"type":"Feature","geometry":{"type":"Point","coordinates":[82.7,21.9]},"properties":{"id":132240,"name":"Janjgir-Champa","state_code":"CT","country_code":"IN"}},{"type":"Feature","geometry":{"type":"Point","coordinates":[83.84573,22.78495]},"properties":{"id":132244,"name":"Jashpur","state_code":"CT","country_code":"IN"}},{"type":"Feature","geometry":{"type":"Point","coordinates":[84.13864,22.88783]},"properties":{"id":132245,"name":"Jashpurnagar","state_code":"CT","country_code":"IN"}},{"type":"Feature","geometry":{"type":"Point","coordinates":[82.93385,19.85993]},"properties":{"id":132318,"name":"Junagarh","state_code":"CT","country_code":"IN"}},{"type":"Feature","geometry":{"type":"Point","coordinates":[81.2,22.1]},"properties":{"id":132319,"name":"Kabeerdham","state_code":"CT","country_code":"IN"}},{"type":"Feature","geometry":{"type":"Point","coordinates":[81.49177,20.27193]},"properties":{"id":132704,"name":"Kanker","state_code":"CT","country_code":"IN"}},{"type":"Feature","geometry":{"type":"Point","coordinates":[82.54279,22.50247]},"properties":{"id":132421,"name":"Katghora","state_code":"CT","country_code":"IN"}},{"type":"Feature","geometry":{"type":"Point","coordinates":[81.23148,22.00853]},"properties":{"id":132433,"name":"Kawardha","state_code":"CT","country_code":"IN"}},{"type":"Feature","geometry":{"type":"Point","coordinates":[80.97942,21.41859]},"properties":{"id":132456,"name":"Khairagarh","state_code":"CT","country_code":"IN"}},{"type":"Feature","geometry":{"type":"Point","coordinates":[82.25116,20.976]},"properties":{"id":132463,"name":"Khamharia","state_code":"CT","country_code":"IN"}},{"type":"Feature","geometry":{"type":"Point","coordinates":[82.5788,21.7442]},"properties":{"id":132480,"name":"Kharod","state_code":"CT","country_code":"IN"}},{"type":"Feature","geometry":{"type":"Point","coordinates":[83.10476,21.98953]},"properties":{"id":132481,"name":"Kharsia","state_code":"CT","country_code":"IN"}},{"type":"Feature","geometry":{"type":"Point","coordinates":[81.25827,18.63649]},"properties":{"id":132525,"name":"Kirandul","state_code":"CT","country_code":"IN"}},{"type":"Feature","geometry":{"type":"Point","coordinates":[81.664,19.59083]},"properties":{"id":132565,"name":"Kondagaon","state_code":"CT","country_code":"IN"}},{"type":"Feature","geometry":{"type":"Point","coordinates":[82.6,22.5]},"properties":{"id":132581,"name":"Korba","state_code":"CT","country_code":"IN"}},{"type":"Feature","geometry":{"type":"Point","coordinates":[82.15037,23.48326]},"properties":{"id":132583,"name":"Koria","state_code":"CT","country_code":"IN"}},{"type":"Feature","geometry":{"type":"Point","coordinates":[82.02366,22.29507]},"properties":{"id":132612,"name":"Kota","state_code":"CT","country_code":"IN"}},{"type":"Feature","geometry":{"type":"Point","coordinates":[82.32536,19.14256]},"properties":{"id":132596,"name":"Kotaparh","state_code":"CT","country_code":"IN"}},{"type":"Feature","geometry":{"type":"Point","coordinates":[81.51667,21.26667]},"properties":{"id":132641,"name":"Kumhari","state_code":"CT","country_code":"IN"}},{"type":"Feature","geometry":{"type":"Point","coordinates":[81.72212,20.83073]},"properties":{"id":132661,"name":"Kurud","state_code":"CT","country_code":"IN"}},{"type":"Feature","geometry":{"type":"Point","coordinates":[81.70181,22.27434]},"properties":{"id":132777,"name":"Lormi","state_code":"CT","country_code":"IN"}},{"type":"Feature","geometry":{"type":"Point","coordinates":[82.5,21.2]},"properties":{"id":132827,"name":"Mahasamund","state_code":"CT","country_code":"IN"}},{"type":"Feature","geometry":{"type":"Point","coordinates":[81.68543,22.06566]},"properties":{"id":133031,"name":"Mungeli","state_code":"CT","country_code":"IN"}},{"type":"Feature","geometry":{"type":"Point","coordinates":[81.08119,19.60426]},"properties":{"id":133163,"name":"Narayanpur","state_code":"CT","country_code":"IN"}},{"type":"Feature","geometry":{"type":"Point","coordinates":[81.62004,20.44892]},"properties":{"id":133168,"name":"Narharpur","state_code":"CT","country_code":"IN"}},{"type":"Feature","geometry":{"type":"Point","coordinates":[81.40994,22.22495]},"properties":{"id":133346,"name":"Pandaria","state_code":"CT","country_code":"IN"}},{"type":"Feature","geometry":{"type":"Point","coordinates":[81.32815,22.18714]},"properties":{"id":133540,"name":"Pandatarai","state_code":"CT","country_code":"IN"}},{"type":"Feature","geometry":{"type":"Point","coordinates":[82.19823,22.84412]},"properties":{"id":133375,"name":"Pasan","state_code":"CT","country_code":"IN"}},{"type":"Feature","geometry":{"type":"Point","coordinates":[81.53333,21.03333]},"properties":{"id":133552,"name":"Patan","state_code":"CT","country_code":"IN"}},{"type":"Feature","geometry":{"type":"Point","coordinates":[83.46355,22.55656]},"properties":{"id":133379,"name":"Pathalgaon","state_code":"CT","country_code":"IN"}},{"type":"Feature","geometry":{"type":"Point","coordinates":[81.95968,22.77548]},"properties":{"id":133405,"name":"Pendra","state_code":"CT","country_code":"IN"}},{"type":"Feature","geometry":{"type":"Point","coordinates":[82.51707,21.25021]},"properties":{"id":133463,"name":"Pithora","state_code":"CT","country_code":"IN"}},{"type":"Feature","geometry":{"type":"Point","coordinates":[83.30603,22.08582]},"properties":{"id":133587,"name":"Raigarh","state_code":"CT","country_code":"IN"}},{"type":"Feature","geometry":{"type":"Point","coordinates":[81.69022,21.25621]},"properties":{"id":133590,"name":"Raipur","state_code":"CT","country_code":"IN"}},{"type":"Feature","geometry":{"type":"Point","coordinates":[81,21.16667]},"properties":{"id":133668,"name":"Raj Nandgaon","state_code":"CT","country_code":"IN"}},{"type":"Feature","geometry":{"type":"Point","coordinates":[83.69981,23.80637]},"properties":{"id":133711,"name":"Ramanuj Ganj","state_code":"CT","country_code":"IN"}},{"type":"Feature","geometry":{"type":"Point","coordinates":[82.16823,22.2866]},"properties":{"id":133616,"name":"Ratanpur","state_code":"CT","country_code":"IN"}},{"type":"Feature","geometry":{"type":"Point","coordinates":[82.96091,22.02662]},"properties":{"id":133761,"name":"Sakti","state_code":"CT","country_code":"IN"}},{"type":"Feature","geometry":{"type":"Point","coordinates":[83.00629,21.3153]},"properties":{"id":133801,"name":"Saraipali","state_code":"CT","country_code":"IN"}},{"type":"Feature","geometry":{"type":"Point","coordinates":[83.0785,21.58614]},"properties":{"id":134077,"name":"Sarangarh","state_code":"CT","country_code":"IN"}},{"type":"Feature","geometry":{"type":"Point","coordinates":[82.59344,21.72055]},"properties":{"id":133845,"name":"Seorinarayan","state_code":"CT","country_code":"IN"}},{"type":"Feature","geometry":{"type":"Point","coordinates":[81.70376,21.6281]},"properties":{"id":133940,"name":"Simga","state_code":"CT","country_code":"IN"}},{"type":"Feature","geometry":{"type":"Point","coordinates":[83.09631,22.89624]},"properties":{"id":134051,"name":"Surguja","state_code":"CT","country_code":"IN"}},{"type":"Feature","geometry":{"type":"Point","coordinates":[81.86959,22.12915]},"properties":{"id":134099,"name":"Takhatpur","state_code":"CT","country_code":"IN"}},{"type":"Feature","geometry":{"type":"Point","coordinates":[82.20629,19.66529]},"properties":{"id":134273,"name":"Umarkot","state_code":"CT","country_code":"IN"}},{"type":"Feature","geometry":{"type":"Point","coordinates":[81.1,20.2]},"properties":{"id":134299,"name":"Uttar Bastar Kanker","state_code":"CT","country_code":"IN"}}]}