{"type":"FeatureCollection","features":[{"type":"Feature","geometry":{"type":"Point","coordinates":[76.01571,23.71177]},"properties":{"id":57599,"name":"Agar","state_code":"MP","country_code":"IN"}},{"type":"Feature","geometry":{"type":"Point","coordinates":[80.25921,24.89879]},"properties":{"id":57611,"name":"Ajaigarh","state_code":"MP","country_code":"IN"}},{"type":"Feature","geometry":{"type":"Point","coordinates":[76.59875,23.38027]},"properties":{"id":57626,"name":"Akodia","state_code":"MP","country_code":"IN"}},{"type":"Feature","geometry":{"type":"Point","coordinates":[78.79697,26.02514]},"properties":{"id":57631,"name":"Alampur","state_code":"MP","country_code":"IN"}},{"type":"Feature","geometry":{"type":"Point","coordinates":[74.36452,22.31384]},"properties":{"id":57639,"name":"Alirajpur","state_code":"MP","country_code":"IN"}},{"type":"Feature","geometry":{"type":"Point","coordinates":[75.55662,23.76336]},"properties":{"id":57646,"name":"Alot","state_code":"MP","country_code":"IN"}},{"type":"Feature","geometry":{"type":"Point","coordinates":[80.03579,24.42664]},"properties":{"id":57691,"name":"Amanganj","state_code":"MP","country_code":"IN"}},{"type":"Feature","geometry":{"type":"Point","coordinates":[81.75908,22.67486]},"properties":{"id":57659,"name":"Amarkantak","state_code":"MP","country_code":"IN"}},{"type":"Feature","geometry":{"type":"Point","coordinates":[80.97703,24.31371]},"properties":{"id":57663,"name":"Amarpatan","state_code":"MP","country_code":"IN"}},{"type":"Feature","geometry":{"type":"Point","coordinates":[79.16943,22.2978]},"properties":{"id":57664,"name":"Amarwara","state_code":"MP","country_code":"IN"}},{"type":"Feature","geometry":{"type":"Point","coordinates":[78.22678,26.70423]},"properties":{"id":57673,"name":"Ambah","state_code":"MP","country_code":"IN"}},{"type":"Feature","geometry":{"type":"Point","coordinates":[78.12786,21.92485]},"properties":{"id":57680,"name":"Amla","state_code":"MP","country_code":"IN"}},{"type":"Feature","geometry":{"type":"Point","coordinates":[75.05519,22.04171]},"properties":{"id":57706,"name":"Anjad","state_code":"MP","country_code":"IN"}},{"type":"Feature","geometry":{"type":"Point","coordinates":[78.21027,26.05804]},"properties":{"id":57719,"name":"Antri","state_code":"MP","country_code":"IN"}},{"type":"Feature","geometry":{"type":"Point","coordinates":[81.68399,23.05674]},"properties":{"id":57721,"name":"Anuppur","state_code":"MP","country_code":"IN"}},{"type":"Feature","geometry":{"type":"Point","coordinates":[77.41739,24.38109]},"properties":{"id":134462,"name":"Aron","state_code":"MP","country_code":"IN"}},{"type":"Feature","geometry":{"type":"Point","coordinates":[77.73,24.58]},"properties":{"id":57750,"name":"Ashoknagar","state_code":"MP","country_code":"IN"}},{"type":"Feature","geometry":{"type":"Point","coordinates":[76.72208,23.01754]},"properties":{"id":57752,"name":"Ashta","state_code":"MP","country_code":"IN"}},{"type":"Feature","geometry":{"type":"Point","coordinates":[77.93494,22.70256]},"properties":{"id":58103,"name":"Babai","state_code":"MP","country_code":"IN"}},{"type":"Feature","geometry":{"type":"Point","coordinates":[77.5649,24.97516]},"properties":{"id":57788,"name":"Badarwas","state_code":"MP","country_code":"IN"}},{"type":"Feature","geometry":{"type":"Point","coordinates":[75.23268,23.02181]},"properties":{"id":57793,"name":"Badnawar","state_code":"MP","country_code":"IN"}},{"type":"Feature","geometry":{"type":"Point","coordinates":[74.79052,22.35905]},"properties":{"id":58106,"name":"Bagh","state_code":"MP","country_code":"IN"}},{"type":"Feature","geometry":{"type":"Point","coordinates":[76.34877,22.64124]},"properties":{"id":58111,"name":"Bagli","state_code":"MP","country_code":"IN"}},{"type":"Feature","geometry":{"type":"Point","coordinates":[80.54967,22.10133]},"properties":{"id":57811,"name":"Baihar","state_code":"MP","country_code":"IN"}},{"type":"Feature","geometry":{"type":"Point","coordinates":[81.40975,24.72768]},"properties":{"id":57813,"name":"Baikunthpur","state_code":"MP","country_code":"IN"}},{"type":"Feature","geometry":{"type":"Point","coordinates":[79.28618,24.25106]},"properties":{"id":57821,"name":"Bakshwaha","state_code":"MP","country_code":"IN"}},{"type":"Feature","geometry":{"type":"Point","coordinates":[80.33333,21.96667]},"properties":{"id":58119,"name":"Balaghat","state_code":"MP","country_code":"IN"}},{"type":"Feature","geometry":{"type":"Point","coordinates":[79.06715,24.75619]},"properties":{"id":57824,"name":"Baldeogarh","state_code":"MP","country_code":"IN"}},{"type":"Feature","geometry":{"type":"Point","coordinates":[74.76164,23.09454]},"properties":{"id":57838,"name":"Bamna","state_code":"MP","country_code":"IN"}},{"type":"Feature","geometry":{"type":"Point","coordinates":[78.15105,24.89298]},"properties":{"id":58122,"name":"Bamor Kalan","state_code":"MP","country_code":"IN"}},{"type":"Feature","geometry":{"type":"Point","coordinates":[78.08925,24.05539]},"properties":{"id":57839,"name":"Bamora","state_code":"MP","country_code":"IN"}},{"type":"Feature","geometry":{"type":"Point","coordinates":[78.96094,24.04488]},"properties":{"id":57842,"name":"Banda","state_code":"MP","country_code":"IN"}},{"type":"Feature","geometry":{"type":"Point","coordinates":[80.05084,23.09678]},"properties":{"id":57868,"name":"Barela","state_code":"MP","country_code":"IN"}},{"type":"Feature","geometry":{"type":"Point","coordinates":[79.7328,22.03065]},"properties":{"id":57870,"name":"Barghat","state_code":"MP","country_code":"IN"}},{"type":"Feature","geometry":{"type":"Point","coordinates":[79.8755,22.99138]},"properties":{"id":57871,"name":"Bargi","state_code":"MP","country_code":"IN"}},{"type":"Feature","geometry":{"type":"Point","coordinates":[80.81516,23.90326]},"properties":{"id":57872,"name":"Barhi","state_code":"MP","country_code":"IN"}},{"type":"Feature","geometry":{"type":"Point","coordinates":[74.91805,22.02485]},"properties":{"id":57888,"name":"Barwani","state_code":"MP","country_code":"IN"}},{"type":"Feature","geometry":{"type":"Point","coordinates":[77.93652,23.85153]},"properties":{"id":58148,"name":"Basoda","state_code":"MP","country_code":"IN"}},{"type":"Feature","geometry":{"type":"Point","coordinates":[78.34064,23.59917]},"properties":{"id":57913,"name":"Begamganj","state_code":"MP","country_code":"IN"}},{"type":"Feature","geometry":{"type":"Point","coordinates":[81.37831,24.02423]},"properties":{"id":57935,"name":"Beohari","state_code":"MP","country_code":"IN"}},{"type":"Feature","geometry":{"type":"Point","coordinates":[77.43351,23.63134]},"properties":{"id":57936,"name":"Berasia","state_code":"MP","country_code":"IN"}},{"type":"Feature","geometry":{"type":"Point","coordinates":[75.61456,22.68653]},"properties":{"id":57940,"name":"Betma","state_code":"MP","country_code":"IN"}},{"type":"Feature","geometry":{"type":"Point","coordinates":[77.83333,21.83333]},"properties":{"id":57942,"name":"Betul","state_code":"MP","country_code":"IN"}},{"type":"Feature","geometry":{"type":"Point","coordinates":[77.92913,21.85572]},"properties":{"id":57943,"name":"Betul Bazar","state_code":"MP","country_code":"IN"}},{"type":"Feature","geometry":{"type":"Point","coordinates":[74.32846,22.53048]},"properties":{"id":58006,"name":"Bhabhra","state_code":"MP","country_code":"IN"}},{"type":"Feature","geometry":{"type":"Point","coordinates":[77.63023,21.64491]},"properties":{"id":57959,"name":"Bhainsdehi","state_code":"MP","country_code":"IN"}},{"type":"Feature","geometry":{"type":"Point","coordinates":[78.74555,25.73581]},"properties":{"id":58011,"name":"Bhander","state_code":"MP","country_code":"IN"}},{"type":"Feature","geometry":{"type":"Point","coordinates":[75.7469,24.513]},"properties":{"id":58012,"name":"Bhanpura","state_code":"MP","country_code":"IN"}},{"type":"Feature","geometry":{"type":"Point","coordinates":[75.83552,24.41582]},"properties":{"id":57975,"name":"Bhawaniganj","state_code":"MP","country_code":"IN"}},{"type":"Feature","geometry":{"type":"Point","coordinates":[75.96391,21.86764]},"properties":{"id":57980,"name":"Bhikangaon","state_code":"MP","country_code":"IN"}},{"type":"Feature","geometry":{"type":"Point","coordinates":[78.75,26.5]},"properties":{"id":57982,"name":"Bhind","state_code":"MP","country_code":"IN"}},{"type":"Feature","geometry":{"type":"Point","coordinates":[78.11085,25.79216]},"properties":{"id":57985,"name":"Bhitarwar","state_code":"MP","country_code":"IN"}},{"type":"Feature","geometry":{"type":"Point","coordinates":[77.40289,23.25469]},"properties":{"id":57995,"name":"Bhopal","state_code":"MP","country_code":"IN"}},{"type":"Feature","geometry":{"type":"Point","coordinates":[76.91074,23.9205]},"properties":{"id":58025,"name":"Biaora","state_code":"MP","country_code":"IN"}},{"type":"Feature","geometry":{"type":"Point","coordinates":[79.48994,24.62351]},"properties":{"id":58038,"name":"Bijawar","state_code":"MP","country_code":"IN"}},{"type":"Feature","geometry":{"type":"Point","coordinates":[77.64352,24.93296]},"properties":{"id":58036,"name":"Bijrauni","state_code":"MP","country_code":"IN"}},{"type":"Feature","geometry":{"type":"Point","coordinates":[81.43262,23.16524]},"properties":{"id":58073,"name":"Bodri","state_code":"MP","country_code":"IN"}},{"type":"Feature","geometry":{"type":"Point","coordinates":[76.23,21.31]},"properties":{"id":58096,"name":"Burhanpur","state_code":"MP","country_code":"IN"}},{"type":"Feature","geometry":{"type":"Point","coordinates":[81.53204,23.21494]},"properties":{"id":58097,"name":"Burhar","state_code":"MP","country_code":"IN"}},{"type":"Feature","geometry":{"type":"Point","coordinates":[78.13809,24.71312]},"properties":{"id":58188,"name":"Chanderi","state_code":"MP","country_code":"IN"}},{"type":"Feature","geometry":{"type":"Point","coordinates":[80.70911,23.65647]},"properties":{"id":58189,"name":"Chandia","state_code":"MP","country_code":"IN"}},{"type":"Feature","geometry":{"type":"Point","coordinates":[80.19294,25.07148]},"properties":{"id":58191,"name":"Chandla","state_code":"MP","country_code":"IN"}},{"type":"Feature","geometry":{"type":"Point","coordinates":[79.75,24.75]},"properties":{"id":131532,"name":"Chhatarpur","state_code":"MP","country_code":"IN"}},{"type":"Feature","geometry":{"type":"Point","coordinates":[78.93958,22.05697]},"properties":{"id":131534,"name":"Chhindwara","state_code":"MP","country_code":"IN"}},{"type":"Feature","geometry":{"type":"Point","coordinates":[78.82611,22.83363]},"properties":{"id":131543,"name":"Chichli","state_code":"MP","country_code":"IN"}},{"type":"Feature","geometry":{"type":"Point","coordinates":[81.66948,24.42743]},"properties":{"id":131581,"name":"Chorhat","state_code":"MP","country_code":"IN"}},{"type":"Feature","geometry":{"type":"Point","coordinates":[78.87658,26.00239]},"properties":{"id":131636,"name":"Daboh","state_code":"MP","country_code":"IN"}},{"type":"Feature","geometry":{"type":"Point","coordinates":[78.33221,25.88572]},"properties":{"id":131637,"name":"Dabra","state_code":"MP","country_code":"IN"}},{"type":"Feature","geometry":{"type":"Point","coordinates":[79.58333,23.75]},"properties":{"id":131651,"name":"Damoh","state_code":"MP","country_code":"IN"}},{"type":"Feature","geometry":{"type":"Point","coordinates":[78.5,25.75]},"properties":{"id":131662,"name":"Datia","state_code":"MP","country_code":"IN"}},{"type":"Feature","geometry":{"type":"Point","coordinates":[79.0163,23.39017]},"properties":{"id":131691,"name":"Deori Khas","state_code":"MP","country_code":"IN"}},{"type":"Feature","geometry":{"type":"Point","coordinates":[75.54224,22.85095]},"properties":{"id":131693,"name":"Depalpur","state_code":"MP","country_code":"IN"}},{"type":"Feature","geometry":{"type":"Point","coordinates":[76.16667,23]},"properties":{"id":131707,"name":"Dewas","state_code":"MP","country_code":"IN"}},{"type":"Feature","geometry":{"type":"Point","coordinates":[75.47057,22.20928]},"properties":{"id":131749,"name":"Dhamnod","state_code":"MP","country_code":"IN"}},{"type":"Feature","geometry":{"type":"Point","coordinates":[78.86234,23.74697]},"properties":{"id":131751,"name":"Dhana","state_code":"MP","country_code":"IN"}},{"type":"Feature","geometry":{"type":"Point","coordinates":[75.29774,22.59373]},"properties":{"id":131753,"name":"Dhar","state_code":"MP","country_code":"IN"}},{"type":"Feature","geometry":{"type":"Point","coordinates":[75.34439,22.14951]},"properties":{"id":131720,"name":"Dharampuri","state_code":"MP","country_code":"IN"}},{"type":"Feature","geometry":{"type":"Point","coordinates":[81.1,22.8]},"properties":{"id":131775,"name":"Dindori","state_code":"MP","country_code":"IN"}},{"type":"Feature","geometry":{"type":"Point","coordinates":[78.20289,24.18351]},"properties":{"id":131848,"name":"Etawa","state_code":"MP","country_code":"IN"}},{"type":"Feature","geometry":{"type":"Point","coordinates":[78.7849,22.9235]},"properties":{"id":132043,"name":"Gadarwara","state_code":"MP","country_code":"IN"}},{"type":"Feature","geometry":{"type":"Point","coordinates":[77.35731,23.86873]},"properties":{"id":131917,"name":"Garha Brahman","state_code":"MP","country_code":"IN"}},{"type":"Feature","geometry":{"type":"Point","coordinates":[79.14321,23.7791]},"properties":{"id":131924,"name":"Garhakota","state_code":"MP","country_code":"IN"}},{"type":"Feature","geometry":{"type":"Point","coordinates":[75.51921,22.98664]},"properties":{"id":131930,"name":"Gautampura","state_code":"MP","country_code":"IN"}},{"type":"Feature","geometry":{"type":"Point","coordinates":[79.95013,22.65976]},"properties":{"id":131936,"name":"Ghansor","state_code":"MP","country_code":"IN"}},{"type":"Feature","geometry":{"type":"Point","coordinates":[75.51665,23.55746]},"properties":{"id":131965,"name":"Gogapur","state_code":"MP","country_code":"IN"}},{"type":"Feature","geometry":{"type":"Point","coordinates":[78.44205,26.43278]},"properties":{"id":131966,"name":"Gohadi","state_code":"MP","country_code":"IN"}},{"type":"Feature","geometry":{"type":"Point","coordinates":[81.29644,24.37845]},"properties":{"id":132002,"name":"Govindgarh","state_code":"MP","country_code":"IN"}},{"type":"Feature","geometry":{"type":"Point","coordinates":[77.20082,24.55464]},"properties":{"id":132024,"name":"Guna","state_code":"MP","country_code":"IN"}},{"type":"Feature","geometry":{"type":"Point","coordinates":[81.50037,24.50265]},"properties":{"id":132033,"name":"Gurh","state_code":"MP","country_code":"IN"}},{"type":"Feature","geometry":{"type":"Point","coordinates":[78.17337,26.22983]},"properties":{"id":132040,"name":"Gwalior","state_code":"MP","country_code":"IN"}},{"type":"Feature","geometry":{"type":"Point","coordinates":[76.96431,22.23406]},"properties":{"id":132070,"name":"Harda","state_code":"MP","country_code":"IN"}},{"type":"Feature","geometry":{"type":"Point","coordinates":[77.09536,22.34414]},"properties":{"id":132071,"name":"Harda Khas","state_code":"MP","country_code":"IN"}},{"type":"Feature","geometry":{"type":"Point","coordinates":[79.33279,25.28773]},"properties":{"id":132080,"name":"Harpalpur","state_code":"MP","country_code":"IN"}},{"type":"Feature","geometry":{"type":"Point","coordinates":[79.22207,22.61428]},"properties":{"id":132081,"name":"Harrai","state_code":"MP","country_code":"IN"}},{"type":"Feature","geometry":{"type":"Point","coordinates":[76.73423,22.09947]},"properties":{"id":132082,"name":"Harsud","state_code":"MP","country_code":"IN"}},{"type":"Feature","geometry":{"type":"Point","coordinates":[75.73928,22.79378]},"properties":{"id":132145,"name":"Hatod","state_code":"MP","country_code":"IN"}},{"type":"Feature","geometry":{"type":"Point","coordinates":[79.60119,24.13406]},"properties":{"id":132088,"name":"Hatta","state_code":"MP","country_code":"IN"}},{"type":"Feature","geometry":{"type":"Point","coordinates":[79.56861,23.90345]},"properties":{"id":132098,"name":"Hindoria","state_code":"MP","country_code":"IN"}},{"type":"Feature","geometry":{"type":"Point","coordinates":[77.98887,22.58827]},"properties":{"id":132120,"name":"Hoshangabad","state_code":"MP","country_code":"IN"}},{"type":"Feature","geometry":{"type":"Point","coordinates":[76.5007,23.00943]},"properties":{"id":132180,"name":"Iawar","state_code":"MP","country_code":"IN"}},{"type":"Feature","geometry":{"type":"Point","coordinates":[77.01729,23.02816]},"properties":{"id":132152,"name":"Ichhawar","state_code":"MP","country_code":"IN"}},{"type":"Feature","geometry":{"type":"Point","coordinates":[76.39044,23.14667]},"properties":{"id":132158,"name":"Iklehra","state_code":"MP","country_code":"IN"}},{"type":"Feature","geometry":{"type":"Point","coordinates":[75.75,22.66667]},"properties":{"id":132166,"name":"Indore","state_code":"MP","country_code":"IN"}},{"type":"Feature","geometry":{"type":"Point","coordinates":[77.88274,24.83906]},"properties":{"id":132175,"name":"Isagarh","state_code":"MP","country_code":"IN"}},{"type":"Feature","geometry":{"type":"Point","coordinates":[77.76222,22.61477]},"properties":{"id":132179,"name":"Itarsi","state_code":"MP","country_code":"IN"}},{"type":"Feature","geometry":{"type":"Point","coordinates":[79.95,23.16]},"properties":{"id":132181,"name":"Jabalpur","state_code":"MP","country_code":"IN"}},{"type":"Feature","geometry":{"type":"Point","coordinates":[81.39085,23.68582]},"properties":{"id":132204,"name":"Jaisinghnagar","state_code":"MP","country_code":"IN"}},{"type":"Feature","geometry":{"type":"Point","coordinates":[78.61487,23.20856]},"properties":{"id":132206,"name":"Jaithari","state_code":"MP","country_code":"IN"}},{"type":"Feature","geometry":{"type":"Point","coordinates":[78.59191,22.19644]},"properties":{"id":132309,"name":"Jamai","state_code":"MP","country_code":"IN"}},{"type":"Feature","geometry":{"type":"Point","coordinates":[75.12711,23.63783]},"properties":{"id":132241,"name":"Jaora","state_code":"MP","country_code":"IN"}},{"type":"Feature","geometry":{"type":"Point","coordinates":[79.04869,25.00964]},"properties":{"id":132251,"name":"Jatara","state_code":"MP","country_code":"IN"}},{"type":"Feature","geometry":{"type":"Point","coordinates":[74.86261,24.59916]},"properties":{"id":132314,"name":"Jawad","state_code":"MP","country_code":"IN"}},{"type":"Feature","geometry":{"type":"Point","coordinates":[74.59087,22.76772]},"properties":{"id":132275,"name":"Jhabua","state_code":"MP","country_code":"IN"}},{"type":"Feature","geometry":{"type":"Point","coordinates":[74.89087,24.30871]},"properties":{"id":132316,"name":"Jiran","state_code":"MP","country_code":"IN"}},{"type":"Feature","geometry":{"type":"Point","coordinates":[74.56828,22.41599]},"properties":{"id":132283,"name":"Jobat","state_code":"MP","country_code":"IN"}},{"type":"Feature","geometry":{"type":"Point","coordinates":[77.616,26.30498]},"properties":{"id":132333,"name":"Kailaras","state_code":"MP","country_code":"IN"}},{"type":"Feature","geometry":{"type":"Point","coordinates":[79.7442,23.38465]},"properties":{"id":132336,"name":"Kaimori","state_code":"MP","country_code":"IN"}},{"type":"Feature","geometry":{"type":"Point","coordinates":[76.74286,22.66764]},"properties":{"id":132382,"name":"Kannod","state_code":"MP","country_code":"IN"}},{"type":"Feature","geometry":{"type":"Point","coordinates":[79.06378,22.91533]},"properties":{"id":132397,"name":"Kareli","state_code":"MP","country_code":"IN"}},{"type":"Feature","geometry":{"type":"Point","coordinates":[78.13583,25.45815]},"properties":{"id":132398,"name":"Karera","state_code":"MP","country_code":"IN"}},{"type":"Feature","geometry":{"type":"Point","coordinates":[78.86584,23.94891]},"properties":{"id":132407,"name":"Karrapur","state_code":"MP","country_code":"IN"}},{"type":"Feature","geometry":{"type":"Point","coordinates":[75.61101,22.12745]},"properties":{"id":132419,"name":"Kasrawad","state_code":"MP","country_code":"IN"}},{"type":"Feature","geometry":{"type":"Point","coordinates":[79.80513,21.77369]},"properties":{"id":132420,"name":"Katangi","state_code":"MP","country_code":"IN"}},{"type":"Feature","geometry":{"type":"Point","coordinates":[80.39417,23.83555]},"properties":{"id":132424,"name":"Katni","state_code":"MP","country_code":"IN"}},{"type":"Feature","geometry":{"type":"Point","coordinates":[75.28185,23.42322]},"properties":{"id":132511,"name":"Khachrod","state_code":"MP","country_code":"IN"}},{"type":"Feature","geometry":{"type":"Point","coordinates":[78.53133,25.34127]},"properties":{"id":132453,"name":"Khailar","state_code":"MP","country_code":"IN"}},{"type":"Feature","geometry":{"type":"Point","coordinates":[79.93351,24.84809]},"properties":{"id":132457,"name":"Khajuraho Group of Monuments","state_code":"MP","country_code":"IN"}},{"type":"Feature","geometry":{"type":"Point","coordinates":[79.88007,23.22558]},"properties":{"id":132460,"name":"Khamaria","state_code":"MP","country_code":"IN"}},{"type":"Feature","geometry":{"type":"Point","coordinates":[76.35086,21.82427]},"properties":{"id":132467,"name":"Khandwa","state_code":"MP","country_code":"IN"}},{"type":"Feature","geometry":{"type":"Point","coordinates":[79.144,24.823]},"properties":{"id":132476,"name":"Khargapur","state_code":"MP","country_code":"IN"}},{"type":"Feature","geometry":{"type":"Point","coordinates":[75.61028,21.82306]},"properties":{"id":132474,"name":"Khargone","state_code":"MP","country_code":"IN"}},{"type":"Feature","geometry":{"type":"Point","coordinates":[76.9133,22.59573]},"properties":{"id":132519,"name":"Khategaon","state_code":"MP","country_code":"IN"}},{"type":"Feature","geometry":{"type":"Point","coordinates":[76.578,24.03943]},"properties":{"id":132497,"name":"Khilchipur","state_code":"MP","country_code":"IN"}},{"type":"Feature","geometry":{"type":"Point","coordinates":[76.86137,22.16732]},"properties":{"id":132498,"name":"Khirkiyan","state_code":"MP","country_code":"IN"}},{"type":"Feature","geometry":{"type":"Point","coordinates":[76.61773,23.78597]},"properties":{"id":132504,"name":"Khujner","state_code":"MP","country_code":"IN"}},{"type":"Feature","geometry":{"type":"Point","coordinates":[78.33014,24.04372]},"properties":{"id":132507,"name":"Khurai","state_code":"MP","country_code":"IN"}},{"type":"Feature","geometry":{"type":"Point","coordinates":[77.61167,25.21928]},"properties":{"id":132561,"name":"Kolaras","state_code":"MP","country_code":"IN"}},{"type":"Feature","geometry":{"type":"Point","coordinates":[78.04007,24.11774]},"properties":{"id":132585,"name":"Korwai","state_code":"MP","country_code":"IN"}},{"type":"Feature","geometry":{"type":"Point","coordinates":[80.98073,24.69802]},"properties":{"id":132613,"name":"Kotar","state_code":"MP","country_code":"IN"}},{"type":"Feature","geometry":{"type":"Point","coordinates":[80.77751,24.7526]},"properties":{"id":132598,"name":"Kothi","state_code":"MP","country_code":"IN"}},{"type":"Feature","geometry":{"type":"Point","coordinates":[81.97904,23.20383]},"properties":{"id":132603,"name":"Kotma","state_code":"MP","country_code":"IN"}},{"type":"Feature","geometry":{"type":"Point","coordinates":[81.31908,25.0308]},"properties":{"id":132611,"name":"Kotwa","state_code":"MP","country_code":"IN"}},{"type":"Feature","geometry":{"type":"Point","coordinates":[74.75788,22.20677]},"properties":{"id":132631,"name":"Kukshi","state_code":"MP","country_code":"IN"}},{"type":"Feature","geometry":{"type":"Point","coordinates":[77.04841,24.37338]},"properties":{"id":132640,"name":"Kumbhraj","state_code":"MP","country_code":"IN"}},{"type":"Feature","geometry":{"type":"Point","coordinates":[78.94137,26.19401]},"properties":{"id":132741,"name":"Lahar","state_code":"MP","country_code":"IN"}},{"type":"Feature","geometry":{"type":"Point","coordinates":[79.60094,22.60049]},"properties":{"id":132746,"name":"Lakhnadon","state_code":"MP","country_code":"IN"}},{"type":"Feature","geometry":{"type":"Point","coordinates":[77.40858,24.05979]},"properties":{"id":132763,"name":"Leteri","state_code":"MP","country_code":"IN"}},{"type":"Feature","geometry":{"type":"Point","coordinates":[78.85911,21.58235]},"properties":{"id":132766,"name":"Lodhikheda","state_code":"MP","country_code":"IN"}},{"type":"Feature","geometry":{"type":"Point","coordinates":[76.31672,24.12767]},"properties":{"id":133054,"name":"Machalpur","state_code":"MP","country_code":"IN"}},{"type":"Feature","geometry":{"type":"Point","coordinates":[80.91126,24.56401]},"properties":{"id":132814,"name":"Madhogarh","state_code":"MP","country_code":"IN"}},{"type":"Feature","geometry":{"type":"Point","coordinates":[75.58715,22.17592]},"properties":{"id":132833,"name":"Maheshwar","state_code":"MP","country_code":"IN"}},{"type":"Feature","geometry":{"type":"Point","coordinates":[78.61593,26.49471]},"properties":{"id":132835,"name":"Mahgawan","state_code":"MP","country_code":"IN"}},{"type":"Feature","geometry":{"type":"Point","coordinates":[80.76063,24.26594]},"properties":{"id":132854,"name":"Maihar","state_code":"MP","country_code":"IN"}},{"type":"Feature","geometry":{"type":"Point","coordinates":[79.92396,23.50114]},"properties":{"id":132860,"name":"Majholi","state_code":"MP","country_code":"IN"}},{"type":"Feature","geometry":{"type":"Point","coordinates":[76.14567,23.25999]},"properties":{"id":132864,"name":"Maksi","state_code":"MP","country_code":"IN"}},{"type":"Feature","geometry":{"type":"Point","coordinates":[74.99024,24.28286]},"properties":{"id":132869,"name":"Malhargarh","state_code":"MP","country_code":"IN"}},{"type":"Feature","geometry":{"type":"Point","coordinates":[75.14095,24.47764]},"properties":{"id":132930,"name":"Manasa","state_code":"MP","country_code":"IN"}},{"type":"Feature","geometry":{"type":"Point","coordinates":[75.08917,22.23566]},"properties":{"id":132931,"name":"Manawar","state_code":"MP","country_code":"IN"}},{"type":"Feature","geometry":{"type":"Point","coordinates":[77.53328,23.08166]},"properties":{"id":132894,"name":"Mandideep","state_code":"MP","country_code":"IN"}},{"type":"Feature","geometry":{"type":"Point","coordinates":[80.51344,22.64041]},"properties":{"id":132895,"name":"Mandla","state_code":"MP","country_code":"IN"}},{"type":"Feature","geometry":{"type":"Point","coordinates":[75.65995,22.17598]},"properties":{"id":133075,"name":"Mandleshwar","state_code":"MP","country_code":"IN"}},{"type":"Feature","geometry":{"type":"Point","coordinates":[75.25,24.33333]},"properties":{"id":132897,"name":"Mandsaur","state_code":"MP","country_code":"IN"}},{"type":"Feature","geometry":{"type":"Point","coordinates":[81.54644,24.66754]},"properties":{"id":132907,"name":"Mangawan","state_code":"MP","country_code":"IN"}},{"type":"Feature","geometry":{"type":"Point","coordinates":[75.62107,22.43151]},"properties":{"id":133080,"name":"Manpur","state_code":"MP","country_code":"IN"}},{"type":"Feature","geometry":{"type":"Point","coordinates":[78.67108,26.26584]},"properties":{"id":132943,"name":"Mau","state_code":"MP","country_code":"IN"}},{"type":"Feature","geometry":{"type":"Point","coordinates":[81.87339,24.66721]},"properties":{"id":132947,"name":"Mauganj","state_code":"MP","country_code":"IN"}},{"type":"Feature","geometry":{"type":"Point","coordinates":[78.98048,26.28373]},"properties":{"id":132973,"name":"Mihona","state_code":"MP","country_code":"IN"}},{"type":"Feature","geometry":{"type":"Point","coordinates":[78.73638,21.63941]},"properties":{"id":132983,"name":"Mohgaon","state_code":"MP","country_code":"IN"}},{"type":"Feature","geometry":{"type":"Point","coordinates":[78.22482,26.2264]},"properties":{"id":133003,"name":"Morar","state_code":"MP","country_code":"IN"}},{"type":"Feature","geometry":{"type":"Point","coordinates":[77.5,26.16667]},"properties":{"id":132994,"name":"Morena","state_code":"MP","country_code":"IN"}},{"type":"Feature","geometry":{"type":"Point","coordinates":[78.25756,21.77463]},"properties":{"id":133022,"name":"Multai","state_code":"MP","country_code":"IN"}},{"type":"Feature","geometry":{"type":"Point","coordinates":[76.49326,22.06693]},"properties":{"id":133028,"name":"Mundi","state_code":"MP","country_code":"IN"}},{"type":"Feature","geometry":{"type":"Point","coordinates":[78.09588,24.40837]},"properties":{"id":133030,"name":"Mungaoli","state_code":"MP","country_code":"IN"}},{"type":"Feature","geometry":{"type":"Point","coordinates":[80.39405,23.83776]},"properties":{"id":133042,"name":"Murwara","state_code":"MP","country_code":"IN"}},{"type":"Feature","geometry":{"type":"Point","coordinates":[75.41759,23.45834]},"properties":{"id":133115,"name":"Nagda","state_code":"MP","country_code":"IN"}},{"type":"Feature","geometry":{"type":"Point","coordinates":[80.58809,24.56924]},"properties":{"id":133259,"name":"Nagod","state_code":"MP","country_code":"IN"}},{"type":"Feature","geometry":{"type":"Point","coordinates":[81.77868,24.78686]},"properties":{"id":133197,"name":"Naigarhi","state_code":"MP","country_code":"IN"}},{"type":"Feature","geometry":{"type":"Point","coordinates":[80.10561,22.42996]},"properties":{"id":133124,"name":"Nainpur","state_code":"MP","country_code":"IN"}},{"type":"Feature","geometry":{"type":"Point","coordinates":[75.06036,23.46115]},"properties":{"id":133138,"name":"Namli","state_code":"MP","country_code":"IN"}},{"type":"Feature","geometry":{"type":"Point","coordinates":[80.475,25.19033]},"properties":{"id":133155,"name":"Naraini","state_code":"MP","country_code":"IN"}},{"type":"Feature","geometry":{"type":"Point","coordinates":[75.05007,24.27083]},"properties":{"id":133276,"name":"Narayangarh","state_code":"MP","country_code":"IN"}},{"type":"Feature","geometry":{"type":"Point","coordinates":[79.16667,22.91667]},"properties":{"id":133171,"name":"Narsimhapur","state_code":"MP","country_code":"IN"}},{"type":"Feature","geometry":{"type":"Point","coordinates":[77.09319,23.70758]},"properties":{"id":133172,"name":"Narsinghgarh","state_code":"MP","country_code":"IN"}},{"type":"Feature","geometry":{"type":"Point","coordinates":[77.9129,25.6439]},"properties":{"id":133174,"name":"Narwar","state_code":"MP","country_code":"IN"}},{"type":"Feature","geometry":{"type":"Point","coordinates":[77.27069,22.6837]},"properties":{"id":133179,"name":"Nasrullahganj","state_code":"MP","country_code":"IN"}},{"type":"Feature","geometry":{"type":"Point","coordinates":[74.87,24.47]},"properties":{"id":133202,"name":"Neemuch","state_code":"MP","country_code":"IN"}},{"type":"Feature","geometry":{"type":"Point","coordinates":[76.39335,21.4538]},"properties":{"id":133207,"name":"Nepanagar","state_code":"MP","country_code":"IN"}},{"type":"Feature","geometry":{"type":"Point","coordinates":[78.64033,25.35192]},"properties":{"id":133304,"name":"Orchha","state_code":"MP","country_code":"IN"}},{"type":"Feature","geometry":{"type":"Point","coordinates":[78.43312,22.46791]},"properties":{"id":133308,"name":"Pachmarhi","state_code":"MP","country_code":"IN"}},{"type":"Feature","geometry":{"type":"Point","coordinates":[79.22818,25.02013]},"properties":{"id":133325,"name":"Palera","state_code":"MP","country_code":"IN"}},{"type":"Feature","geometry":{"type":"Point","coordinates":[81.04374,23.36453]},"properties":{"id":133530,"name":"Pali","state_code":"MP","country_code":"IN"}},{"type":"Feature","geometry":{"type":"Point","coordinates":[79.99509,23.28539]},"properties":{"id":133354,"name":"Panagar","state_code":"MP","country_code":"IN"}},{"type":"Feature","geometry":{"type":"Point","coordinates":[78.55093,22.20568]},"properties":{"id":133344,"name":"Panara","state_code":"MP","country_code":"IN"}},{"type":"Feature","geometry":{"type":"Point","coordinates":[76.22487,21.69816]},"properties":{"id":133348,"name":"Pandhana","state_code":"MP","country_code":"IN"}},{"type":"Feature","geometry":{"type":"Point","coordinates":[78.52628,21.59556]},"properties":{"id":133538,"name":"Pandhurna","state_code":"MP","country_code":"IN"}},{"type":"Feature","geometry":{"type":"Point","coordinates":[80.25,24.5]},"properties":{"id":133351,"name":"Panna","state_code":"MP","country_code":"IN"}},{"type":"Feature","geometry":{"type":"Point","coordinates":[74.69937,21.65981]},"properties":{"id":133542,"name":"Pansemal","state_code":"MP","country_code":"IN"}},{"type":"Feature","geometry":{"type":"Point","coordinates":[78.75904,22.1913]},"properties":{"id":133371,"name":"Parasia","state_code":"MP","country_code":"IN"}},{"type":"Feature","geometry":{"type":"Point","coordinates":[79.68962,23.28636]},"properties":{"id":133555,"name":"Patan","state_code":"MP","country_code":"IN"}},{"type":"Feature","geometry":{"type":"Point","coordinates":[79.19393,23.89921]},"properties":{"id":133381,"name":"Patharia","state_code":"MP","country_code":"IN"}},{"type":"Feature","geometry":{"type":"Point","coordinates":[80.16196,24.26635]},"properties":{"id":133396,"name":"Pawai","state_code":"MP","country_code":"IN"}},{"type":"Feature","geometry":{"type":"Point","coordinates":[74.79772,23.01102]},"properties":{"id":133430,"name":"Petlawad","state_code":"MP","country_code":"IN"}},{"type":"Feature","geometry":{"type":"Point","coordinates":[75.43333,23.35]},"properties":{"id":133454,"name":"Piploda","state_code":"MP","country_code":"IN"}},{"type":"Feature","geometry":{"type":"Point","coordinates":[75.69649,22.60197]},"properties":{"id":133462,"name":"Pithampur","state_code":"MP","country_code":"IN"}},{"type":"Feature","geometry":{"type":"Point","coordinates":[78.37081,26.67444]},"properties":{"id":133481,"name":"Porsa","state_code":"MP","country_code":"IN"}},{"type":"Feature","geometry":{"type":"Point","coordinates":[76.39335,22.23507]},"properties":{"id":133508,"name":"Punasa","state_code":"MP","country_code":"IN"}},{"type":"Feature","geometry":{"type":"Point","coordinates":[77.19768,24.44318]},"properties":{"id":133660,"name":"Raghogarh","state_code":"MP","country_code":"IN"}},{"type":"Feature","geometry":{"type":"Point","coordinates":[78.39473,23.78968]},"properties":{"id":133661,"name":"Rahatgarh","state_code":"MP","country_code":"IN"}},{"type":"Feature","geometry":{"type":"Point","coordinates":[78.08333,23.25]},"properties":{"id":133591,"name":"Raisen","state_code":"MP","country_code":"IN"}},{"type":"Feature","geometry":{"type":"Point","coordinates":[74.94483,22.67821]},"properties":{"id":133675,"name":"Rajgarh","state_code":"MP","country_code":"IN"}},{"type":"Feature","geometry":{"type":"Point","coordinates":[79.91178,24.88929]},"properties":{"id":133680,"name":"Rajnagar","state_code":"MP","country_code":"IN"}},{"type":"Feature","geometry":{"type":"Point","coordinates":[74.35568,22.30393]},"properties":{"id":133595,"name":"Rajpur","state_code":"MP","country_code":"IN"}},{"type":"Feature","geometry":{"type":"Point","coordinates":[75.43996,24.467]},"properties":{"id":133709,"name":"Rampura","state_code":"MP","country_code":"IN"}},{"type":"Feature","geometry":{"type":"Point","coordinates":[74.52118,22.64704]},"properties":{"id":133717,"name":"Ranapur","state_code":"MP","country_code":"IN"}},{"type":"Feature","geometry":{"type":"Point","coordinates":[75.11667,24.81667]},"properties":{"id":133615,"name":"Ratangarh","state_code":"MP","country_code":"IN"}},{"type":"Feature","geometry":{"type":"Point","coordinates":[75.04032,23.33033]},"properties":{"id":133618,"name":"Ratlam","state_code":"MP","country_code":"IN"}},{"type":"Feature","geometry":{"type":"Point","coordinates":[79.06275,23.63722]},"properties":{"id":133623,"name":"Rehli","state_code":"MP","country_code":"IN"}},{"type":"Feature","geometry":{"type":"Point","coordinates":[77.43399,22.73781]},"properties":{"id":133624,"name":"Rehti","state_code":"MP","country_code":"IN"}},{"type":"Feature","geometry":{"type":"Point","coordinates":[81.29234,24.53256]},"properties":{"id":133633,"name":"Rewa","state_code":"MP","country_code":"IN"}},{"type":"Feature","geometry":{"type":"Point","coordinates":[77.40786,26.24918]},"properties":{"id":133738,"name":"Sabalgarh","state_code":"MP","country_code":"IN"}},{"type":"Feature","geometry":{"type":"Point","coordinates":[78.75,23.75]},"properties":{"id":134061,"name":"Sagar","state_code":"MP","country_code":"IN"}},{"type":"Feature","geometry":{"type":"Point","coordinates":[74.92318,23.46219]},"properties":{"id":133757,"name":"Sailana","state_code":"MP","country_code":"IN"}},{"type":"Feature","geometry":{"type":"Point","coordinates":[76.06993,22.17391]},"properties":{"id":133796,"name":"Sanawad","state_code":"MP","country_code":"IN"}},{"type":"Feature","geometry":{"type":"Point","coordinates":[77.7378,23.48646]},"properties":{"id":134070,"name":"Sanchi","state_code":"MP","country_code":"IN"}},{"type":"Feature","geometry":{"type":"Point","coordinates":[75.8271,22.97415]},"properties":{"id":134075,"name":"Sanwer","state_code":"MP","country_code":"IN"}},{"type":"Feature","geometry":{"type":"Point","coordinates":[76.47306,23.56651]},"properties":{"id":134078,"name":"Sarangpur","state_code":"MP","country_code":"IN"}},{"type":"Feature","geometry":{"type":"Point","coordinates":[81,24.5]},"properties":{"id":133820,"name":"Satna","state_code":"MP","country_code":"IN"}},{"type":"Feature","geometry":{"type":"Point","coordinates":[76.68452,22.53628]},"properties":{"id":133824,"name":"Satwas","state_code":"MP","country_code":"IN"}},{"type":"Feature","geometry":{"type":"Point","coordinates":[78.73874,23.83877]},"properties":{"id":133826,"name":"Saugor","state_code":"MP","country_code":"IN"}},{"type":"Feature","geometry":{"type":"Point","coordinates":[78.79669,21.65576]},"properties":{"id":133829,"name":"Sausar","state_code":"MP","country_code":"IN"}},{"type":"Feature","geometry":{"type":"Point","coordinates":[77.08333,23.2]},"properties":{"id":133835,"name":"Sehore","state_code":"MP","country_code":"IN"}},{"type":"Feature","geometry":{"type":"Point","coordinates":[75.09622,21.68562]},"properties":{"id":133838,"name":"Sendhwa","state_code":"MP","country_code":"IN"}},{"type":"Feature","geometry":{"type":"Point","coordinates":[78.7812,26.15422]},"properties":{"id":133840,"name":"Seondha","state_code":"MP","country_code":"IN"}},{"type":"Feature","geometry":{"type":"Point","coordinates":[79.55037,22.08503]},"properties":{"id":133842,"name":"Seoni","state_code":"MP","country_code":"IN"}},{"type":"Feature","geometry":{"type":"Point","coordinates":[77.4665,22.45046]},"properties":{"id":133843,"name":"Seoni Malwa","state_code":"MP","country_code":"IN"}},{"type":"Feature","geometry":{"type":"Point","coordinates":[81.5,23.5]},"properties":{"id":133853,"name":"Shahdol","state_code":"MP","country_code":"IN"}},{"type":"Feature","geometry":{"type":"Point","coordinates":[79.11806,24.31365]},"properties":{"id":133893,"name":"Shahgarh","state_code":"MP","country_code":"IN"}},{"type":"Feature","geometry":{"type":"Point","coordinates":[76.22558,21.23742]},"properties":{"id":133899,"name":"Shahpur","state_code":"MP","country_code":"IN"}},{"type":"Feature","geometry":{"type":"Point","coordinates":[79.66402,23.13663]},"properties":{"id":133904,"name":"Shahpura","state_code":"MP","country_code":"IN"}},{"type":"Feature","geometry":{"type":"Point","coordinates":[76.25,23.5]},"properties":{"id":133910,"name":"Shajapur","state_code":"MP","country_code":"IN"}},{"type":"Feature","geometry":{"type":"Point","coordinates":[75.63903,24.18817]},"properties":{"id":133912,"name":"Shamgarh","state_code":"MP","country_code":"IN"}},{"type":"Feature","geometry":{"type":"Point","coordinates":[77,25.8]},"properties":{"id":133861,"name":"Sheopur","state_code":"MP","country_code":"IN"}},{"type":"Feature","geometry":{"type":"Point","coordinates":[77.66223,25.42378]},"properties":{"id":133880,"name":"Shivpuri","state_code":"MP","country_code":"IN"}},{"type":"Feature","geometry":{"type":"Point","coordinates":[76.7098,23.40673]},"properties":{"id":133888,"name":"Shujalpur","state_code":"MP","country_code":"IN"}},{"type":"Feature","geometry":{"type":"Point","coordinates":[82,24.25]},"properties":{"id":133922,"name":"Sidhi","state_code":"MP","country_code":"IN"}},{"type":"Feature","geometry":{"type":"Point","coordinates":[80.10404,23.4871]},"properties":{"id":133926,"name":"Sihora","state_code":"MP","country_code":"IN"}},{"type":"Feature","geometry":{"type":"Point","coordinates":[81.152,24.79497]},"properties":{"id":133938,"name":"Simaria","state_code":"MP","country_code":"IN"}},{"type":"Feature","geometry":{"type":"Point","coordinates":[75.3,24.96667]},"properties":{"id":133947,"name":"Singoli","state_code":"MP","country_code":"IN"}},{"type":"Feature","geometry":{"type":"Point","coordinates":[82.67535,24.19973]},"properties":{"id":133948,"name":"Singrauli","state_code":"MP","country_code":"IN"}},{"type":"Feature","geometry":{"type":"Point","coordinates":[81.36448,24.83648]},"properties":{"id":133956,"name":"Sirmaur","state_code":"MP","country_code":"IN"}},{"type":"Feature","geometry":{"type":"Point","coordinates":[77.69055,24.10313]},"properties":{"id":133959,"name":"Sironj","state_code":"MP","country_code":"IN"}},{"type":"Feature","geometry":{"type":"Point","coordinates":[75.35324,24.01473]},"properties":{"id":134090,"name":"Sitamau","state_code":"MP","country_code":"IN"}},{"type":"Feature","geometry":{"type":"Point","coordinates":[81.69558,24.98181]},"properties":{"id":133981,"name":"Sohagi","state_code":"MP","country_code":"IN"}},{"type":"Feature","geometry":{"type":"Point","coordinates":[78.19522,22.70055]},"properties":{"id":133982,"name":"Sohagpur","state_code":"MP","country_code":"IN"}},{"type":"Feature","geometry":{"type":"Point","coordinates":[77.93404,23.13812]},"properties":{"id":134039,"name":"Sultanpur","state_code":"MP","country_code":"IN"}},{"type":"Feature","geometry":{"type":"Point","coordinates":[76.08825,23.94667]},"properties":{"id":134055,"name":"Susner","state_code":"MP","country_code":"IN"}},{"type":"Feature","geometry":{"type":"Point","coordinates":[75.38514,23.71979]},"properties":{"id":134230,"name":"Tal","state_code":"MP","country_code":"IN"}},{"type":"Feature","geometry":{"type":"Point","coordinates":[76.72821,23.56949]},"properties":{"id":134102,"name":"Talen","state_code":"MP","country_code":"IN"}},{"type":"Feature","geometry":{"type":"Point","coordinates":[76.04253,23.33383]},"properties":{"id":134119,"name":"Tarana","state_code":"MP","country_code":"IN"}},{"type":"Feature","geometry":{"type":"Point","coordinates":[78.28322,25.99401]},"properties":{"id":134124,"name":"Tekanpur","state_code":"MP","country_code":"IN"}},{"type":"Feature","geometry":{"type":"Point","coordinates":[79.53947,23.3962]},"properties":{"id":134130,"name":"Tendukheda","state_code":"MP","country_code":"IN"}},{"type":"Feature","geometry":{"type":"Point","coordinates":[81.64194,24.98207]},"properties":{"id":134132,"name":"Teonthar","state_code":"MP","country_code":"IN"}},{"type":"Feature","geometry":{"type":"Point","coordinates":[74.57747,23.00959]},"properties":{"id":134137,"name":"Thandla","state_code":"MP","country_code":"IN"}},{"type":"Feature","geometry":{"type":"Point","coordinates":[78.83061,24.74327]},"properties":{"id":134244,"name":"Tikamgarh","state_code":"MP","country_code":"IN"}},{"type":"Feature","geometry":{"type":"Point","coordinates":[79.71906,21.68522]},"properties":{"id":134177,"name":"Tirodi","state_code":"MP","country_code":"IN"}},{"type":"Feature","geometry":{"type":"Point","coordinates":[78.51108,23.07434]},"properties":{"id":134251,"name":"Udaipura","state_code":"MP","country_code":"IN"}},{"type":"Feature","geometry":{"type":"Point","coordinates":[75.5,23.41667]},"properties":{"id":134263,"name":"Ujjain","state_code":"MP","country_code":"IN"}},{"type":"Feature","geometry":{"type":"Point","coordinates":[80.46625,21.97102]},"properties":{"id":134266,"name":"Ukwa","state_code":"MP","country_code":"IN"}},{"type":"Feature","geometry":{"type":"Point","coordinates":[80.83716,23.52473]},"properties":{"id":134270,"name":"Umaria","state_code":"MP","country_code":"IN"}},{"type":"Feature","geometry":{"type":"Point","coordinates":[78.93667,26.51056]},"properties":{"id":134276,"name":"Umri","state_code":"MP","country_code":"IN"}},{"type":"Feature","geometry":{"type":"Point","coordinates":[75.55931,23.33794]},"properties":{"id":134282,"name":"Unhel","state_code":"MP","country_code":"IN"}},{"type":"Feature","geometry":{"type":"Point","coordinates":[78,23.91667]},"properties":{"id":134354,"name":"Vidisha","state_code":"MP","country_code":"IN"}},{"type":"Feature","geometry":{"type":"Point","coordinates":[80.04301,21.76184]},"properties":{"id":134418,"name":"Waraseoni","state_code":"MP","country_code":"IN"}}]}