{"type":"FeatureCollection","features":[{"type":"Feature","geometry":{"type":"Point","coordinates":[91.27939,23.83605]},"properties":{"id":57600,"name":"Agartala","state_code":"TR","country_code":"IN"}},{"type":"Feature","geometry":{"type":"Point","coordinates":[91.65879,23.5257]},"properties":{"id":57662,"name":"Amarpur","state_code":"TR","country_code":"IN"}},{"type":"Feature","geometry":{"type":"Point","coordinates":[91.85436,23.936]},"properties":{"id":134458,"name":"Ambasa","state_code":"TR","country_code":"IN"}},{"type":"Feature","geometry":{"type":"Point","coordinates":[91.35596,23.6182]},"properties":{"id":57876,"name":"Barjala","state_code":"TR","country_code":"IN"}},{"type":"Feature","geometry":{"type":"Point","coordinates":[91.45407,23.25178]},"properties":{"id":57926,"name":"Belonia","state_code":"TR","country_code":"IN"}},{"type":"Feature","geometry":{"type":"Point","coordinates":[91.92591,23.84307]},"properties":{"id":131710,"name":"Dhalai","state_code":"TR","country_code":"IN"}},{"type":"Feature","geometry":{"type":"Point","coordinates":[92.16667,24.36667]},"properties":{"id":131725,"name":"Dharmanagar","state_code":"TR","country_code":"IN"}},{"type":"Feature","geometry":{"type":"Point","coordinates":[91.48122,23.53399]},"properties":{"id":131979,"name":"Gomati","state_code":"TR","country_code":"IN"}},{"type":"Feature","geometry":{"type":"Point","coordinates":[92.00391,24.33199]},"properties":{"id":132334,"name":"Kailashahar","state_code":"TR","country_code":"IN"}},{"type":"Feature","geometry":{"type":"Point","coordinates":[91.83438,24.19593]},"properties":{"id":132362,"name":"Kamalpur","state_code":"TR","country_code":"IN"}},{"type":"Feature","geometry":{"type":"Point","coordinates":[91.59972,24.07964]},"properties":{"id":132502,"name":"Khowai","state_code":"TR","country_code":"IN"}},{"type":"Feature","geometry":{"type":"Point","coordinates":[92.15552,24.1305]},"properties":{"id":133241,"name":"North Tripura","state_code":"TR","country_code":"IN"}},{"type":"Feature","geometry":{"type":"Point","coordinates":[91.36614,23.83463]},"properties":{"id":133721,"name":"Ranir Bazar","state_code":"TR","country_code":"IN"}},{"type":"Feature","geometry":{"type":"Point","coordinates":[91.72427,23.00153]},"properties":{"id":133740,"name":"Sabrum","state_code":"TR","country_code":"IN"}},{"type":"Feature","geometry":{"type":"Point","coordinates":[91.2659,23.47547]},"properties":{"id":133997,"name":"Sonamura","state_code":"TR","country_code":"IN"}},{"type":"Feature","geometry":{"type":"Point","coordinates":[91.60953,23.1671]},"properties":{"id":134011,"name":"South Tripura","state_code":"TR","country_code":"IN"}},{"type":"Feature","geometry":{"type":"Point","coordinates":[91.48333,23.53333]},"properties":{"id":134249,"name":"Udaipur","state_code":"TR","country_code":"IN"}},{"type":"Feature","geometry":{"type":"Point","coordinates":[92.00377,24.32781]},"properties":{"id":134281,"name":"Unakoti","state_code":"TR","country_code":"IN"}},{"type":"Feature","geometry":{"type":"Point","coordinates":[91.5,23.91667]},"properties":{"id":134412,"name":"West Tripura","state_code":"TR","country_code":"IN"}}]}