{"type":"FeatureCollection","features":[{"type":"Feature","geometry":{"type":"Point","coordinates":[79.49789,29.69223]},"properties":{"id":57643,"name":"Almora","state_code":"UK","country_code":"IN"}},{"type":"Feature","geometry":{"type":"Point","coordinates":[79.83224,29.97315]},"properties":{"id":57800,"name":"Bageshwar","state_code":"UK","country_code":"IN"}},{"type":"Feature","geometry":{"type":"Point","coordinates":[80.07608,28.99132]},"properties":{"id":57841,"name":"Banbasa","state_code":"UK","country_code":"IN"}},{"type":"Feature","geometry":{"type":"Point","coordinates":[78.20596,30.80861]},"properties":{"id":57879,"name":"Barkot","state_code":"UK","country_code":"IN"}},{"type":"Feature","geometry":{"type":"Point","coordinates":[79.10814,29.15299]},"properties":{"id":58153,"name":"Bazpur","state_code":"UK","country_code":"IN"}},{"type":"Feature","geometry":{"type":"Point","coordinates":[79.56336,29.34447]},"properties":{"id":58020,"name":"Bhim Tal","state_code":"UK","country_code":"IN"}},{"type":"Feature","geometry":{"type":"Point","coordinates":[79.50481,29.38985]},"properties":{"id":57998,"name":"Bhowali","state_code":"UK","country_code":"IN"}},{"type":"Feature","geometry":{"type":"Point","coordinates":[78.28189,30.0712]},"properties":{"id":58059,"name":"Birbhaddar","state_code":"UK","country_code":"IN"}},{"type":"Feature","geometry":{"type":"Point","coordinates":[77.86386,30.70369]},"properties":{"id":58176,"name":"Chakrata","state_code":"UK","country_code":"IN"}},{"type":"Feature","geometry":{"type":"Point","coordinates":[79.5,30.5]},"properties":{"id":58182,"name":"Chamoli","state_code":"UK","country_code":"IN"}},{"type":"Feature","geometry":{"type":"Point","coordinates":[80.03737,29.28756]},"properties":{"id":58183,"name":"Champawat","state_code":"UK","country_code":"IN"}},{"type":"Feature","geometry":{"type":"Point","coordinates":[78.00862,30.26361]},"properties":{"id":131615,"name":"Clement Town","state_code":"UK","country_code":"IN"}},{"type":"Feature","geometry":{"type":"Point","coordinates":[78.06,30.33]},"properties":{"id":131676,"name":"Dehradun","state_code":"UK","country_code":"IN"}},{"type":"Feature","geometry":{"type":"Point","coordinates":[78.60272,30.14603]},"properties":{"id":131702,"name":"Devaprayag","state_code":"UK","country_code":"IN"}},{"type":"Feature","geometry":{"type":"Point","coordinates":[80.51951,29.84707]},"properties":{"id":131754,"name":"Dharchula","state_code":"UK","country_code":"IN"}},{"type":"Feature","geometry":{"type":"Point","coordinates":[78.11659,30.17667]},"properties":{"id":131784,"name":"Doiwala","state_code":"UK","country_code":"IN"}},{"type":"Feature","geometry":{"type":"Point","coordinates":[78.61109,29.80673]},"properties":{"id":131793,"name":"Dugadda","state_code":"UK","country_code":"IN"}},{"type":"Feature","geometry":{"type":"Point","coordinates":[79.42731,29.77785]},"properties":{"id":131804,"name":"Dwarahat","state_code":"UK","country_code":"IN"}},{"type":"Feature","geometry":{"type":"Point","coordinates":[78.92853,29.96366]},"properties":{"id":131923,"name":"Garhwal","state_code":"UK","country_code":"IN"}},{"type":"Feature","geometry":{"type":"Point","coordinates":[79.5286,29.22254]},"properties":{"id":132058,"name":"Haldwani","state_code":"UK","country_code":"IN"}},{"type":"Feature","geometry":{"type":"Point","coordinates":[77.74058,30.43863]},"properties":{"id":132069,"name":"Harbatpur","state_code":"UK","country_code":"IN"}},{"type":"Feature","geometry":{"type":"Point","coordinates":[78.16025,29.94791]},"properties":{"id":132075,"name":"Haridwar","state_code":"UK","country_code":"IN"}},{"type":"Feature","geometry":{"type":"Point","coordinates":[78.82798,29.27919]},"properties":{"id":132247,"name":"Jaspur","state_code":"UK","country_code":"IN"}},{"type":"Feature","geometry":{"type":"Point","coordinates":[79.56436,30.55543]},"properties":{"id":132296,"name":"Joshimath","state_code":"UK","country_code":"IN"}},{"type":"Feature","geometry":{"type":"Point","coordinates":[79.351,29.28351]},"properties":{"id":132685,"name":"Kaladhungi","state_code":"UK","country_code":"IN"}},{"type":"Feature","geometry":{"type":"Point","coordinates":[78.78449,29.4778]},"properties":{"id":132686,"name":"Kalagarh Project Colony","state_code":"UK","country_code":"IN"}},{"type":"Feature","geometry":{"type":"Point","coordinates":[78.95693,29.21399]},"properties":{"id":132418,"name":"Kashipur","state_code":"UK","country_code":"IN"}},{"type":"Feature","geometry":{"type":"Point","coordinates":[79.97075,28.92134]},"properties":{"id":132484,"name":"Khatima","state_code":"UK","country_code":"IN"}},{"type":"Feature","geometry":{"type":"Point","coordinates":[79.52009,28.91154]},"properties":{"id":132521,"name":"Kichha","state_code":"UK","country_code":"IN"}},{"type":"Feature","geometry":{"type":"Point","coordinates":[78.52219,29.74612]},"properties":{"id":132597,"name":"Kotdwara","state_code":"UK","country_code":"IN"}},{"type":"Feature","geometry":{"type":"Point","coordinates":[78.04148,29.7587]},"properties":{"id":132749,"name":"Laksar","state_code":"UK","country_code":"IN"}},{"type":"Feature","geometry":{"type":"Point","coordinates":[78.68014,29.84183]},"properties":{"id":132756,"name":"Lansdowne","state_code":"UK","country_code":"IN"}},{"type":"Feature","geometry":{"type":"Point","coordinates":[80.08965,29.40356]},"properties":{"id":132767,"name":"Lohaghat","state_code":"UK","country_code":"IN"}},{"type":"Feature","geometry":{"type":"Point","coordinates":[77.87836,29.79094]},"properties":{"id":132908,"name":"Manglaur","state_code":"UK","country_code":"IN"}},{"type":"Feature","geometry":{"type":"Point","coordinates":[78.07068,30.45498]},"properties":{"id":133046,"name":"Mussoorie","state_code":"UK","country_code":"IN"}},{"type":"Feature","geometry":{"type":"Point","coordinates":[79.44686,29.39743]},"properties":{"id":133123,"name":"Naini Tal","state_code":"UK","country_code":"IN"}},{"type":"Feature","geometry":{"type":"Point","coordinates":[78.28712,30.16173]},"properties":{"id":133166,"name":"Narendranagar","state_code":"UK","country_code":"IN"}},{"type":"Feature","geometry":{"type":"Point","coordinates":[78.7771,30.15286]},"properties":{"id":133394,"name":"Pauri","state_code":"UK","country_code":"IN"}},{"type":"Feature","geometry":{"type":"Point","coordinates":[79.43066,30.42553]},"properties":{"id":133563,"name":"Pipalkoti","state_code":"UK","country_code":"IN"}},{"type":"Feature","geometry":{"type":"Point","coordinates":[80.25,30]},"properties":{"id":133464,"name":"Pithoragarh","state_code":"UK","country_code":"IN"}},{"type":"Feature","geometry":{"type":"Point","coordinates":[78.08979,30.31097]},"properties":{"id":133666,"name":"Raipur","state_code":"UK","country_code":"IN"}},{"type":"Feature","geometry":{"type":"Point","coordinates":[78.2293,30.01864]},"properties":{"id":133735,"name":"Raiwala Bara","state_code":"UK","country_code":"IN"}},{"type":"Feature","geometry":{"type":"Point","coordinates":[79.1283,29.3925]},"properties":{"id":133703,"name":"Ramnagar","state_code":"UK","country_code":"IN"}},{"type":"Feature","geometry":{"type":"Point","coordinates":[79.43229,29.64082]},"properties":{"id":133716,"name":"Ranikhet","state_code":"UK","country_code":"IN"}},{"type":"Feature","geometry":{"type":"Point","coordinates":[78.29255,30.10778]},"properties":{"id":133638,"name":"Rishikesh","state_code":"UK","country_code":"IN"}},{"type":"Feature","geometry":{"type":"Point","coordinates":[77.89118,29.86632]},"properties":{"id":133650,"name":"Roorkee","state_code":"UK","country_code":"IN"}},{"type":"Feature","geometry":{"type":"Point","coordinates":[79.06517,30.60872]},"properties":{"id":133652,"name":"Rudraprayag","state_code":"UK","country_code":"IN"}},{"type":"Feature","geometry":{"type":"Point","coordinates":[79.70436,28.9293]},"properties":{"id":133973,"name":"Sitarganj","state_code":"UK","country_code":"IN"}},{"type":"Feature","geometry":{"type":"Point","coordinates":[78.78341,30.22243]},"properties":{"id":134027,"name":"Srinagar","state_code":"UK","country_code":"IN"}},{"type":"Feature","geometry":{"type":"Point","coordinates":[78.11034,29.75534]},"properties":{"id":134038,"name":"Sultanpur","state_code":"UK","country_code":"IN"}},{"type":"Feature","geometry":{"type":"Point","coordinates":[80.11139,29.074]},"properties":{"id":134110,"name":"Tanakpur","state_code":"UK","country_code":"IN"}},{"type":"Feature","geometry":{"type":"Point","coordinates":[78.4803,30.39086]},"properties":{"id":134122,"name":"Tehri","state_code":"UK","country_code":"IN"}},{"type":"Feature","geometry":{"type":"Point","coordinates":[78.66667,30.5]},"properties":{"id":134123,"name":"Tehri-Garhwal","state_code":"UK","country_code":"IN"}},{"type":"Feature","geometry":{"type":"Point","coordinates":[79.52347,29.02746]},"properties":{"id":134256,"name":"Udham Singh Nagar","state_code":"UK","country_code":"IN"}},{"type":"Feature","geometry":{"type":"Point","coordinates":[78.44342,30.72986]},"properties":{"id":134301,"name":"Uttarkashi","state_code":"UK","country_code":"IN"}},{"type":"Feature","geometry":{"type":"Point","coordinates":[77.77275,30.46944]},"properties":{"id":134360,"name":"Vikasnagar","state_code":"UK","country_code":"IN"}}]}