{"type":"FeatureCollection","features":[{"type":"Feature","geometry":{"type":"Point","coordinates":[41.98194,34.36857]},"properties":{"id":134552,"name":"‘Anah","state_code":"AN","country_code":"IQ"}},{"type":"Feature","geometry":{"type":"Point","coordinates":[41.94223,34.46934]},"properties":{"id":134553,"name":"‘Anat al Qadīmah","state_code":"AN","country_code":"IQ"}},{"type":"Feature","geometry":{"type":"Point","coordinates":[43.78599,33.34913]},"properties":{"id":134478,"name":"Al Fallūjah","state_code":"AN","country_code":"IQ"}},{"type":"Feature","geometry":{"type":"Point","coordinates":[40.28586,33.03718]},"properties":{"id":134495,"name":"Ar Ruţbah","state_code":"AN","country_code":"IQ"}},{"type":"Feature","geometry":{"type":"Point","coordinates":[42.37727,34.13661]},"properties":{"id":134548,"name":"Ḩadīthah","state_code":"AN","country_code":"IQ"}},{"type":"Feature","geometry":{"type":"Point","coordinates":[42.82768,33.63664]},"properties":{"id":134514,"name":"Hīt","state_code":"AN","country_code":"IQ"}},{"type":"Feature","geometry":{"type":"Point","coordinates":[42.68228,33.73482]},"properties":{"id":134515,"name":"Hīt District","state_code":"AN","country_code":"IQ"}},{"type":"Feature","geometry":{"type":"Point","coordinates":[43.30778,33.42056]},"properties":{"id":134533,"name":"Ramadi","state_code":"AN","country_code":"IQ"}},{"type":"Feature","geometry":{"type":"Point","coordinates":[41.91898,34.48229]},"properties":{"id":134535,"name":"Rāwah","state_code":"AN","country_code":"IQ"}}]}