{"type":"FeatureCollection","features":[{"type":"Feature","geometry":{"type":"Point","coordinates":[44.06919,33.29194]},"properties":{"id":134473,"name":"Abu Ghraib","state_code":"BG","country_code":"IQ"}},{"type":"Feature","geometry":{"type":"Point","coordinates":[44.18477,33.30563]},"properties":{"id":134474,"name":"Abū Ghurayb","state_code":"BG","country_code":"IQ"}},{"type":"Feature","geometry":{"type":"Point","coordinates":[44.3395594,33.369178]},"properties":{"id":153202,"name":"Adamiyah","state_code":"BG","country_code":"IQ"}},{"type":"Feature","geometry":{"type":"Point","coordinates":[44.2813868,33.3591283]},"properties":{"id":153203,"name":"Al Adel","state_code":"BG","country_code":"IQ"}},{"type":"Feature","geometry":{"type":"Point","coordinates":[44.4107153,33.3493161]},"properties":{"id":153204,"name":"Al Baladiyat","state_code":"BG","country_code":"IQ"}},{"type":"Feature","geometry":{"type":"Point","coordinates":[44.3406269,33.3411447]},"properties":{"id":153205,"name":"Al Jamaa","state_code":"BG","country_code":"IQ"}},{"type":"Feature","geometry":{"type":"Point","coordinates":[44.4147098,33.3248036]},"properties":{"id":153206,"name":"Al Saadoon Park","state_code":"BG","country_code":"IQ"}},{"type":"Feature","geometry":{"type":"Point","coordinates":[44.3842505,33.3225401]},"properties":{"id":153207,"name":"Al Salhiah","state_code":"BG","country_code":"IQ"}},{"type":"Feature","geometry":{"type":"Point","coordinates":[44.4868639,33.3185775]},"properties":{"id":153208,"name":"Al Za'franiya","state_code":"BG","country_code":"IQ"}},{"type":"Feature","geometry":{"type":"Point","coordinates":[44.4595591,33.3203603]},"properties":{"id":153209,"name":"Al-Ubaidi","state_code":"BG","country_code":"IQ"}},{"type":"Feature","geometry":{"type":"Point","coordinates":[44.4335228,33.3111582]},"properties":{"id":153210,"name":"Al-Wahda","state_code":"BG","country_code":"IQ"}},{"type":"Feature","geometry":{"type":"Point","coordinates":[44.2707679,33.2967102]},"properties":{"id":153211,"name":"Ameria","state_code":"BG","country_code":"IQ"}},{"type":"Feature","geometry":{"type":"Point","coordinates":[44.3103717,33.2760609]},"properties":{"id":153212,"name":"Amil","state_code":"BG","country_code":"IQ"}},{"type":"Feature","geometry":{"type":"Point","coordinates":[44.4863415,33.3124874]},"properties":{"id":153213,"name":"Amin","state_code":"BG","country_code":"IQ"}},{"type":"Feature","geometry":{"type":"Point","coordinates":[44.4230245,33.2933579]},"properties":{"id":153214,"name":"Arasat AlHindiya","state_code":"BG","country_code":"IQ"}},{"type":"Feature","geometry":{"type":"Point","coordinates":[44.357911,33.3564394]},"properties":{"id":153215,"name":"At Taifiya","state_code":"BG","country_code":"IQ"}},{"type":"Feature","geometry":{"type":"Point","coordinates":[44.365077,33.3601417]},"properties":{"id":153216,"name":"Bab Al Moatham","state_code":"BG","country_code":"IQ"}},{"type":"Feature","geometry":{"type":"Point","coordinates":[44.4140791,33.3324906]},"properties":{"id":153217,"name":"Bab Al Sharqi","state_code":"BG","country_code":"IQ"}},{"type":"Feature","geometry":{"type":"Point","coordinates":[44.40088,33.34058]},"properties":{"id":134504,"name":"Baghdad","state_code":"BG","country_code":"IQ"}},{"type":"Feature","geometry":{"type":"Point","coordinates":[44.4715792,33.3133544]},"properties":{"id":153218,"name":"Baghdad Al Jadeeda","state_code":"BG","country_code":"IQ"}},{"type":"Feature","geometry":{"type":"Point","coordinates":[44.3450955,33.33254]},"properties":{"id":153219,"name":"Baijai","state_code":"BG","country_code":"IQ"}},{"type":"Feature","geometry":{"type":"Point","coordinates":[44.4085568,33.3211235]},"properties":{"id":153220,"name":"Bataween","state_code":"BG","country_code":"IQ"}},{"type":"Feature","geometry":{"type":"Point","coordinates":[44.3752803,33.2825544]},"properties":{"id":153221,"name":"Bayaa","state_code":"BG","country_code":"IQ"}},{"type":"Feature","geometry":{"type":"Point","coordinates":[44.4111448,33.3927812]},"properties":{"id":153222,"name":"Binouk","state_code":"BG","country_code":"IQ"}},{"type":"Feature","geometry":{"type":"Point","coordinates":[44.4269509,33.2419463]},"properties":{"id":153223,"name":"Bo'aitha","state_code":"BG","country_code":"IQ"}},{"type":"Feature","geometry":{"type":"Point","coordinates":[44.444696,33.3011293]},"properties":{"id":153224,"name":"Camp Sarah","state_code":"BG","country_code":"IQ"}},{"type":"Feature","geometry":{"type":"Point","coordinates":[44.3258482,33.3121403]},"properties":{"id":153225,"name":"Daoudi","state_code":"BG","country_code":"IQ"}},{"type":"Feature","geometry":{"type":"Point","coordinates":[44.3619812,33.2312686]},"properties":{"id":153226,"name":"Dora","state_code":"BG","country_code":"IQ"}},{"type":"Feature","geometry":{"type":"Point","coordinates":[44.4628184,33.3374974]},"properties":{"id":153227,"name":"Ghadeer","state_code":"BG","country_code":"IQ"}},{"type":"Feature","geometry":{"type":"Point","coordinates":[44.2235442,33.3414353]},"properties":{"id":153228,"name":"Ghazaliya","state_code":"BG","country_code":"IQ"}},{"type":"Feature","geometry":{"type":"Point","coordinates":[44.3044314,33.3920837]},"properties":{"id":153229,"name":"Gherai'at","state_code":"BG","country_code":"IQ"}},{"type":"Feature","geometry":{"type":"Point","coordinates":[44.3590056,33.313761]},"properties":{"id":153230,"name":"Green Zone","state_code":"BG","country_code":"IQ"}},{"type":"Feature","geometry":{"type":"Point","coordinates":[44.4684612,33.3392027]},"properties":{"id":153231,"name":"Habibiya","state_code":"BG","country_code":"IQ"}},{"type":"Feature","geometry":{"type":"Point","coordinates":[44.3982675,33.2262612]},"properties":{"id":153232,"name":"Harthiya","state_code":"BG","country_code":"IQ"}},{"type":"Feature","geometry":{"type":"Point","coordinates":[44.306563,33.3424187]},"properties":{"id":153233,"name":"Hurriya","state_code":"BG","country_code":"IQ"}},{"type":"Feature","geometry":{"type":"Point","coordinates":[44.323031,33.3340593]},"properties":{"id":153234,"name":"Iskan","state_code":"BG","country_code":"IQ"}},{"type":"Feature","geometry":{"type":"Point","coordinates":[44.411172,33.2607636]},"properties":{"id":153235,"name":"Jadriyah","state_code":"BG","country_code":"IQ"}},{"type":"Feature","geometry":{"type":"Point","coordinates":[44.414956,33.3510884]},"properties":{"id":153236,"name":"Jamila","state_code":"BG","country_code":"IQ"}},{"type":"Feature","geometry":{"type":"Point","coordinates":[44.2923118,33.252892]},"properties":{"id":153237,"name":"Jihad","state_code":"BG","country_code":"IQ"}},{"type":"Feature","geometry":{"type":"Point","coordinates":[44.3513918,33.3812961]},"properties":{"id":153238,"name":"Kadhimiya","state_code":"BG","country_code":"IQ"}},{"type":"Feature","geometry":{"type":"Point","coordinates":[44.5089411,33.3500848]},"properties":{"id":153239,"name":"Kamaliyah","state_code":"BG","country_code":"IQ"}},{"type":"Feature","geometry":{"type":"Point","coordinates":[44.3964153,33.2933661]},"properties":{"id":153240,"name":"Karada","state_code":"BG","country_code":"IQ"}},{"type":"Feature","geometry":{"type":"Point","coordinates":[44.287647,33.3197247]},"properties":{"id":153241,"name":"Khadra","state_code":"BG","country_code":"IQ"}},{"type":"Feature","geometry":{"type":"Point","coordinates":[44.3363123,33.3142296]},"properties":{"id":153242,"name":"Mansour","state_code":"BG","country_code":"IQ"}},{"type":"Feature","geometry":{"type":"Point","coordinates":[44.4931483,33.3244321]},"properties":{"id":153243,"name":"Mashtal","state_code":"BG","country_code":"IQ"}},{"type":"Feature","geometry":{"type":"Point","coordinates":[44.3869543,33.3629892]},"properties":{"id":153244,"name":"Mustansiriya","state_code":"BG","country_code":"IQ"}},{"type":"Feature","geometry":{"type":"Point","coordinates":[44.3162384,33.3271963]},"properties":{"id":153245,"name":"Qadisiyah","state_code":"BG","country_code":"IQ"}},{"type":"Feature","geometry":{"type":"Point","coordinates":[44.4044638,33.3769233]},"properties":{"id":153246,"name":"Sadr City","state_code":"BG","country_code":"IQ"}},{"type":"Feature","geometry":{"type":"Point","coordinates":[44.3315934,33.2650093]},"properties":{"id":153247,"name":"Saidiya","state_code":"BG","country_code":"IQ"}},{"type":"Feature","geometry":{"type":"Point","coordinates":[44.3861103,33.413091]},"properties":{"id":153248,"name":"Sha'ab","state_code":"BG","country_code":"IQ"}},{"type":"Feature","geometry":{"type":"Point","coordinates":[44.3478958,33.3389601]},"properties":{"id":153249,"name":"Sheik Maaruf","state_code":"BG","country_code":"IQ"}},{"type":"Feature","geometry":{"type":"Point","coordinates":[44.3950442,33.3461394]},"properties":{"id":153250,"name":"Shorjah","state_code":"BG","country_code":"IQ"}},{"type":"Feature","geometry":{"type":"Point","coordinates":[44.361445,33.3934332]},"properties":{"id":153251,"name":"Suleikh","state_code":"BG","country_code":"IQ"}},{"type":"Feature","geometry":{"type":"Point","coordinates":[44.3906079,33.41694]},"properties":{"id":153252,"name":"Ur","state_code":"BG","country_code":"IQ"}},{"type":"Feature","geometry":{"type":"Point","coordinates":[44.3819655,33.3636617]},"properties":{"id":153253,"name":"Wazireya","state_code":"BG","country_code":"IQ"}},{"type":"Feature","geometry":{"type":"Point","coordinates":[44.3221252,33.3393836]},"properties":{"id":153254,"name":"Yarmouk","state_code":"BG","country_code":"IQ"}},{"type":"Feature","geometry":{"type":"Point","coordinates":[44.454546,33.3248434]},"properties":{"id":153255,"name":"Ziyouna","state_code":"BG","country_code":"IQ"}}]}