{"type":"FeatureCollection","features":[{"type":"Feature","geometry":{"type":"Point","coordinates":[43.89428,36.76038]},"properties":{"id":134554,"name":"‘Aqrah","state_code":"NI","country_code":"IQ"}},{"type":"Feature","geometry":{"type":"Point","coordinates":[43.10555,36.33271]},"properties":{"id":134483,"name":"Al Mawşil al Jadīdah","state_code":"NI","country_code":"IQ"}},{"type":"Feature","geometry":{"type":"Point","coordinates":[43.37758,36.27093]},"properties":{"id":134492,"name":"Al-Hamdaniya","state_code":"NI","country_code":"IQ"}},{"type":"Feature","geometry":{"type":"Point","coordinates":[43.35202,36.69595]},"properties":{"id":134499,"name":"Ash Shaykhān","state_code":"NI","country_code":"IQ"}},{"type":"Feature","geometry":{"type":"Point","coordinates":[43.11889,36.335]},"properties":{"id":134525,"name":"Mosul","state_code":"NI","country_code":"IQ"}},{"type":"Feature","geometry":{"type":"Point","coordinates":[41.89315,36.29548]},"properties":{"id":134537,"name":"Sinjar","state_code":"NI","country_code":"IQ"}},{"type":"Feature","geometry":{"type":"Point","coordinates":[42.44806,36.37913]},"properties":{"id":134542,"name":"Tall ‘Afar","state_code":"NI","country_code":"IQ"}},{"type":"Feature","geometry":{"type":"Point","coordinates":[43.12114,36.49118]},"properties":{"id":134543,"name":"Tallkayf","state_code":"NI","country_code":"IQ"}}]}