{"type":"FeatureCollection","features":[{"type":"Feature","geometry":{"type":"Point","coordinates":[44.4893,31.80437]},"properties":{"id":134485,"name":"Al Mishkhāb","state_code":"NA","country_code":"IQ"}},{"type":"Feature","geometry":{"type":"Point","coordinates":[44.44017,32.05114]},"properties":{"id":134523,"name":"Kufa","state_code":"NA","country_code":"IQ"}},{"type":"Feature","geometry":{"type":"Point","coordinates":[44.34625,32.02594]},"properties":{"id":134527,"name":"Najaf","state_code":"NA","country_code":"IQ"}}]}