{"type":"FeatureCollection","features":[{"type":"Feature","geometry":{"type":"Point","coordinates":[45.24743,32.0643]},"properties":{"id":134550,"name":"‘Afak","state_code":"QA","country_code":"IQ"}},{"type":"Feature","geometry":{"type":"Point","coordinates":[44.92552,31.99289]},"properties":{"id":134476,"name":"Ad Dīwānīyah","state_code":"QA","country_code":"IQ"}},{"type":"Feature","geometry":{"type":"Point","coordinates":[44.60075,31.96257]},"properties":{"id":134501,"name":"Ash Shāmīyah","state_code":"QA","country_code":"IQ"}},{"type":"Feature","geometry":{"type":"Point","coordinates":[44.64675,31.58376]},"properties":{"id":134530,"name":"Nāḩiyat ash Shināfīyah","state_code":"QA","country_code":"IQ"}},{"type":"Feature","geometry":{"type":"Point","coordinates":[44.6196,31.74311]},"properties":{"id":134526,"name":"Nahiyat Ghammas","state_code":"QA","country_code":"IQ"}}]}