{"type":"FeatureCollection","features":[{"type":"Feature","geometry":{"type":"Point","coordinates":[44.23444,33.84667]},"properties":{"id":134475,"name":"Ad Dujayl","state_code":"SD","country_code":"IQ"}},{"type":"Feature","geometry":{"type":"Point","coordinates":[44.14574,34.01485]},"properties":{"id":134505,"name":"Balad","state_code":"SD","country_code":"IQ"}},{"type":"Feature","geometry":{"type":"Point","coordinates":[43.48878,34.92915]},"properties":{"id":134510,"name":"Bayjī","state_code":"SD","country_code":"IQ"}},{"type":"Feature","geometry":{"type":"Point","coordinates":[43.88568,34.1959]},"properties":{"id":134540,"name":"Sāmarrā’","state_code":"SD","country_code":"IQ"}},{"type":"Feature","geometry":{"type":"Point","coordinates":[43.67861,34.61581]},"properties":{"id":134544,"name":"Tikrīt","state_code":"SD","country_code":"IQ"}},{"type":"Feature","geometry":{"type":"Point","coordinates":[44.63256,34.88808]},"properties":{"id":134545,"name":"Tozkhurmato","state_code":"SD","country_code":"IQ"}}]}