{"type":"FeatureCollection","features":[{"type":"Feature","geometry":{"type":"Point","coordinates":[50.55,36.06667]},"properties":{"id":135150,"name":"Abyek","state_code":"00","country_code":"IR"}},{"type":"Feature","geometry":{"type":"Point","coordinates":[49.69809,34.09493]},"properties":{"id":134571,"name":"Arak","state_code":"00","country_code":"IR"}},{"type":"Feature","geometry":{"type":"Point","coordinates":[50.05,34.45]},"properties":{"id":135085,"name":"Ashtian","state_code":"00","country_code":"IR"}},{"type":"Feature","geometry":{"type":"Point","coordinates":[49.357778,33.890833]},"properties":{"id":150968,"name":"Astaneh","state_code":"00","country_code":"IR"}},{"type":"Feature","geometry":{"type":"Point","coordinates":[50.4072045,34.8037213]},"properties":{"id":150965,"name":"Aveh","state_code":"00","country_code":"IR"}},{"type":"Feature","geometry":{"type":"Point","coordinates":[49.8466444,34.2952133]},"properties":{"id":150953,"name":"Davoud Abad","state_code":"00","country_code":"IR"}},{"type":"Feature","geometry":{"type":"Point","coordinates":[50.6838,33.9905]},"properties":{"id":134620,"name":"Delijan","state_code":"00","country_code":"IR"}},{"type":"Feature","geometry":{"type":"Point","coordinates":[49.63333,34.6]},"properties":{"id":134865,"name":"Farahan","state_code":"00","country_code":"IR"}},{"type":"Feature","geometry":{"type":"Point","coordinates":[49.6697042,34.5056686]},"properties":{"id":150974,"name":"Farmahin","state_code":"00","country_code":"IR"}},{"type":"Feature","geometry":{"type":"Point","coordinates":[49.8218393,35.1082178]},"properties":{"id":150966,"name":"Gharqabad","state_code":"00","country_code":"IR"}},{"type":"Feature","geometry":{"type":"Point","coordinates":[49.8753977,33.6753987]},"properties":{"id":150957,"name":"Ghurchi Bashi","state_code":"00","country_code":"IR"}},{"type":"Feature","geometry":{"type":"Point","coordinates":[49.226625,33.7809931]},"properties":{"id":150972,"name":"Hendoudar","state_code":"00","country_code":"IR"}},{"type":"Feature","geometry":{"type":"Point","coordinates":[49.3182278,34.2555487]},"properties":{"id":150958,"name":"Javarseyan","state_code":"00","country_code":"IR"}},{"type":"Feature","geometry":{"type":"Point","coordinates":[49.9286019,34.0994117]},"properties":{"id":150955,"name":"Karchan","state_code":"00","country_code":"IR"}},{"type":"Feature","geometry":{"type":"Point","coordinates":[49.5223761,34.7585192]},"properties":{"id":150973,"name":"Khenejin","state_code":"00","country_code":"IR"}},{"type":"Feature","geometry":{"type":"Point","coordinates":[50.0342697,33.6371091]},"properties":{"id":150956,"name":"Khomein","state_code":"00","country_code":"IR"}},{"type":"Feature","geometry":{"type":"Point","coordinates":[50.08003,33.63889]},"properties":{"id":134671,"name":"Khomeyn","state_code":"00","country_code":"IR"}},{"type":"Feature","geometry":{"type":"Point","coordinates":[49.18333,34.36667]},"properties":{"id":134918,"name":"Khondab","state_code":"00","country_code":"IR"}},{"type":"Feature","geometry":{"type":"Point","coordinates":[50.328927,35.395262]},"properties":{"id":150961,"name":"Khoshkrud","state_code":"00","country_code":"IR"}},{"type":"Feature","geometry":{"type":"Point","coordinates":[49.32653,34.72142]},"properties":{"id":134681,"name":"Komijan","state_code":"00","country_code":"IR"}},{"type":"Feature","geometry":{"type":"Point","coordinates":[50.4410647,33.9049314]},"properties":{"id":150976,"name":"Mahalat","state_code":"00","country_code":"IR"}},{"type":"Feature","geometry":{"type":"Point","coordinates":[50.41667,33.91667]},"properties":{"id":134959,"name":"Mahallat","state_code":"00","country_code":"IR"}},{"type":"Feature","geometry":{"type":"Point","coordinates":[50.4803967,35.3040559]},"properties":{"id":150964,"name":"Mamuniyeh","state_code":"00","country_code":"IR"}},{"type":"Feature","geometry":{"type":"Point","coordinates":[49.200468,34.6216597]},"properties":{"id":150975,"name":"Milajerd","state_code":"00","country_code":"IR"}},{"type":"Feature","geometry":{"type":"Point","coordinates":[49.4174479,34.0493146]},"properties":{"id":150971,"name":"Mohajeran","state_code":"00","country_code":"IR"}},{"type":"Feature","geometry":{"type":"Point","coordinates":[50.8314871,34.0103896]},"properties":{"id":150959,"name":"Naragh","state_code":"00","country_code":"IR"}},{"type":"Feature","geometry":{"type":"Point","coordinates":[50.5631053,33.8864747]},"properties":{"id":150977,"name":"Nimvar","state_code":"00","country_code":"IR"}},{"type":"Feature","geometry":{"type":"Point","coordinates":[49.7007001,35.1311747]},"properties":{"id":150967,"name":"Nowbaran","state_code":"00","country_code":"IR"}},{"type":"Feature","geometry":{"type":"Point","coordinates":[50.677228,35.3685266]},"properties":{"id":150960,"name":"Parandak","state_code":"00","country_code":"IR"}},{"type":"Feature","geometry":{"type":"Point","coordinates":[49.9511755,35.3307678]},"properties":{"id":150962,"name":"Razeqan","state_code":"00","country_code":"IR"}},{"type":"Feature","geometry":{"type":"Point","coordinates":[49.4946956,34.4118836]},"properties":{"id":150954,"name":"Saroogh","state_code":"00","country_code":"IR"}},{"type":"Feature","geometry":{"type":"Point","coordinates":[50.3566,35.0213]},"properties":{"id":135121,"name":"Saveh","state_code":"00","country_code":"IR"}},{"type":"Feature","geometry":{"type":"Point","coordinates":[49.3356919,33.9354129]},"properties":{"id":150970,"name":"Shahbaz","state_code":"00","country_code":"IR"}},{"type":"Feature","geometry":{"type":"Point","coordinates":[49.3,33.9]},"properties":{"id":135044,"name":"Shazand","state_code":"00","country_code":"IR"}},{"type":"Feature","geometry":{"type":"Point","coordinates":[50.01601,34.69307]},"properties":{"id":135126,"name":"Tafresh","state_code":"00","country_code":"IR"}},{"type":"Feature","geometry":{"type":"Point","coordinates":[49.2837667,34.0444097]},"properties":{"id":150969,"name":"Tureh","state_code":"00","country_code":"IR"}},{"type":"Feature","geometry":{"type":"Point","coordinates":[50.33333,35.36667]},"properties":{"id":135072,"name":"Zarandiyeh","state_code":"00","country_code":"IR"}},{"type":"Feature","geometry":{"type":"Point","coordinates":[50.550885,35.3772559]},"properties":{"id":150963,"name":"Zavieh","state_code":"00","country_code":"IR"}}]}