{"type":"FeatureCollection","features":[{"type":"Feature","geometry":{"type":"Point","coordinates":[48.26258,33.86419]},"properties":{"id":134564,"name":"Aleshtar","state_code":"15","country_code":"IR"}},{"type":"Feature","geometry":{"type":"Point","coordinates":[49.69179,33.404]},"properties":{"id":134567,"name":"Aligudarz","state_code":"15","country_code":"IR"}},{"type":"Feature","geometry":{"type":"Point","coordinates":[49.45646,33.45643]},"properties":{"id":134573,"name":"Azna","state_code":"15","country_code":"IR"}},{"type":"Feature","geometry":{"type":"Point","coordinates":[48.558889,33.647778]},"properties":{"id":150900,"name":"Bayranshahr","state_code":"15","country_code":"IR"}},{"type":"Feature","geometry":{"type":"Point","coordinates":[48.7516,33.8973]},"properties":{"id":134591,"name":"Borujerd","state_code":"15","country_code":"IR"}},{"type":"Feature","geometry":{"type":"Point","coordinates":[48.8995456,33.6651745]},"properties":{"id":150904,"name":"Chalan Chulan","state_code":"15","country_code":"IR"}},{"type":"Feature","geometry":{"type":"Point","coordinates":[47.508889,33.280833]},"properties":{"id":150908,"name":"Chaqabol","state_code":"15","country_code":"IR"}},{"type":"Feature","geometry":{"type":"Point","coordinates":[47.1461964,33.6892903]},"properties":{"id":150910,"name":"Darb Gonbad","state_code":"15","country_code":"IR"}},{"type":"Feature","geometry":{"type":"Point","coordinates":[47.78333,34.05]},"properties":{"id":134619,"name":"Delfan","state_code":"15","country_code":"IR"}},{"type":"Feature","geometry":{"type":"Point","coordinates":[49.0252012,33.4921526]},"properties":{"id":150905,"name":"Dorud","state_code":"15","country_code":"IR"}},{"type":"Feature","geometry":{"type":"Point","coordinates":[48.0989599,33.8985961]},"properties":{"id":150909,"name":"Firouz Abad","state_code":"15","country_code":"IR"}},{"type":"Feature","geometry":{"type":"Point","coordinates":[48.4879768,33.4851827]},"properties":{"id":150912,"name":"Garab","state_code":"15","country_code":"IR"}},{"type":"Feature","geometry":{"type":"Point","coordinates":[47.761023,34.2072771]},"properties":{"id":150903,"name":"Haft Cheshmeh","state_code":"15","country_code":"IR"}},{"type":"Feature","geometry":{"type":"Point","coordinates":[48.35583,33.48778]},"properties":{"id":134673,"name":"Khorramabad","state_code":"15","country_code":"IR"}},{"type":"Feature","geometry":{"type":"Point","coordinates":[47.60999,33.53335]},"properties":{"id":134687,"name":"Kuhdasht","state_code":"15","country_code":"IR"}},{"type":"Feature","geometry":{"type":"Point","coordinates":[47.3163556,33.4029624]},"properties":{"id":150911,"name":"Kunani","state_code":"15","country_code":"IR"}},{"type":"Feature","geometry":{"type":"Point","coordinates":[47.9517603,33.3794758]},"properties":{"id":150899,"name":"Mamulan","state_code":"15","country_code":"IR"}},{"type":"Feature","geometry":{"type":"Point","coordinates":[49.5016907,33.5852335]},"properties":{"id":150895,"name":"Momen Abad","state_code":"15","country_code":"IR"}},{"type":"Feature","geometry":{"type":"Point","coordinates":[47.9725,34.0734]},"properties":{"id":134720,"name":"Nurabad","state_code":"15","country_code":"IR"}},{"type":"Feature","geometry":{"type":"Point","coordinates":[48.6342858,34.0154227]},"properties":{"id":150897,"name":"Oshtorinan","state_code":"15","country_code":"IR"}},{"type":"Feature","geometry":{"type":"Point","coordinates":[47.7014994,33.1461726]},"properties":{"id":150898,"name":"Pol Dokhtar","state_code":"15","country_code":"IR"}},{"type":"Feature","geometry":{"type":"Point","coordinates":[48,33.16667]},"properties":{"id":134728,"name":"Pol-e Dokhtar","state_code":"15","country_code":"IR"}},{"type":"Feature","geometry":{"type":"Point","coordinates":[47.48995,33.2796]},"properties":{"id":134756,"name":"Rumeshkhan","state_code":"15","country_code":"IR"}},{"type":"Feature","geometry":{"type":"Point","coordinates":[48.022222,33.563889]},"properties":{"id":150906,"name":"Sarab-e Dowreh","state_code":"15","country_code":"IR"}},{"type":"Feature","geometry":{"type":"Point","coordinates":[48.16667,33.83333]},"properties":{"id":134773,"name":"Selseleh","state_code":"15","country_code":"IR"}},{"type":"Feature","geometry":{"type":"Point","coordinates":[48.8815319,33.2190312]},"properties":{"id":150902,"name":"Sepid Dasht","state_code":"15","country_code":"IR"}},{"type":"Feature","geometry":{"type":"Point","coordinates":[49.185555,33.1848116]},"properties":{"id":150896,"name":"Shool Abad","state_code":"15","country_code":"IR"}},{"type":"Feature","geometry":{"type":"Point","coordinates":[48.04917,33.49083]},"properties":{"id":135138,"name":"Vasian","state_code":"15","country_code":"IR"}},{"type":"Feature","geometry":{"type":"Point","coordinates":[48.049167,33.490833]},"properties":{"id":150907,"name":"Veysian","state_code":"15","country_code":"IR"}},{"type":"Feature","geometry":{"type":"Point","coordinates":[48.708611,33.498889]},"properties":{"id":150901,"name":"Zagheh","state_code":"15","country_code":"IR"}}]}