{"type":"FeatureCollection","features":[{"type":"Feature","geometry":{"type":"Point","coordinates":[48.26916667,35.61305556]},"properties":{"id":146942,"name":"Ab Meshkin","state_code":"13","country_code":"IR"}},{"type":"Feature","geometry":{"type":"Point","coordinates":[48.22833333,34.67138889]},"properties":{"id":146943,"name":"Abarlaq-e Sofla","state_code":"13","country_code":"IR"}},{"type":"Feature","geometry":{"type":"Point","coordinates":[48.24555556,34.65277778]},"properties":{"id":146944,"name":"Abdalan","state_code":"13","country_code":"IR"}},{"type":"Feature","geometry":{"type":"Point","coordinates":[49.0175,34.62638889]},"properties":{"id":146945,"name":"Abdol Rahim","state_code":"13","country_code":"IR"}},{"type":"Feature","geometry":{"type":"Point","coordinates":[48.32027778,34.90277778]},"properties":{"id":146946,"name":"Abrumand","state_code":"13","country_code":"IR"}},{"type":"Feature","geometry":{"type":"Point","coordinates":[48.614722,34.781944]},"properties":{"id":146947,"name":"Abshineh","state_code":"13","country_code":"IR"}},{"type":"Feature","geometry":{"type":"Point","coordinates":[48.50916667,34.05666667]},"properties":{"id":146948,"name":"Abu ol Fathabad","state_code":"13","country_code":"IR"}},{"type":"Feature","geometry":{"type":"Point","coordinates":[48.3425,35.35]},"properties":{"id":146949,"name":"Aghcheh Qayah","state_code":"13","country_code":"IR"}},{"type":"Feature","geometry":{"type":"Point","coordinates":[48.99277778,34.61277778]},"properties":{"id":146950,"name":"Ahmadabad-e Tappeh","state_code":"13","country_code":"IR"}},{"type":"Feature","geometry":{"type":"Point","coordinates":[48.00111111,34.93777778]},"properties":{"id":146951,"name":"Ahu Tappeh","state_code":"13","country_code":"IR"}},{"type":"Feature","geometry":{"type":"Point","coordinates":[47.92416667,34.73611111]},"properties":{"id":146952,"name":"Ajin","state_code":"13","country_code":"IR"}},{"type":"Feature","geometry":{"type":"Point","coordinates":[49.22944444,35.13833333]},"properties":{"id":146953,"name":"Ajorlu","state_code":"13","country_code":"IR"}},{"type":"Feature","geometry":{"type":"Point","coordinates":[48.18805556,35.61416667]},"properties":{"id":146954,"name":"Akanlu","state_code":"13","country_code":"IR"}},{"type":"Feature","geometry":{"type":"Point","coordinates":[49.0825,35.20277778]},"properties":{"id":146955,"name":"Akleh","state_code":"13","country_code":"IR"}},{"type":"Feature","geometry":{"type":"Point","coordinates":[48.21583333,35.28416667]},"properties":{"id":146956,"name":"Alan-e Sofla","state_code":"13","country_code":"IR"}},{"type":"Feature","geometry":{"type":"Point","coordinates":[47.95972222,34.75083333]},"properties":{"id":146957,"name":"Alanjeh","state_code":"13","country_code":"IR"}},{"type":"Feature","geometry":{"type":"Point","coordinates":[48.74972222,34.64]},"properties":{"id":146958,"name":"Alfavut","state_code":"13","country_code":"IR"}},{"type":"Feature","geometry":{"type":"Point","coordinates":[48.51111111,34.83777778]},"properties":{"id":146959,"name":"Aliabad-e Posht Shahr","state_code":"13","country_code":"IR"}},{"type":"Feature","geometry":{"type":"Point","coordinates":[49.09166667,34.97611111]},"properties":{"id":146960,"name":"Amirabad-e Kord","state_code":"13","country_code":"IR"}},{"type":"Feature","geometry":{"type":"Point","coordinates":[48.5325,34.93666667]},"properties":{"id":146961,"name":"Amzajerd","state_code":"13","country_code":"IR"}},{"type":"Feature","geometry":{"type":"Point","coordinates":[48.54,34.091389]},"properties":{"id":146962,"name":"Angoshteh","state_code":"13","country_code":"IR"}},{"type":"Feature","geometry":{"type":"Point","coordinates":[48.53166667,35.1925]},"properties":{"id":146963,"name":"Anjir Baghi","state_code":"13","country_code":"IR"}},{"type":"Feature","geometry":{"type":"Point","coordinates":[48.49083333,34.85861111]},"properties":{"id":146964,"name":"Ansar ol Emam","state_code":"13","country_code":"IR"}},{"type":"Feature","geometry":{"type":"Point","coordinates":[48.573333,34.108056]},"properties":{"id":146965,"name":"Anuch","state_code":"13","country_code":"IR"}},{"type":"Feature","geometry":{"type":"Point","coordinates":[48.44138889,35.61166667]},"properties":{"id":146966,"name":"Aq Bolagh-e Aqdaq","state_code":"13","country_code":"IR"}},{"type":"Feature","geometry":{"type":"Point","coordinates":[48.555278,34.984444]},"properties":{"id":146967,"name":"Aq Bolagh-e Latgah","state_code":"13","country_code":"IR"}},{"type":"Feature","geometry":{"type":"Point","coordinates":[48.02972222,35.61777778]},"properties":{"id":146968,"name":"Aq Bolagh-e Morshed","state_code":"13","country_code":"IR"}},{"type":"Feature","geometry":{"type":"Point","coordinates":[49.10388889,35.47916667]},"properties":{"id":146969,"name":"Aq Chay","state_code":"13","country_code":"IR"}},{"type":"Feature","geometry":{"type":"Point","coordinates":[48.24361111,35.36694444]},"properties":{"id":146970,"name":"Aqa Bolaghi","state_code":"13","country_code":"IR"}},{"type":"Feature","geometry":{"type":"Point","coordinates":[48.05305556,34.84583333]},"properties":{"id":146971,"name":"Aqa Jan Bolaghi","state_code":"13","country_code":"IR"}},{"type":"Feature","geometry":{"type":"Point","coordinates":[49.32416667,34.95583333]},"properties":{"id":146972,"name":"Aqaj","state_code":"13","country_code":"IR"}},{"type":"Feature","geometry":{"type":"Point","coordinates":[48.77638889,35.71361111]},"properties":{"id":146973,"name":"Aqcheh Kharabeh","state_code":"13","country_code":"IR"}},{"type":"Feature","geometry":{"type":"Point","coordinates":[48.49166667,35.13138889]},"properties":{"id":146974,"name":"Aqchelu","state_code":"13","country_code":"IR"}},{"type":"Feature","geometry":{"type":"Point","coordinates":[48.86388889,34.07388889]},"properties":{"id":146975,"name":"Arges-e Sofla","state_code":"13","country_code":"IR"}},{"type":"Feature","geometry":{"type":"Point","coordinates":[48.36055556,34.53222222]},"properties":{"id":146976,"name":"Arikan","state_code":"13","country_code":"IR"}},{"type":"Feature","geometry":{"type":"Point","coordinates":[48.805,35.69138889]},"properties":{"id":146977,"name":"Arpa Darreh","state_code":"13","country_code":"IR"}},{"type":"Feature","geometry":{"type":"Point","coordinates":[48.54916667,34.32638889]},"properties":{"id":146978,"name":"Arteh Bolagh","state_code":"13","country_code":"IR"}},{"type":"Feature","geometry":{"type":"Point","coordinates":[48.447778,34.579444]},"properties":{"id":146979,"name":"Artiman","state_code":"13","country_code":"IR"}},{"type":"Feature","geometry":{"type":"Point","coordinates":[48.65416667,34.65527778]},"properties":{"id":146980,"name":"Arzan Fud","state_code":"13","country_code":"IR"}},{"type":"Feature","geometry":{"type":"Point","coordinates":[48.37305556,34.65444444]},"properties":{"id":146981,"name":"Arzuvaj","state_code":"13","country_code":"IR"}},{"type":"Feature","geometry":{"type":"Point","coordinates":[48.11833333,34.78222222]},"properties":{"id":146982,"name":"Asadabad","state_code":"13","country_code":"IR"}},{"type":"Feature","geometry":{"type":"Point","coordinates":[48.88444444,34.10361111]},"properties":{"id":146983,"name":"Ashmizan","state_code":"13","country_code":"IR"}},{"type":"Feature","geometry":{"type":"Point","coordinates":[48.51222222,34.26638889]},"properties":{"id":146984,"name":"Avarzaman","state_code":"13","country_code":"IR"}},{"type":"Feature","geometry":{"type":"Point","coordinates":[48.68666667,34.50888889]},"properties":{"id":146985,"name":"Azandarian","state_code":"13","country_code":"IR"}},{"type":"Feature","geometry":{"type":"Point","coordinates":[48.14833333,34.2375]},"properties":{"id":146986,"name":"Aznahri","state_code":"13","country_code":"IR"}},{"type":"Feature","geometry":{"type":"Point","coordinates":[48.54972222,35.55166667]},"properties":{"id":146987,"name":"Baba Khanjar","state_code":"13","country_code":"IR"}},{"type":"Feature","geometry":{"type":"Point","coordinates":[48.40194444,34.61416667]},"properties":{"id":146988,"name":"Baba Pir","state_code":"13","country_code":"IR"}},{"type":"Feature","geometry":{"type":"Point","coordinates":[48.44805556,34.08]},"properties":{"id":146989,"name":"Baba Qasem","state_code":"13","country_code":"IR"}},{"type":"Feature","geometry":{"type":"Point","coordinates":[49.0575,34.24277778]},"properties":{"id":146990,"name":"Babolqani","state_code":"13","country_code":"IR"}},{"type":"Feature","geometry":{"type":"Point","coordinates":[48.08027778,34.74305556]},"properties":{"id":146991,"name":"Bad Khvoreh","state_code":"13","country_code":"IR"}},{"type":"Feature","geometry":{"type":"Point","coordinates":[48.44138889,34.90694444]},"properties":{"id":146992,"name":"Bahar","state_code":"13","country_code":"IR"}},{"type":"Feature","geometry":{"type":"Point","coordinates":[48.22861111,34.22388889]},"properties":{"id":146993,"name":"Band Aman","state_code":"13","country_code":"IR"}},{"type":"Feature","geometry":{"type":"Point","coordinates":[48.43333333,34.2375]},"properties":{"id":146994,"name":"Banesareh","state_code":"13","country_code":"IR"}},{"type":"Feature","geometry":{"type":"Point","coordinates":[48.79861111,34.75194444]},"properties":{"id":146995,"name":"Baraband","state_code":"13","country_code":"IR"}},{"type":"Feature","geometry":{"type":"Point","coordinates":[48.301111,34.451389]},"properties":{"id":146996,"name":"Bargecheh","state_code":"13","country_code":"IR"}},{"type":"Feature","geometry":{"type":"Point","coordinates":[48.08638889,34.38555556]},"properties":{"id":146997,"name":"Barreh Farakh","state_code":"13","country_code":"IR"}},{"type":"Feature","geometry":{"type":"Point","coordinates":[48.25888889,34.21277778]},"properties":{"id":146998,"name":"Barzul","state_code":"13","country_code":"IR"}},{"type":"Feature","geometry":{"type":"Point","coordinates":[48.11694444,35.63722222]},"properties":{"id":146999,"name":"Bashqurtaran","state_code":"13","country_code":"IR"}},{"type":"Feature","geometry":{"type":"Point","coordinates":[49.42305556,35.15611111]},"properties":{"id":147000,"name":"Bazeran","state_code":"13","country_code":"IR"}},{"type":"Feature","geometry":{"type":"Point","coordinates":[49.09888889,35.27222222]},"properties":{"id":147001,"name":"Behkandan","state_code":"13","country_code":"IR"}},{"type":"Feature","geometry":{"type":"Point","coordinates":[48.51583333,34.33555556]},"properties":{"id":147002,"name":"Belartu","state_code":"13","country_code":"IR"}},{"type":"Feature","geometry":{"type":"Point","coordinates":[48.41805556,35.53611111]},"properties":{"id":147003,"name":"Beshik Tappeh","state_code":"13","country_code":"IR"}},{"type":"Feature","geometry":{"type":"Point","coordinates":[48.09916667,34.815]},"properties":{"id":147004,"name":"Biaj","state_code":"13","country_code":"IR"}},{"type":"Feature","geometry":{"type":"Point","coordinates":[48.95805556,34.02527778]},"properties":{"id":147005,"name":"Biatan-e Sofla","state_code":"13","country_code":"IR"}},{"type":"Feature","geometry":{"type":"Point","coordinates":[48.89166667,34.02111111]},"properties":{"id":147006,"name":"Bid Korpeh-ye Sofla","state_code":"13","country_code":"IR"}},{"type":"Feature","geometry":{"type":"Point","coordinates":[48.88722222,34.01944444]},"properties":{"id":147007,"name":"Bid Korpeh-ye Vosta","state_code":"13","country_code":"IR"}},{"type":"Feature","geometry":{"type":"Point","coordinates":[48.01694444,34.61472222]},"properties":{"id":147008,"name":"Bifanaj","state_code":"13","country_code":"IR"}},{"type":"Feature","geometry":{"type":"Point","coordinates":[49.06833333,34.09111111]},"properties":{"id":147009,"name":"Bighash","state_code":"13","country_code":"IR"}},{"type":"Feature","geometry":{"type":"Point","coordinates":[48.78583333,34.46111111]},"properties":{"id":147010,"name":"Bish Aghaj","state_code":"13","country_code":"IR"}},{"type":"Feature","geometry":{"type":"Point","coordinates":[47.91055556,34.65444444]},"properties":{"id":147011,"name":"Bitervan","state_code":"13","country_code":"IR"}},{"type":"Feature","geometry":{"type":"Point","coordinates":[48.03305556,34.32861111]},"properties":{"id":147012,"name":"Borjaki","state_code":"13","country_code":"IR"}},{"type":"Feature","geometry":{"type":"Point","coordinates":[48.84166667,35.05972222]},"properties":{"id":147013,"name":"Boyukabad","state_code":"13","country_code":"IR"}},{"type":"Feature","geometry":{"type":"Point","coordinates":[49.22444444,35.16888889]},"properties":{"id":147014,"name":"Bozchalu","state_code":"13","country_code":"IR"}},{"type":"Feature","geometry":{"type":"Point","coordinates":[48.94388889,35.02472222]},"properties":{"id":147015,"name":"Bozineh Jerd","state_code":"13","country_code":"IR"}},{"type":"Feature","geometry":{"type":"Point","coordinates":[48.05916667,34.80722222]},"properties":{"id":147016,"name":"Bujin","state_code":"13","country_code":"IR"}},{"type":"Feature","geometry":{"type":"Point","coordinates":[48.41944444,34.44861111]},"properties":{"id":147017,"name":"Bustandar","state_code":"13","country_code":"IR"}},{"type":"Feature","geometry":{"type":"Point","coordinates":[49.08916667,34.8475]},"properties":{"id":147018,"name":"Buyaqchi","state_code":"13","country_code":"IR"}},{"type":"Feature","geometry":{"type":"Point","coordinates":[48.65,35.58111111]},"properties":{"id":147019,"name":"Chahar Bolagh","state_code":"13","country_code":"IR"}},{"type":"Feature","geometry":{"type":"Point","coordinates":[48.9275,35.42055556]},"properties":{"id":147020,"name":"Chal Boqa","state_code":"13","country_code":"IR"}},{"type":"Feature","geometry":{"type":"Point","coordinates":[48.29944444,35.275]},"properties":{"id":147021,"name":"Chaleh Kand","state_code":"13","country_code":"IR"}},{"type":"Feature","geometry":{"type":"Point","coordinates":[48.06611111,34.84416667]},"properties":{"id":147022,"name":"Charoq","state_code":"13","country_code":"IR"}},{"type":"Feature","geometry":{"type":"Point","coordinates":[48.26694444,34.46444444]},"properties":{"id":147023,"name":"Chasht Khvoreh","state_code":"13","country_code":"IR"}},{"type":"Feature","geometry":{"type":"Point","coordinates":[48.17611111,34.23194444]},"properties":{"id":147024,"name":"Chenari","state_code":"13","country_code":"IR"}},{"type":"Feature","geometry":{"type":"Point","coordinates":[48.49305556,34.755]},"properties":{"id":147025,"name":"Cheshmeh Malek","state_code":"13","country_code":"IR"}},{"type":"Feature","geometry":{"type":"Point","coordinates":[48.7675,34.45888889]},"properties":{"id":147026,"name":"Cheshmeh Pahn-e Nanaj","state_code":"13","country_code":"IR"}},{"type":"Feature","geometry":{"type":"Point","coordinates":[48.09111111,34.62694444]},"properties":{"id":147027,"name":"Cheshmeh Qandab","state_code":"13","country_code":"IR"}},{"type":"Feature","geometry":{"type":"Point","coordinates":[47.87111111,34.90611111]},"properties":{"id":147028,"name":"Cheshmeh Qareh","state_code":"13","country_code":"IR"}},{"type":"Feature","geometry":{"type":"Point","coordinates":[48.41888889,34.85777778]},"properties":{"id":147029,"name":"Cheshmeh Qassaban","state_code":"13","country_code":"IR"}},{"type":"Feature","geometry":{"type":"Point","coordinates":[47.98388889,34.87805556]},"properties":{"id":147030,"name":"Cheshmeh Valad","state_code":"13","country_code":"IR"}},{"type":"Feature","geometry":{"type":"Point","coordinates":[49.10083333,34.06611111]},"properties":{"id":147031,"name":"Cheshmeh Zowraq","state_code":"13","country_code":"IR"}},{"type":"Feature","geometry":{"type":"Point","coordinates":[48.04888889,34.31527778]},"properties":{"id":147032,"name":"Choqa Sarahi","state_code":"13","country_code":"IR"}},{"type":"Feature","geometry":{"type":"Point","coordinates":[48.25194444,34.83694444]},"properties":{"id":147033,"name":"Chowtash","state_code":"13","country_code":"IR"}},{"type":"Feature","geometry":{"type":"Point","coordinates":[48.3,34.23472222]},"properties":{"id":147034,"name":"Chulak Qapanuri","state_code":"13","country_code":"IR"}},{"type":"Feature","geometry":{"type":"Point","coordinates":[48.500556,34.9675]},"properties":{"id":147035,"name":"Dahnejerd","state_code":"13","country_code":"IR"}},{"type":"Feature","geometry":{"type":"Point","coordinates":[48.02027778,35.52138889]},"properties":{"id":147036,"name":"Dali Chu","state_code":"13","country_code":"IR"}},{"type":"Feature","geometry":{"type":"Point","coordinates":[48.82305556,35.44277778]},"properties":{"id":147037,"name":"Damaq","state_code":"13","country_code":"IR"}},{"type":"Feature","geometry":{"type":"Point","coordinates":[48.78833333,35.18277778]},"properties":{"id":147038,"name":"Daqdaqabad","state_code":"13","country_code":"IR"}},{"type":"Feature","geometry":{"type":"Point","coordinates":[48.05583333,35.49222222]},"properties":{"id":147039,"name":"Dar Qeshlaq","state_code":"13","country_code":"IR"}},{"type":"Feature","geometry":{"type":"Point","coordinates":[48.41222222,34.49888889]},"properties":{"id":147040,"name":"Darani-ye Sofla","state_code":"13","country_code":"IR"}},{"type":"Feature","geometry":{"type":"Point","coordinates":[48.82083333,34.26027778]},"properties":{"id":147041,"name":"Darcham","state_code":"13","country_code":"IR"}},{"type":"Feature","geometry":{"type":"Point","coordinates":[48.80305556,34.09944444]},"properties":{"id":147042,"name":"Darreh Chenar","state_code":"13","country_code":"IR"}},{"type":"Feature","geometry":{"type":"Point","coordinates":[48.83527778,34.07277778]},"properties":{"id":147043,"name":"Darreh Mianeh-ye Sofla","state_code":"13","country_code":"IR"}},{"type":"Feature","geometry":{"type":"Point","coordinates":[48.0075,34.37611111]},"properties":{"id":147044,"name":"Darreh Mirza","state_code":"13","country_code":"IR"}},{"type":"Feature","geometry":{"type":"Point","coordinates":[48.39444444,34.10166667]},"properties":{"id":147045,"name":"Darreh-ye Ebrahim","state_code":"13","country_code":"IR"}},{"type":"Feature","geometry":{"type":"Point","coordinates":[48.00694444,34.26972222]},"properties":{"id":147046,"name":"Darsibeh","state_code":"13","country_code":"IR"}},{"type":"Feature","geometry":{"type":"Point","coordinates":[48.85833333,34.22027778]},"properties":{"id":147047,"name":"Davijan","state_code":"13","country_code":"IR"}},{"type":"Feature","geometry":{"type":"Point","coordinates":[49.12027778,34.10527778]},"properties":{"id":147048,"name":"Deh Chaneh","state_code":"13","country_code":"IR"}},{"type":"Feature","geometry":{"type":"Point","coordinates":[48.71138889,34.80472222]},"properties":{"id":147049,"name":"Deh Dalian","state_code":"13","country_code":"IR"}},{"type":"Feature","geometry":{"type":"Point","coordinates":[48.31388889,34.22694444]},"properties":{"id":147050,"name":"Deh Ful","state_code":"13","country_code":"IR"}},{"type":"Feature","geometry":{"type":"Point","coordinates":[49.04944444,34.17305556]},"properties":{"id":147051,"name":"Deh Mianeh","state_code":"13","country_code":"IR"}},{"type":"Feature","geometry":{"type":"Point","coordinates":[48.00305556,34.76111111]},"properties":{"id":147052,"name":"Deh Nush","state_code":"13","country_code":"IR"}},{"type":"Feature","geometry":{"type":"Point","coordinates":[48.51472222,34.88194444]},"properties":{"id":147053,"name":"Deh Piaz","state_code":"13","country_code":"IR"}},{"type":"Feature","geometry":{"type":"Point","coordinates":[48.54777778,34.37888889]},"properties":{"id":147054,"name":"Deh-e Shaker","state_code":"13","country_code":"IR"}},{"type":"Feature","geometry":{"type":"Point","coordinates":[48.55694444,34.30694444]},"properties":{"id":147055,"name":"Dehnow-e Avarzaman","state_code":"13","country_code":"IR"}},{"type":"Feature","geometry":{"type":"Point","coordinates":[48.68472222,34.81111111]},"properties":{"id":147056,"name":"Dingeleh Kahriz","state_code":"13","country_code":"IR"}},{"type":"Feature","geometry":{"type":"Point","coordinates":[48.41472222,34.55972222]},"properties":{"id":147057,"name":"Do Rudan","state_code":"13","country_code":"IR"}},{"type":"Feature","geometry":{"type":"Point","coordinates":[48.21944444,34.23138889]},"properties":{"id":147058,"name":"Doraneh","state_code":"13","country_code":"IR"}},{"type":"Feature","geometry":{"type":"Point","coordinates":[48.924722,34.020278]},"properties":{"id":147059,"name":"Dorudgaran","state_code":"13","country_code":"IR"}},{"type":"Feature","geometry":{"type":"Point","coordinates":[48.03361111,34.90222222]},"properties":{"id":147060,"name":"Dow Baraleh","state_code":"13","country_code":"IR"}},{"type":"Feature","geometry":{"type":"Point","coordinates":[48.88694444,35.28111111]},"properties":{"id":147061,"name":"Dowlatabad-e Hajjilu","state_code":"13","country_code":"IR"}},{"type":"Feature","geometry":{"type":"Point","coordinates":[49.10944444,35.34777778]},"properties":{"id":147062,"name":"Dowlujerdin-e Bala","state_code":"13","country_code":"IR"}},{"type":"Feature","geometry":{"type":"Point","coordinates":[48.48972222,34.30555556]},"properties":{"id":147063,"name":"Durijan","state_code":"13","country_code":"IR"}},{"type":"Feature","geometry":{"type":"Point","coordinates":[49.04,35.48194444]},"properties":{"id":147064,"name":"Durnian","state_code":"13","country_code":"IR"}},{"type":"Feature","geometry":{"type":"Point","coordinates":[48.95222222,34.04972222]},"properties":{"id":147065,"name":"Emamzadeh Khatun","state_code":"13","country_code":"IR"}},{"type":"Feature","geometry":{"type":"Point","coordinates":[49.04111111,35.01138889]},"properties":{"id":147066,"name":"Emamzadeh Pir Nahan","state_code":"13","country_code":"IR"}},{"type":"Feature","geometry":{"type":"Point","coordinates":[48.59277778,34.35805556]},"properties":{"id":147067,"name":"Eskanan","state_code":"13","country_code":"IR"}},{"type":"Feature","geometry":{"type":"Point","coordinates":[48.31194444,34.22416667]},"properties":{"id":147068,"name":"Fahrumand","state_code":"13","country_code":"IR"}},{"type":"Feature","geometry":{"type":"Point","coordinates":[48.4626,34.03897]},"properties":{"id":147069,"name":"Famast","state_code":"13","country_code":"IR"}},{"type":"Feature","geometry":{"type":"Point","coordinates":[48.97166667,35.11388889]},"properties":{"id":147070,"name":"Famenin","state_code":"13","country_code":"IR"}},{"type":"Feature","geometry":{"type":"Point","coordinates":[48.28555556,34.48611111]},"properties":{"id":147071,"name":"Farasfaj","state_code":"13","country_code":"IR"}},{"type":"Feature","geometry":{"type":"Point","coordinates":[48.11916667,34.24416667]},"properties":{"id":147072,"name":"Farsban","state_code":"13","country_code":"IR"}},{"type":"Feature","geometry":{"type":"Point","coordinates":[48.90111111,34.22694444]},"properties":{"id":147073,"name":"Farvaz","state_code":"13","country_code":"IR"}},{"type":"Feature","geometry":{"type":"Point","coordinates":[48.3325,34.523056]},"properties":{"id":147074,"name":"Faryazan","state_code":"13","country_code":"IR"}},{"type":"Feature","geometry":{"type":"Point","coordinates":[48.30472222,34.83666667]},"properties":{"id":147075,"name":"Fasijan","state_code":"13","country_code":"IR"}},{"type":"Feature","geometry":{"type":"Point","coordinates":[48.39638889,34.13111111]},"properties":{"id":147076,"name":"Fiazaman","state_code":"13","country_code":"IR"}},{"type":"Feature","geometry":{"type":"Point","coordinates":[48.09638889,34.34694444]},"properties":{"id":147077,"name":"Firuzabad-e Sofla","state_code":"13","country_code":"IR"}},{"type":"Feature","geometry":{"type":"Point","coordinates":[48.24,34.27861111]},"properties":{"id":147078,"name":"Firuzan","state_code":"13","country_code":"IR"}},{"type":"Feature","geometry":{"type":"Point","coordinates":[49.0875,34.23027778]},"properties":{"id":147079,"name":"Gamasa","state_code":"13","country_code":"IR"}},{"type":"Feature","geometry":{"type":"Point","coordinates":[48.465,34.04]},"properties":{"id":147080,"name":"Gamasb","state_code":"13","country_code":"IR"}},{"type":"Feature","geometry":{"type":"Point","coordinates":[48.463611,34.933333]},"properties":{"id":147081,"name":"Ganj Tappeh","state_code":"13","country_code":"IR"}},{"type":"Feature","geometry":{"type":"Point","coordinates":[48.98722222,34.45277778]},"properties":{"id":147082,"name":"Ganjab","state_code":"13","country_code":"IR"}},{"type":"Feature","geometry":{"type":"Point","coordinates":[48.39138889,34.66055556]},"properties":{"id":147083,"name":"Gashani","state_code":"13","country_code":"IR"}},{"type":"Feature","geometry":{"type":"Point","coordinates":[48.30527778,35.22916667]},"properties":{"id":147084,"name":"Gav Zaban","state_code":"13","country_code":"IR"}},{"type":"Feature","geometry":{"type":"Point","coordinates":[48.12,34.48694444]},"properties":{"id":147085,"name":"Gavkaran","state_code":"13","country_code":"IR"}},{"type":"Feature","geometry":{"type":"Point","coordinates":[48.93166667,35.33222222]},"properties":{"id":147086,"name":"Ghazyatan","state_code":"13","country_code":"IR"}},{"type":"Feature","geometry":{"type":"Point","coordinates":[48.52583333,35.63]},"properties":{"id":147087,"name":"Gholam Veys","state_code":"13","country_code":"IR"}},{"type":"Feature","geometry":{"type":"Point","coordinates":[48.08111111,34.2725]},"properties":{"id":147088,"name":"Givaki","state_code":"13","country_code":"IR"}},{"type":"Feature","geometry":{"type":"Point","coordinates":[48.24416667,34.17805556]},"properties":{"id":147089,"name":"Giyan","state_code":"13","country_code":"IR"}},{"type":"Feature","geometry":{"type":"Point","coordinates":[48.59861111,34.10222222]},"properties":{"id":147090,"name":"Gol Darreh-ye Anuch","state_code":"13","country_code":"IR"}},{"type":"Feature","geometry":{"type":"Point","coordinates":[48.41666667,34.0625]},"properties":{"id":147091,"name":"Gol Heydar","state_code":"13","country_code":"IR"}},{"type":"Feature","geometry":{"type":"Point","coordinates":[48.19597,35.2208355]},"properties":{"id":151011,"name":"Gol Tappeh","state_code":"13","country_code":"IR"}},{"type":"Feature","geometry":{"type":"Point","coordinates":[49.05777778,34.155]},"properties":{"id":147092,"name":"Golparabad","state_code":"13","country_code":"IR"}},{"type":"Feature","geometry":{"type":"Point","coordinates":[48.68333333,34.4]},"properties":{"id":147093,"name":"Golshir","state_code":"13","country_code":"IR"}},{"type":"Feature","geometry":{"type":"Point","coordinates":[48.79,34.36611111]},"properties":{"id":147094,"name":"Golushjerd","state_code":"13","country_code":"IR"}},{"type":"Feature","geometry":{"type":"Point","coordinates":[48.28972222,34.93194444]},"properties":{"id":147095,"name":"Gomush Bolagh","state_code":"13","country_code":"IR"}},{"type":"Feature","geometry":{"type":"Point","coordinates":[48.831389,34.868333]},"properties":{"id":147096,"name":"Gonbad Chay","state_code":"13","country_code":"IR"}},{"type":"Feature","geometry":{"type":"Point","coordinates":[48.14777778,34.21722222]},"properties":{"id":147097,"name":"Gonbad-e Kabud","state_code":"13","country_code":"IR"}},{"type":"Feature","geometry":{"type":"Point","coordinates":[48.87638889,35.46388889]},"properties":{"id":147098,"name":"Gostar","state_code":"13","country_code":"IR"}},{"type":"Feature","geometry":{"type":"Point","coordinates":[48.23861111,35.32166667]},"properties":{"id":147099,"name":"Gozal Abdal","state_code":"13","country_code":"IR"}},{"type":"Feature","geometry":{"type":"Point","coordinates":[48.0253,35.6875]},"properties":{"id":147100,"name":"Gug Qash","state_code":"13","country_code":"IR"}},{"type":"Feature","geometry":{"type":"Point","coordinates":[48.84027778,34.54083333]},"properties":{"id":147101,"name":"Gujak","state_code":"13","country_code":"IR"}},{"type":"Feature","geometry":{"type":"Point","coordinates":[48.97527778,34.38083333]},"properties":{"id":147102,"name":"Gulvand","state_code":"13","country_code":"IR"}},{"type":"Feature","geometry":{"type":"Point","coordinates":[48.91833333,34.03027778]},"properties":{"id":147103,"name":"Gunestan","state_code":"13","country_code":"IR"}},{"type":"Feature","geometry":{"type":"Point","coordinates":[48.79111111,34.93333333]},"properties":{"id":147104,"name":"Gur Gaz","state_code":"13","country_code":"IR"}},{"type":"Feature","geometry":{"type":"Point","coordinates":[48.40555556,34.18583333]},"properties":{"id":147105,"name":"Gurjiu","state_code":"13","country_code":"IR"}},{"type":"Feature","geometry":{"type":"Point","coordinates":[48.3225,34.835]},"properties":{"id":147106,"name":"Gushalan","state_code":"13","country_code":"IR"}},{"type":"Feature","geometry":{"type":"Point","coordinates":[48.95944444,34.15527778]},"properties":{"id":147107,"name":"Gusheh-ye Kasavand","state_code":"13","country_code":"IR"}},{"type":"Feature","geometry":{"type":"Point","coordinates":[48.74833333,34.12722222]},"properties":{"id":147108,"name":"Hajji Kheder","state_code":"13","country_code":"IR"}},{"type":"Feature","geometry":{"type":"Point","coordinates":[48.87972222,34.96972222]},"properties":{"id":147109,"name":"Hajji Maqsud","state_code":"13","country_code":"IR"}},{"type":"Feature","geometry":{"type":"Point","coordinates":[48.353611,34.450833]},"properties":{"id":147110,"name":"Hajji Tu","state_code":"13","country_code":"IR"}},{"type":"Feature","geometry":{"type":"Point","coordinates":[48.51666667,34.8]},"properties":{"id":147111,"name":"Hamadan","state_code":"13","country_code":"IR"}},{"type":"Feature","geometry":{"type":"Point","coordinates":[48.4400271,34.8123087]},"properties":{"id":151014,"name":"Hamedan","state_code":"13","country_code":"IR"}},{"type":"Feature","geometry":{"type":"Point","coordinates":[48.46083333,34.4025]},"properties":{"id":147112,"name":"Hamilabad","state_code":"13","country_code":"IR"}},{"type":"Feature","geometry":{"type":"Point","coordinates":[49.07777778,34.05777778]},"properties":{"id":147113,"name":"Hamzehlu-ye Sofla","state_code":"13","country_code":"IR"}},{"type":"Feature","geometry":{"type":"Point","coordinates":[48.7825,34.28166667]},"properties":{"id":147114,"name":"Haramabad","state_code":"13","country_code":"IR"}},{"type":"Feature","geometry":{"type":"Point","coordinates":[48.57527778,34.24833333]},"properties":{"id":147115,"name":"Hasan Kusej","state_code":"13","country_code":"IR"}},{"type":"Feature","geometry":{"type":"Point","coordinates":[48.36361111,35.37583333]},"properties":{"id":147116,"name":"Hasan Teymur","state_code":"13","country_code":"IR"}},{"type":"Feature","geometry":{"type":"Point","coordinates":[48.05083333,34.95027778]},"properties":{"id":147117,"name":"Hasanabad-e Emam","state_code":"13","country_code":"IR"}},{"type":"Feature","geometry":{"type":"Point","coordinates":[48.65444444,34.42361111]},"properties":{"id":147118,"name":"Hasanabad-e Qush Bolagh","state_code":"13","country_code":"IR"}},{"type":"Feature","geometry":{"type":"Point","coordinates":[48.54916667,34.8425]},"properties":{"id":147119,"name":"Hasanabad-e Sheverin","state_code":"13","country_code":"IR"}},{"type":"Feature","geometry":{"type":"Point","coordinates":[48.74305556,34.20527778]},"properties":{"id":147120,"name":"Heriraz","state_code":"13","country_code":"IR"}},{"type":"Feature","geometry":{"type":"Point","coordinates":[48.26861111,34.8225]},"properties":{"id":147121,"name":"Hesar-e Qarah Baghi","state_code":"13","country_code":"IR"}},{"type":"Feature","geometry":{"type":"Point","coordinates":[48.55972222,35.23861111]},"properties":{"id":147122,"name":"Hesar-e Qujeh Baghi","state_code":"13","country_code":"IR"}},{"type":"Feature","geometry":{"type":"Point","coordinates":[48.34694444,34.82055556]},"properties":{"id":147123,"name":"Heydareh-ye Dar-e Emam","state_code":"13","country_code":"IR"}},{"type":"Feature","geometry":{"type":"Point","coordinates":[48.4575,34.8025]},"properties":{"id":147124,"name":"Heydareh-ye Posht-e Shahr","state_code":"13","country_code":"IR"}},{"type":"Feature","geometry":{"type":"Point","coordinates":[49.14333333,34.93]},"properties":{"id":147125,"name":"Hizaj","state_code":"13","country_code":"IR"}},{"type":"Feature","geometry":{"type":"Point","coordinates":[48.13472222,34.68]},"properties":{"id":147126,"name":"Holvar-e Sofla","state_code":"13","country_code":"IR"}},{"type":"Feature","geometry":{"type":"Point","coordinates":[48.01,34.31472222]},"properties":{"id":147127,"name":"Hom-e Khosrow","state_code":"13","country_code":"IR"}},{"type":"Feature","geometry":{"type":"Point","coordinates":[48.36027778,34.39111111]},"properties":{"id":147128,"name":"Horhoreh","state_code":"13","country_code":"IR"}},{"type":"Feature","geometry":{"type":"Point","coordinates":[48.36833333,34.8675]},"properties":{"id":147129,"name":"Hoseynabad-e Bahar","state_code":"13","country_code":"IR"}},{"type":"Feature","geometry":{"type":"Point","coordinates":[48.604167,34.295278]},"properties":{"id":147130,"name":"Hoseynabad-e Nazem","state_code":"13","country_code":"IR"}},{"type":"Feature","geometry":{"type":"Point","coordinates":[48.62055556,34.44611111]},"properties":{"id":147131,"name":"Hoseynabad-e Shamlu","state_code":"13","country_code":"IR"}},{"type":"Feature","geometry":{"type":"Point","coordinates":[48.16194444,34.73361111]},"properties":{"id":147132,"name":"Hudaraj","state_code":"13","country_code":"IR"}},{"type":"Feature","geometry":{"type":"Point","coordinates":[48.5975,34.24305556]},"properties":{"id":147133,"name":"Iraneh","state_code":"13","country_code":"IR"}},{"type":"Feature","geometry":{"type":"Point","coordinates":[48.26611111,35.695]},"properties":{"id":147134,"name":"Isti Bolagh","state_code":"13","country_code":"IR"}},{"type":"Feature","geometry":{"type":"Point","coordinates":[48.97666667,35.24583333]},"properties":{"id":147135,"name":"Jamishlu","state_code":"13","country_code":"IR"}},{"type":"Feature","geometry":{"type":"Point","coordinates":[48.46861111,34.35166667]},"properties":{"id":147136,"name":"Jaria","state_code":"13","country_code":"IR"}},{"type":"Feature","geometry":{"type":"Point","coordinates":[49.22138889,35.28583333]},"properties":{"id":147137,"name":"Javar Sajin","state_code":"13","country_code":"IR"}},{"type":"Feature","geometry":{"type":"Point","coordinates":[48.92916667,35.58638889]},"properties":{"id":147138,"name":"Jerbanlu","state_code":"13","country_code":"IR"}},{"type":"Feature","geometry":{"type":"Point","coordinates":[48.49388889,35.20027778]},"properties":{"id":147139,"name":"Jighi","state_code":"13","country_code":"IR"}},{"type":"Feature","geometry":{"type":"Point","coordinates":[48.50694444,34.48111111]},"properties":{"id":147140,"name":"Jijan Kuh","state_code":"13","country_code":"IR"}},{"type":"Feature","geometry":{"type":"Point","coordinates":[48.60861111,34.35638889]},"properties":{"id":147141,"name":"Jijian Rud","state_code":"13","country_code":"IR"}},{"type":"Feature","geometry":{"type":"Point","coordinates":[48.4325,35.34555556]},"properties":{"id":147142,"name":"Jin Taraqayah","state_code":"13","country_code":"IR"}},{"type":"Feature","geometry":{"type":"Point","coordinates":[48.6779844,34.4303452]},"properties":{"id":151012,"name":"Jowkar","state_code":"13","country_code":"IR"}},{"type":"Feature","geometry":{"type":"Point","coordinates":[48.55444444,34.88472222]},"properties":{"id":147143,"name":"Juraqan","state_code":"13","country_code":"IR"}},{"type":"Feature","geometry":{"type":"Point","coordinates":[48.72388889,35.20833333]},"properties":{"id":147144,"name":"Kaboodrahang","state_code":"13","country_code":"IR"}},{"type":"Feature","geometry":{"type":"Point","coordinates":[48.7067913,35.2093946]},"properties":{"id":151010,"name":"Kabudrahang","state_code":"13","country_code":"IR"}},{"type":"Feature","geometry":{"type":"Point","coordinates":[49.00527778,35.28555556]},"properties":{"id":147145,"name":"Kahard","state_code":"13","country_code":"IR"}},{"type":"Feature","geometry":{"type":"Point","coordinates":[48.65805556,34.14388889]},"properties":{"id":147146,"name":"Kahkadan","state_code":"13","country_code":"IR"}},{"type":"Feature","geometry":{"type":"Point","coordinates":[47.94027778,35.53388889]},"properties":{"id":147147,"name":"Kahriz-e Baba Hoseyn","state_code":"13","country_code":"IR"}},{"type":"Feature","geometry":{"type":"Point","coordinates":[48.81833333,35.51138889]},"properties":{"id":147148,"name":"Kahriz-e Boqazi","state_code":"13","country_code":"IR"}},{"type":"Feature","geometry":{"type":"Point","coordinates":[48.62777778,34.31888889]},"properties":{"id":147149,"name":"Kahriz-e Hoseynabad-e Nazem","state_code":"13","country_code":"IR"}},{"type":"Feature","geometry":{"type":"Point","coordinates":[48.14611111,34.335]},"properties":{"id":147150,"name":"Kahriz-e Jamal","state_code":"13","country_code":"IR"}},{"type":"Feature","geometry":{"type":"Point","coordinates":[48.16222222,34.32888889]},"properties":{"id":147151,"name":"Kahriz-e Salim","state_code":"13","country_code":"IR"}},{"type":"Feature","geometry":{"type":"Point","coordinates":[48.85277778,35.48083333]},"properties":{"id":147152,"name":"Kal Kabud","state_code":"13","country_code":"IR"}},{"type":"Feature","geometry":{"type":"Point","coordinates":[48.39583333,35.36694444]},"properties":{"id":147153,"name":"Kalb Hesari","state_code":"13","country_code":"IR"}},{"type":"Feature","geometry":{"type":"Point","coordinates":[48.54472222,34.33916667]},"properties":{"id":147154,"name":"Kalilabad","state_code":"13","country_code":"IR"}},{"type":"Feature","geometry":{"type":"Point","coordinates":[47.96861111,34.8875]},"properties":{"id":147155,"name":"Kamak-e Sofla","state_code":"13","country_code":"IR"}},{"type":"Feature","geometry":{"type":"Point","coordinates":[48.635,34.175]},"properties":{"id":147156,"name":"Kamar Boneh","state_code":"13","country_code":"IR"}},{"type":"Feature","geometry":{"type":"Point","coordinates":[48.95333333,34.15083333]},"properties":{"id":147157,"name":"Kamazan","state_code":"13","country_code":"IR"}},{"type":"Feature","geometry":{"type":"Point","coordinates":[48.78194444,34.50111111]},"properties":{"id":147158,"name":"Kand Halan","state_code":"13","country_code":"IR"}},{"type":"Feature","geometry":{"type":"Point","coordinates":[48.30555556,35.20138889]},"properties":{"id":147159,"name":"Kand Tappeh","state_code":"13","country_code":"IR"}},{"type":"Feature","geometry":{"type":"Point","coordinates":[48.32277778,35.43]},"properties":{"id":147160,"name":"Kand-e Bolaghi","state_code":"13","country_code":"IR"}},{"type":"Feature","geometry":{"type":"Point","coordinates":[47.97611111,34.34194444]},"properties":{"id":147161,"name":"Kangavar-e Kohneh","state_code":"13","country_code":"IR"}},{"type":"Feature","geometry":{"type":"Point","coordinates":[49.29888889,35.36333333]},"properties":{"id":147162,"name":"Karafs","state_code":"13","country_code":"IR"}},{"type":"Feature","geometry":{"type":"Point","coordinates":[48.29138889,34.16944444]},"properties":{"id":147163,"name":"Kark-e Sofla","state_code":"13","country_code":"IR"}},{"type":"Feature","geometry":{"type":"Point","coordinates":[48.64916667,34.31361111]},"properties":{"id":147164,"name":"Kartilabad","state_code":"13","country_code":"IR"}},{"type":"Feature","geometry":{"type":"Point","coordinates":[48.96972222,34.15222222]},"properties":{"id":147165,"name":"Kasavand","state_code":"13","country_code":"IR"}},{"type":"Feature","geometry":{"type":"Point","coordinates":[48.18611111,35.19388889]},"properties":{"id":147166,"name":"Kaslan Qayah","state_code":"13","country_code":"IR"}},{"type":"Feature","geometry":{"type":"Point","coordinates":[47.89694444,34.66388889]},"properties":{"id":147167,"name":"Kavanaj","state_code":"13","country_code":"IR"}},{"type":"Feature","geometry":{"type":"Point","coordinates":[48.7225,34.41416667]},"properties":{"id":147168,"name":"Kesb","state_code":"13","country_code":"IR"}},{"type":"Feature","geometry":{"type":"Point","coordinates":[48.93916667,34.115]},"properties":{"id":147169,"name":"Keykaleh","state_code":"13","country_code":"IR"}},{"type":"Feature","geometry":{"type":"Point","coordinates":[47.88638889,34.82583333]},"properties":{"id":147170,"name":"Keyni Sayeh","state_code":"13","country_code":"IR"}},{"type":"Feature","geometry":{"type":"Point","coordinates":[48.27666667,35.36333333]},"properties":{"id":147171,"name":"Khabar Arkhi","state_code":"13","country_code":"IR"}},{"type":"Feature","geometry":{"type":"Point","coordinates":[48.53638889,34.72638889]},"properties":{"id":147172,"name":"Khaku","state_code":"13","country_code":"IR"}},{"type":"Feature","geometry":{"type":"Point","coordinates":[48.18111111,35.41083333]},"properties":{"id":147173,"name":"Khaleq Verdi","state_code":"13","country_code":"IR"}},{"type":"Feature","geometry":{"type":"Point","coordinates":[48.25305556,34.97805556]},"properties":{"id":147174,"name":"Khalil Kord","state_code":"13","country_code":"IR"}},{"type":"Feature","geometry":{"type":"Point","coordinates":[48.93138889,34.62583333]},"properties":{"id":147175,"name":"Kheradmand","state_code":"13","country_code":"IR"}},{"type":"Feature","geometry":{"type":"Point","coordinates":[48.40138889,34.20222222]},"properties":{"id":147176,"name":"Kheyr Qoli","state_code":"13","country_code":"IR"}},{"type":"Feature","geometry":{"type":"Point","coordinates":[49.02333333,35.36972222]},"properties":{"id":147177,"name":"Khomeygan","state_code":"13","country_code":"IR"}},{"type":"Feature","geometry":{"type":"Point","coordinates":[49.33916667,35]},"properties":{"id":147178,"name":"Khvajeh Hesar","state_code":"13","country_code":"IR"}},{"type":"Feature","geometry":{"type":"Point","coordinates":[48.37861111,34.155]},"properties":{"id":147179,"name":"Khvajeh Hoseyni","state_code":"13","country_code":"IR"}},{"type":"Feature","geometry":{"type":"Point","coordinates":[48.385,35.36194444]},"properties":{"id":147180,"name":"Khvajeh Kandi","state_code":"13","country_code":"IR"}},{"type":"Feature","geometry":{"type":"Point","coordinates":[48.3575,35.01777778]},"properties":{"id":147181,"name":"Khvoshab-e Sofla","state_code":"13","country_code":"IR"}},{"type":"Feature","geometry":{"type":"Point","coordinates":[48.15333333,35.31972222]},"properties":{"id":147182,"name":"Kitu","state_code":"13","country_code":"IR"}},{"type":"Feature","geometry":{"type":"Point","coordinates":[48.27777778,34.72583333]},"properties":{"id":147183,"name":"Kohnush","state_code":"13","country_code":"IR"}},{"type":"Feature","geometry":{"type":"Point","coordinates":[48.3925,34.59444444]},"properties":{"id":147184,"name":"Kolanjan","state_code":"13","country_code":"IR"}},{"type":"Feature","geometry":{"type":"Point","coordinates":[48.62972222,34.79222222]},"properties":{"id":147185,"name":"Konjineh","state_code":"13","country_code":"IR"}},{"type":"Feature","geometry":{"type":"Point","coordinates":[48.65277778,34.76722222]},"properties":{"id":147186,"name":"Kord Bolagh","state_code":"13","country_code":"IR"}},{"type":"Feature","geometry":{"type":"Point","coordinates":[48.35361111,34.59444444]},"properties":{"id":147187,"name":"Korzan","state_code":"13","country_code":"IR"}},{"type":"Feature","geometry":{"type":"Point","coordinates":[49.011389,34.698611]},"properties":{"id":147188,"name":"Kowzareh","state_code":"13","country_code":"IR"}},{"type":"Feature","geometry":{"type":"Point","coordinates":[48.405,34.153889]},"properties":{"id":147189,"name":"Kuhani","state_code":"13","country_code":"IR"}},{"type":"Feature","geometry":{"type":"Point","coordinates":[48.77333333,34.71722222]},"properties":{"id":147190,"name":"Kur Kahriz","state_code":"13","country_code":"IR"}},{"type":"Feature","geometry":{"type":"Point","coordinates":[48.58805556,34.40416667]},"properties":{"id":147191,"name":"Kusaj Khalil","state_code":"13","country_code":"IR"}},{"type":"Feature","geometry":{"type":"Point","coordinates":[47.95388889,34.32055556]},"properties":{"id":147192,"name":"Kutah Darreh","state_code":"13","country_code":"IR"}},{"type":"Feature","geometry":{"type":"Point","coordinates":[48.95416667,35.58111111]},"properties":{"id":147193,"name":"Laleh Dan","state_code":"13","country_code":"IR"}},{"type":"Feature","geometry":{"type":"Point","coordinates":[48.47555556,34.97444444]},"properties":{"id":147194,"name":"Lalejin","state_code":"13","country_code":"IR"}},{"type":"Feature","geometry":{"type":"Point","coordinates":[48.19277778,34.46277778]},"properties":{"id":147195,"name":"Lamiyan","state_code":"13","country_code":"IR"}},{"type":"Feature","geometry":{"type":"Point","coordinates":[48.546389,34.989444]},"properties":{"id":147196,"name":"Latgah","state_code":"13","country_code":"IR"}},{"type":"Feature","geometry":{"type":"Point","coordinates":[48.27416667,34.25055556]},"properties":{"id":147197,"name":"Lavashan","state_code":"13","country_code":"IR"}},{"type":"Feature","geometry":{"type":"Point","coordinates":[48.21027778,34.28583333]},"properties":{"id":147198,"name":"Leyli Yadegar","state_code":"13","country_code":"IR"}},{"type":"Feature","geometry":{"type":"Point","coordinates":[48.45416667,34.31611111]},"properties":{"id":147199,"name":"Luluhar","state_code":"13","country_code":"IR"}},{"type":"Feature","geometry":{"type":"Point","coordinates":[48.20972222,34.18083333]},"properties":{"id":147200,"name":"Mahanabad","state_code":"13","country_code":"IR"}},{"type":"Feature","geometry":{"type":"Point","coordinates":[48.80777778,34.87611111]},"properties":{"id":147201,"name":"Mahbar","state_code":"13","country_code":"IR"}},{"type":"Feature","geometry":{"type":"Point","coordinates":[48.88333333,34.08333333]},"properties":{"id":147202,"name":"Mahdaviyeh","state_code":"13","country_code":"IR"}},{"type":"Feature","geometry":{"type":"Point","coordinates":[49.06583333,35.5025]},"properties":{"id":147203,"name":"Mahnian","state_code":"13","country_code":"IR"}},{"type":"Feature","geometry":{"type":"Point","coordinates":[48.82,34.29416667]},"properties":{"id":147204,"name":"Malayer","state_code":"13","country_code":"IR"}},{"type":"Feature","geometry":{"type":"Point","coordinates":[48.315,34.95222222]},"properties":{"id":147205,"name":"Malek-e Ashtar","state_code":"13","country_code":"IR"}},{"type":"Feature","geometry":{"type":"Point","coordinates":[48.33,34.32333333]},"properties":{"id":147206,"name":"Malusan","state_code":"13","country_code":"IR"}},{"type":"Feature","geometry":{"type":"Point","coordinates":[48.70861111,34.6575]},"properties":{"id":147207,"name":"Mangavi","state_code":"13","country_code":"IR"}},{"type":"Feature","geometry":{"type":"Point","coordinates":[48.88694444,34.16805556]},"properties":{"id":147208,"name":"Marvil","state_code":"13","country_code":"IR"}},{"type":"Feature","geometry":{"type":"Point","coordinates":[48.45916667,34.83083333]},"properties":{"id":147209,"name":"Maryanaj","state_code":"13","country_code":"IR"}},{"type":"Feature","geometry":{"type":"Point","coordinates":[48.26333333,35.54277778]},"properties":{"id":147210,"name":"Masjedin","state_code":"13","country_code":"IR"}},{"type":"Feature","geometry":{"type":"Point","coordinates":[48.23555556,34.44805556]},"properties":{"id":147211,"name":"Menjan","state_code":"13","country_code":"IR"}},{"type":"Feature","geometry":{"type":"Point","coordinates":[49.15111111,35.27222222]},"properties":{"id":147212,"name":"Mesinak","state_code":"13","country_code":"IR"}},{"type":"Feature","geometry":{"type":"Point","coordinates":[47.85527778,34.83194444]},"properties":{"id":147213,"name":"Meyvaleh","state_code":"13","country_code":"IR"}},{"type":"Feature","geometry":{"type":"Point","coordinates":[48.51555556,34.31222222]},"properties":{"id":147214,"name":"Mianzulan","state_code":"13","country_code":"IR"}},{"type":"Feature","geometry":{"type":"Point","coordinates":[48.30805556,35.1]},"properties":{"id":147215,"name":"Mihamleh-ye Sofla","state_code":"13","country_code":"IR"}},{"type":"Feature","geometry":{"type":"Point","coordinates":[48.47972222,34.05277778]},"properties":{"id":147216,"name":"Milab","state_code":"13","country_code":"IR"}},{"type":"Feature","geometry":{"type":"Point","coordinates":[48.459444,35.1275]},"properties":{"id":147217,"name":"Mirza Hesari","state_code":"13","country_code":"IR"}},{"type":"Feature","geometry":{"type":"Point","coordinates":[48.92722222,34.1575]},"properties":{"id":147218,"name":"Mishen","state_code":"13","country_code":"IR"}},{"type":"Feature","geometry":{"type":"Point","coordinates":[49.42416667,35.09805556]},"properties":{"id":147219,"name":"Mobarakin","state_code":"13","country_code":"IR"}},{"type":"Feature","geometry":{"type":"Point","coordinates":[48.61666667,35.07388889]},"properties":{"id":147220,"name":"Mohajeran","state_code":"13","country_code":"IR"}},{"type":"Feature","geometry":{"type":"Point","coordinates":[48.30444444,34.24666667]},"properties":{"id":147221,"name":"Mohammadabad-e Chulak","state_code":"13","country_code":"IR"}},{"type":"Feature","geometry":{"type":"Point","coordinates":[48.33861111,34.14611111]},"properties":{"id":147222,"name":"Mohammadiyeh-e Sofla","state_code":"13","country_code":"IR"}},{"type":"Feature","geometry":{"type":"Point","coordinates":[48.86861111,34.55527778]},"properties":{"id":147223,"name":"Mohara","state_code":"13","country_code":"IR"}},{"type":"Feature","geometry":{"type":"Point","coordinates":[48.69777778,34.625]},"properties":{"id":147224,"name":"Mokarrabi","state_code":"13","country_code":"IR"}},{"type":"Feature","geometry":{"type":"Point","coordinates":[48.14527778,34.83138889]},"properties":{"id":147225,"name":"Molham Darreh","state_code":"13","country_code":"IR"}},{"type":"Feature","geometry":{"type":"Point","coordinates":[48.73888889,35.63138889]},"properties":{"id":147226,"name":"Molla Bodagh","state_code":"13","country_code":"IR"}},{"type":"Feature","geometry":{"type":"Point","coordinates":[47.91111111,34.72027778]},"properties":{"id":147227,"name":"Monavvar Tappeh","state_code":"13","country_code":"IR"}},{"type":"Feature","geometry":{"type":"Point","coordinates":[49.28277778,35.18833333]},"properties":{"id":147228,"name":"Morghabad","state_code":"13","country_code":"IR"}},{"type":"Feature","geometry":{"type":"Point","coordinates":[48.47138889,34.3325]},"properties":{"id":147229,"name":"Mowdaran","state_code":"13","country_code":"IR"}},{"type":"Feature","geometry":{"type":"Point","coordinates":[48.94111111,34.59888889]},"properties":{"id":147230,"name":"Musa Bolaghi","state_code":"13","country_code":"IR"}},{"type":"Feature","geometry":{"type":"Point","coordinates":[48.96833333,34.14944444]},"properties":{"id":147231,"name":"Nahandar","state_code":"13","country_code":"IR"}},{"type":"Feature","geometry":{"type":"Point","coordinates":[48.37694444,34.18833333]},"properties":{"id":147232,"name":"Nahavand","state_code":"13","country_code":"IR"}},{"type":"Feature","geometry":{"type":"Point","coordinates":[48.38638889,34.555]},"properties":{"id":147233,"name":"Najafiyeh","state_code":"13","country_code":"IR"}},{"type":"Feature","geometry":{"type":"Point","coordinates":[48.65694444,34.36777778]},"properties":{"id":147234,"name":"Nakilabad","state_code":"13","country_code":"IR"}},{"type":"Feature","geometry":{"type":"Point","coordinates":[49.26527778,35.38805556]},"properties":{"id":147235,"name":"Nakin","state_code":"13","country_code":"IR"}},{"type":"Feature","geometry":{"type":"Point","coordinates":[48.82,34.27111111]},"properties":{"id":147236,"name":"Namileh","state_code":"13","country_code":"IR"}},{"type":"Feature","geometry":{"type":"Point","coordinates":[48.75388889,34.42]},"properties":{"id":147237,"name":"Nanaj","state_code":"13","country_code":"IR"}},{"type":"Feature","geometry":{"type":"Point","coordinates":[48.71805556,34.22833333]},"properties":{"id":147238,"name":"Nazul","state_code":"13","country_code":"IR"}},{"type":"Feature","geometry":{"type":"Point","coordinates":[48.92555556,35.11861111]},"properties":{"id":147239,"name":"Negar Khatun","state_code":"13","country_code":"IR"}},{"type":"Feature","geometry":{"type":"Point","coordinates":[48.53277778,35.47583333]},"properties":{"id":147240,"name":"Negarabad","state_code":"13","country_code":"IR"}},{"type":"Feature","geometry":{"type":"Point","coordinates":[48.71722222,34.54111111]},"properties":{"id":147241,"name":"Nehenjeh","state_code":"13","country_code":"IR"}},{"type":"Feature","geometry":{"type":"Point","coordinates":[48.46861111,34.07694444]},"properties":{"id":147242,"name":"Nesar","state_code":"13","country_code":"IR"}},{"type":"Feature","geometry":{"type":"Point","coordinates":[48.86694444,34.67722222]},"properties":{"id":147243,"name":"Neshar","state_code":"13","country_code":"IR"}},{"type":"Feature","geometry":{"type":"Point","coordinates":[48.91722222,35.34861111]},"properties":{"id":147244,"name":"Niyanj","state_code":"13","country_code":"IR"}},{"type":"Feature","geometry":{"type":"Point","coordinates":[48.08555556,34.69222222]},"properties":{"id":147245,"name":"Nosratabad-e Behraz","state_code":"13","country_code":"IR"}},{"type":"Feature","geometry":{"type":"Point","coordinates":[47.96277778,34.66472222]},"properties":{"id":147246,"name":"Nosratabad-e Laklak","state_code":"13","country_code":"IR"}},{"type":"Feature","geometry":{"type":"Point","coordinates":[48.29277778,34.82194444]},"properties":{"id":147247,"name":"Nurabad-e Simineh","state_code":"13","country_code":"IR"}},{"type":"Feature","geometry":{"type":"Point","coordinates":[48.84583333,35.64]},"properties":{"id":147248,"name":"Ojaq","state_code":"13","country_code":"IR"}},{"type":"Feature","geometry":{"type":"Point","coordinates":[48.96861111,35.43611111]},"properties":{"id":147249,"name":"Ommatlar","state_code":"13","country_code":"IR"}},{"type":"Feature","geometry":{"type":"Point","coordinates":[48.29555556,34.63805556]},"properties":{"id":147250,"name":"Oshtoran","state_code":"13","country_code":"IR"}},{"type":"Feature","geometry":{"type":"Point","coordinates":[48.17222222,34.77583333]},"properties":{"id":147251,"name":"Oshtorjin","state_code":"13","country_code":"IR"}},{"type":"Feature","geometry":{"type":"Point","coordinates":[48.69111111,35.28222222]},"properties":{"id":147252,"name":"Ovraqin","state_code":"13","country_code":"IR"}},{"type":"Feature","geometry":{"type":"Point","coordinates":[48.62916667,35.57083333]},"properties":{"id":147253,"name":"Owrteh Qamish","state_code":"13","country_code":"IR"}},{"type":"Feature","geometry":{"type":"Point","coordinates":[48.3725,35.26277778]},"properties":{"id":147254,"name":"Owryad","state_code":"13","country_code":"IR"}},{"type":"Feature","geometry":{"type":"Point","coordinates":[48.61472222,34.84166667]},"properties":{"id":147255,"name":"Pahnabad","state_code":"13","country_code":"IR"}},{"type":"Feature","geometry":{"type":"Point","coordinates":[48.44555556,34.06527778]},"properties":{"id":147256,"name":"Panbeh Dar","state_code":"13","country_code":"IR"}},{"type":"Feature","geometry":{"type":"Point","coordinates":[48.24611111,35.06555556]},"properties":{"id":147257,"name":"Parluk","state_code":"13","country_code":"IR"}},{"type":"Feature","geometry":{"type":"Point","coordinates":[48.76777778,35.15583333]},"properties":{"id":147258,"name":"Parvaraq","state_code":"13","country_code":"IR"}},{"type":"Feature","geometry":{"type":"Point","coordinates":[48.85305556,35.44194444]},"properties":{"id":147259,"name":"Payandeh","state_code":"13","country_code":"IR"}},{"type":"Feature","geometry":{"type":"Point","coordinates":[48.8675,34.12972222]},"properties":{"id":147260,"name":"Peyhan","state_code":"13","country_code":"IR"}},{"type":"Feature","geometry":{"type":"Point","coordinates":[48.85583333,35.38388889]},"properties":{"id":147261,"name":"Pileh Jin","state_code":"13","country_code":"IR"}},{"type":"Feature","geometry":{"type":"Point","coordinates":[48.51361111,35.2425]},"properties":{"id":147262,"name":"Pir Anbar","state_code":"13","country_code":"IR"}},{"type":"Feature","geometry":{"type":"Point","coordinates":[48.13888889,35.56722222]},"properties":{"id":147263,"name":"Pir Badam","state_code":"13","country_code":"IR"}},{"type":"Feature","geometry":{"type":"Point","coordinates":[48.92861111,34.325]},"properties":{"id":147264,"name":"Pir Khodaverdi","state_code":"13","country_code":"IR"}},{"type":"Feature","geometry":{"type":"Point","coordinates":[48.06611111,34.91222222]},"properties":{"id":147265,"name":"Pir Malu","state_code":"13","country_code":"IR"}},{"type":"Feature","geometry":{"type":"Point","coordinates":[48.66611111,34.39166667]},"properties":{"id":147266,"name":"Pir Mishan","state_code":"13","country_code":"IR"}},{"type":"Feature","geometry":{"type":"Point","coordinates":[48.77861111,34.11805556]},"properties":{"id":147267,"name":"Pir Savaran","state_code":"13","country_code":"IR"}},{"type":"Feature","geometry":{"type":"Point","coordinates":[47.89277778,34.68888889]},"properties":{"id":147268,"name":"Pir Yusof","state_code":"13","country_code":"IR"}},{"type":"Feature","geometry":{"type":"Point","coordinates":[49.04527778,34.135]},"properties":{"id":147269,"name":"Piruz","state_code":"13","country_code":"IR"}},{"type":"Feature","geometry":{"type":"Point","coordinates":[49.07166667,35.31416667]},"properties":{"id":147270,"name":"Poshtjin","state_code":"13","country_code":"IR"}},{"type":"Feature","geometry":{"type":"Point","coordinates":[49.17833333,35.19833333]},"properties":{"id":147271,"name":"Qabanqoli","state_code":"13","country_code":"IR"}},{"type":"Feature","geometry":{"type":"Point","coordinates":[48.73,35.40111111]},"properties":{"id":147272,"name":"Qader Khalaj","state_code":"13","country_code":"IR"}},{"type":"Feature","geometry":{"type":"Point","coordinates":[48.73666667,34.65194444]},"properties":{"id":147273,"name":"Qadimi","state_code":"13","country_code":"IR"}},{"type":"Feature","geometry":{"type":"Point","coordinates":[49.00472222,34.86027778]},"properties":{"id":147274,"name":"Qahavand","state_code":"13","country_code":"IR"}},{"type":"Feature","geometry":{"type":"Point","coordinates":[48.97527778,34.43527778]},"properties":{"id":147275,"name":"Qajar Ab-e Sofla","state_code":"13","country_code":"IR"}},{"type":"Feature","geometry":{"type":"Point","coordinates":[49.28222222,35.12527778]},"properties":{"id":147276,"name":"Qarah Day","state_code":"13","country_code":"IR"}},{"type":"Feature","geometry":{"type":"Point","coordinates":[48.93555556,34.44027778]},"properties":{"id":147277,"name":"Qarah Tegini","state_code":"13","country_code":"IR"}},{"type":"Feature","geometry":{"type":"Point","coordinates":[48.1775,35.51305556]},"properties":{"id":147278,"name":"Qaranqu Darreh","state_code":"13","country_code":"IR"}},{"type":"Feature","geometry":{"type":"Point","coordinates":[48.18777778,34.42]},"properties":{"id":147279,"name":"Qasabestan","state_code":"13","country_code":"IR"}},{"type":"Feature","geometry":{"type":"Point","coordinates":[47.97222222,34.67527778]},"properties":{"id":147280,"name":"Qasemabad-e Laklak","state_code":"13","country_code":"IR"}},{"type":"Feature","geometry":{"type":"Point","coordinates":[48.93166667,35.37527778]},"properties":{"id":147281,"name":"Qater Owlan","state_code":"13","country_code":"IR"}},{"type":"Feature","geometry":{"type":"Point","coordinates":[48.86694444,35.49611111]},"properties":{"id":147282,"name":"Qayesh","state_code":"13","country_code":"IR"}},{"type":"Feature","geometry":{"type":"Point","coordinates":[48.0822,35.6619]},"properties":{"id":147283,"name":"Qazan Qarah","state_code":"13","country_code":"IR"}},{"type":"Feature","geometry":{"type":"Point","coordinates":[48.01416667,34.77694444]},"properties":{"id":147284,"name":"Qazi Mardan","state_code":"13","country_code":"IR"}},{"type":"Feature","geometry":{"type":"Point","coordinates":[48.3625,34.14194444]},"properties":{"id":147285,"name":"Qeshlaq Baba Rostam","state_code":"13","country_code":"IR"}},{"type":"Feature","geometry":{"type":"Point","coordinates":[48.57777778,34.11611111]},"properties":{"id":147286,"name":"Qeshlaq-e Anuch","state_code":"13","country_code":"IR"}},{"type":"Feature","geometry":{"type":"Point","coordinates":[48.3375,34.24388889]},"properties":{"id":147287,"name":"Qeshlaq-e Deh Ful","state_code":"13","country_code":"IR"}},{"type":"Feature","geometry":{"type":"Point","coordinates":[48.56666667,34.5]},"properties":{"id":147288,"name":"Qeshlaq-e Dehnow","state_code":"13","country_code":"IR"}},{"type":"Feature","geometry":{"type":"Point","coordinates":[48.91666667,34.06666667]},"properties":{"id":147289,"name":"Qeshlaq-e Mohammadi","state_code":"13","country_code":"IR"}},{"type":"Feature","geometry":{"type":"Point","coordinates":[48.245,34.37222222]},"properties":{"id":147290,"name":"Qeshlaq-e Najaf","state_code":"13","country_code":"IR"}},{"type":"Feature","geometry":{"type":"Point","coordinates":[48.21638889,34.40305556]},"properties":{"id":147291,"name":"Qeshlaq-e Pust Shuran","state_code":"13","country_code":"IR"}},{"type":"Feature","geometry":{"type":"Point","coordinates":[48.89583333,34.58777778]},"properties":{"id":147292,"name":"Qeshlaq-e Qobad","state_code":"13","country_code":"IR"}},{"type":"Feature","geometry":{"type":"Point","coordinates":[48.93916667,34.38388889]},"properties":{"id":147293,"name":"Qeshlaq-e Shirazi","state_code":"13","country_code":"IR"}},{"type":"Feature","geometry":{"type":"Point","coordinates":[49.06972222,34.70083333]},"properties":{"id":147294,"name":"Qeshlaq-e Sofla","state_code":"13","country_code":"IR"}},{"type":"Feature","geometry":{"type":"Point","coordinates":[48.22416667,34.35222222]},"properties":{"id":147295,"name":"Qeshlaq-e Valiollah","state_code":"13","country_code":"IR"}},{"type":"Feature","geometry":{"type":"Point","coordinates":[48.2875,35.015]},"properties":{"id":147296,"name":"Qeydli Bolagh","state_code":"13","country_code":"IR"}},{"type":"Feature","geometry":{"type":"Point","coordinates":[48.06083333,34.30444444]},"properties":{"id":147297,"name":"Qilab","state_code":"13","country_code":"IR"}},{"type":"Feature","geometry":{"type":"Point","coordinates":[48.059444,35.471111]},"properties":{"id":147298,"name":"Qohurd-e Sofla","state_code":"13","country_code":"IR"}},{"type":"Feature","geometry":{"type":"Point","coordinates":[48.25972222,34.52805556]},"properties":{"id":147299,"name":"Qoli Laleh-ye Sofla","state_code":"13","country_code":"IR"}},{"type":"Feature","geometry":{"type":"Point","coordinates":[49.29083333,35.13083333]},"properties":{"id":147300,"name":"Qolqolabad","state_code":"13","country_code":"IR"}},{"type":"Feature","geometry":{"type":"Point","coordinates":[49.0899181,35.3126474]},"properties":{"id":151009,"name":"Qorveh-e Darjazin","state_code":"13","country_code":"IR"}},{"type":"Feature","geometry":{"type":"Point","coordinates":[48.02611111,34.92722222]},"properties":{"id":147301,"name":"Quch Tappeh","state_code":"13","country_code":"IR"}},{"type":"Feature","geometry":{"type":"Point","coordinates":[48.30555556,35.66416667]},"properties":{"id":147302,"name":"Qushjeh","state_code":"13","country_code":"IR"}},{"type":"Feature","geometry":{"type":"Point","coordinates":[48.58555556,34.08861111]},"properties":{"id":147303,"name":"Rahmanabad Malayer","state_code":"13","country_code":"IR"}},{"type":"Feature","geometry":{"type":"Point","coordinates":[48.805,35.15972222]},"properties":{"id":147304,"name":"Ramishan","state_code":"13","country_code":"IR"}},{"type":"Feature","geometry":{"type":"Point","coordinates":[48.21666667,34.91666667]},"properties":{"id":147305,"name":"Rastguyan","state_code":"13","country_code":"IR"}},{"type":"Feature","geometry":{"type":"Point","coordinates":[48.21861111,34.87888889]},"properties":{"id":147306,"name":"Rasulabad-e Sofla","state_code":"13","country_code":"IR"}},{"type":"Feature","geometry":{"type":"Point","coordinates":[48.34916667,34.13333333]},"properties":{"id":147307,"name":"Ravand-e Vosta","state_code":"13","country_code":"IR"}},{"type":"Feature","geometry":{"type":"Point","coordinates":[48.663333,35.071111]},"properties":{"id":147308,"name":"Rayegan-e Sofla","state_code":"13","country_code":"IR"}},{"type":"Feature","geometry":{"type":"Point","coordinates":[49.14666667,34.89527778]},"properties":{"id":147309,"name":"Razaj","state_code":"13","country_code":"IR"}},{"type":"Feature","geometry":{"type":"Point","coordinates":[49.03361111,35.38638889]},"properties":{"id":147310,"name":"Razan","state_code":"13","country_code":"IR"}},{"type":"Feature","geometry":{"type":"Point","coordinates":[48.12611111,34.26777778]},"properties":{"id":147311,"name":"Razini","state_code":"13","country_code":"IR"}},{"type":"Feature","geometry":{"type":"Point","coordinates":[49.31444444,35.18277778]},"properties":{"id":147312,"name":"Reza Baghi","state_code":"13","country_code":"IR"}},{"type":"Feature","geometry":{"type":"Point","coordinates":[48.83333333,34.25]},"properties":{"id":147313,"name":"Rezvankadeh","state_code":"13","country_code":"IR"}},{"type":"Feature","geometry":{"type":"Point","coordinates":[48.43194444,34.57722222]},"properties":{"id":147314,"name":"Rivasijan","state_code":"13","country_code":"IR"}},{"type":"Feature","geometry":{"type":"Point","coordinates":[48.60027778,34.86111111]},"properties":{"id":147315,"name":"Robat-e Sheverin","state_code":"13","country_code":"IR"}},{"type":"Feature","geometry":{"type":"Point","coordinates":[48.41055556,34.55055556]},"properties":{"id":147316,"name":"Rud Avar","state_code":"13","country_code":"IR"}},{"type":"Feature","geometry":{"type":"Point","coordinates":[48.37166667,34.12444444]},"properties":{"id":147317,"name":"Rud-e Hasan-e Sofla","state_code":"13","country_code":"IR"}},{"type":"Feature","geometry":{"type":"Point","coordinates":[48.30611111,35.40694444]},"properties":{"id":147318,"name":"Safa Riz","state_code":"13","country_code":"IR"}},{"type":"Feature","geometry":{"type":"Point","coordinates":[48.30472222,34.55388889]},"properties":{"id":147319,"name":"Sahamabad","state_code":"13","country_code":"IR"}},{"type":"Feature","geometry":{"type":"Point","coordinates":[48.3425,34.92361111]},"properties":{"id":147320,"name":"Salehabad","state_code":"13","country_code":"IR"}},{"type":"Feature","geometry":{"type":"Point","coordinates":[49.11888889,35.25277778]},"properties":{"id":147321,"name":"Salilak","state_code":"13","country_code":"IR"}},{"type":"Feature","geometry":{"type":"Point","coordinates":[48.99305556,34.34138889]},"properties":{"id":147322,"name":"Saluk","state_code":"13","country_code":"IR"}},{"type":"Feature","geometry":{"type":"Point","coordinates":[48.70583333,34.20916667]},"properties":{"id":147323,"name":"Samen","state_code":"13","country_code":"IR"}},{"type":"Feature","geometry":{"type":"Point","coordinates":[49.02555556,35.12222222]},"properties":{"id":147324,"name":"Sanaj","state_code":"13","country_code":"IR"}},{"type":"Feature","geometry":{"type":"Point","coordinates":[48.39333333,34.65611111]},"properties":{"id":147325,"name":"Sanjuzan","state_code":"13","country_code":"IR"}},{"type":"Feature","geometry":{"type":"Point","coordinates":[48.26388889,34.20305556]},"properties":{"id":147326,"name":"Sar Duran","state_code":"13","country_code":"IR"}},{"type":"Feature","geometry":{"type":"Point","coordinates":[48.60638889,34.23222222]},"properties":{"id":147327,"name":"Sarab-e Tajar","state_code":"13","country_code":"IR"}},{"type":"Feature","geometry":{"type":"Point","coordinates":[48.94638889,35.17916667]},"properties":{"id":147328,"name":"Saravak","state_code":"13","country_code":"IR"}},{"type":"Feature","geometry":{"type":"Point","coordinates":[47.96194444,35.42888889]},"properties":{"id":147329,"name":"Sarayjuq","state_code":"13","country_code":"IR"}},{"type":"Feature","geometry":{"type":"Point","coordinates":[48.89222222,35.6125]},"properties":{"id":147330,"name":"Sarijlu","state_code":"13","country_code":"IR"}},{"type":"Feature","geometry":{"type":"Point","coordinates":[48.45055556,34.60166667]},"properties":{"id":147331,"name":"Sarkan","state_code":"13","country_code":"IR"}},{"type":"Feature","geometry":{"type":"Point","coordinates":[48.15361111,34.57361111]},"properties":{"id":147332,"name":"Saziyan","state_code":"13","country_code":"IR"}},{"type":"Feature","geometry":{"type":"Point","coordinates":[48.50805556,34.06972222]},"properties":{"id":147333,"name":"Sefid Khaneh","state_code":"13","country_code":"IR"}},{"type":"Feature","geometry":{"type":"Point","coordinates":[48.10083333,34.58527778]},"properties":{"id":147334,"name":"Segavi","state_code":"13","country_code":"IR"}},{"type":"Feature","geometry":{"type":"Point","coordinates":[48.4386294,34.6007012]},"properties":{"id":151008,"name":"Serkan","state_code":"13","country_code":"IR"}},{"type":"Feature","geometry":{"type":"Point","coordinates":[49.296389,35.045833]},"properties":{"id":147335,"name":"Setaq","state_code":"13","country_code":"IR"}},{"type":"Feature","geometry":{"type":"Point","coordinates":[48.28055556,34.36166667]},"properties":{"id":147336,"name":"Shademaneh","state_code":"13","country_code":"IR"}},{"type":"Feature","geometry":{"type":"Point","coordinates":[48.10416667,34.60888889]},"properties":{"id":147337,"name":"Shanabad","state_code":"13","country_code":"IR"}},{"type":"Feature","geometry":{"type":"Point","coordinates":[49.17638889,35.29722222]},"properties":{"id":147338,"name":"Shanjur","state_code":"13","country_code":"IR"}},{"type":"Feature","geometry":{"type":"Point","coordinates":[48.82583333,34.41222222]},"properties":{"id":147339,"name":"Sharifabad-e Quzan","state_code":"13","country_code":"IR"}},{"type":"Feature","geometry":{"type":"Point","coordinates":[48.63833333,34.26472222]},"properties":{"id":147340,"name":"Sharifabad-e Tajar","state_code":"13","country_code":"IR"}},{"type":"Feature","geometry":{"type":"Point","coordinates":[47.97388889,34.30305556]},"properties":{"id":147341,"name":"Shatzal","state_code":"13","country_code":"IR"}},{"type":"Feature","geometry":{"type":"Point","coordinates":[49.20972222,35.37527778]},"properties":{"id":147342,"name":"Shavand","state_code":"13","country_code":"IR"}},{"type":"Feature","geometry":{"type":"Point","coordinates":[48.57027778,34.8075]},"properties":{"id":147343,"name":"Sheverin","state_code":"13","country_code":"IR"}},{"type":"Feature","geometry":{"type":"Point","coordinates":[48.2225,35.50222222]},"properties":{"id":147344,"name":"Sheykh Jarrah","state_code":"13","country_code":"IR"}},{"type":"Feature","geometry":{"type":"Point","coordinates":[48.16861111,34.6675]},"properties":{"id":147345,"name":"Shilandar-e Sofla","state_code":"13","country_code":"IR"}},{"type":"Feature","geometry":{"type":"Point","coordinates":[48.3825,35.63333333]},"properties":{"id":147346,"name":"Shir Barat","state_code":"13","country_code":"IR"}},{"type":"Feature","geometry":{"type":"Point","coordinates":[48.45055556,35.49277778]},"properties":{"id":147347,"name":"Shirin Su","state_code":"13","country_code":"IR"}},{"type":"Feature","geometry":{"type":"Point","coordinates":[48.63222222,34.35361111]},"properties":{"id":147348,"name":"Shush Ab","state_code":"13","country_code":"IR"}},{"type":"Feature","geometry":{"type":"Point","coordinates":[47.96833333,34.94583333]},"properties":{"id":147349,"name":"Siah Goleh","state_code":"13","country_code":"IR"}},{"type":"Feature","geometry":{"type":"Point","coordinates":[48.78472222,34.21694444]},"properties":{"id":147350,"name":"Sib Dar","state_code":"13","country_code":"IR"}},{"type":"Feature","geometry":{"type":"Point","coordinates":[48.50666667,34.74583333]},"properties":{"id":147351,"name":"Silvar","state_code":"13","country_code":"IR"}},{"type":"Feature","geometry":{"type":"Point","coordinates":[48.585833,34.6825]},"properties":{"id":147352,"name":"Simin-e Abaru","state_code":"13","country_code":"IR"}},{"type":"Feature","geometry":{"type":"Point","coordinates":[48.32166667,34.87666667]},"properties":{"id":147353,"name":"Simin-e Zagheh","state_code":"13","country_code":"IR"}},{"type":"Feature","geometry":{"type":"Point","coordinates":[47.99638889,34.79527778]},"properties":{"id":147354,"name":"Siravand","state_code":"13","country_code":"IR"}},{"type":"Feature","geometry":{"type":"Point","coordinates":[48.32055556,34.66333333]},"properties":{"id":147355,"name":"Sistaneh","state_code":"13","country_code":"IR"}},{"type":"Feature","geometry":{"type":"Point","coordinates":[48.42944444,34.82611111]},"properties":{"id":147356,"name":"Solulan","state_code":"13","country_code":"IR"}},{"type":"Feature","geometry":{"type":"Point","coordinates":[48.42916667,34.0875]},"properties":{"id":147357,"name":"Sorkh Kand","state_code":"13","country_code":"IR"}},{"type":"Feature","geometry":{"type":"Point","coordinates":[48.3344,35.2686]},"properties":{"id":147358,"name":"Sulijeh","state_code":"13","country_code":"IR"}},{"type":"Feature","geometry":{"type":"Point","coordinates":[49.0139,35.5356]},"properties":{"id":147359,"name":"Surtajin","state_code":"13","country_code":"IR"}},{"type":"Feature","geometry":{"type":"Point","coordinates":[48.2775,34.5764]},"properties":{"id":147360,"name":"Sutlaq","state_code":"13","country_code":"IR"}},{"type":"Feature","geometry":{"type":"Point","coordinates":[48.5819,34.7633]},"properties":{"id":147361,"name":"Tafrijan","state_code":"13","country_code":"IR"}},{"type":"Feature","geometry":{"type":"Point","coordinates":[48.8664,34.8386]},"properties":{"id":147362,"name":"Tahunabad","state_code":"13","country_code":"IR"}},{"type":"Feature","geometry":{"type":"Point","coordinates":[48.665,34.2256]},"properties":{"id":147363,"name":"Tajar-e Samen","state_code":"13","country_code":"IR"}},{"type":"Feature","geometry":{"type":"Point","coordinates":[47.8378,34.8122]},"properties":{"id":147364,"name":"Takhtiabad","state_code":"13","country_code":"IR"}},{"type":"Feature","geometry":{"type":"Point","coordinates":[48.8778,34.0458]},"properties":{"id":147365,"name":"Taleh Jerd-e Sofla","state_code":"13","country_code":"IR"}},{"type":"Feature","geometry":{"type":"Point","coordinates":[49.1328,35.2797]},"properties":{"id":147366,"name":"Tamuzan","state_code":"13","country_code":"IR"}},{"type":"Feature","geometry":{"type":"Point","coordinates":[48.0225,34.3367]},"properties":{"id":147367,"name":"Tappeh Yazdan","state_code":"13","country_code":"IR"}},{"type":"Feature","geometry":{"type":"Point","coordinates":[48.6942,35.4292]},"properties":{"id":147368,"name":"Tappeh-ye Dibi","state_code":"13","country_code":"IR"}},{"type":"Feature","geometry":{"type":"Point","coordinates":[48.3711,35.3189]},"properties":{"id":147369,"name":"Taraqayah","state_code":"13","country_code":"IR"}},{"type":"Feature","geometry":{"type":"Point","coordinates":[47.9392,34.2733]},"properties":{"id":147370,"name":"Tarik Darreh-ye Bala","state_code":"13","country_code":"IR"}},{"type":"Feature","geometry":{"type":"Point","coordinates":[48.1225,34.8153]},"properties":{"id":147371,"name":"Tarkhinabad","state_code":"13","country_code":"IR"}},{"type":"Feature","geometry":{"type":"Point","coordinates":[48.4833,35.1639]},"properties":{"id":147372,"name":"Tas Tappeh","state_code":"13","country_code":"IR"}},{"type":"Feature","geometry":{"type":"Point","coordinates":[48.7906,34.5614]},"properties":{"id":147373,"name":"Tasbandi","state_code":"13","country_code":"IR"}},{"type":"Feature","geometry":{"type":"Point","coordinates":[48.6339,35.3383]},"properties":{"id":147374,"name":"Tasran","state_code":"13","country_code":"IR"}},{"type":"Feature","geometry":{"type":"Point","coordinates":[49.0439,35.1544]},"properties":{"id":147375,"name":"Tavaleh","state_code":"13","country_code":"IR"}},{"type":"Feature","geometry":{"type":"Point","coordinates":[48.185833,34.211389]},"properties":{"id":147376,"name":"Tavaneh","state_code":"13","country_code":"IR"}},{"type":"Feature","geometry":{"type":"Point","coordinates":[49.0272,35.1167]},"properties":{"id":147377,"name":"Taveh","state_code":"13","country_code":"IR"}},{"type":"Feature","geometry":{"type":"Point","coordinates":[47.8694,34.7994]},"properties":{"id":147378,"name":"Tavilan-e Sofla","state_code":"13","country_code":"IR"}},{"type":"Feature","geometry":{"type":"Point","coordinates":[48.3153,34.0978]},"properties":{"id":147379,"name":"Tazehnab-e Sofla","state_code":"13","country_code":"IR"}},{"type":"Feature","geometry":{"type":"Point","coordinates":[48.1736,34.6319]},"properties":{"id":147380,"name":"Termianak","state_code":"13","country_code":"IR"}},{"type":"Feature","geometry":{"type":"Point","coordinates":[48.3414,34.6903]},"properties":{"id":147381,"name":"Timi Jan","state_code":"13","country_code":"IR"}},{"type":"Feature","geometry":{"type":"Point","coordinates":[48.715,34.2997]},"properties":{"id":147382,"name":"Tuchaqaz","state_code":"13","country_code":"IR"}},{"type":"Feature","geometry":{"type":"Point","coordinates":[48.9578,35.4953]},"properties":{"id":147383,"name":"Tulki Tappeh","state_code":"13","country_code":"IR"}},{"type":"Feature","geometry":{"type":"Point","coordinates":[48.99,34.25]},"properties":{"id":147384,"name":"Tusk-e Sofla","state_code":"13","country_code":"IR"}},{"type":"Feature","geometry":{"type":"Point","coordinates":[49.0214,34.515]},"properties":{"id":147385,"name":"Tutal","state_code":"13","country_code":"IR"}},{"type":"Feature","geometry":{"type":"Point","coordinates":[48.44666667,34.54805556]},"properties":{"id":147386,"name":"Tuyserkan","state_code":"13","country_code":"IR"}},{"type":"Feature","geometry":{"type":"Point","coordinates":[48.3842,34.8103]},"properties":{"id":147387,"name":"Vafr-e Jin","state_code":"13","country_code":"IR"}},{"type":"Feature","geometry":{"type":"Point","coordinates":[49.0475,35.5094]},"properties":{"id":147388,"name":"Vahandeh","state_code":"13","country_code":"IR"}},{"type":"Feature","geometry":{"type":"Point","coordinates":[48.2708,34.2608]},"properties":{"id":147389,"name":"Vahman","state_code":"13","country_code":"IR"}},{"type":"Feature","geometry":{"type":"Point","coordinates":[48.2886,34.79]},"properties":{"id":147390,"name":"Vahnan","state_code":"13","country_code":"IR"}},{"type":"Feature","geometry":{"type":"Point","coordinates":[48.3806,35.1519]},"properties":{"id":147391,"name":"Vali Mohammad","state_code":"13","country_code":"IR"}},{"type":"Feature","geometry":{"type":"Point","coordinates":[48.1894,34.2328]},"properties":{"id":147392,"name":"Vali Sir Ab","state_code":"13","country_code":"IR"}},{"type":"Feature","geometry":{"type":"Point","coordinates":[48.0789,34.6697]},"properties":{"id":147393,"name":"Vandarabad","state_code":"13","country_code":"IR"}},{"type":"Feature","geometry":{"type":"Point","coordinates":[48.4056,34.0792]},"properties":{"id":147394,"name":"Varayeneh","state_code":"13","country_code":"IR"}},{"type":"Feature","geometry":{"type":"Point","coordinates":[48.1861,34.1864]},"properties":{"id":147395,"name":"Varazaneh","state_code":"13","country_code":"IR"}},{"type":"Feature","geometry":{"type":"Point","coordinates":[48.8978,34.3717]},"properties":{"id":147396,"name":"Varchaq","state_code":"13","country_code":"IR"}},{"type":"Feature","geometry":{"type":"Point","coordinates":[48.2939,34.7003]},"properties":{"id":147397,"name":"Vardavard-e Sofla","state_code":"13","country_code":"IR"}},{"type":"Feature","geometry":{"type":"Point","coordinates":[48.3017,34.7044]},"properties":{"id":147398,"name":"Vardavard-e Vosta","state_code":"13","country_code":"IR"}},{"type":"Feature","geometry":{"type":"Point","coordinates":[48.6192,34.6769]},"properties":{"id":147399,"name":"Varkaneh","state_code":"13","country_code":"IR"}},{"type":"Feature","geometry":{"type":"Point","coordinates":[49.0092,35.3964]},"properties":{"id":147400,"name":"Varqestan","state_code":"13","country_code":"IR"}},{"type":"Feature","geometry":{"type":"Point","coordinates":[48.9606,35.3658]},"properties":{"id":147401,"name":"Varvazin","state_code":"13","country_code":"IR"}},{"type":"Feature","geometry":{"type":"Point","coordinates":[48.2258,34.3206]},"properties":{"id":147402,"name":"Vasaj","state_code":"13","country_code":"IR"}},{"type":"Feature","geometry":{"type":"Point","coordinates":[48.3517,35.2317]},"properties":{"id":147403,"name":"Vashur","state_code":"13","country_code":"IR"}},{"type":"Feature","geometry":{"type":"Point","coordinates":[48.3464,35.2128]},"properties":{"id":147404,"name":"Vasleh","state_code":"13","country_code":"IR"}},{"type":"Feature","geometry":{"type":"Point","coordinates":[48.4683,34.1386]},"properties":{"id":147405,"name":"Vesht","state_code":"13","country_code":"IR"}},{"type":"Feature","geometry":{"type":"Point","coordinates":[49.3125,34.9581]},"properties":{"id":147406,"name":"Vezendan","state_code":"13","country_code":"IR"}},{"type":"Feature","geometry":{"type":"Point","coordinates":[48.6111,34.7364]},"properties":{"id":147407,"name":"Yalfan","state_code":"13","country_code":"IR"}},{"type":"Feature","geometry":{"type":"Point","coordinates":[49.3817,35.0689]},"properties":{"id":147408,"name":"Yarom Qayah","state_code":"13","country_code":"IR"}},{"type":"Feature","geometry":{"type":"Point","coordinates":[48.6764,35.5175]},"properties":{"id":147409,"name":"Yaromjeh Bagh","state_code":"13","country_code":"IR"}},{"type":"Feature","geometry":{"type":"Point","coordinates":[48.6378,34.8072]},"properties":{"id":147410,"name":"Yeganeh","state_code":"13","country_code":"IR"}},{"type":"Feature","geometry":{"type":"Point","coordinates":[48.4542,34.8736]},"properties":{"id":147411,"name":"Yekanabad","state_code":"13","country_code":"IR"}},{"type":"Feature","geometry":{"type":"Point","coordinates":[49.006667,34.877778]},"properties":{"id":147412,"name":"Yekleh","state_code":"13","country_code":"IR"}},{"type":"Feature","geometry":{"type":"Point","coordinates":[48.7836,35.0611]},"properties":{"id":147413,"name":"Yeserlu","state_code":"13","country_code":"IR"}},{"type":"Feature","geometry":{"type":"Point","coordinates":[48.6733,34.1586]},"properties":{"id":147414,"name":"Yunes","state_code":"13","country_code":"IR"}},{"type":"Feature","geometry":{"type":"Point","coordinates":[48.7817,34.3586]},"properties":{"id":147415,"name":"Yunji","state_code":"13","country_code":"IR"}},{"type":"Feature","geometry":{"type":"Point","coordinates":[48.5542,34.1478]},"properties":{"id":147416,"name":"Zagheh-ye Anuch","state_code":"13","country_code":"IR"}},{"type":"Feature","geometry":{"type":"Point","coordinates":[48.8111,34.6036]},"properties":{"id":147417,"name":"Zagheh-ye Tasbandi","state_code":"13","country_code":"IR"}},{"type":"Feature","geometry":{"type":"Point","coordinates":[49.3758,35.1528]},"properties":{"id":147418,"name":"Zaghlijeh","state_code":"13","country_code":"IR"}},{"type":"Feature","geometry":{"type":"Point","coordinates":[48.6422,34.4125]},"properties":{"id":147419,"name":"Zamanabad-e Mohammadabad","state_code":"13","country_code":"IR"}},{"type":"Feature","geometry":{"type":"Point","coordinates":[49.0036905,34.1542717]},"properties":{"id":151013,"name":"Zangeneh","state_code":"13","country_code":"IR"}},{"type":"Feature","geometry":{"type":"Point","coordinates":[49.0167,34.1467]},"properties":{"id":147420,"name":"Zangeneh-ye Sofla","state_code":"13","country_code":"IR"}},{"type":"Feature","geometry":{"type":"Point","coordinates":[48.1894,34.3839]},"properties":{"id":147421,"name":"Zapon","state_code":"13","country_code":"IR"}},{"type":"Feature","geometry":{"type":"Point","coordinates":[48.3,34.1936]},"properties":{"id":147422,"name":"Zaramin-e Sofla","state_code":"13","country_code":"IR"}},{"type":"Feature","geometry":{"type":"Point","coordinates":[48.0519,34.2947]},"properties":{"id":147423,"name":"Zarrin Bagh","state_code":"13","country_code":"IR"}},{"type":"Feature","geometry":{"type":"Point","coordinates":[49.1694,35.0714]},"properties":{"id":147424,"name":"Zeraq","state_code":"13","country_code":"IR"}},{"type":"Feature","geometry":{"type":"Point","coordinates":[48.6169,34.4133]},"properties":{"id":147425,"name":"Zirabiyeh","state_code":"13","country_code":"IR"}}]}