{"type":"FeatureCollection","features":[{"type":"Feature","geometry":{"type":"Point","coordinates":[48.5448289,38.28362]},"properties":{"id":150198,"name":"Abibeiglou","state_code":"24","country_code":"IR"}},{"type":"Feature","geometry":{"type":"Point","coordinates":[48.4176776,38.4884344]},"properties":{"id":150199,"name":"Anbaran","state_code":"24","country_code":"IR"}},{"type":"Feature","geometry":{"type":"Point","coordinates":[48.2933,38.2498]},"properties":{"id":134568,"name":"Ardabil","state_code":"24","country_code":"IR"}},{"type":"Feature","geometry":{"type":"Point","coordinates":[47.4004269,39.4429868]},"properties":{"id":150187,"name":"Aslan Duz","state_code":"24","country_code":"IR"}},{"type":"Feature","geometry":{"type":"Point","coordinates":[48.35463,39.37961]},"properties":{"id":134602,"name":"Bileh Savar","state_code":"24","country_code":"IR"}},{"type":"Feature","geometry":{"type":"Point","coordinates":[47.939186,38.1311048]},"properties":{"id":150186,"name":"Eslāmābād","state_code":"24","country_code":"IR"}},{"type":"Feature","geometry":{"type":"Point","coordinates":[47.8533983,38.5226014]},"properties":{"id":150194,"name":"Fakhrabad","state_code":"24","country_code":"IR"}},{"type":"Feature","geometry":{"type":"Point","coordinates":[47.95,39]},"properties":{"id":134882,"name":"Germi","state_code":"24","country_code":"IR"}},{"type":"Feature","geometry":{"type":"Point","coordinates":[48.3133328,37.3698087]},"properties":{"id":150190,"name":"Hashjin","state_code":"24","country_code":"IR"}},{"type":"Feature","geometry":{"type":"Point","coordinates":[48.4894036,38.0795304]},"properties":{"id":150184,"name":"Hir","state_code":"24","country_code":"IR"}},{"type":"Feature","geometry":{"type":"Point","coordinates":[48.0788893,39.4221316]},"properties":{"id":150185,"name":"Jafarabad","state_code":"24","country_code":"IR"}},{"type":"Feature","geometry":{"type":"Point","coordinates":[48.54466,37.40604]},"properties":{"id":134911,"name":"Khalkhal","state_code":"24","country_code":"IR"}},{"type":"Feature","geometry":{"type":"Point","coordinates":[48.320757,37.6931231]},"properties":{"id":150192,"name":"Kivi","state_code":"24","country_code":"IR"}},{"type":"Feature","geometry":{"type":"Point","coordinates":[48.7166833,37.3884859]},"properties":{"id":150189,"name":"Kolor","state_code":"24","country_code":"IR"}},{"type":"Feature","geometry":{"type":"Point","coordinates":[48.26985,37.72142]},"properties":{"id":134932,"name":"Kowsar","state_code":"24","country_code":"IR"}},{"type":"Feature","geometry":{"type":"Point","coordinates":[48.235556,37.955]},"properties":{"id":150200,"name":"Kuraim","state_code":"24","country_code":"IR"}},{"type":"Feature","geometry":{"type":"Point","coordinates":[47.8221237,38.5080193]},"properties":{"id":150196,"name":"Lahroud","state_code":"24","country_code":"IR"}},{"type":"Feature","geometry":{"type":"Point","coordinates":[47.75,38.43333]},"properties":{"id":134964,"name":"Meshgin Shahr","state_code":"24","country_code":"IR"}},{"type":"Feature","geometry":{"type":"Point","coordinates":[47.7401662,38.748]},"properties":{"id":150197,"name":"Moradlu","state_code":"24","country_code":"IR"}},{"type":"Feature","geometry":{"type":"Point","coordinates":[48.51667,38.38333]},"properties":{"id":134976,"name":"Namin","state_code":"24","country_code":"IR"}},{"type":"Feature","geometry":{"type":"Point","coordinates":[48.08333,38]},"properties":{"id":134986,"name":"Nir","state_code":"24","country_code":"IR"}},{"type":"Feature","geometry":{"type":"Point","coordinates":[48.14139,38.28667]},"properties":{"id":134722,"name":"Omidcheh","state_code":"24","country_code":"IR"}},{"type":"Feature","geometry":{"type":"Point","coordinates":[47.9174,39.6482]},"properties":{"id":134731,"name":"Parsabad","state_code":"24","country_code":"IR"}},{"type":"Feature","geometry":{"type":"Point","coordinates":[47.5382923,38.387813]},"properties":{"id":150195,"name":"Qasabeh","state_code":"24","country_code":"IR"}},{"type":"Feature","geometry":{"type":"Point","coordinates":[48.0828667,38.624866]},"properties":{"id":150193,"name":"Razi","state_code":"24","country_code":"IR"}},{"type":"Feature","geometry":{"type":"Point","coordinates":[48.0571602,38.1464347]},"properties":{"id":150191,"name":"Sarein","state_code":"24","country_code":"IR"}},{"type":"Feature","geometry":{"type":"Point","coordinates":[47.98333,38.18333]},"properties":{"id":135031,"name":"Sareyn","state_code":"24","country_code":"IR"}},{"type":"Feature","geometry":{"type":"Point","coordinates":[44.8990201,39.1045042]},"properties":{"id":150188,"name":"Tazakand","state_code":"24","country_code":"IR"}}]}