{"type":"FeatureCollection","features":[{"type":"Feature","geometry":{"type":"Point","coordinates":[59.2293441,33.3314692]},"properties":{"id":150432,"name":"Arian Shahr","state_code":"29","country_code":"IR"}},{"type":"Feature","geometry":{"type":"Point","coordinates":[60.0149845,32.9138907]},"properties":{"id":150418,"name":"Asadieh","state_code":"29","country_code":"IR"}},{"type":"Feature","geometry":{"type":"Point","coordinates":[58.3690309,33.8866669]},"properties":{"id":150424,"name":"Ayask","state_code":"29","country_code":"IR"}},{"type":"Feature","geometry":{"type":"Point","coordinates":[59.07223,33.00669]},"properties":{"id":134828,"name":"Birjand","state_code":"29","country_code":"IR"}},{"type":"Feature","geometry":{"type":"Point","coordinates":[57.4053239,33.8637127]},"properties":{"id":150416,"name":"Boshrouyeh","state_code":"29","country_code":"IR"}},{"type":"Feature","geometry":{"type":"Point","coordinates":[57.41667,34.16667]},"properties":{"id":134592,"name":"Boshruyeh","state_code":"29","country_code":"IR"}},{"type":"Feature","geometry":{"type":"Point","coordinates":[60.16667,32.95]},"properties":{"id":134842,"name":"Darmian","state_code":"29","country_code":"IR"}},{"type":"Feature","geometry":{"type":"Point","coordinates":[57.5043725,33.2929958]},"properties":{"id":150428,"name":"Deyhuk","state_code":"29","country_code":"IR"}},{"type":"Feature","geometry":{"type":"Point","coordinates":[57.3625158,33.7028487]},"properties":{"id":150415,"name":"Eresk","state_code":"29","country_code":"IR"}},{"type":"Feature","geometry":{"type":"Point","coordinates":[59.7709894,33.6461168]},"properties":{"id":150433,"name":"Esfedan","state_code":"29","country_code":"IR"}},{"type":"Feature","geometry":{"type":"Point","coordinates":[56.931111,34.366944]},"properties":{"id":150429,"name":"Eshqabad","state_code":"29","country_code":"IR"}},{"type":"Feature","geometry":{"type":"Point","coordinates":[58.220278,34.045556]},"properties":{"id":150430,"name":"Eslamiyeh","state_code":"29","country_code":"IR"}},{"type":"Feature","geometry":{"type":"Point","coordinates":[58.1541107,34.0194028]},"properties":{"id":150431,"name":"Ferdows","state_code":"29","country_code":"IR"}},{"type":"Feature","geometry":{"type":"Point","coordinates":[60.2117842,32.9999182]},"properties":{"id":150421,"name":"Gazik","state_code":"29","country_code":"IR"}},{"type":"Feature","geometry":{"type":"Point","coordinates":[59.1432231,33.7248254]},"properties":{"id":150435,"name":"Ghayen","state_code":"29","country_code":"IR"}},{"type":"Feature","geometry":{"type":"Point","coordinates":[59.6968745,33.151832]},"properties":{"id":150420,"name":"Ghohestan","state_code":"29","country_code":"IR"}},{"type":"Feature","geometry":{"type":"Point","coordinates":[59.9903727,33.6032707]},"properties":{"id":150422,"name":"Hajiabad","state_code":"29","country_code":"IR"}},{"type":"Feature","geometry":{"type":"Point","coordinates":[58.8077974,34.0211]},"properties":{"id":150434,"name":"Khezri Dashtebayaz","state_code":"29","country_code":"IR"}},{"type":"Feature","geometry":{"type":"Point","coordinates":[58.76667,32.18333]},"properties":{"id":134927,"name":"Khusf","state_code":"29","country_code":"IR"}},{"type":"Feature","geometry":{"type":"Point","coordinates":[50.8722777,35.7447593]},"properties":{"id":150417,"name":"Mohammad Shahr","state_code":"29","country_code":"IR"}},{"type":"Feature","geometry":{"type":"Point","coordinates":[59.5168012,32.7089063]},"properties":{"id":150427,"name":"Mud","state_code":"29","country_code":"IR"}},{"type":"Feature","geometry":{"type":"Point","coordinates":[59.81667,31.56667]},"properties":{"id":134980,"name":"Nehbandan","state_code":"29","country_code":"IR"}},{"type":"Feature","geometry":{"type":"Point","coordinates":[58.923626,33.9116942]},"properties":{"id":150436,"name":"Nimbolook","state_code":"29","country_code":"IR"}},{"type":"Feature","geometry":{"type":"Point","coordinates":[59.18439,33.72654]},"properties":{"id":134746,"name":"Qaen","state_code":"29","country_code":"IR"}},{"type":"Feature","geometry":{"type":"Point","coordinates":[58.31667,33.41667]},"properties":{"id":135030,"name":"Sarayan","state_code":"29","country_code":"IR"}},{"type":"Feature","geometry":{"type":"Point","coordinates":[59.4876362,32.4908181]},"properties":{"id":150426,"name":"Sarbishe","state_code":"29","country_code":"IR"}},{"type":"Feature","geometry":{"type":"Point","coordinates":[60.08333,32.4]},"properties":{"id":135024,"name":"Sarbisheh","state_code":"29","country_code":"IR"}},{"type":"Feature","geometry":{"type":"Point","coordinates":[58.3983062,33.6605271]},"properties":{"id":150425,"name":"Seh Qaleh","state_code":"29","country_code":"IR"}},{"type":"Feature","geometry":{"type":"Point","coordinates":[59.9981617,31.8055726]},"properties":{"id":150437,"name":"Shusf","state_code":"29","country_code":"IR"}},{"type":"Feature","geometry":{"type":"Point","coordinates":[60.22146,32.80304]},"properties":{"id":135124,"name":"Tabas","state_code":"29","country_code":"IR"}},{"type":"Feature","geometry":{"type":"Point","coordinates":[60.2150344,32.8077099]},"properties":{"id":150419,"name":"Tabas Masina","state_code":"29","country_code":"IR"}},{"type":"Feature","geometry":{"type":"Point","coordinates":[60.3,33.58333]},"properties":{"id":135077,"name":"Zirkuh","state_code":"29","country_code":"IR"}},{"type":"Feature","geometry":{"type":"Point","coordinates":[59.8072744,33.4233197]},"properties":{"id":150423,"name":"Zohaan","state_code":"29","country_code":"IR"}}]}