{"type":"FeatureCollection","features":[{"type":"Feature","geometry":{"type":"Point","coordinates":[-17.37352,65.72159]},"properties":{"id":135199,"name":"Laugar","state_code":"THG","country_code":"IS"}},{"type":"Feature","geometry":{"type":"Point","coordinates":[-16.7789,65.17177]},"properties":{"id":135217,"name":"Skútustaðahreppur","state_code":"THG","country_code":"IS"}},{"type":"Feature","geometry":{"type":"Point","coordinates":[-17.59927,65.37229]},"properties":{"id":135233,"name":"Þingeyjarsveit","state_code":"THG","country_code":"IS"}}]}