{"type":"FeatureCollection","features":[{"type":"Feature","geometry":{"type":"Point","coordinates":[11.60291,43.41465]},"properties":{"id":135466,"name":"Ambra","state_code":"AR","country_code":"IT"}},{"type":"Feature","geometry":{"type":"Point","coordinates":[12.05832,43.54104]},"properties":{"id":135497,"name":"Anghiari","state_code":"AR","country_code":"IT"}},{"type":"Feature","geometry":{"type":"Point","coordinates":[11.88068,43.46276]},"properties":{"id":135590,"name":"Arezzo","state_code":"AR","country_code":"IT"}},{"type":"Feature","geometry":{"type":"Point","coordinates":[11.77228,43.40424]},"properties":{"id":135739,"name":"Badia al Pino","state_code":"AR","country_code":"IT"}},{"type":"Feature","geometry":{"type":"Point","coordinates":[12.18425,43.70887]},"properties":{"id":135738,"name":"Badia Tedalda","state_code":"AR","country_code":"IT"}},{"type":"Feature","geometry":{"type":"Point","coordinates":[11.8,43.45]},"properties":{"id":135907,"name":"Battifolle-Ruscello-Poggiola","state_code":"AR","country_code":"IT"}},{"type":"Feature","geometry":{"type":"Point","coordinates":[11.81474,43.69876]},"properties":{"id":136039,"name":"Bibbiena","state_code":"AR","country_code":"IT"}},{"type":"Feature","geometry":{"type":"Point","coordinates":[11.61399,43.47685]},"properties":{"id":136389,"name":"Bucine","state_code":"AR","country_code":"IT"}},{"type":"Feature","geometry":{"type":"Point","coordinates":[11.97114,43.25926]},"properties":{"id":136684,"name":"Camucia-Monsigliolo","state_code":"AR","country_code":"IT"}},{"type":"Feature","geometry":{"type":"Point","coordinates":[11.86374,43.56685]},"properties":{"id":136784,"name":"Capolona","state_code":"AR","country_code":"IT"}},{"type":"Feature","geometry":{"type":"Point","coordinates":[11.98546,43.64031]},"properties":{"id":136807,"name":"Caprese Michelangelo","state_code":"AR","country_code":"IT"}},{"type":"Feature","geometry":{"type":"Point","coordinates":[11.70913,43.74445]},"properties":{"id":137153,"name":"Castel San Niccolò","state_code":"AR","country_code":"IT"}},{"type":"Feature","geometry":{"type":"Point","coordinates":[11.55885,43.62156]},"properties":{"id":137199,"name":"Castelfranco di Sopra","state_code":"AR","country_code":"IT"}},{"type":"Feature","geometry":{"type":"Point","coordinates":[11.45234,43.54093]},"properties":{"id":137296,"name":"Castelnuovo dei Sabbioni","state_code":"AR","country_code":"IT"}},{"type":"Feature","geometry":{"type":"Point","coordinates":[11.76151,43.52742]},"properties":{"id":137336,"name":"Castiglion Fibocchi","state_code":"AR","country_code":"IT"}},{"type":"Feature","geometry":{"type":"Point","coordinates":[11.91995,43.34308]},"properties":{"id":137337,"name":"Castiglion Fiorentino","state_code":"AR","country_code":"IT"}},{"type":"Feature","geometry":{"type":"Point","coordinates":[11.48693,43.52025]},"properties":{"id":137444,"name":"Cavriglia-Monastero","state_code":"AR","country_code":"IT"}},{"type":"Feature","geometry":{"type":"Point","coordinates":[11.81262,43.31624]},"properties":{"id":137601,"name":"Cesa","state_code":"AR","country_code":"IT"}},{"type":"Feature","geometry":{"type":"Point","coordinates":[11.89134,43.51251]},"properties":{"id":137656,"name":"Chiassa-Tregozzano","state_code":"AR","country_code":"IT"}},{"type":"Feature","geometry":{"type":"Point","coordinates":[11.88135,43.66163]},"properties":{"id":137681,"name":"Chitignano","state_code":"AR","country_code":"IT"}},{"type":"Feature","geometry":{"type":"Point","coordinates":[11.93504,43.69745]},"properties":{"id":137698,"name":"Chiusi della Verna","state_code":"AR","country_code":"IT"}},{"type":"Feature","geometry":{"type":"Point","coordinates":[11.7229,43.41731]},"properties":{"id":137804,"name":"Civitella in Val di Chiana","state_code":"AR","country_code":"IT"}},{"type":"Feature","geometry":{"type":"Point","coordinates":[11.98533,43.27467]},"properties":{"id":138071,"name":"Cortona","state_code":"AR","country_code":"IT"}},{"type":"Feature","geometry":{"type":"Point","coordinates":[11.51844,43.62652]},"properties":{"id":138402,"name":"Faella","state_code":"AR","country_code":"IT"}},{"type":"Feature","geometry":{"type":"Point","coordinates":[11.81647,43.25318]},"properties":{"id":138578,"name":"Foiano della Chiana","state_code":"AR","country_code":"IT"}},{"type":"Feature","geometry":{"type":"Point","coordinates":[11.86558,43.52634]},"properties":{"id":138978,"name":"Giovi-Ponte alla Chiassa","state_code":"AR","country_code":"IT"}},{"type":"Feature","geometry":{"type":"Point","coordinates":[11.62033,43.73725]},"properties":{"id":139298,"name":"La Pieve-Molino","state_code":"AR","country_code":"IT"}},{"type":"Feature","geometry":{"type":"Point","coordinates":[11.71737,43.50193]},"properties":{"id":139387,"name":"Laterina","state_code":"AR","country_code":"IT"}},{"type":"Feature","geometry":{"type":"Point","coordinates":[11.62885,43.58827]},"properties":{"id":139613,"name":"Loro Ciuffenna","state_code":"AR","country_code":"IT"}},{"type":"Feature","geometry":{"type":"Point","coordinates":[11.74599,43.27259]},"properties":{"id":139632,"name":"Lucignano","state_code":"AR","country_code":"IT"}},{"type":"Feature","geometry":{"type":"Point","coordinates":[11.79171,43.30651]},"properties":{"id":139848,"name":"Marciano","state_code":"AR","country_code":"IT"}},{"type":"Feature","geometry":{"type":"Point","coordinates":[11.78644,43.30494]},"properties":{"id":139849,"name":"Marciano della Chiana","state_code":"AR","country_code":"IT"}},{"type":"Feature","geometry":{"type":"Point","coordinates":[11.6638,43.49912]},"properties":{"id":140330,"name":"Montalto","state_code":"AR","country_code":"IT"}},{"type":"Feature","geometry":{"type":"Point","coordinates":[11.72663,43.33213]},"properties":{"id":140377,"name":"Monte San Savino","state_code":"AR","country_code":"IT"}},{"type":"Feature","geometry":{"type":"Point","coordinates":[11.61883,43.73985]},"properties":{"id":140493,"name":"Montemignaio","state_code":"AR","country_code":"IT"}},{"type":"Feature","geometry":{"type":"Point","coordinates":[12.11054,43.48733]},"properties":{"id":140513,"name":"Monterchi","state_code":"AR","country_code":"IT"}},{"type":"Feature","geometry":{"type":"Point","coordinates":[11.57238,43.5252]},"properties":{"id":140547,"name":"Montevarchi","state_code":"AR","country_code":"IT"}},{"type":"Feature","geometry":{"type":"Point","coordinates":[11.74883,43.67995]},"properties":{"id":140985,"name":"Ortignano Raggiolo","state_code":"AR","country_code":"IT"}},{"type":"Feature","geometry":{"type":"Point","coordinates":[11.68552,43.47028]},"properties":{"id":58422,"name":"Pergine Valdarno","state_code":"AR","country_code":"IT"}},{"type":"Feature","geometry":{"type":"Point","coordinates":[11.54523,43.64195]},"properties":{"id":58510,"name":"Pian di Scò","state_code":"AR","country_code":"IT"}},{"type":"Feature","geometry":{"type":"Point","coordinates":[11.79686,43.40761]},"properties":{"id":58644,"name":"Pieve al Toppo","state_code":"AR","country_code":"IT"}},{"type":"Feature","geometry":{"type":"Point","coordinates":[12.04124,43.67145]},"properties":{"id":58639,"name":"Pieve Santo Stefano","state_code":"AR","country_code":"IT"}},{"type":"Feature","geometry":{"type":"Point","coordinates":[11.76663,43.73171]},"properties":{"id":58851,"name":"Ponte a Poppi","state_code":"AR","country_code":"IT"}},{"type":"Feature","geometry":{"type":"Point","coordinates":[11.71622,43.48012]},"properties":{"id":58886,"name":"Ponticino","state_code":"AR","country_code":"IT"}},{"type":"Feature","geometry":{"type":"Point","coordinates":[11.76642,43.72123]},"properties":{"id":58901,"name":"Poppi","state_code":"AR","country_code":"IT"}},{"type":"Feature","geometry":{"type":"Point","coordinates":[11.80531,43.48071]},"properties":{"id":59018,"name":"Pratantico-Indicatore","state_code":"AR","country_code":"IT"}},{"type":"Feature","geometry":{"type":"Point","coordinates":[11.72353,43.78685]},"properties":{"id":59036,"name":"Pratovecchio","state_code":"AR","country_code":"IT"}},{"type":"Feature","geometry":{"type":"Point","coordinates":[11.83333,43.53333]},"properties":{"id":59100,"name":"Province of Arezzo","state_code":"AR","country_code":"IT"}},{"type":"Feature","geometry":{"type":"Point","coordinates":[11.82742,43.49859]},"properties":{"id":59218,"name":"Quarata","state_code":"AR","country_code":"IT"}},{"type":"Feature","geometry":{"type":"Point","coordinates":[11.83632,43.64737]},"properties":{"id":59290,"name":"Rassina","state_code":"AR","country_code":"IT"}},{"type":"Feature","geometry":{"type":"Point","coordinates":[11.48467,43.56863]},"properties":{"id":59872,"name":"San Cipriano-S.Barbara-Centinale","state_code":"AR","country_code":"IT"}},{"type":"Feature","geometry":{"type":"Point","coordinates":[11.52987,43.56757]},"properties":{"id":59990,"name":"San Giovanni Valdarno","state_code":"AR","country_code":"IT"}},{"type":"Feature","geometry":{"type":"Point","coordinates":[11.70497,43.55269]},"properties":{"id":60016,"name":"San Giustino Valdarno","state_code":"AR","country_code":"IT"}},{"type":"Feature","geometry":{"type":"Point","coordinates":[12.13858,43.57258]},"properties":{"id":60313,"name":"Sansepolcro","state_code":"AR","country_code":"IT"}},{"type":"Feature","geometry":{"type":"Point","coordinates":[12.29785,43.70966]},"properties":{"id":60793,"name":"Sestino","state_code":"AR","country_code":"IT"}},{"type":"Feature","geometry":{"type":"Point","coordinates":[11.81096,43.72821]},"properties":{"id":60894,"name":"Soci","state_code":"AR","country_code":"IT"}},{"type":"Feature","geometry":{"type":"Point","coordinates":[11.70894,43.79877]},"properties":{"id":61069,"name":"Stia","state_code":"AR","country_code":"IT"}},{"type":"Feature","geometry":{"type":"Point","coordinates":[11.71007,43.74452]},"properties":{"id":61083,"name":"Strada","state_code":"AR","country_code":"IT"}},{"type":"Feature","geometry":{"type":"Point","coordinates":[11.8714,43.57815]},"properties":{"id":61108,"name":"Subbiano","state_code":"AR","country_code":"IT"}},{"type":"Feature","geometry":{"type":"Point","coordinates":[11.78714,43.60185]},"properties":{"id":61155,"name":"Talla","state_code":"AR","country_code":"IT"}},{"type":"Feature","geometry":{"type":"Point","coordinates":[11.7853,43.39458]},"properties":{"id":61204,"name":"Tegoleto","state_code":"AR","country_code":"IT"}},{"type":"Feature","geometry":{"type":"Point","coordinates":[11.58075,43.55081]},"properties":{"id":61243,"name":"Terranuova Bracciolini","state_code":"AR","country_code":"IT"}},{"type":"Feature","geometry":{"type":"Point","coordinates":[11.50131,43.56099]},"properties":{"id":61623,"name":"Vacchereccia","state_code":"AR","country_code":"IT"}},{"type":"Feature","geometry":{"type":"Point","coordinates":[11.77323,43.43218]},"properties":{"id":61915,"name":"Viciomaggio","state_code":"AR","country_code":"IT"}}]}