{"type":"FeatureCollection","features":[{"type":"Feature","geometry":{"type":"Point","coordinates":[8.46934,44.67552]},"properties":{"id":135283,"name":"Acqui Terme","state_code":"AL","country_code":"IT"}},{"type":"Feature","geometry":{"type":"Point","coordinates":[9.0672,44.70159]},"properties":{"id":135363,"name":"Albera Ligure","state_code":"AL","country_code":"IT"}},{"type":"Feature","geometry":{"type":"Point","coordinates":[8.61007,44.90924]},"properties":{"id":135394,"name":"Alessandria","state_code":"AL","country_code":"IT"}},{"type":"Feature","geometry":{"type":"Point","coordinates":[8.2073,45.0486]},"properties":{"id":135402,"name":"Alfiano Natta","state_code":"AL","country_code":"IT"}},{"type":"Feature","geometry":{"type":"Point","coordinates":[8.45074,44.72605]},"properties":{"id":135408,"name":"Alice Bel Colle","state_code":"AL","country_code":"IT"}},{"type":"Feature","geometry":{"type":"Point","coordinates":[8.37594,44.99355]},"properties":{"id":135434,"name":"Altavilla Monferrato","state_code":"AL","country_code":"IT"}},{"type":"Feature","geometry":{"type":"Point","coordinates":[8.88065,45.01806]},"properties":{"id":135451,"name":"Alzano Scrivia","state_code":"AL","country_code":"IT"}},{"type":"Feature","geometry":{"type":"Point","coordinates":[8.88682,44.6883]},"properties":{"id":135630,"name":"Arquata Scrivia","state_code":"AL","country_code":"IT"}},{"type":"Feature","geometry":{"type":"Point","coordinates":[8.96545,44.80315]},"properties":{"id":135714,"name":"Avolasca","state_code":"AL","country_code":"IT"}},{"type":"Feature","geometry":{"type":"Point","coordinates":[8.40277,45.18358]},"properties":{"id":135799,"name":"Balzola","state_code":"AL","country_code":"IT"}},{"type":"Feature","geometry":{"type":"Point","coordinates":[8.70485,44.76885]},"properties":{"id":135878,"name":"Basaluzzo","state_code":"AL","country_code":"IT"}},{"type":"Feature","geometry":{"type":"Point","coordinates":[8.73291,45.0011]},"properties":{"id":135896,"name":"Bassignana","state_code":"AL","country_code":"IT"}},{"type":"Feature","geometry":{"type":"Point","coordinates":[8.66125,44.62505]},"properties":{"id":135930,"name":"Belforte Monferrato","state_code":"AL","country_code":"IT"}},{"type":"Feature","geometry":{"type":"Point","coordinates":[8.45474,44.82725]},"properties":{"id":135986,"name":"Bergamasco","state_code":"AL","country_code":"IT"}},{"type":"Feature","geometry":{"type":"Point","coordinates":[8.95108,44.87666]},"properties":{"id":136005,"name":"Berzano di Tortona","state_code":"AL","country_code":"IT"}},{"type":"Feature","geometry":{"type":"Point","coordinates":[8.37163,44.66059]},"properties":{"id":136065,"name":"Bistagno","state_code":"AL","country_code":"IT"}},{"type":"Feature","geometry":{"type":"Point","coordinates":[8.94346,44.72945]},"properties":{"id":136162,"name":"Borghetto di Borbera","state_code":"AL","country_code":"IT"}},{"type":"Feature","geometry":{"type":"Point","coordinates":[8.52373,45.09259]},"properties":{"id":136185,"name":"Borgo San Martino","state_code":"AL","country_code":"IT"}},{"type":"Feature","geometry":{"type":"Point","coordinates":[8.53854,44.83625]},"properties":{"id":136213,"name":"Borgoratto Alessandrino","state_code":"AL","country_code":"IT"}},{"type":"Feature","geometry":{"type":"Point","coordinates":[8.68008,44.82373]},"properties":{"id":136243,"name":"Bosco Marengo","state_code":"AL","country_code":"IT"}},{"type":"Feature","geometry":{"type":"Point","coordinates":[8.79285,44.64975]},"properties":{"id":136251,"name":"Bosio","state_code":"AL","country_code":"IT"}},{"type":"Feature","geometry":{"type":"Point","coordinates":[8.60561,45.06934]},"properties":{"id":136276,"name":"Bozzole","state_code":"AL","country_code":"IT"}},{"type":"Feature","geometry":{"type":"Point","coordinates":[9.04005,44.81457]},"properties":{"id":136332,"name":"Brignano","state_code":"AL","country_code":"IT"}},{"type":"Feature","geometry":{"type":"Point","coordinates":[9.09607,44.67491]},"properties":{"id":136448,"name":"Cabella Ligure","state_code":"AL","country_code":"IT"}},{"type":"Feature","geometry":{"type":"Point","coordinates":[8.42974,45.01765]},"properties":{"id":136566,"name":"Camagna Monferrato","state_code":"AL","country_code":"IT"}},{"type":"Feature","geometry":{"type":"Point","coordinates":[8.29376,45.15723]},"properties":{"id":136590,"name":"Camino","state_code":"AL","country_code":"IT"}},{"type":"Feature","geometry":{"type":"Point","coordinates":[9.04575,44.71811]},"properties":{"id":136742,"name":"Cantalupo Ligure","state_code":"AL","country_code":"IT"}},{"type":"Feature","geometry":{"type":"Point","coordinates":[8.69085,44.72785]},"properties":{"id":136814,"name":"Capriata d'Orba","state_code":"AL","country_code":"IT"}},{"type":"Feature","geometry":{"type":"Point","coordinates":[8.86975,44.84915]},"properties":{"id":136845,"name":"Carbonara Scrivia","state_code":"AL","country_code":"IT"}},{"type":"Feature","geometry":{"type":"Point","coordinates":[8.47134,44.82885]},"properties":{"id":136867,"name":"Carentino","state_code":"AL","country_code":"IT"}},{"type":"Feature","geometry":{"type":"Point","coordinates":[8.90055,44.80705]},"properties":{"id":136871,"name":"Carezzano Maggiore","state_code":"AL","country_code":"IT"}},{"type":"Feature","geometry":{"type":"Point","coordinates":[8.60555,44.67835]},"properties":{"id":136911,"name":"Carpeneto","state_code":"AL","country_code":"IT"}},{"type":"Feature","geometry":{"type":"Point","coordinates":[9.17564,44.61879]},"properties":{"id":136927,"name":"Carrega Ligure","state_code":"AL","country_code":"IT"}},{"type":"Feature","geometry":{"type":"Point","coordinates":[8.83126,44.65776]},"properties":{"id":136930,"name":"Carrosio","state_code":"AL","country_code":"IT"}},{"type":"Feature","geometry":{"type":"Point","coordinates":[8.42065,44.59024]},"properties":{"id":136941,"name":"Cartosio","state_code":"AL","country_code":"IT"}},{"type":"Feature","geometry":{"type":"Point","coordinates":[8.62495,44.83495]},"properties":{"id":136957,"name":"Casal Cermelli","state_code":"AL","country_code":"IT"}},{"type":"Feature","geometry":{"type":"Point","coordinates":[8.4525,45.13338]},"properties":{"id":136978,"name":"Casale Monferrato","state_code":"AL","country_code":"IT"}},{"type":"Feature","geometry":{"type":"Point","coordinates":[8.73045,44.63355]},"properties":{"id":136982,"name":"Casaleggio Boiro","state_code":"AL","country_code":"IT"}},{"type":"Feature","geometry":{"type":"Point","coordinates":[8.98376,44.91326]},"properties":{"id":137002,"name":"Casalnoceto","state_code":"AL","country_code":"IT"}},{"type":"Feature","geometry":{"type":"Point","coordinates":[9.00565,44.82734]},"properties":{"id":137036,"name":"Casasco","state_code":"AL","country_code":"IT"}},{"type":"Feature","geometry":{"type":"Point","coordinates":[8.92675,45.00756]},"properties":{"id":137056,"name":"Casei","state_code":"AL","country_code":"IT"}},{"type":"Feature","geometry":{"type":"Point","coordinates":[8.33843,45.02165]},"properties":{"id":137090,"name":"Casorzo","state_code":"AL","country_code":"IT"}},{"type":"Feature","geometry":{"type":"Point","coordinates":[8.86228,44.76557]},"properties":{"id":137098,"name":"Cassano Spinola","state_code":"AL","country_code":"IT"}},{"type":"Feature","geometry":{"type":"Point","coordinates":[8.52872,44.75166]},"properties":{"id":137109,"name":"Cassine","state_code":"AL","country_code":"IT"}},{"type":"Feature","geometry":{"type":"Point","coordinates":[8.56345,44.60154]},"properties":{"id":137110,"name":"Cassinelle-Concentrico","state_code":"AL","country_code":"IT"}},{"type":"Feature","geometry":{"type":"Point","coordinates":[8.69384,44.91723]},"properties":{"id":137184,"name":"Castelceriolo","state_code":"AL","country_code":"IT"}},{"type":"Feature","geometry":{"type":"Point","coordinates":[8.93035,44.79845]},"properties":{"id":137218,"name":"Castellania","state_code":"AL","country_code":"IT"}},{"type":"Feature","geometry":{"type":"Point","coordinates":[8.94835,44.90483]},"properties":{"id":137221,"name":"Castellar Guidobono","state_code":"AL","country_code":"IT"}},{"type":"Feature","geometry":{"type":"Point","coordinates":[8.579,44.84353]},"properties":{"id":137224,"name":"Castellazzo Bormida","state_code":"AL","country_code":"IT"}},{"type":"Feature","geometry":{"type":"Point","coordinates":[8.39442,44.62597]},"properties":{"id":137239,"name":"Castelletto d'Erro","state_code":"AL","country_code":"IT"}},{"type":"Feature","geometry":{"type":"Point","coordinates":[8.70395,44.68455]},"properties":{"id":137240,"name":"Castelletto d'Orba","state_code":"AL","country_code":"IT"}},{"type":"Feature","geometry":{"type":"Point","coordinates":[8.24013,45.07395]},"properties":{"id":137232,"name":"Castelletto Merli","state_code":"AL","country_code":"IT"}},{"type":"Feature","geometry":{"type":"Point","coordinates":[8.56454,44.98115]},"properties":{"id":137234,"name":"Castelletto Monferrato","state_code":"AL","country_code":"IT"}},{"type":"Feature","geometry":{"type":"Point","coordinates":[8.5506,44.74236]},"properties":{"id":137285,"name":"Castelnuovo Bormida","state_code":"AL","country_code":"IT"}},{"type":"Feature","geometry":{"type":"Point","coordinates":[8.88246,44.97932]},"properties":{"id":137294,"name":"Castelnuovo Scrivia","state_code":"AL","country_code":"IT"}},{"type":"Feature","geometry":{"type":"Point","coordinates":[8.58315,44.80615]},"properties":{"id":137317,"name":"Castelspina","state_code":"AL","country_code":"IT"}},{"type":"Feature","geometry":{"type":"Point","coordinates":[8.45276,44.63099]},"properties":{"id":137427,"name":"Cavatore","state_code":"AL","country_code":"IT"}},{"type":"Feature","geometry":{"type":"Point","coordinates":[8.39154,45.07405]},"properties":{"id":137468,"name":"Cella Monte","state_code":"AL","country_code":"IT"}},{"type":"Feature","geometry":{"type":"Point","coordinates":[8.31817,45.08685]},"properties":{"id":137539,"name":"Cereseto","state_code":"AL","country_code":"IT"}},{"type":"Feature","geometry":{"type":"Point","coordinates":[8.93035,44.84255]},"properties":{"id":137562,"name":"Cerreto Grue","state_code":"AL","country_code":"IT"}},{"type":"Feature","geometry":{"type":"Point","coordinates":[8.21383,45.12135]},"properties":{"id":137570,"name":"Cerrina","state_code":"AL","country_code":"IT"}},{"type":"Feature","geometry":{"type":"Point","coordinates":[8.37093,45.14816]},"properties":{"id":137970,"name":"Coniolo Bricco","state_code":"AL","country_code":"IT"}},{"type":"Feature","geometry":{"type":"Point","coordinates":[8.45554,45.02009]},"properties":{"id":137984,"name":"Conzano","state_code":"AL","country_code":"IT"}},{"type":"Feature","geometry":{"type":"Point","coordinates":[8.92695,44.81615]},"properties":{"id":138095,"name":"Costa Vescovato","state_code":"AL","country_code":"IT"}},{"type":"Feature","geometry":{"type":"Point","coordinates":[8.58584,44.63674]},"properties":{"id":138137,"name":"Cremolino","state_code":"AL","country_code":"IT"}},{"type":"Feature","geometry":{"type":"Point","coordinates":[8.45754,44.99365]},"properties":{"id":138178,"name":"Cuccaro Monferrato","state_code":"AL","country_code":"IT"}},{"type":"Feature","geometry":{"type":"Point","coordinates":[8.33315,44.59884]},"properties":{"id":138247,"name":"Denice","state_code":"AL","country_code":"IT"}},{"type":"Feature","geometry":{"type":"Point","coordinates":[9.05001,44.7666]},"properties":{"id":138250,"name":"Dernice","state_code":"AL","country_code":"IT"}},{"type":"Feature","geometry":{"type":"Point","coordinates":[8.43584,44.89935]},"properties":{"id":138471,"name":"Felizzano","state_code":"AL","country_code":"IT"}},{"type":"Feature","geometry":{"type":"Point","coordinates":[8.87846,44.59105]},"properties":{"id":138686,"name":"Fraconalto","state_code":"AL","country_code":"IT"}},{"type":"Feature","geometry":{"type":"Point","coordinates":[8.73125,44.73465]},"properties":{"id":138693,"name":"Francavilla Bisio","state_code":"AL","country_code":"IT"}},{"type":"Feature","geometry":{"type":"Point","coordinates":[8.53127,44.82575]},"properties":{"id":138706,"name":"Frascaro","state_code":"AL","country_code":"IT"}},{"type":"Feature","geometry":{"type":"Point","coordinates":[8.38666,45.03322]},"properties":{"id":138712,"name":"Frassinello Monferrato","state_code":"AL","country_code":"IT"}},{"type":"Feature","geometry":{"type":"Point","coordinates":[8.53525,45.13271]},"properties":{"id":138713,"name":"Frassineto Po","state_code":"AL","country_code":"IT"}},{"type":"Feature","geometry":{"type":"Point","coordinates":[8.68615,44.78295]},"properties":{"id":138732,"name":"Fresonara","state_code":"AL","country_code":"IT"}},{"type":"Feature","geometry":{"type":"Point","coordinates":[8.68165,44.83924]},"properties":{"id":138744,"name":"Frugarolo","state_code":"AL","country_code":"IT"}},{"type":"Feature","geometry":{"type":"Point","coordinates":[8.42814,44.96305]},"properties":{"id":138745,"name":"Fubine","state_code":"AL","country_code":"IT"}},{"type":"Feature","geometry":{"type":"Point","coordinates":[8.19469,45.15714]},"properties":{"id":138769,"name":"Gabiano","state_code":"AL","country_code":"IT"}},{"type":"Feature","geometry":{"type":"Point","coordinates":[8.54116,44.8085]},"properties":{"id":138825,"name":"Gamalero","state_code":"AL","country_code":"IT"}},{"type":"Feature","geometry":{"type":"Point","coordinates":[9.15393,44.75429]},"properties":{"id":138842,"name":"Garadassi","state_code":"AL","country_code":"IT"}},{"type":"Feature","geometry":{"type":"Point","coordinates":[8.99786,44.78045]},"properties":{"id":138844,"name":"Garbagna","state_code":"AL","country_code":"IT"}},{"type":"Feature","geometry":{"type":"Point","coordinates":[8.88595,44.77585]},"properties":{"id":138873,"name":"Gavazzana","state_code":"AL","country_code":"IT"}},{"type":"Feature","geometry":{"type":"Point","coordinates":[8.80717,44.68627]},"properties":{"id":138876,"name":"Gavi","state_code":"AL","country_code":"IT"}},{"type":"Feature","geometry":{"type":"Point","coordinates":[8.5673,45.06148]},"properties":{"id":138947,"name":"Giarole","state_code":"AL","country_code":"IT"}},{"type":"Feature","geometry":{"type":"Point","coordinates":[9.10686,44.79625]},"properties":{"id":139088,"name":"Gremiasco","state_code":"AL","country_code":"IT"}},{"type":"Feature","geometry":{"type":"Point","coordinates":[8.49265,44.63034]},"properties":{"id":139107,"name":"Grognardo","state_code":"AL","country_code":"IT"}},{"type":"Feature","geometry":{"type":"Point","coordinates":[8.96546,44.69645]},"properties":{"id":139110,"name":"Grondona","state_code":"AL","country_code":"IT"}},{"type":"Feature","geometry":{"type":"Point","coordinates":[8.84822,45.01392]},"properties":{"id":139172,"name":"Guazzora","state_code":"AL","country_code":"IT"}},{"type":"Feature","geometry":{"type":"Point","coordinates":[8.84928,45.03019]},"properties":{"id":139240,"name":"Isola Sant'Antonio","state_code":"AL","country_code":"IT"}},{"type":"Feature","geometry":{"type":"Point","coordinates":[8.71323,44.63577]},"properties":{"id":139465,"name":"Lerma","state_code":"AL","country_code":"IT"}},{"type":"Feature","geometry":{"type":"Point","coordinates":[8.71246,44.87336]},"properties":{"id":139544,"name":"Litta Parodi-Cascinagrossa","state_code":"AL","country_code":"IT"}},{"type":"Feature","geometry":{"type":"Point","coordinates":[8.48561,45.00184]},"properties":{"id":139626,"name":"Lu","state_code":"AL","country_code":"IT"}},{"type":"Feature","geometry":{"type":"Point","coordinates":[8.41315,44.55934]},"properties":{"id":139777,"name":"Malvicino","state_code":"AL","country_code":"IT"}},{"type":"Feature","geometry":{"type":"Point","coordinates":[8.74676,44.86308]},"properties":{"id":139790,"name":"Mandrogne","state_code":"AL","country_code":"IT"}},{"type":"Feature","geometry":{"type":"Point","coordinates":[8.40774,44.86965]},"properties":{"id":139962,"name":"Masio","state_code":"AL","country_code":"IT"}},{"type":"Feature","geometry":{"type":"Point","coordinates":[8.42495,44.64394]},"properties":{"id":140036,"name":"Melazzo","state_code":"AL","country_code":"IT"}},{"type":"Feature","geometry":{"type":"Point","coordinates":[8.29824,44.51884]},"properties":{"id":140067,"name":"Merana","state_code":"AL","country_code":"IT"}},{"type":"Feature","geometry":{"type":"Point","coordinates":[8.52385,45.03496]},"properties":{"id":140170,"name":"Mirabello Monferrato","state_code":"AL","country_code":"IT"}},{"type":"Feature","geometry":{"type":"Point","coordinates":[8.5996,44.61807]},"properties":{"id":140210,"name":"Molare","state_code":"AL","country_code":"IT"}},{"type":"Feature","geometry":{"type":"Point","coordinates":[8.89365,45.02426]},"properties":{"id":140222,"name":"Molino dei Torti","state_code":"AL","country_code":"IT"}},{"type":"Feature","geometry":{"type":"Point","coordinates":[8.25033,45.13285]},"properties":{"id":140240,"name":"Mombello Monferrato","state_code":"AL","country_code":"IT"}},{"type":"Feature","geometry":{"type":"Point","coordinates":[9.03425,44.83845]},"properties":{"id":140247,"name":"Momperone","state_code":"AL","country_code":"IT"}},{"type":"Feature","geometry":{"type":"Point","coordinates":[8.16143,45.15465]},"properties":{"id":140265,"name":"Moncestino","state_code":"AL","country_code":"IT"}},{"type":"Feature","geometry":{"type":"Point","coordinates":[9.06462,44.63443]},"properties":{"id":140286,"name":"Mongiardino Ligure","state_code":"AL","country_code":"IT"}},{"type":"Feature","geometry":{"type":"Point","coordinates":[8.97395,44.88435]},"properties":{"id":140294,"name":"Monleale","state_code":"AL","country_code":"IT"}},{"type":"Feature","geometry":{"type":"Point","coordinates":[9.10496,44.76645]},"properties":{"id":140305,"name":"Montacuto","state_code":"AL","country_code":"IT"}},{"type":"Feature","geometry":{"type":"Point","coordinates":[8.73015,44.66715]},"properties":{"id":140320,"name":"Montaldeo","state_code":"AL","country_code":"IT"}},{"type":"Feature","geometry":{"type":"Point","coordinates":[8.58785,44.68265]},"properties":{"id":140321,"name":"Montaldo Bormida","state_code":"AL","country_code":"IT"}},{"type":"Feature","geometry":{"type":"Point","coordinates":[8.77539,44.99575]},"properties":{"id":140347,"name":"Montariolo","state_code":"AL","country_code":"IT"}},{"type":"Feature","geometry":{"type":"Point","coordinates":[8.68575,44.94945]},"properties":{"id":140403,"name":"Montecastello","state_code":"AL","country_code":"IT"}},{"type":"Feature","geometry":{"type":"Point","coordinates":[8.37865,44.59444]},"properties":{"id":140414,"name":"Montechiaro d'Acqui","state_code":"AL","country_code":"IT"}},{"type":"Feature","geometry":{"type":"Point","coordinates":[8.96275,44.84205]},"properties":{"id":140453,"name":"Montegioco","state_code":"AL","country_code":"IT"}},{"type":"Feature","geometry":{"type":"Point","coordinates":[8.99365,44.84835]},"properties":{"id":140489,"name":"Montemarzino","state_code":"AL","country_code":"IT"}},{"type":"Feature","geometry":{"type":"Point","coordinates":[8.36674,45.16621]},"properties":{"id":140598,"name":"Morano sul Po","state_code":"AL","country_code":"IT"}},{"type":"Feature","geometry":{"type":"Point","coordinates":[8.51075,44.60504]},"properties":{"id":140603,"name":"Morbello","state_code":"AL","country_code":"IT"}},{"type":"Feature","geometry":{"type":"Point","coordinates":[8.75615,44.63925]},"properties":{"id":140625,"name":"Mornese","state_code":"AL","country_code":"IT"}},{"type":"Feature","geometry":{"type":"Point","coordinates":[8.55085,44.66535]},"properties":{"id":140638,"name":"Morsasco","state_code":"AL","country_code":"IT"}},{"type":"Feature","geometry":{"type":"Point","coordinates":[8.13554,45.08165]},"properties":{"id":140691,"name":"Murisengo","state_code":"AL","country_code":"IT"}},{"type":"Feature","geometry":{"type":"Point","coordinates":[8.787,44.76246]},"properties":{"id":140835,"name":"Novi Ligure","state_code":"AL","country_code":"IT"}},{"type":"Feature","geometry":{"type":"Point","coordinates":[8.50666,45.05991]},"properties":{"id":140869,"name":"Occimiano","state_code":"AL","country_code":"IT"}},{"type":"Feature","geometry":{"type":"Point","coordinates":[8.16748,45.10922]},"properties":{"id":140870,"name":"Odalengo Grande","state_code":"AL","country_code":"IT"}},{"type":"Feature","geometry":{"type":"Point","coordinates":[8.20603,45.07165]},"properties":{"id":140871,"name":"Odalengo Piccolo","state_code":"AL","country_code":"IT"}},{"type":"Feature","geometry":{"type":"Point","coordinates":[8.36784,45.03725]},"properties":{"id":140904,"name":"Olivola","state_code":"AL","country_code":"IT"}},{"type":"Feature","geometry":{"type":"Point","coordinates":[8.56275,44.69015]},"properties":{"id":140971,"name":"Orsara Bormida","state_code":"AL","country_code":"IT"}},{"type":"Feature","geometry":{"type":"Point","coordinates":[8.3398,45.05426]},"properties":{"id":141051,"name":"Ottiglio","state_code":"AL","country_code":"IT"}},{"type":"Feature","geometry":{"type":"Point","coordinates":[8.64196,44.63727]},"properties":{"id":141055,"name":"Ovada","state_code":"AL","country_code":"IT"}},{"type":"Feature","geometry":{"type":"Point","coordinates":[8.48774,44.86125]},"properties":{"id":141057,"name":"Oviglio","state_code":"AL","country_code":"IT"}},{"type":"Feature","geometry":{"type":"Point","coordinates":[8.37238,45.10592]},"properties":{"id":141063,"name":"Ozzano Monferrato","state_code":"AL","country_code":"IT"}},{"type":"Feature","geometry":{"type":"Point","coordinates":[8.89088,44.82148]},"properties":{"id":141075,"name":"Paderna","state_code":"AL","country_code":"IT"}},{"type":"Feature","geometry":{"type":"Point","coordinates":[8.38185,44.51644]},"properties":{"id":58304,"name":"Pareto","state_code":"AL","country_code":"IT"}},{"type":"Feature","geometry":{"type":"Point","coordinates":[8.75865,44.66975]},"properties":{"id":58309,"name":"Parodi Ligure","state_code":"AL","country_code":"IT"}},{"type":"Feature","geometry":{"type":"Point","coordinates":[8.74925,44.75085]},"properties":{"id":58341,"name":"Pasturana","state_code":"AL","country_code":"IT"}},{"type":"Feature","geometry":{"type":"Point","coordinates":[8.66996,44.98904]},"properties":{"id":58370,"name":"Pecetto di Valenza","state_code":"AL","country_code":"IT"}},{"type":"Feature","geometry":{"type":"Point","coordinates":[8.66854,44.94265]},"properties":{"id":58602,"name":"Pietra Marazzi","state_code":"AL","country_code":"IT"}},{"type":"Feature","geometry":{"type":"Point","coordinates":[8.73595,44.95845]},"properties":{"id":58697,"name":"Piovera","state_code":"AL","country_code":"IT"}},{"type":"Feature","geometry":{"type":"Point","coordinates":[8.59604,45.06246]},"properties":{"id":58811,"name":"Pomaro Monferrato","state_code":"AL","country_code":"IT"}},{"type":"Feature","geometry":{"type":"Point","coordinates":[8.93289,44.9588]},"properties":{"id":58867,"name":"Pontecurone","state_code":"AL","country_code":"IT"}},{"type":"Feature","geometry":{"type":"Point","coordinates":[8.33324,45.14245]},"properties":{"id":58879,"name":"Pontestura","state_code":"AL","country_code":"IT"}},{"type":"Feature","geometry":{"type":"Point","coordinates":[8.36461,44.62847]},"properties":{"id":58882,"name":"Ponti","state_code":"AL","country_code":"IT"}},{"type":"Feature","geometry":{"type":"Point","coordinates":[8.26553,45.08485]},"properties":{"id":58896,"name":"Ponzano Monferrato","state_code":"AL","country_code":"IT"}},{"type":"Feature","geometry":{"type":"Point","coordinates":[8.45935,44.58814]},"properties":{"id":58899,"name":"Ponzone","state_code":"AL","country_code":"IT"}},{"type":"Feature","geometry":{"type":"Point","coordinates":[9.02985,44.87806]},"properties":{"id":58983,"name":"Pozzol Groppo","state_code":"AL","country_code":"IT"}},{"type":"Feature","geometry":{"type":"Point","coordinates":[8.78364,44.79925]},"properties":{"id":58986,"name":"Pozzolo Formigaro","state_code":"AL","country_code":"IT"}},{"type":"Feature","geometry":{"type":"Point","coordinates":[8.55167,44.63938]},"properties":{"id":59009,"name":"Prasco","state_code":"AL","country_code":"IT"}},{"type":"Feature","geometry":{"type":"Point","coordinates":[8.65568,44.75049]},"properties":{"id":59047,"name":"Predosa","state_code":"AL","country_code":"IT"}},{"type":"Feature","geometry":{"type":"Point","coordinates":[8.48821,44.94566]},"properties":{"id":59220,"name":"Quargnento","state_code":"AL","country_code":"IT"}},{"type":"Feature","geometry":{"type":"Point","coordinates":[8.40495,44.89877]},"properties":{"id":59235,"name":"Quattordio","state_code":"AL","country_code":"IT"}},{"type":"Feature","geometry":{"type":"Point","coordinates":[8.46814,44.73235]},"properties":{"id":59363,"name":"Ricaldone","state_code":"AL","country_code":"IT"}},{"type":"Feature","geometry":{"type":"Point","coordinates":[8.55175,44.70975]},"properties":{"id":59423,"name":"Rivalta Bormida","state_code":"AL","country_code":"IT"}},{"type":"Feature","geometry":{"type":"Point","coordinates":[9.01368,44.92908]},"properties":{"id":59426,"name":"Rivanazzano","state_code":"AL","country_code":"IT"}},{"type":"Feature","geometry":{"type":"Point","coordinates":[8.71565,44.97686]},"properties":{"id":59431,"name":"Rivarone","state_code":"AL","country_code":"IT"}},{"type":"Feature","geometry":{"type":"Point","coordinates":[8.64845,44.67145]},"properties":{"id":59469,"name":"Rocca Grimalda","state_code":"AL","country_code":"IT"}},{"type":"Feature","geometry":{"type":"Point","coordinates":[9.028,44.6778]},"properties":{"id":59497,"name":"Roccaforte Ligure","state_code":"AL","country_code":"IT"}},{"type":"Feature","geometry":{"type":"Point","coordinates":[9.05046,44.70655]},"properties":{"id":59537,"name":"Rocchetta Ligure","state_code":"AL","country_code":"IT"}},{"type":"Feature","geometry":{"type":"Point","coordinates":[8.39974,45.08055]},"properties":{"id":59640,"name":"Rosignano Monferrato","state_code":"AL","country_code":"IT"}},{"type":"Feature","geometry":{"type":"Point","coordinates":[8.36119,45.07546]},"properties":{"id":59744,"name":"Sala Monferrato","state_code":"AL","country_code":"IT"}},{"type":"Feature","geometry":{"type":"Point","coordinates":[8.80963,44.97932]},"properties":{"id":59754,"name":"Sale","state_code":"AL","country_code":"IT"}},{"type":"Feature","geometry":{"type":"Point","coordinates":[9.0263,44.9151]},"properties":{"id":59768,"name":"Salice Terme","state_code":"AL","country_code":"IT"}},{"type":"Feature","geometry":{"type":"Point","coordinates":[8.74939,44.69304]},"properties":{"id":59883,"name":"San Cristoforo","state_code":"AL","country_code":"IT"}},{"type":"Feature","geometry":{"type":"Point","coordinates":[8.41421,45.10778]},"properties":{"id":59953,"name":"San Giorgio","state_code":"AL","country_code":"IT"}},{"type":"Feature","geometry":{"type":"Point","coordinates":[8.41614,45.10735]},"properties":{"id":59958,"name":"San Giorgio Monferrato","state_code":"AL","country_code":"IT"}},{"type":"Feature","geometry":{"type":"Point","coordinates":[8.76057,44.88902]},"properties":{"id":60006,"name":"San Giuliano Vecchio","state_code":"AL","country_code":"IT"}},{"type":"Feature","geometry":{"type":"Point","coordinates":[8.56639,44.99489]},"properties":{"id":60231,"name":"San Salvatore Monferrato","state_code":"AL","country_code":"IT"}},{"type":"Feature","geometry":{"type":"Point","coordinates":[9.06446,44.78633]},"properties":{"id":60236,"name":"San Sebastiano Curone","state_code":"AL","country_code":"IT"}},{"type":"Feature","geometry":{"type":"Point","coordinates":[8.92115,44.78475]},"properties":{"id":60317,"name":"Sant'Agata Fossili","state_code":"AL","country_code":"IT"}},{"type":"Feature","geometry":{"type":"Point","coordinates":[8.89575,44.7524]},"properties":{"id":60544,"name":"Sardigliano","state_code":"AL","country_code":"IT"}},{"type":"Feature","geometry":{"type":"Point","coordinates":[8.91237,44.86878]},"properties":{"id":60547,"name":"Sarezzano","state_code":"AL","country_code":"IT"}},{"type":"Feature","geometry":{"type":"Point","coordinates":[8.28069,45.1011]},"properties":{"id":60761,"name":"Serralunga di Crea","state_code":"AL","country_code":"IT"}},{"type":"Feature","geometry":{"type":"Point","coordinates":[8.85635,44.72277]},"properties":{"id":60774,"name":"Serravalle Scrivia","state_code":"AL","country_code":"IT"}},{"type":"Feature","geometry":{"type":"Point","coordinates":[8.57255,44.78485]},"properties":{"id":60823,"name":"Sezzadio","state_code":"AL","country_code":"IT"}},{"type":"Feature","geometry":{"type":"Point","coordinates":[8.67182,44.6858]},"properties":{"id":60856,"name":"Silvano d'Orba","state_code":"AL","country_code":"IT"}},{"type":"Feature","geometry":{"type":"Point","coordinates":[8.50754,44.91835]},"properties":{"id":60914,"name":"Solero","state_code":"AL","country_code":"IT"}},{"type":"Feature","geometry":{"type":"Point","coordinates":[8.28323,45.12905]},"properties":{"id":60922,"name":"Solonghello","state_code":"AL","country_code":"IT"}},{"type":"Feature","geometry":{"type":"Point","coordinates":[8.33395,44.54314]},"properties":{"id":61007,"name":"Spigno Monferrato","state_code":"AL","country_code":"IT"}},{"type":"Feature","geometry":{"type":"Point","coordinates":[8.87375,44.83735]},"properties":{"id":61018,"name":"Spineto Scrivia","state_code":"AL","country_code":"IT"}},{"type":"Feature","geometry":{"type":"Point","coordinates":[8.6775,44.88554]},"properties":{"id":61020,"name":"Spinetta Marengo","state_code":"AL","country_code":"IT"}},{"type":"Feature","geometry":{"type":"Point","coordinates":[8.86846,44.72728]},"properties":{"id":61058,"name":"Stazzano","state_code":"AL","country_code":"IT"}},{"type":"Feature","geometry":{"type":"Point","coordinates":[8.5247,44.69985]},"properties":{"id":61095,"name":"Strevi","state_code":"AL","country_code":"IT"}},{"type":"Feature","geometry":{"type":"Point","coordinates":[8.66585,44.63835]},"properties":{"id":61146,"name":"Tagliolo Monferrato","state_code":"AL","country_code":"IT"}},{"type":"Feature","geometry":{"type":"Point","coordinates":[8.77164,44.72811]},"properties":{"id":61172,"name":"Tassarolo","state_code":"AL","country_code":"IT"}},{"type":"Feature","geometry":{"type":"Point","coordinates":[8.44428,45.08199]},"properties":{"id":61253,"name":"Terruggia","state_code":"AL","country_code":"IT"}},{"type":"Feature","geometry":{"type":"Point","coordinates":[8.42164,44.67045]},"properties":{"id":61256,"name":"Terzo","state_code":"AL","country_code":"IT"}},{"type":"Feature","geometry":{"type":"Point","coordinates":[8.55315,45.09627]},"properties":{"id":61275,"name":"Ticineto","state_code":"AL","country_code":"IT"}},{"type":"Feature","geometry":{"type":"Point","coordinates":[8.86374,44.89784]},"properties":{"id":61412,"name":"Tortona","state_code":"AL","country_code":"IT"}},{"type":"Feature","geometry":{"type":"Point","coordinates":[8.35954,45.09685]},"properties":{"id":61507,"name":"Treville","state_code":"AL","country_code":"IT"}},{"type":"Feature","geometry":{"type":"Point","coordinates":[8.58621,44.66063]},"properties":{"id":61536,"name":"Trisobbio","state_code":"AL","country_code":"IT"}},{"type":"Feature","geometry":{"type":"Point","coordinates":[8.64379,45.01242]},"properties":{"id":61664,"name":"Valenza","state_code":"AL","country_code":"IT"}},{"type":"Feature","geometry":{"type":"Point","coordinates":[8.6404,44.95017]},"properties":{"id":61691,"name":"Valle San Bartolomeo","state_code":"AL","country_code":"IT"}},{"type":"Feature","geometry":{"type":"Point","coordinates":[8.58382,45.10101]},"properties":{"id":61728,"name":"Valmacca","state_code":"AL","country_code":"IT"}},{"type":"Feature","geometry":{"type":"Point","coordinates":[8.61146,44.97444]},"properties":{"id":61729,"name":"Valmadonna","state_code":"AL","country_code":"IT"}},{"type":"Feature","geometry":{"type":"Point","coordinates":[8.39703,45.00996]},"properties":{"id":61956,"name":"Vignale Monferrato","state_code":"AL","country_code":"IT"}},{"type":"Feature","geometry":{"type":"Point","coordinates":[8.89026,44.70819]},"properties":{"id":61963,"name":"Vignole Borbera","state_code":"AL","country_code":"IT"}},{"type":"Feature","geometry":{"type":"Point","coordinates":[8.91968,44.90567]},"properties":{"id":61979,"name":"Viguzzolo","state_code":"AL","country_code":"IT"}},{"type":"Feature","geometry":{"type":"Point","coordinates":[8.16793,45.07225]},"properties":{"id":62051,"name":"Villadeati","state_code":"AL","country_code":"IT"}},{"type":"Feature","geometry":{"type":"Point","coordinates":[8.85532,44.81387]},"properties":{"id":62079,"name":"Villalvernia","state_code":"AL","country_code":"IT"}},{"type":"Feature","geometry":{"type":"Point","coordinates":[8.17103,45.13455]},"properties":{"id":62085,"name":"Villamiroglio","state_code":"AL","country_code":"IT"}},{"type":"Feature","geometry":{"type":"Point","coordinates":[8.47813,45.18111]},"properties":{"id":62100,"name":"Villanova Monferrato","state_code":"AL","country_code":"IT"}},{"type":"Feature","geometry":{"type":"Point","coordinates":[8.88775,44.84965]},"properties":{"id":62130,"name":"Villaromagnano","state_code":"AL","country_code":"IT"}},{"type":"Feature","geometry":{"type":"Point","coordinates":[8.50075,44.66184]},"properties":{"id":62174,"name":"Visone","state_code":"AL","country_code":"IT"}},{"type":"Feature","geometry":{"type":"Point","coordinates":[8.98615,44.88887]},"properties":{"id":62210,"name":"Volpedo","state_code":"AL","country_code":"IT"}},{"type":"Feature","geometry":{"type":"Point","coordinates":[8.95945,44.89296]},"properties":{"id":62211,"name":"Volpeglino","state_code":"AL","country_code":"IT"}},{"type":"Feature","geometry":{"type":"Point","coordinates":[8.84274,44.62095]},"properties":{"id":62214,"name":"Voltaggio","state_code":"AL","country_code":"IT"}}]}