{"type":"FeatureCollection","features":[{"type":"Feature","geometry":{"type":"Point","coordinates":[13.38574,43.54368]},"properties":{"id":135320,"name":"Agugliano","state_code":"AN","country_code":"IT"}},{"type":"Feature","geometry":{"type":"Point","coordinates":[13.50337,43.5942]},"properties":{"id":135479,"name":"Ancona","state_code":"AN","country_code":"IT"}},{"type":"Feature","geometry":{"type":"Point","coordinates":[12.945,43.50177]},"properties":{"id":135564,"name":"Arcevia","state_code":"AN","country_code":"IT"}},{"type":"Feature","geometry":{"type":"Point","coordinates":[13.02736,43.58036]},"properties":{"id":135819,"name":"Barbara","state_code":"AN","country_code":"IT"}},{"type":"Feature","geometry":{"type":"Point","coordinates":[13.16724,43.57896]},"properties":{"id":135964,"name":"Belvedere Ostrense","state_code":"AN","country_code":"IT"}},{"type":"Feature","geometry":{"type":"Point","coordinates":[13.29205,43.598]},"properties":{"id":136158,"name":"Borghetto","state_code":"AN","country_code":"IT"}},{"type":"Feature","geometry":{"type":"Point","coordinates":[13.55257,43.52774]},"properties":{"id":136577,"name":"Camerano","state_code":"AN","country_code":"IT"}},{"type":"Feature","geometry":{"type":"Point","coordinates":[13.35196,43.57758]},"properties":{"id":136582,"name":"Camerata Picena","state_code":"AN","country_code":"IT"}},{"type":"Feature","geometry":{"type":"Point","coordinates":[13.49679,43.4612]},"properties":{"id":136641,"name":"Campocavallo","state_code":"AN","country_code":"IT"}},{"type":"Feature","geometry":{"type":"Point","coordinates":[13.14425,43.63165]},"properties":{"id":137071,"name":"Casine","state_code":"AN","country_code":"IT"}},{"type":"Feature","geometry":{"type":"Point","coordinates":[13.14467,43.48676]},"properties":{"id":137178,"name":"Castelbellino","state_code":"AN","country_code":"IT"}},{"type":"Feature","geometry":{"type":"Point","coordinates":[13.55044,43.45916]},"properties":{"id":137192,"name":"Castelfidardo","state_code":"AN","country_code":"IT"}},{"type":"Feature","geometry":{"type":"Point","coordinates":[12.97796,43.60816]},"properties":{"id":137227,"name":"Castelleone di Suasa","state_code":"AN","country_code":"IT"}},{"type":"Feature","geometry":{"type":"Point","coordinates":[13.0818,43.4942]},"properties":{"id":137308,"name":"Castelplanio","state_code":"AN","country_code":"IT"}},{"type":"Feature","geometry":{"type":"Point","coordinates":[12.98771,43.31668]},"properties":{"id":137568,"name":"Cerreto d'Esi","state_code":"AN","country_code":"IT"}},{"type":"Feature","geometry":{"type":"Point","coordinates":[13.32511,43.60114]},"properties":{"id":137651,"name":"Chiaravalle","state_code":"AN","country_code":"IT"}},{"type":"Feature","geometry":{"type":"Point","coordinates":[13.06004,43.64107]},"properties":{"id":138015,"name":"Corinaldo","state_code":"AN","country_code":"IT"}},{"type":"Feature","geometry":{"type":"Point","coordinates":[13.11312,43.44975]},"properties":{"id":138197,"name":"Cupramontana","state_code":"AN","country_code":"IT"}},{"type":"Feature","geometry":{"type":"Point","coordinates":[12.90327,43.33941]},"properties":{"id":138393,"name":"Fabriano","state_code":"AN","country_code":"IT"}},{"type":"Feature","geometry":{"type":"Point","coordinates":[13.39954,43.62558]},"properties":{"id":138416,"name":"Falconara Marittima","state_code":"AN","country_code":"IT"}},{"type":"Feature","geometry":{"type":"Point","coordinates":[13.35141,43.43553]},"properties":{"id":138533,"name":"Filottrano","state_code":"AN","country_code":"IT"}},{"type":"Feature","geometry":{"type":"Point","coordinates":[12.93549,43.43032]},"properties":{"id":138896,"name":"Genga","state_code":"AN","country_code":"IT"}},{"type":"Feature","geometry":{"type":"Point","coordinates":[13.24368,43.52142]},"properties":{"id":139278,"name":"Jesi","state_code":"AN","country_code":"IT"}},{"type":"Feature","geometry":{"type":"Point","coordinates":[13.51529,43.60081]},"properties":{"id":139428,"name":"Le Grazie di Ancona","state_code":"AN","country_code":"IT"}},{"type":"Feature","geometry":{"type":"Point","coordinates":[13.61232,43.43617]},"properties":{"id":139609,"name":"Loreto","state_code":"AN","country_code":"IT"}},{"type":"Feature","geometry":{"type":"Point","coordinates":[13.62016,43.44792]},"properties":{"id":139611,"name":"Loreto Stazione","state_code":"AN","country_code":"IT"}},{"type":"Feature","geometry":{"type":"Point","coordinates":[13.08725,43.48611]},"properties":{"id":139701,"name":"Macine-Borgo Loreto","state_code":"AN","country_code":"IT"}},{"type":"Feature","geometry":{"type":"Point","coordinates":[13.11991,43.4764]},"properties":{"id":139748,"name":"Maiolati Spontini","state_code":"AN","country_code":"IT"}},{"type":"Feature","geometry":{"type":"Point","coordinates":[13.62545,43.49204]},"properties":{"id":139837,"name":"Marcelli","state_code":"AN","country_code":"IT"}},{"type":"Feature","geometry":{"type":"Point","coordinates":[13.3364,43.65063]},"properties":{"id":139890,"name":"Marina di Montemarciano","state_code":"AN","country_code":"IT"}},{"type":"Feature","geometry":{"type":"Point","coordinates":[13.03509,43.4735]},"properties":{"id":140083,"name":"Mergo","state_code":"AN","country_code":"IT"}},{"type":"Feature","geometry":{"type":"Point","coordinates":[13.13275,43.50366]},"properties":{"id":140203,"name":"Moie","state_code":"AN","country_code":"IT"}},{"type":"Feature","geometry":{"type":"Point","coordinates":[13.25186,43.56221]},"properties":{"id":140300,"name":"Monsano","state_code":"AN","country_code":"IT"}},{"type":"Feature","geometry":{"type":"Point","coordinates":[13.13797,43.48056]},"properties":{"id":140366,"name":"Monte Roberto","state_code":"AN","country_code":"IT"}},{"type":"Feature","geometry":{"type":"Point","coordinates":[13.26817,43.60056]},"properties":{"id":140378,"name":"Monte San Vito","state_code":"AN","country_code":"IT"}},{"type":"Feature","geometry":{"type":"Point","coordinates":[13.06656,43.52828]},"properties":{"id":140401,"name":"Montecarotto","state_code":"AN","country_code":"IT"}},{"type":"Feature","geometry":{"type":"Point","coordinates":[13.30801,43.63847]},"properties":{"id":140488,"name":"Montemarciano","state_code":"AN","country_code":"IT"}},{"type":"Feature","geometry":{"type":"Point","coordinates":[13.29093,43.67451]},"properties":{"id":140573,"name":"Montignano-Marzocca","state_code":"AN","country_code":"IT"}},{"type":"Feature","geometry":{"type":"Point","coordinates":[13.21331,43.6]},"properties":{"id":140633,"name":"Morro d'Alba","state_code":"AN","country_code":"IT"}},{"type":"Feature","geometry":{"type":"Point","coordinates":[13.62118,43.51136]},"properties":{"id":140847,"name":"Numana","state_code":"AN","country_code":"IT"}},{"type":"Feature","geometry":{"type":"Point","coordinates":[13.44076,43.52588]},"properties":{"id":140875,"name":"Offagna","state_code":"AN","country_code":"IT"}},{"type":"Feature","geometry":{"type":"Point","coordinates":[13.48222,43.48539]},"properties":{"id":141007,"name":"Osimo","state_code":"AN","country_code":"IT"}},{"type":"Feature","geometry":{"type":"Point","coordinates":[13.02188,43.5495]},"properties":{"id":141034,"name":"Osteria","state_code":"AN","country_code":"IT"}},{"type":"Feature","geometry":{"type":"Point","coordinates":[13.15849,43.61611]},"properties":{"id":141042,"name":"Ostra","state_code":"AN","country_code":"IT"}},{"type":"Feature","geometry":{"type":"Point","coordinates":[13.0615,43.60336]},"properties":{"id":141043,"name":"Ostra Vetere","state_code":"AN","country_code":"IT"}},{"type":"Feature","geometry":{"type":"Point","coordinates":[13.46261,43.469]},"properties":{"id":141083,"name":"Padiglione","state_code":"AN","country_code":"IT"}},{"type":"Feature","geometry":{"type":"Point","coordinates":[13.12196,43.65567]},"properties":{"id":58331,"name":"Passo Ripe","state_code":"AN","country_code":"IT"}},{"type":"Feature","geometry":{"type":"Point","coordinates":[13.13068,43.6262]},"properties":{"id":58524,"name":"Pianello","state_code":"AN","country_code":"IT"}},{"type":"Feature","geometry":{"type":"Point","coordinates":[13.16188,43.48817]},"properties":{"id":58526,"name":"Pianello Vallesina","state_code":"AN","country_code":"IT"}},{"type":"Feature","geometry":{"type":"Point","coordinates":[13.53887,43.60224]},"properties":{"id":58604,"name":"Pietra la Croce","state_code":"AN","country_code":"IT"}},{"type":"Feature","geometry":{"type":"Point","coordinates":[13.49413,43.58986]},"properties":{"id":58681,"name":"Pinocchio di Ancona","state_code":"AN","country_code":"IT"}},{"type":"Feature","geometry":{"type":"Point","coordinates":[13.07367,43.51116]},"properties":{"id":58763,"name":"Poggio San Marcello","state_code":"AN","country_code":"IT"}},{"type":"Feature","geometry":{"type":"Point","coordinates":[13.38294,43.52876]},"properties":{"id":58806,"name":"Polverigi","state_code":"AN","country_code":"IT"}},{"type":"Feature","geometry":{"type":"Point","coordinates":[13.48984,43.59917]},"properties":{"id":58953,"name":"Posatora","state_code":"AN","country_code":"IT"}},{"type":"Feature","geometry":{"type":"Point","coordinates":[13.10586,43.66906]},"properties":{"id":59409,"name":"Ripe","state_code":"AN","country_code":"IT"}},{"type":"Feature","geometry":{"type":"Point","coordinates":[13.06819,43.48336]},"properties":{"id":59644,"name":"Rosora","state_code":"AN","country_code":"IT"}},{"type":"Feature","geometry":{"type":"Point","coordinates":[13.49643,43.51597]},"properties":{"id":59840,"name":"San Biagio","state_code":"AN","country_code":"IT"}},{"type":"Feature","geometry":{"type":"Point","coordinates":[13.20827,43.57526]},"properties":{"id":60058,"name":"San Marcello","state_code":"AN","country_code":"IT"}},{"type":"Feature","geometry":{"type":"Point","coordinates":[13.17277,43.45456]},"properties":{"id":60162,"name":"San Paolo di Jesi","state_code":"AN","country_code":"IT"}},{"type":"Feature","geometry":{"type":"Point","coordinates":[13.3237,43.49164]},"properties":{"id":60469,"name":"Santa Maria Nuova","state_code":"AN","country_code":"IT"}},{"type":"Feature","geometry":{"type":"Point","coordinates":[12.8566,43.43109]},"properties":{"id":60576,"name":"Sassoferrato","state_code":"AN","country_code":"IT"}},{"type":"Feature","geometry":{"type":"Point","coordinates":[13.20882,43.71626]},"properties":{"id":60724,"name":"Senigallia","state_code":"AN","country_code":"IT"}},{"type":"Feature","geometry":{"type":"Point","coordinates":[13.03566,43.54196]},"properties":{"id":60756,"name":"Serra de' Conti","state_code":"AN","country_code":"IT"}},{"type":"Feature","geometry":{"type":"Point","coordinates":[13.02266,43.44637]},"properties":{"id":60753,"name":"Serra San Quirico","state_code":"AN","country_code":"IT"}},{"type":"Feature","geometry":{"type":"Point","coordinates":[13.61498,43.52246]},"properties":{"id":60875,"name":"Sirolo","state_code":"AN","country_code":"IT"}},{"type":"Feature","geometry":{"type":"Point","coordinates":[13.18487,43.43326]},"properties":{"id":61039,"name":"Staffolo","state_code":"AN","country_code":"IT"}},{"type":"Feature","geometry":{"type":"Point","coordinates":[13.15149,43.50046]},"properties":{"id":61051,"name":"Stazione","state_code":"AN","country_code":"IT"}},{"type":"Feature","geometry":{"type":"Point","coordinates":[13.22077,43.40337]},"properties":{"id":61084,"name":"Strada","state_code":"AN","country_code":"IT"}},{"type":"Feature","geometry":{"type":"Point","coordinates":[13.60312,43.44624]},"properties":{"id":62006,"name":"Villa Musone","state_code":"AN","country_code":"IT"}}]}