{"type":"FeatureCollection","features":[{"type":"Feature","geometry":{"type":"Point","coordinates":[14.82123,40.88847]},"properties":{"id":135328,"name":"Aiello del Sabato","state_code":"AV","country_code":"IT"}},{"type":"Feature","geometry":{"type":"Point","coordinates":[14.78093,41.00619]},"properties":{"id":135432,"name":"Altavilla Irpina","state_code":"AV","country_code":"IT"}},{"type":"Feature","geometry":{"type":"Point","coordinates":[15.32485,40.93742]},"properties":{"id":135490,"name":"Andretta-Mattinella","state_code":"AV","country_code":"IT"}},{"type":"Feature","geometry":{"type":"Point","coordinates":[15.4751,40.98688]},"properties":{"id":135546,"name":"Aquilonia","state_code":"AV","country_code":"IT"}},{"type":"Feature","geometry":{"type":"Point","coordinates":[15.10625,41.16024]},"properties":{"id":135600,"name":"Ariano Irpino-Martiri","state_code":"AV","country_code":"IT"}},{"type":"Feature","geometry":{"type":"Point","coordinates":[14.82721,40.91867]},"properties":{"id":135680,"name":"Atripalda","state_code":"AV","country_code":"IT"}},{"type":"Feature","geometry":{"type":"Point","coordinates":[14.60087,40.95995]},"properties":{"id":135699,"name":"Avella","state_code":"AV","country_code":"IT"}},{"type":"Feature","geometry":{"type":"Point","coordinates":[14.79103,40.91494]},"properties":{"id":135700,"name":"Avellino","state_code":"AV","country_code":"IT"}},{"type":"Feature","geometry":{"type":"Point","coordinates":[15.07173,40.83103]},"properties":{"id":135763,"name":"Bagnoli Irpino","state_code":"AV","country_code":"IT"}},{"type":"Feature","geometry":{"type":"Point","coordinates":[14.6165,40.95142]},"properties":{"id":135778,"name":"Baiano","state_code":"AV","country_code":"IT"}},{"type":"Feature","geometry":{"type":"Point","coordinates":[14.80182,40.84338]},"properties":{"id":135805,"name":"Banzano","state_code":"AV","country_code":"IT"}},{"type":"Feature","geometry":{"type":"Point","coordinates":[15.37699,41.00923]},"properties":{"id":136058,"name":"Bisaccia","state_code":"AV","country_code":"IT"}},{"type":"Feature","geometry":{"type":"Point","coordinates":[15.35546,41.0096]},"properties":{"id":136059,"name":"Bisaccia Nuova","state_code":"AV","country_code":"IT"}},{"type":"Feature","geometry":{"type":"Point","coordinates":[15.00071,41.09857]},"properties":{"id":136139,"name":"Bonito","state_code":"AV","country_code":"IT"}},{"type":"Feature","geometry":{"type":"Point","coordinates":[14.78364,40.84022]},"properties":{"id":136170,"name":"Borgo","state_code":"AV","country_code":"IT"}},{"type":"Feature","geometry":{"type":"Point","coordinates":[15.37069,40.89552]},"properties":{"id":136481,"name":"Cairano","state_code":"AV","country_code":"IT"}},{"type":"Feature","geometry":{"type":"Point","coordinates":[15.22285,40.78342]},"properties":{"id":136486,"name":"Calabritto","state_code":"AV","country_code":"IT"}},{"type":"Feature","geometry":{"type":"Point","coordinates":[15.40393,40.92569]},"properties":{"id":136529,"name":"Calitri","state_code":"AV","country_code":"IT"}},{"type":"Feature","geometry":{"type":"Point","coordinates":[14.91418,41.04717]},"properties":{"id":136608,"name":"Campanarello","state_code":"AV","country_code":"IT"}},{"type":"Feature","geometry":{"type":"Point","coordinates":[14.8723,40.94148]},"properties":{"id":136703,"name":"Candida","state_code":"AV","country_code":"IT"}},{"type":"Feature","geometry":{"type":"Point","coordinates":[15.22337,40.81553]},"properties":{"id":136787,"name":"Caposele","state_code":"AV","country_code":"IT"}},{"type":"Feature","geometry":{"type":"Point","coordinates":[14.77724,40.96032]},"properties":{"id":136819,"name":"Capriglia Irpina","state_code":"AV","country_code":"IT"}},{"type":"Feature","geometry":{"type":"Point","coordinates":[15.21044,41.02667]},"properties":{"id":136875,"name":"Carife","state_code":"AV","country_code":"IT"}},{"type":"Feature","geometry":{"type":"Point","coordinates":[15.00752,41.23373]},"properties":{"id":136966,"name":"Casalbore","state_code":"AV","country_code":"IT"}},{"type":"Feature","geometry":{"type":"Point","coordinates":[15.02595,40.87042]},"properties":{"id":137096,"name":"Cassano Irpino","state_code":"AV","country_code":"IT"}},{"type":"Feature","geometry":{"type":"Point","coordinates":[15.18884,41.04832]},"properties":{"id":137129,"name":"Castel Baronia","state_code":"AV","country_code":"IT"}},{"type":"Feature","geometry":{"type":"Point","coordinates":[15.04331,40.93066]},"properties":{"id":137196,"name":"Castelfranci","state_code":"AV","country_code":"IT"}},{"type":"Feature","geometry":{"type":"Point","coordinates":[14.9864,40.9298]},"properties":{"id":137328,"name":"Castelvetere sul Calore","state_code":"AV","country_code":"IT"}},{"type":"Feature","geometry":{"type":"Point","coordinates":[14.61444,41.02042]},"properties":{"id":137595,"name":"Cervinara","state_code":"AV","country_code":"IT"}},{"type":"Feature","geometry":{"type":"Point","coordinates":[14.82774,40.89711]},"properties":{"id":137613,"name":"Cesinali","state_code":"AV","country_code":"IT"}},{"type":"Feature","geometry":{"type":"Point","coordinates":[14.78904,41.04632]},"properties":{"id":137642,"name":"Chianche","state_code":"AV","country_code":"IT"}},{"type":"Feature","geometry":{"type":"Point","coordinates":[14.91634,40.93312]},"properties":{"id":137693,"name":"Chiusano di San Domenico","state_code":"AV","country_code":"IT"}},{"type":"Feature","geometry":{"type":"Point","coordinates":[14.77747,40.86811]},"properties":{"id":137979,"name":"Contrada","state_code":"AV","country_code":"IT"}},{"type":"Feature","geometry":{"type":"Point","coordinates":[14.58716,40.88019]},"properties":{"id":138290,"name":"Domicella","state_code":"AV","country_code":"IT"}},{"type":"Feature","geometry":{"type":"Point","coordinates":[15.15072,41.07623]},"properties":{"id":138567,"name":"Flumeri","state_code":"AV","country_code":"IT"}},{"type":"Feature","geometry":{"type":"Point","coordinates":[15.02055,41.01812]},"properties":{"id":138595,"name":"Fontanarosa","state_code":"AV","country_code":"IT"}},{"type":"Feature","geometry":{"type":"Point","coordinates":[14.73254,40.85829]},"properties":{"id":138629,"name":"Forino","state_code":"AV","country_code":"IT"}},{"type":"Feature","geometry":{"type":"Point","coordinates":[15.10026,41.01103]},"properties":{"id":138733,"name":"Frigento","state_code":"AV","country_code":"IT"}},{"type":"Feature","geometry":{"type":"Point","coordinates":[15.07262,41.00554]},"properties":{"id":138928,"name":"Gesualdo","state_code":"AV","country_code":"IT"}},{"type":"Feature","geometry":{"type":"Point","coordinates":[15.16915,41.25182]},"properties":{"id":139086,"name":"Greci","state_code":"AV","country_code":"IT"}},{"type":"Feature","geometry":{"type":"Point","coordinates":[15.05894,41.06972]},"properties":{"id":139122,"name":"Grottaminarda","state_code":"AV","country_code":"IT"}},{"type":"Feature","geometry":{"type":"Point","coordinates":[14.78894,40.97144]},"properties":{"id":139131,"name":"Grottolella","state_code":"AV","country_code":"IT"}},{"type":"Feature","geometry":{"type":"Point","coordinates":[15.20878,40.95177]},"properties":{"id":139159,"name":"Guardia Lombardi","state_code":"AV","country_code":"IT"}},{"type":"Feature","geometry":{"type":"Point","coordinates":[15.42169,41.05022]},"properties":{"id":139314,"name":"Lacedonia","state_code":"AV","country_code":"IT"}},{"type":"Feature","geometry":{"type":"Point","coordinates":[14.9465,40.98293]},"properties":{"id":139368,"name":"Lapio","state_code":"AV","country_code":"IT"}},{"type":"Feature","geometry":{"type":"Point","coordinates":[14.63013,40.87972]},"properties":{"id":139406,"name":"Lauro","state_code":"AV","country_code":"IT"}},{"type":"Feature","geometry":{"type":"Point","coordinates":[15.18335,40.88083]},"properties":{"id":139532,"name":"Lioni","state_code":"AV","country_code":"IT"}},{"type":"Feature","geometry":{"type":"Point","coordinates":[14.99206,40.98643]},"properties":{"id":139662,"name":"Luogosano","state_code":"AV","country_code":"IT"}},{"type":"Feature","geometry":{"type":"Point","coordinates":[14.84767,40.94151]},"properties":{"id":139801,"name":"Manocalzati","state_code":"AV","country_code":"IT"}},{"type":"Feature","geometry":{"type":"Point","coordinates":[14.58359,40.90141]},"properties":{"id":139947,"name":"Marzano di Nola","state_code":"AV","country_code":"IT"}},{"type":"Feature","geometry":{"type":"Point","coordinates":[15.05235,41.10312]},"properties":{"id":140050,"name":"Melito Irpino","state_code":"AV","country_code":"IT"}},{"type":"Feature","geometry":{"type":"Point","coordinates":[14.74491,40.92157]},"properties":{"id":140081,"name":"Mercogliano","state_code":"AV","country_code":"IT"}},{"type":"Feature","geometry":{"type":"Point","coordinates":[15.00022,41.04496]},"properties":{"id":140167,"name":"Mirabella Eclano","state_code":"AV","country_code":"IT"}},{"type":"Feature","geometry":{"type":"Point","coordinates":[15.24845,41.24873]},"properties":{"id":140313,"name":"Montaguto","state_code":"AV","country_code":"IT"}},{"type":"Feature","geometry":{"type":"Point","coordinates":[15.03446,41.19616]},"properties":{"id":140396,"name":"Montecalvo Irpino","state_code":"AV","country_code":"IT"}},{"type":"Feature","geometry":{"type":"Point","coordinates":[14.88312,40.96173]},"properties":{"id":140429,"name":"Montefalcione","state_code":"AV","country_code":"IT"}},{"type":"Feature","geometry":{"type":"Point","coordinates":[14.744,40.90246]},"properties":{"id":140444,"name":"Monteforte Irpino","state_code":"AV","country_code":"IT"}},{"type":"Feature","geometry":{"type":"Point","coordinates":[14.81374,40.95978]},"properties":{"id":140448,"name":"Montefredane","state_code":"AV","country_code":"IT"}},{"type":"Feature","geometry":{"type":"Point","coordinates":[14.85498,41.03691]},"properties":{"id":140449,"name":"Montefusco","state_code":"AV","country_code":"IT"}},{"type":"Feature","geometry":{"type":"Point","coordinates":[15.01785,40.84372]},"properties":{"id":140476,"name":"Montella","state_code":"AV","country_code":"IT"}},{"type":"Feature","geometry":{"type":"Point","coordinates":[14.99766,40.91414]},"properties":{"id":140487,"name":"Montemarano","state_code":"AV","country_code":"IT"}},{"type":"Feature","geometry":{"type":"Point","coordinates":[14.90034,41.01168]},"properties":{"id":140494,"name":"Montemiletto","state_code":"AV","country_code":"IT"}},{"type":"Feature","geometry":{"type":"Point","coordinates":[15.53361,40.99858]},"properties":{"id":140549,"name":"Monteverde","state_code":"AV","country_code":"IT"}},{"type":"Feature","geometry":{"type":"Point","coordinates":[15.24285,40.92902]},"properties":{"id":140631,"name":"Morra de Sanctis","state_code":"AV","country_code":"IT"}},{"type":"Feature","geometry":{"type":"Point","coordinates":[14.65594,40.87311]},"properties":{"id":140645,"name":"Moschiano","state_code":"AV","country_code":"IT"}},{"type":"Feature","geometry":{"type":"Point","coordinates":[14.6361,40.94248]},"properties":{"id":140679,"name":"Mugnano del Cardinale","state_code":"AV","country_code":"IT"}},{"type":"Feature","geometry":{"type":"Point","coordinates":[15.33645,40.8586]},"properties":{"id":140850,"name":"Nuova Conza della Campania","state_code":"AV","country_code":"IT"}},{"type":"Feature","geometry":{"type":"Point","coordinates":[15.09185,40.8882]},"properties":{"id":140861,"name":"Nusco","state_code":"AV","country_code":"IT"}},{"type":"Feature","geometry":{"type":"Point","coordinates":[14.74652,40.93906]},"properties":{"id":141020,"name":"Ospedaletto d'Alpinolo","state_code":"AV","country_code":"IT"}},{"type":"Feature","geometry":{"type":"Point","coordinates":[14.60764,40.89721]},"properties":{"id":58214,"name":"Pago del Vallo di Lauro","state_code":"AV","country_code":"IT"}},{"type":"Feature","geometry":{"type":"Point","coordinates":[14.88172,40.93045]},"properties":{"id":58311,"name":"Parolise","state_code":"AV","country_code":"IT"}},{"type":"Feature","geometry":{"type":"Point","coordinates":[15.01649,41.05468]},"properties":{"id":58332,"name":"Passo di Mirabella-Pianopantano","state_code":"AV","country_code":"IT"}},{"type":"Feature","geometry":{"type":"Point","coordinates":[15.03242,40.97268]},"properties":{"id":58345,"name":"Paternopoli","state_code":"AV","country_code":"IT"}},{"type":"Feature","geometry":{"type":"Point","coordinates":[14.79754,41.03192]},"properties":{"id":58488,"name":"Petruro Irpino","state_code":"AV","country_code":"IT"}},{"type":"Feature","geometry":{"type":"Point","coordinates":[14.88415,41.04316]},"properties":{"id":58611,"name":"Pietradefusi","state_code":"AV","country_code":"IT"}},{"type":"Feature","geometry":{"type":"Point","coordinates":[14.71833,40.99535]},"properties":{"id":58626,"name":"Pietrastornina","state_code":"AV","country_code":"IT"}},{"type":"Feature","geometry":{"type":"Point","coordinates":[14.83803,40.98626]},"properties":{"id":59017,"name":"Prata di Principato Ultra","state_code":"AV","country_code":"IT"}},{"type":"Feature","geometry":{"type":"Point","coordinates":[14.85149,40.98655]},"properties":{"id":59034,"name":"Pratola Serra","state_code":"AV","country_code":"IT"}},{"type":"Feature","geometry":{"type":"Point","coordinates":[14.63934,40.94851]},"properties":{"id":59211,"name":"Quadrelle","state_code":"AV","country_code":"IT"}},{"type":"Feature","geometry":{"type":"Point","coordinates":[14.64663,40.86497]},"properties":{"id":59245,"name":"Quindici","state_code":"AV","country_code":"IT"}},{"type":"Feature","geometry":{"type":"Point","coordinates":[15.16656,40.95014]},"properties":{"id":59477,"name":"Rocca San Felice","state_code":"AV","country_code":"IT"}},{"type":"Feature","geometry":{"type":"Point","coordinates":[14.71684,41.01842]},"properties":{"id":59490,"name":"Roccabascerana","state_code":"AV","country_code":"IT"}},{"type":"Feature","geometry":{"type":"Point","coordinates":[14.59548,41.03293]},"properties":{"id":59661,"name":"Rotondi","state_code":"AV","country_code":"IT"}},{"type":"Feature","geometry":{"type":"Point","coordinates":[14.87343,40.85536]},"properties":{"id":59738,"name":"Sala","state_code":"AV","country_code":"IT"}},{"type":"Feature","geometry":{"type":"Point","coordinates":[14.88996,40.91893]},"properties":{"id":59793,"name":"Salza Irpina","state_code":"AV","country_code":"IT"}},{"type":"Feature","geometry":{"type":"Point","coordinates":[14.97251,40.9589]},"properties":{"id":60056,"name":"San Mango sul Calore","state_code":"AV","country_code":"IT"}},{"type":"Feature","geometry":{"type":"Point","coordinates":[14.66446,41.02764]},"properties":{"id":60078,"name":"San Martino Valle Caudina","state_code":"AV","country_code":"IT"}},{"type":"Feature","geometry":{"type":"Point","coordinates":[14.85464,40.87562]},"properties":{"id":60125,"name":"San Michele di Serino","state_code":"AV","country_code":"IT"}},{"type":"Feature","geometry":{"type":"Point","coordinates":[15.20006,41.05808]},"properties":{"id":60138,"name":"San Nicola Baronia","state_code":"AV","country_code":"IT"}},{"type":"Feature","geometry":{"type":"Point","coordinates":[14.78476,40.82398]},"properties":{"id":60172,"name":"San Pietro","state_code":"AV","country_code":"IT"}},{"type":"Feature","geometry":{"type":"Point","coordinates":[14.87124,40.92796]},"properties":{"id":60212,"name":"San Potito Ultra","state_code":"AV","country_code":"IT"}},{"type":"Feature","geometry":{"type":"Point","coordinates":[15.20122,41.07081]},"properties":{"id":60246,"name":"San Sossio Baronia","state_code":"AV","country_code":"IT"}},{"type":"Feature","geometry":{"type":"Point","coordinates":[15.36965,40.84482]},"properties":{"id":60348,"name":"Sant'Andrea di Conza","state_code":"AV","country_code":"IT"}},{"type":"Feature","geometry":{"type":"Point","coordinates":[14.74041,40.97465]},"properties":{"id":60355,"name":"Sant'Angelo A Scala","state_code":"AV","country_code":"IT"}},{"type":"Feature","geometry":{"type":"Point","coordinates":[14.99305,41.00662]},"properties":{"id":60356,"name":"Sant'Angelo All'Esca","state_code":"AV","country_code":"IT"}},{"type":"Feature","geometry":{"type":"Point","coordinates":[15.17535,40.92937]},"properties":{"id":60363,"name":"Sant'Angelo dei Lombardi","state_code":"AV","country_code":"IT"}},{"type":"Feature","geometry":{"type":"Point","coordinates":[14.88931,41.03741]},"properties":{"id":60394,"name":"Sant'Elena Irpina","state_code":"AV","country_code":"IT"}},{"type":"Feature","geometry":{"type":"Point","coordinates":[14.87594,40.87042]},"properties":{"id":60449,"name":"Santa Lucia di Serino","state_code":"AV","country_code":"IT"}},{"type":"Feature","geometry":{"type":"Point","coordinates":[14.8463,41.02202]},"properties":{"id":60488,"name":"Santa Paolina","state_code":"AV","country_code":"IT"}},{"type":"Feature","geometry":{"type":"Point","coordinates":[14.86674,40.89414]},"properties":{"id":60519,"name":"Santo Stefano del Sole","state_code":"AV","country_code":"IT"}},{"type":"Feature","geometry":{"type":"Point","coordinates":[15.17933,41.22698]},"properties":{"id":60588,"name":"Savignano Irpino","state_code":"AV","country_code":"IT"}},{"type":"Feature","geometry":{"type":"Point","coordinates":[15.29995,41.09252]},"properties":{"id":60614,"name":"Scampitella","state_code":"AV","country_code":"IT"}},{"type":"Feature","geometry":{"type":"Point","coordinates":[15.20502,40.74133]},"properties":{"id":60722,"name":"Senerchia","state_code":"AV","country_code":"IT"}},{"type":"Feature","geometry":{"type":"Point","coordinates":[14.87224,40.85481]},"properties":{"id":60742,"name":"Serino","state_code":"AV","country_code":"IT"}},{"type":"Feature","geometry":{"type":"Point","coordinates":[14.62935,40.94969]},"properties":{"id":60872,"name":"Sirignano","state_code":"AV","country_code":"IT"}},{"type":"Feature","geometry":{"type":"Point","coordinates":[14.83705,40.83343]},"properties":{"id":60921,"name":"Solofra","state_code":"AV","country_code":"IT"}},{"type":"Feature","geometry":{"type":"Point","coordinates":[14.88709,40.91685]},"properties":{"id":60950,"name":"Sorbo Serpico","state_code":"AV","country_code":"IT"}},{"type":"Feature","geometry":{"type":"Point","coordinates":[14.60524,40.95251]},"properties":{"id":60999,"name":"Sperone","state_code":"AV","country_code":"IT"}},{"type":"Feature","geometry":{"type":"Point","coordinates":[15.11248,41.02217]},"properties":{"id":61105,"name":"Sturno","state_code":"AV","country_code":"IT"}},{"type":"Feature","geometry":{"type":"Point","coordinates":[14.74458,40.94874]},"properties":{"id":61120,"name":"Summonte","state_code":"AV","country_code":"IT"}},{"type":"Feature","geometry":{"type":"Point","coordinates":[14.63427,40.88444]},"properties":{"id":61174,"name":"Taurano","state_code":"AV","country_code":"IT"}},{"type":"Feature","geometry":{"type":"Point","coordinates":[14.9598,41.0108]},"properties":{"id":61175,"name":"Taurasi","state_code":"AV","country_code":"IT"}},{"type":"Feature","geometry":{"type":"Point","coordinates":[15.25335,40.85282]},"properties":{"id":61216,"name":"Teora","state_code":"AV","country_code":"IT"}},{"type":"Feature","geometry":{"type":"Point","coordinates":[15.10784,40.93731]},"properties":{"id":61324,"name":"Torella dei Lombardi","state_code":"AV","country_code":"IT"}},{"type":"Feature","geometry":{"type":"Point","coordinates":[14.75184,40.90777]},"properties":{"id":61326,"name":"Torelli-Torrette","state_code":"AV","country_code":"IT"}},{"type":"Feature","geometry":{"type":"Point","coordinates":[14.90934,41.02312]},"properties":{"id":61377,"name":"Torre le Nocelle","state_code":"AV","country_code":"IT"}},{"type":"Feature","geometry":{"type":"Point","coordinates":[14.81351,41.0341]},"properties":{"id":61408,"name":"Torrioni","state_code":"AV","country_code":"IT"}},{"type":"Feature","geometry":{"type":"Point","coordinates":[14.62039,41.02256]},"properties":{"id":61493,"name":"Trescine","state_code":"AV","country_code":"IT"}},{"type":"Feature","geometry":{"type":"Point","coordinates":[15.23292,41.04808]},"properties":{"id":61503,"name":"Trevico","state_code":"AV","country_code":"IT"}},{"type":"Feature","geometry":{"type":"Point","coordinates":[14.81784,41.01262]},"properties":{"id":61565,"name":"Tufo","state_code":"AV","country_code":"IT"}},{"type":"Feature","geometry":{"type":"Point","coordinates":[15.25383,41.04019]},"properties":{"id":61683,"name":"Vallata","state_code":"AV","country_code":"IT"}},{"type":"Feature","geometry":{"type":"Point","coordinates":[15.25205,41.06312]},"properties":{"id":61716,"name":"Vallesaccarda","state_code":"AV","country_code":"IT"}},{"type":"Feature","geometry":{"type":"Point","coordinates":[14.91194,41.04722]},"properties":{"id":61824,"name":"Venticano","state_code":"AV","country_code":"IT"}},{"type":"Feature","geometry":{"type":"Point","coordinates":[15.08855,40.97144]},"properties":{"id":62081,"name":"Villamaina","state_code":"AV","country_code":"IT"}},{"type":"Feature","geometry":{"type":"Point","coordinates":[15.15839,41.11897]},"properties":{"id":62108,"name":"Villanova del Battista","state_code":"AV","country_code":"IT"}},{"type":"Feature","geometry":{"type":"Point","coordinates":[14.91801,40.88293]},"properties":{"id":62221,"name":"Volturara Irpina","state_code":"AV","country_code":"IT"}},{"type":"Feature","geometry":{"type":"Point","coordinates":[15.20255,41.12766]},"properties":{"id":62286,"name":"Zungoli","state_code":"AV","country_code":"IT"}}]}