{"type":"FeatureCollection","features":[{"type":"Feature","geometry":{"type":"Point","coordinates":[13.71783,42.17677]},"properties":{"id":135250,"name":"Acciano","state_code":"AQ","country_code":"IT"}},{"type":"Feature","geometry":{"type":"Point","coordinates":[13.59113,42.08146]},"properties":{"id":135325,"name":"Aielli","state_code":"AQ","country_code":"IT"}},{"type":"Feature","geometry":{"type":"Point","coordinates":[14.035,41.73545]},"properties":{"id":135400,"name":"Alfedena","state_code":"AQ","country_code":"IT"}},{"type":"Feature","geometry":{"type":"Point","coordinates":[13.80379,41.99478]},"properties":{"id":135523,"name":"Anversa degli Abruzzi","state_code":"AQ","country_code":"IT"}},{"type":"Feature","geometry":{"type":"Point","coordinates":[14.19806,41.85435]},"properties":{"id":135672,"name":"Ateleta","state_code":"AQ","country_code":"IT"}},{"type":"Feature","geometry":{"type":"Point","coordinates":[13.42641,42.02896]},"properties":{"id":135704,"name":"Avezzano","state_code":"AQ","country_code":"IT"}},{"type":"Feature","geometry":{"type":"Point","coordinates":[13.5598,41.80982]},"properties":{"id":135795,"name":"Balsorano","state_code":"AQ","country_code":"IT"}},{"type":"Feature","geometry":{"type":"Point","coordinates":[13.56069,41.80881]},"properties":{"id":135796,"name":"Balsorano Nuovo","state_code":"AQ","country_code":"IT"}},{"type":"Feature","geometry":{"type":"Point","coordinates":[13.28061,42.45009]},"properties":{"id":135847,"name":"Barete","state_code":"AQ","country_code":"IT"}},{"type":"Feature","geometry":{"type":"Point","coordinates":[13.59036,42.32465]},"properties":{"id":135858,"name":"Barisciano","state_code":"AQ","country_code":"IT"}},{"type":"Feature","geometry":{"type":"Point","coordinates":[13.99095,41.75543]},"properties":{"id":135870,"name":"Barrea","state_code":"AQ","country_code":"IT"}},{"type":"Feature","geometry":{"type":"Point","coordinates":[13.7576,41.92113]},"properties":{"id":136062,"name":"Bisegna","state_code":"AQ","country_code":"IT"}},{"type":"Feature","geometry":{"type":"Point","coordinates":[13.86141,42.02383]},"properties":{"id":136397,"name":"Bugnara","state_code":"AQ","country_code":"IT"}},{"type":"Feature","geometry":{"type":"Point","coordinates":[13.22789,42.45744]},"properties":{"id":136470,"name":"Cagnano Amiterno","state_code":"AQ","country_code":"IT"}},{"type":"Feature","geometry":{"type":"Point","coordinates":[13.69699,42.32595]},"properties":{"id":136494,"name":"Calascio","state_code":"AQ","country_code":"IT"}},{"type":"Feature","geometry":{"type":"Point","coordinates":[14.03941,42.01013]},"properties":{"id":136635,"name":"Campo di Giove","state_code":"AQ","country_code":"IT"}},{"type":"Feature","geometry":{"type":"Point","coordinates":[13.36799,42.55884]},"properties":{"id":136683,"name":"Campotosto","state_code":"AQ","country_code":"IT"}},{"type":"Feature","geometry":{"type":"Point","coordinates":[13.41194,41.94101]},"properties":{"id":136716,"name":"Canistro Inferiore","state_code":"AQ","country_code":"IT"}},{"type":"Feature","geometry":{"type":"Point","coordinates":[14.01341,42.0035]},"properties":{"id":136736,"name":"Cansano","state_code":"AQ","country_code":"IT"}},{"type":"Feature","geometry":{"type":"Point","coordinates":[13.76779,42.26807]},"properties":{"id":136765,"name":"Capestrano","state_code":"AQ","country_code":"IT"}},{"type":"Feature","geometry":{"type":"Point","coordinates":[13.39616,41.97223]},"properties":{"id":136771,"name":"Capistrello","state_code":"AQ","country_code":"IT"}},{"type":"Feature","geometry":{"type":"Point","coordinates":[13.30122,42.52041]},"properties":{"id":136774,"name":"Capitignano","state_code":"AQ","country_code":"IT"}},{"type":"Feature","geometry":{"type":"Point","coordinates":[13.67455,42.25001]},"properties":{"id":136786,"name":"Caporciano","state_code":"AQ","country_code":"IT"}},{"type":"Feature","geometry":{"type":"Point","coordinates":[13.27806,42.00755]},"properties":{"id":136790,"name":"Cappadocia","state_code":"AQ","country_code":"IT"}},{"type":"Feature","geometry":{"type":"Point","coordinates":[13.68643,42.29908]},"properties":{"id":136835,"name":"Carapelle Calvisio","state_code":"AQ","country_code":"IT"}},{"type":"Feature","geometry":{"type":"Point","coordinates":[13.08856,42.09882]},"properties":{"id":136936,"name":"Carsoli","state_code":"AQ","country_code":"IT"}},{"type":"Feature","geometry":{"type":"Point","coordinates":[13.72592,42.36544]},"properties":{"id":137165,"name":"Castel del Monte","state_code":"AQ","country_code":"IT"}},{"type":"Feature","geometry":{"type":"Point","coordinates":[13.742,42.11353]},"properties":{"id":137169,"name":"Castel di Ieri","state_code":"AQ","country_code":"IT"}},{"type":"Feature","geometry":{"type":"Point","coordinates":[14.10653,41.78392]},"properties":{"id":137173,"name":"Castel di Sangro","state_code":"AQ","country_code":"IT"}},{"type":"Feature","geometry":{"type":"Point","coordinates":[13.3344,41.98913]},"properties":{"id":137210,"name":"Castellafiume","state_code":"AQ","country_code":"IT"}},{"type":"Feature","geometry":{"type":"Point","coordinates":[13.6872,42.31134]},"properties":{"id":137321,"name":"Castelvecchio Calvisio","state_code":"AQ","country_code":"IT"}},{"type":"Feature","geometry":{"type":"Point","coordinates":[13.72868,42.12881]},"properties":{"id":137322,"name":"Castelvecchio Subequo","state_code":"AQ","country_code":"IT"}},{"type":"Feature","geometry":{"type":"Point","coordinates":[13.517,42.08077]},"properties":{"id":137462,"name":"Celano","state_code":"AQ","country_code":"IT"}},{"type":"Feature","geometry":{"type":"Point","coordinates":[13.60006,42.06357]},"properties":{"id":137525,"name":"Cerchio","state_code":"AQ","country_code":"IT"}},{"type":"Feature","geometry":{"type":"Point","coordinates":[13.47215,41.88629]},"properties":{"id":137787,"name":"Civita d'Antino","state_code":"AQ","country_code":"IT"}},{"type":"Feature","geometry":{"type":"Point","coordinates":[13.94271,41.76533]},"properties":{"id":137795,"name":"Civitella Alfedena","state_code":"AQ","country_code":"IT"}},{"type":"Feature","geometry":{"type":"Point","coordinates":[13.42396,41.91329]},"properties":{"id":137799,"name":"Civitella Roveto","state_code":"AQ","country_code":"IT"}},{"type":"Feature","geometry":{"type":"Point","coordinates":[13.775,42.03283]},"properties":{"id":137826,"name":"Cocullo","state_code":"AQ","country_code":"IT"}},{"type":"Feature","geometry":{"type":"Point","coordinates":[13.6267,42.06031]},"properties":{"id":137857,"name":"Collarmele","state_code":"AQ","country_code":"IT"}},{"type":"Feature","geometry":{"type":"Point","coordinates":[13.5838,41.88659]},"properties":{"id":137884,"name":"Collelongo","state_code":"AQ","country_code":"IT"}},{"type":"Feature","geometry":{"type":"Point","coordinates":[13.78101,42.22089]},"properties":{"id":137889,"name":"Collepietro","state_code":"AQ","country_code":"IT"}},{"type":"Feature","geometry":{"type":"Point","coordinates":[13.4325,42.31248]},"properties":{"id":137941,"name":"Cominio","state_code":"AQ","country_code":"IT"}},{"type":"Feature","geometry":{"type":"Point","coordinates":[13.34358,42.3673]},"properties":{"id":137989,"name":"Coppito","state_code":"AQ","country_code":"IT"}},{"type":"Feature","geometry":{"type":"Point","coordinates":[13.8394,42.12149]},"properties":{"id":138008,"name":"Corfinio","state_code":"AQ","country_code":"IT"}},{"type":"Feature","geometry":{"type":"Point","coordinates":[13.60613,42.23027]},"properties":{"id":138609,"name":"Fontecchio","state_code":"AQ","country_code":"IT"}},{"type":"Feature","geometry":{"type":"Point","coordinates":[13.48779,42.29273]},"properties":{"id":138667,"name":"Fossa","state_code":"AQ","country_code":"IT"}},{"type":"Feature","geometry":{"type":"Point","coordinates":[13.70023,42.12598]},"properties":{"id":138781,"name":"Gagliano Aterno","state_code":"AQ","country_code":"IT"}},{"type":"Feature","geometry":{"type":"Point","coordinates":[13.69057,41.95697]},"properties":{"id":138970,"name":"Gioia dei Marsi","state_code":"AQ","country_code":"IT"}},{"type":"Feature","geometry":{"type":"Point","coordinates":[13.77459,42.08011]},"properties":{"id":139031,"name":"Goriano Sicoli","state_code":"AQ","country_code":"IT"}},{"type":"Feature","geometry":{"type":"Point","coordinates":[13.89779,42.00968]},"properties":{"id":139212,"name":"Introdacqua","state_code":"AQ","country_code":"IT"}},{"type":"Feature","geometry":{"type":"Point","coordinates":[13.39954,42.35055]},"properties":{"id":139285,"name":"L'Aquila","state_code":"AQ","country_code":"IT"}},{"type":"Feature","geometry":{"type":"Point","coordinates":[13.6843,41.93436]},"properties":{"id":139431,"name":"Lecce Nei Marsi","state_code":"AQ","country_code":"IT"}},{"type":"Feature","geometry":{"type":"Point","coordinates":[13.47349,41.95925]},"properties":{"id":139638,"name":"Luco dei Marsi","state_code":"AQ","country_code":"IT"}},{"type":"Feature","geometry":{"type":"Point","coordinates":[13.33799,42.29093]},"properties":{"id":139639,"name":"Lucoli","state_code":"AQ","country_code":"IT"}},{"type":"Feature","geometry":{"type":"Point","coordinates":[13.36379,42.09153]},"properties":{"id":139725,"name":"Magliano De'Marsi","state_code":"AQ","country_code":"IT"}},{"type":"Feature","geometry":{"type":"Point","coordinates":[13.39429,42.10723]},"properties":{"id":139975,"name":"Massa d'Albe-Corona","state_code":"AQ","country_code":"IT"}},{"type":"Feature","geometry":{"type":"Point","coordinates":[13.7354,42.14903]},"properties":{"id":140214,"name":"Molina Aterno","state_code":"AQ","country_code":"IT"}},{"type":"Feature","geometry":{"type":"Point","coordinates":[13.24585,42.52332]},"properties":{"id":140514,"name":"Montereale","state_code":"AQ","country_code":"IT"}},{"type":"Feature","geometry":{"type":"Point","coordinates":[13.46382,42.32035]},"properties":{"id":140557,"name":"Monticchio","state_code":"AQ","country_code":"IT"}},{"type":"Feature","geometry":{"type":"Point","coordinates":[13.457,41.86442]},"properties":{"id":140620,"name":"Morino","state_code":"AQ","country_code":"IT"}},{"type":"Feature","geometry":{"type":"Point","coordinates":[13.72961,42.23721]},"properties":{"id":140731,"name":"Navelli","state_code":"AQ","country_code":"IT"}},{"type":"Feature","geometry":{"type":"Point","coordinates":[13.46755,42.33623]},"properties":{"id":140842,"name":"Nucleo Industriale di Bazzano","state_code":"AQ","country_code":"IT"}},{"type":"Feature","geometry":{"type":"Point","coordinates":[13.75864,42.32536]},"properties":{"id":140874,"name":"Ofena","state_code":"AQ","country_code":"IT"}},{"type":"Feature","geometry":{"type":"Point","coordinates":[13.82932,41.77838]},"properties":{"id":140932,"name":"Opi","state_code":"AQ","country_code":"IT"}},{"type":"Feature","geometry":{"type":"Point","coordinates":[13.03939,42.04922]},"properties":{"id":140952,"name":"Oricola","state_code":"AQ","country_code":"IT"}},{"type":"Feature","geometry":{"type":"Point","coordinates":[13.72909,41.9982]},"properties":{"id":140988,"name":"Ortona dei Marsi","state_code":"AQ","country_code":"IT"}},{"type":"Feature","geometry":{"type":"Point","coordinates":[13.64651,41.95525]},"properties":{"id":140990,"name":"Ortucchio","state_code":"AQ","country_code":"IT"}},{"type":"Feature","geometry":{"type":"Point","coordinates":[13.51603,42.13765]},"properties":{"id":141058,"name":"Ovindoli","state_code":"AQ","country_code":"IT"}},{"type":"Feature","geometry":{"type":"Point","coordinates":[13.99151,42.05043]},"properties":{"id":141070,"name":"Pacentro","state_code":"AQ","country_code":"IT"}},{"type":"Feature","geometry":{"type":"Point","coordinates":[13.47138,42.35715]},"properties":{"id":141095,"name":"Paganica-Tempera","state_code":"AQ","country_code":"IT"}},{"type":"Feature","geometry":{"type":"Point","coordinates":[13.10231,42.05821]},"properties":{"id":58420,"name":"Pereto","state_code":"AQ","country_code":"IT"}},{"type":"Feature","geometry":{"type":"Point","coordinates":[13.78707,41.80343]},"properties":{"id":58452,"name":"Pescasseroli","state_code":"AQ","country_code":"IT"}},{"type":"Feature","geometry":{"type":"Point","coordinates":[13.65116,42.02351]},"properties":{"id":58459,"name":"Pescina","state_code":"AQ","country_code":"IT"}},{"type":"Feature","geometry":{"type":"Point","coordinates":[14.06614,41.88722]},"properties":{"id":58461,"name":"Pescocostanzo","state_code":"AQ","country_code":"IT"}},{"type":"Feature","geometry":{"type":"Point","coordinates":[13.96001,41.97326]},"properties":{"id":58493,"name":"Pettorano sul Gizio","state_code":"AQ","country_code":"IT"}},{"type":"Feature","geometry":{"type":"Point","coordinates":[13.40394,42.32341]},"properties":{"id":58548,"name":"Pianola","state_code":"AQ","country_code":"IT"}},{"type":"Feature","geometry":{"type":"Point","coordinates":[13.29886,42.43603]},"properties":{"id":58728,"name":"Pizzoli","state_code":"AQ","country_code":"IT"}},{"type":"Feature","geometry":{"type":"Point","coordinates":[13.54036,42.32061]},"properties":{"id":58759,"name":"Poggio Picenze","state_code":"AQ","country_code":"IT"}},{"type":"Feature","geometry":{"type":"Point","coordinates":[13.82997,42.16866]},"properties":{"id":58900,"name":"Popoli","state_code":"AQ","country_code":"IT"}},{"type":"Feature","geometry":{"type":"Point","coordinates":[13.6083,42.27793]},"properties":{"id":59015,"name":"Prata d'Ansidonia","state_code":"AQ","country_code":"IT"}},{"type":"Feature","geometry":{"type":"Point","coordinates":[13.87467,42.09701]},"properties":{"id":59033,"name":"Pratola Peligna","state_code":"AQ","country_code":"IT"}},{"type":"Feature","geometry":{"type":"Point","coordinates":[13.29633,42.37808]},"properties":{"id":59070,"name":"Preturo","state_code":"AQ","country_code":"IT"}},{"type":"Feature","geometry":{"type":"Point","coordinates":[13.83592,42.05789]},"properties":{"id":59072,"name":"Prezza","state_code":"AQ","country_code":"IT"}},{"type":"Feature","geometry":{"type":"Point","coordinates":[13.4441,42.33643]},"properties":{"id":59087,"name":"Progetto Case Bazzano","state_code":"AQ","country_code":"IT"}},{"type":"Feature","geometry":{"type":"Point","coordinates":[13.31973,42.36981]},"properties":{"id":59088,"name":"Progetto Case Coppito 3","state_code":"AQ","country_code":"IT"}},{"type":"Feature","geometry":{"type":"Point","coordinates":[13.31509,42.3656]},"properties":{"id":59089,"name":"Progetto Case Sassa Nsi","state_code":"AQ","country_code":"IT"}},{"type":"Feature","geometry":{"type":"Point","coordinates":[13.81386,42.10158]},"properties":{"id":59270,"name":"Raiano","state_code":"AQ","country_code":"IT"}},{"type":"Feature","geometry":{"type":"Point","coordinates":[14.06671,41.87023]},"properties":{"id":59439,"name":"Rivisondoli","state_code":"AQ","country_code":"IT"}},{"type":"Feature","geometry":{"type":"Point","coordinates":[13.07185,42.03102]},"properties":{"id":59483,"name":"Rocca di Botte","state_code":"AQ","country_code":"IT"}},{"type":"Feature","geometry":{"type":"Point","coordinates":[13.48906,42.23755]},"properties":{"id":59484,"name":"Rocca di Cambio","state_code":"AQ","country_code":"IT"}},{"type":"Feature","geometry":{"type":"Point","coordinates":[13.5184,42.20441]},"properties":{"id":59487,"name":"Rocca di Mezzo","state_code":"AQ","country_code":"IT"}},{"type":"Feature","geometry":{"type":"Point","coordinates":[13.97726,41.93429]},"properties":{"id":59473,"name":"Rocca Pia","state_code":"AQ","country_code":"IT"}},{"type":"Feature","geometry":{"type":"Point","coordinates":[13.88758,42.12249]},"properties":{"id":59494,"name":"Roccacasale","state_code":"AQ","country_code":"IT"}},{"type":"Feature","geometry":{"type":"Point","coordinates":[14.07846,41.84872]},"properties":{"id":59516,"name":"Roccaraso","state_code":"AQ","country_code":"IT"}},{"type":"Feature","geometry":{"type":"Point","coordinates":[13.53662,41.81214]},"properties":{"id":59531,"name":"Roccavivi","state_code":"AQ","country_code":"IT"}},{"type":"Feature","geometry":{"type":"Point","coordinates":[13.62381,42.0076]},"properties":{"id":59831,"name":"San Benedetto dei Marsi","state_code":"AQ","country_code":"IT"}},{"type":"Feature","geometry":{"type":"Point","coordinates":[13.76996,42.18377]},"properties":{"id":59833,"name":"San Benedetto in Perillis","state_code":"AQ","country_code":"IT"}},{"type":"Feature","geometry":{"type":"Point","coordinates":[13.55519,42.28963]},"properties":{"id":59892,"name":"San Demetrio Ne' Vestini","state_code":"AQ","country_code":"IT"}},{"type":"Feature","geometry":{"type":"Point","coordinates":[13.47518,42.28616]},"properties":{"id":60153,"name":"San Panfilo d'Ocre","state_code":"AQ","country_code":"IT"}},{"type":"Feature","geometry":{"type":"Point","coordinates":[13.6557,42.28423]},"properties":{"id":60203,"name":"San Pio delle Camere","state_code":"AQ","country_code":"IT"}},{"type":"Feature","geometry":{"type":"Point","coordinates":[13.53566,41.84452]},"properties":{"id":60269,"name":"San Vincenzo Valle Roveto","state_code":"AQ","country_code":"IT"}},{"type":"Feature","geometry":{"type":"Point","coordinates":[13.52425,42.28951]},"properties":{"id":60402,"name":"Sant'Eusanio Forconese","state_code":"AQ","country_code":"IT"}},{"type":"Feature","geometry":{"type":"Point","coordinates":[13.20163,42.10369]},"properties":{"id":60504,"name":"Sante Marie","state_code":"AQ","country_code":"IT"}},{"type":"Feature","geometry":{"type":"Point","coordinates":[13.64477,42.34339]},"properties":{"id":60524,"name":"Santo Stefano di Sessanio","state_code":"AQ","country_code":"IT"}},{"type":"Feature","geometry":{"type":"Point","coordinates":[13.29924,42.35204]},"properties":{"id":60565,"name":"Sassa","state_code":"AQ","country_code":"IT"}},{"type":"Feature","geometry":{"type":"Point","coordinates":[13.87961,41.90442]},"properties":{"id":60622,"name":"Scanno","state_code":"AQ","country_code":"IT"}},{"type":"Feature","geometry":{"type":"Point","coordinates":[14.0388,41.74681]},"properties":{"id":60662,"name":"Scontrone","state_code":"AQ","country_code":"IT"}},{"type":"Feature","geometry":{"type":"Point","coordinates":[13.25936,42.36948]},"properties":{"id":60665,"name":"Scoppito","state_code":"AQ","country_code":"IT"}},{"type":"Feature","geometry":{"type":"Point","coordinates":[13.33919,42.06313]},"properties":{"id":60670,"name":"Scurcola Marsicana","state_code":"AQ","country_code":"IT"}},{"type":"Feature","geometry":{"type":"Point","coordinates":[13.68145,42.15062]},"properties":{"id":60676,"name":"Secinaro","state_code":"AQ","country_code":"IT"}},{"type":"Feature","geometry":{"type":"Point","coordinates":[13.92578,42.04945]},"properties":{"id":61116,"name":"Sulmona","state_code":"AQ","country_code":"IT"}},{"type":"Feature","geometry":{"type":"Point","coordinates":[13.25469,42.06933]},"properties":{"id":61142,"name":"Tagliacozzo","state_code":"AQ","country_code":"IT"}},{"type":"Feature","geometry":{"type":"Point","coordinates":[13.6357,42.20393]},"properties":{"id":61280,"name":"Tione degli Abruzzi","state_code":"AQ","country_code":"IT"}},{"type":"Feature","geometry":{"type":"Point","coordinates":[13.30092,42.29007]},"properties":{"id":61336,"name":"Tornimparte","state_code":"AQ","country_code":"IT"}},{"type":"Feature","geometry":{"type":"Point","coordinates":[13.5327,41.95742]},"properties":{"id":61444,"name":"Trasacco","state_code":"AQ","country_code":"IT"}},{"type":"Feature","geometry":{"type":"Point","coordinates":[13.57467,42.25366]},"properties":{"id":61704,"name":"Vallecupa","state_code":"AQ","country_code":"IT"}},{"type":"Feature","geometry":{"type":"Point","coordinates":[13.5371,42.27043]},"properties":{"id":62022,"name":"Villa Sant'Angelo","state_code":"AQ","country_code":"IT"}},{"type":"Feature","geometry":{"type":"Point","coordinates":[13.77792,42.33286]},"properties":{"id":62025,"name":"Villa Santa Lucia degli Abruzzi","state_code":"AQ","country_code":"IT"}},{"type":"Feature","geometry":{"type":"Point","coordinates":[13.29999,42.29533]},"properties":{"id":62071,"name":"Villagrande","state_code":"AQ","country_code":"IT"}},{"type":"Feature","geometry":{"type":"Point","coordinates":[13.83868,41.93514]},"properties":{"id":62075,"name":"Villalago","state_code":"AQ","country_code":"IT"}},{"type":"Feature","geometry":{"type":"Point","coordinates":[13.62088,41.87104]},"properties":{"id":62145,"name":"Villavallelonga","state_code":"AQ","country_code":"IT"}},{"type":"Feature","geometry":{"type":"Point","coordinates":[13.93892,41.77646]},"properties":{"id":62151,"name":"Villetta Barrea","state_code":"AQ","country_code":"IT"}},{"type":"Feature","geometry":{"type":"Point","coordinates":[13.8167,42.12703]},"properties":{"id":62186,"name":"Vittorito","state_code":"AQ","country_code":"IT"}}]}