{"type":"FeatureCollection","features":[{"type":"Feature","geometry":{"type":"Point","coordinates":[12.03608,46.28201]},"properties":{"id":135312,"name":"Agordo","state_code":"BL","country_code":"IT"}},{"type":"Feature","geometry":{"type":"Point","coordinates":[12.02336,46.40718]},"properties":{"id":135415,"name":"Alleghe","state_code":"BL","country_code":"IT"}},{"type":"Feature","geometry":{"type":"Point","coordinates":[11.75794,45.98211]},"properties":{"id":135639,"name":"Arsiè","state_code":"BL","country_code":"IT"}},{"type":"Feature","geometry":{"type":"Point","coordinates":[12.42456,46.5592]},"properties":{"id":135693,"name":"Auronzo","state_code":"BL","country_code":"IT"}},{"type":"Feature","geometry":{"type":"Point","coordinates":[12.2156,46.14262]},"properties":{"id":135949,"name":"Belluno","state_code":"BL","country_code":"IT"}},{"type":"Feature","geometry":{"type":"Point","coordinates":[12.2223,46.43452]},"properties":{"id":136146,"name":"Borca","state_code":"BL","country_code":"IT"}},{"type":"Feature","geometry":{"type":"Point","coordinates":[12.17371,46.38608]},"properties":{"id":136232,"name":"Bortolot","state_code":"BL","country_code":"IT"}},{"type":"Feature","geometry":{"type":"Point","coordinates":[12.38176,46.44643]},"properties":{"id":136487,"name":"Calalzo di Cadore","state_code":"BL","country_code":"IT"}},{"type":"Feature","geometry":{"type":"Point","coordinates":[11.91429,46.35693]},"properties":{"id":136689,"name":"Canale d'Agordo","state_code":"BL","country_code":"IT"}},{"type":"Feature","geometry":{"type":"Point","coordinates":[12.51476,46.58913]},"properties":{"id":136704,"name":"Candide","state_code":"BL","country_code":"IT"}},{"type":"Feature","geometry":{"type":"Point","coordinates":[12.23507,46.12147]},"properties":{"id":137362,"name":"Castion","state_code":"BL","country_code":"IT"}},{"type":"Feature","geometry":{"type":"Point","coordinates":[11.97439,46.38072]},"properties":{"id":137463,"name":"Celat-San Tomaso Agordino","state_code":"BL","country_code":"IT"}},{"type":"Feature","geometry":{"type":"Point","coordinates":[11.96823,46.35184]},"properties":{"id":137489,"name":"Cencenighe Agordino","state_code":"BL","country_code":"IT"}},{"type":"Feature","geometry":{"type":"Point","coordinates":[11.98539,46.08675]},"properties":{"id":137615,"name":"Cesiomaggiore","state_code":"BL","country_code":"IT"}},{"type":"Feature","geometry":{"type":"Point","coordinates":[12.28658,46.38856]},"properties":{"id":137706,"name":"Cibiana","state_code":"BL","country_code":"IT"}},{"type":"Feature","geometry":{"type":"Point","coordinates":[12.01399,46.44852]},"properties":{"id":137865,"name":"Colle Santa Lucia","state_code":"BL","country_code":"IT"}},{"type":"Feature","geometry":{"type":"Point","coordinates":[12.13903,46.5369]},"properties":{"id":138067,"name":"Cortina d'Ampezzo","state_code":"BL","country_code":"IT"}},{"type":"Feature","geometry":{"type":"Point","coordinates":[12.52055,46.567]},"properties":{"id":138227,"name":"Danta","state_code":"BL","country_code":"IT"}},{"type":"Feature","geometry":{"type":"Point","coordinates":[12.40724,46.45666]},"properties":{"id":138289,"name":"Domegge di Cadore","state_code":"BL","country_code":"IT"}},{"type":"Feature","geometry":{"type":"Point","coordinates":[11.95598,46.22144]},"properties":{"id":138296,"name":"Don","state_code":"BL","country_code":"IT"}},{"type":"Feature","geometry":{"type":"Point","coordinates":[11.85712,46.35549]},"properties":{"id":138413,"name":"Falcade Alto","state_code":"BL","country_code":"IT"}},{"type":"Feature","geometry":{"type":"Point","coordinates":[12.35876,46.12079]},"properties":{"id":138451,"name":"Farra d'Alpago","state_code":"BL","country_code":"IT"}},{"type":"Feature","geometry":{"type":"Point","coordinates":[11.90031,46.02085]},"properties":{"id":138475,"name":"Feltre","state_code":"BL","country_code":"IT"}},{"type":"Feature","geometry":{"type":"Point","coordinates":[11.79897,46.0164]},"properties":{"id":138615,"name":"Fonzaso","state_code":"BL","country_code":"IT"}},{"type":"Feature","geometry":{"type":"Point","coordinates":[12.17913,46.3501]},"properties":{"id":138657,"name":"Forno di Zoldo","state_code":"BL","country_code":"IT"}},{"type":"Feature","geometry":{"type":"Point","coordinates":[12.12547,46.37589]},"properties":{"id":138763,"name":"Fusine","state_code":"BL","country_code":"IT"}},{"type":"Feature","geometry":{"type":"Point","coordinates":[11.9557,46.22142]},"properties":{"id":139043,"name":"Gosaldo","state_code":"BL","country_code":"IT"}},{"type":"Feature","geometry":{"type":"Point","coordinates":[12.06844,46.28198]},"properties":{"id":139308,"name":"La Valle Agordina","state_code":"BL","country_code":"IT"}},{"type":"Feature","geometry":{"type":"Point","coordinates":[11.74991,46.04717]},"properties":{"id":139347,"name":"Lamon","state_code":"BL","country_code":"IT"}},{"type":"Feature","geometry":{"type":"Point","coordinates":[12.38691,46.17276]},"properties":{"id":139348,"name":"Lamosano","state_code":"BL","country_code":"IT"}},{"type":"Feature","geometry":{"type":"Point","coordinates":[12.02053,46.04504]},"properties":{"id":139452,"name":"Lentiai","state_code":"BL","country_code":"IT"}},{"type":"Feature","geometry":{"type":"Point","coordinates":[12.18552,46.10039]},"properties":{"id":139515,"name":"Limana","state_code":"BL","country_code":"IT"}},{"type":"Feature","geometry":{"type":"Point","coordinates":[11.95399,46.48162]},"properties":{"id":139548,"name":"Livinallongo del Col di Lana","state_code":"BL","country_code":"IT"}},{"type":"Feature","geometry":{"type":"Point","coordinates":[12.29992,46.26579]},"properties":{"id":139591,"name":"Longarone","state_code":"BL","country_code":"IT"}},{"type":"Feature","geometry":{"type":"Point","coordinates":[12.45984,46.47954]},"properties":{"id":139606,"name":"Lorenzago di Cadore","state_code":"BL","country_code":"IT"}},{"type":"Feature","geometry":{"type":"Point","coordinates":[12.44493,46.48644]},"properties":{"id":139624,"name":"Lozzo di Cadore","state_code":"BL","country_code":"IT"}},{"type":"Feature","geometry":{"type":"Point","coordinates":[12.09,46.06379]},"properties":{"id":140034,"name":"Mel","state_code":"BL","country_code":"IT"}},{"type":"Feature","geometry":{"type":"Point","coordinates":[12.32263,46.32808]},"properties":{"id":141022,"name":"Ospitale di Cadore","state_code":"BL","country_code":"IT"}},{"type":"Feature","geometry":{"type":"Point","coordinates":[11.8831,46.03951]},"properties":{"id":58377,"name":"Pedavena","state_code":"BL","country_code":"IT"}},{"type":"Feature","geometry":{"type":"Point","coordinates":[12.35636,46.39383]},"properties":{"id":58412,"name":"Perarolo di Cadore","state_code":"BL","country_code":"IT"}},{"type":"Feature","geometry":{"type":"Point","coordinates":[11.87207,46.3566]},"properties":{"id":58583,"name":"Pie' Falcade","state_code":"BL","country_code":"IT"}},{"type":"Feature","geometry":{"type":"Point","coordinates":[12.35344,46.16658]},"properties":{"id":58645,"name":"Pieve d'Alpago","state_code":"BL","country_code":"IT"}},{"type":"Feature","geometry":{"type":"Point","coordinates":[12.36416,46.42466]},"properties":{"id":58649,"name":"Pieve di Cadore","state_code":"BL","country_code":"IT"}},{"type":"Feature","geometry":{"type":"Point","coordinates":[12.28333,46.18083]},"properties":{"id":58860,"name":"Ponte nelle Alpi","state_code":"BL","country_code":"IT"}},{"type":"Feature","geometry":{"type":"Point","coordinates":[12.27833,46.18833]},"properties":{"id":58861,"name":"Ponte nelle Alpi-Polpet","state_code":"BL","country_code":"IT"}},{"type":"Feature","geometry":{"type":"Point","coordinates":[12.36176,46.14154]},"properties":{"id":59206,"name":"Puos d'Alpago","state_code":"BL","country_code":"IT"}},{"type":"Feature","geometry":{"type":"Point","coordinates":[12.02303,46.25226]},"properties":{"id":59425,"name":"Rivamonte Agordino","state_code":"BL","country_code":"IT"}},{"type":"Feature","geometry":{"type":"Point","coordinates":[11.97679,46.43392]},"properties":{"id":59474,"name":"Rocca Pietore","state_code":"BL","country_code":"IT"}},{"type":"Feature","geometry":{"type":"Point","coordinates":[11.93129,46.36982]},"properties":{"id":59719,"name":"Sachet","state_code":"BL","country_code":"IT"}},{"type":"Feature","geometry":{"type":"Point","coordinates":[12.0267,46.10391]},"properties":{"id":60025,"name":"San Gregorio nelle Alpi","state_code":"BL","country_code":"IT"}},{"type":"Feature","geometry":{"type":"Point","coordinates":[12.5273,46.58253]},"properties":{"id":60147,"name":"San Nicolò Comelico","state_code":"BL","country_code":"IT"}},{"type":"Feature","geometry":{"type":"Point","coordinates":[12.5869,46.5719]},"properties":{"id":60191,"name":"San Pietro di Cadore","state_code":"BL","country_code":"IT"}},{"type":"Feature","geometry":{"type":"Point","coordinates":[12.03822,46.08118]},"properties":{"id":60440,"name":"Santa Giustina","state_code":"BL","country_code":"IT"}},{"type":"Feature","geometry":{"type":"Point","coordinates":[12.54956,46.55827]},"properties":{"id":60520,"name":"Santo Stefano di Cadore","state_code":"BL","country_code":"IT"}},{"type":"Feature","geometry":{"type":"Point","coordinates":[12.0933,46.10563]},"properties":{"id":60681,"name":"Sedico","state_code":"BL","country_code":"IT"}},{"type":"Feature","geometry":{"type":"Point","coordinates":[12.05694,46.45028]},"properties":{"id":60707,"name":"Selva di Cadore","state_code":"BL","country_code":"IT"}},{"type":"Feature","geometry":{"type":"Point","coordinates":[11.85624,45.99594]},"properties":{"id":60738,"name":"Seren del Grappa","state_code":"BL","country_code":"IT"}},{"type":"Feature","geometry":{"type":"Point","coordinates":[11.78657,46.05844]},"properties":{"id":60787,"name":"Servo","state_code":"BL","country_code":"IT"}},{"type":"Feature","geometry":{"type":"Point","coordinates":[12.31001,46.1812]},"properties":{"id":60893,"name":"Soccher-Paiane-Casan-Arsie","state_code":"BL","country_code":"IT"}},{"type":"Feature","geometry":{"type":"Point","coordinates":[12.07365,46.14134]},"properties":{"id":60970,"name":"Sospirolo","state_code":"BL","country_code":"IT"}},{"type":"Feature","geometry":{"type":"Point","coordinates":[12.30301,46.20331]},"properties":{"id":60982,"name":"Soverzene","state_code":"BL","country_code":"IT"}},{"type":"Feature","geometry":{"type":"Point","coordinates":[11.7866,46.05861]},"properties":{"id":60986,"name":"Sovramonte","state_code":"BL","country_code":"IT"}},{"type":"Feature","geometry":{"type":"Point","coordinates":[12.01312,46.29838]},"properties":{"id":61147,"name":"Taibon Agordino","state_code":"BL","country_code":"IT"}},{"type":"Feature","geometry":{"type":"Point","coordinates":[12.41941,46.12632]},"properties":{"id":61159,"name":"Tambre","state_code":"BL","country_code":"IT"}},{"type":"Feature","geometry":{"type":"Point","coordinates":[12.14091,46.0813]},"properties":{"id":61522,"name":"Trichiana","state_code":"BL","country_code":"IT"}},{"type":"Feature","geometry":{"type":"Point","coordinates":[11.93399,46.36442]},"properties":{"id":61680,"name":"Vallada Agordina","state_code":"BL","country_code":"IT"}},{"type":"Feature","geometry":{"type":"Point","coordinates":[12.33431,46.41806]},"properties":{"id":61696,"name":"Valle di Cadore","state_code":"BL","country_code":"IT"}},{"type":"Feature","geometry":{"type":"Point","coordinates":[12.47111,46.49904]},"properties":{"id":61967,"name":"Vigo di Cadore","state_code":"BL","country_code":"IT"}},{"type":"Feature","geometry":{"type":"Point","coordinates":[11.927,46.05675]},"properties":{"id":62048,"name":"Villabruna-Umin","state_code":"BL","country_code":"IT"}},{"type":"Feature","geometry":{"type":"Point","coordinates":[12.24557,46.41921]},"properties":{"id":62200,"name":"Vodo","state_code":"BL","country_code":"IT"}},{"type":"Feature","geometry":{"type":"Point","coordinates":[12.0064,46.27252]},"properties":{"id":62215,"name":"Voltago","state_code":"BL","country_code":"IT"}},{"type":"Feature","geometry":{"type":"Point","coordinates":[12.00574,46.27139]},"properties":{"id":62216,"name":"Voltago Agordino","state_code":"BL","country_code":"IT"}},{"type":"Feature","geometry":{"type":"Point","coordinates":[12.17368,46.38583]},"properties":{"id":62275,"name":"Zoppè di Cadore","state_code":"BL","country_code":"IT"}}]}