{"type":"FeatureCollection","features":[{"type":"Feature","geometry":{"type":"Point","coordinates":[14.74733,41.86624]},"properties":{"id":135277,"name":"Acquaviva Collecroce","state_code":"CB","country_code":"IT"}},{"type":"Feature","geometry":{"type":"Point","coordinates":[14.558,41.52722]},"properties":{"id":135811,"name":"Baranello","state_code":"CB","country_code":"IT"}},{"type":"Feature","geometry":{"type":"Point","coordinates":[14.47075,41.4853]},"properties":{"id":136099,"name":"Bojano","state_code":"CB","country_code":"IT"}},{"type":"Feature","geometry":{"type":"Point","coordinates":[14.93439,41.70507]},"properties":{"id":136135,"name":"Bonefro","state_code":"CB","country_code":"IT"}},{"type":"Feature","geometry":{"type":"Point","coordinates":[14.56103,41.55413]},"properties":{"id":136431,"name":"Busso","state_code":"CB","country_code":"IT"}},{"type":"Feature","geometry":{"type":"Point","coordinates":[14.66737,41.55947]},"properties":{"id":136638,"name":"Campobasso","state_code":"CB","country_code":"IT"}},{"type":"Feature","geometry":{"type":"Point","coordinates":[14.50828,41.44827]},"properties":{"id":136642,"name":"Campochiaro","state_code":"CB","country_code":"IT"}},{"type":"Feature","geometry":{"type":"Point","coordinates":[14.74445,41.5574]},"properties":{"id":136647,"name":"Campodipietra","state_code":"CB","country_code":"IT"}},{"type":"Feature","geometry":{"type":"Point","coordinates":[14.76694,41.63336]},"properties":{"id":136662,"name":"Campolieto","state_code":"CB","country_code":"IT"}},{"type":"Feature","geometry":{"type":"Point","coordinates":[15.03546,41.95692]},"properties":{"id":136668,"name":"Campomarino","state_code":"CB","country_code":"IT"}},{"type":"Feature","geometry":{"type":"Point","coordinates":[14.84734,41.73824]},"properties":{"id":136953,"name":"Casacalenda","state_code":"CB","country_code":"IT"}},{"type":"Feature","geometry":{"type":"Point","coordinates":[14.52835,41.58037]},"properties":{"id":136970,"name":"Casalciprano","state_code":"CB","country_code":"IT"}},{"type":"Feature","geometry":{"type":"Point","coordinates":[14.70616,41.75329]},"properties":{"id":137182,"name":"Castelbottaccio","state_code":"CB","country_code":"IT"}},{"type":"Feature","geometry":{"type":"Point","coordinates":[14.73179,41.7016]},"properties":{"id":137249,"name":"Castellino del Biferno","state_code":"CB","country_code":"IT"}},{"type":"Feature","geometry":{"type":"Point","coordinates":[14.71066,41.82846]},"properties":{"id":137272,"name":"Castelmauro","state_code":"CB","country_code":"IT"}},{"type":"Feature","geometry":{"type":"Point","coordinates":[14.55856,41.61788]},"properties":{"id":137386,"name":"Castropignano","state_code":"CB","country_code":"IT"}},{"type":"Feature","geometry":{"type":"Point","coordinates":[14.72402,41.4613]},"properties":{"id":137521,"name":"Cercemaggiore","state_code":"CB","country_code":"IT"}},{"type":"Feature","geometry":{"type":"Point","coordinates":[14.66487,41.45982]},"properties":{"id":137523,"name":"Cercepiccola","state_code":"CB","country_code":"IT"}},{"type":"Feature","geometry":{"type":"Point","coordinates":[14.68919,41.78032]},"properties":{"id":137788,"name":"Civitacampomarano","state_code":"CB","country_code":"IT"}},{"type":"Feature","geometry":{"type":"Point","coordinates":[14.51873,41.50986]},"properties":{"id":137869,"name":"Colle d'Anchise","state_code":"CB","country_code":"IT"}},{"type":"Feature","geometry":{"type":"Point","coordinates":[14.96773,41.66165]},"properties":{"id":137895,"name":"Colletorto","state_code":"CB","country_code":"IT"}},{"type":"Feature","geometry":{"type":"Point","coordinates":[14.46015,41.65786]},"properties":{"id":138346,"name":"Duronia","state_code":"CB","country_code":"IT"}},{"type":"Feature","geometry":{"type":"Point","coordinates":[14.67223,41.53033]},"properties":{"id":138491,"name":"Ferrazzano","state_code":"CB","country_code":"IT"}},{"type":"Feature","geometry":{"type":"Point","coordinates":[14.54573,41.67293]},"properties":{"id":138672,"name":"Fossalto","state_code":"CB","country_code":"IT"}},{"type":"Feature","geometry":{"type":"Point","coordinates":[14.9124,41.50861]},"properties":{"id":138830,"name":"Gambatesa","state_code":"CB","country_code":"IT"}},{"type":"Feature","geometry":{"type":"Point","coordinates":[14.7402,41.50901]},"properties":{"id":138961,"name":"Gildone","state_code":"CB","country_code":"IT"}},{"type":"Feature","geometry":{"type":"Point","coordinates":[14.79293,41.80423]},"properties":{"id":139164,"name":"Guardialfiera","state_code":"CB","country_code":"IT"}},{"type":"Feature","geometry":{"type":"Point","coordinates":[14.54344,41.43436]},"properties":{"id":139165,"name":"Guardiaregia","state_code":"CB","country_code":"IT"}},{"type":"Feature","geometry":{"type":"Point","coordinates":[14.916,41.92093]},"properties":{"id":139175,"name":"Guglionesi","state_code":"CB","country_code":"IT"}},{"type":"Feature","geometry":{"type":"Point","coordinates":[14.7979,41.51704]},"properties":{"id":139274,"name":"Jelsi","state_code":"CB","country_code":"IT"}},{"type":"Feature","geometry":{"type":"Point","coordinates":[14.91843,41.80449]},"properties":{"id":139376,"name":"Larino","state_code":"CB","country_code":"IT"}},{"type":"Feature","geometry":{"type":"Point","coordinates":[14.6223,41.67554]},"properties":{"id":139527,"name":"Limosano","state_code":"CB","country_code":"IT"}},{"type":"Feature","geometry":{"type":"Point","coordinates":[14.68723,41.73193]},"properties":{"id":139636,"name":"Lucito","state_code":"CB","country_code":"IT"}},{"type":"Feature","geometry":{"type":"Point","coordinates":[14.7339,41.76141]},"properties":{"id":139664,"name":"Lupara","state_code":"CB","country_code":"IT"}},{"type":"Feature","geometry":{"type":"Point","coordinates":[14.91238,41.59487]},"properties":{"id":139691,"name":"Macchia Valfortore","state_code":"CB","country_code":"IT"}},{"type":"Feature","geometry":{"type":"Point","coordinates":[14.7161,41.94308]},"properties":{"id":139715,"name":"Mafalda","state_code":"CB","country_code":"IT"}},{"type":"Feature","geometry":{"type":"Point","coordinates":[14.70977,41.61878]},"properties":{"id":139998,"name":"Matrice","state_code":"CB","country_code":"IT"}},{"type":"Feature","geometry":{"type":"Point","coordinates":[14.66879,41.53871]},"properties":{"id":140155,"name":"Mimosa-Poggio Verde-Nuova Comunità","state_code":"CB","country_code":"IT"}},{"type":"Feature","geometry":{"type":"Point","coordinates":[14.67315,41.51628]},"properties":{"id":140171,"name":"Mirabello Sannitico","state_code":"CB","country_code":"IT"}},{"type":"Feature","geometry":{"type":"Point","coordinates":[14.49252,41.63147]},"properties":{"id":140227,"name":"Molise","state_code":"CB","country_code":"IT"}},{"type":"Feature","geometry":{"type":"Point","coordinates":[14.81,41.61077]},"properties":{"id":140248,"name":"Monacilioni","state_code":"CB","country_code":"IT"}},{"type":"Feature","geometry":{"type":"Point","coordinates":[14.67405,41.64538]},"properties":{"id":140307,"name":"Montagano","state_code":"CB","country_code":"IT"}},{"type":"Feature","geometry":{"type":"Point","coordinates":[14.8368,41.90163]},"properties":{"id":140418,"name":"Montecilfone","state_code":"CB","country_code":"IT"}},{"type":"Feature","geometry":{"type":"Point","coordinates":[14.63823,41.86663]},"properties":{"id":140433,"name":"Montefalcone nel Sannio","state_code":"CB","country_code":"IT"}},{"type":"Feature","geometry":{"type":"Point","coordinates":[14.95034,41.73705]},"properties":{"id":140478,"name":"Montelongo","state_code":"CB","country_code":"IT"}},{"type":"Feature","geometry":{"type":"Point","coordinates":[14.64666,41.88813]},"properties":{"id":140496,"name":"Montemitro","state_code":"CB","country_code":"IT"}},{"type":"Feature","geometry":{"type":"Point","coordinates":[14.78103,41.96437]},"properties":{"id":140503,"name":"Montenero di Bisaccia","state_code":"CB","country_code":"IT"}},{"type":"Feature","geometry":{"type":"Point","coordinates":[14.93314,41.75884]},"properties":{"id":140584,"name":"Montorio Nei Frentani","state_code":"CB","country_code":"IT"}},{"type":"Feature","geometry":{"type":"Point","coordinates":[14.78087,41.71107]},"properties":{"id":140635,"name":"Morrone del Sannio","state_code":"CB","country_code":"IT"}},{"type":"Feature","geometry":{"type":"Point","coordinates":[14.59463,41.58598]},"properties":{"id":140938,"name":"Oratino","state_code":"CB","country_code":"IT"}},{"type":"Feature","geometry":{"type":"Point","coordinates":[14.78778,41.8879]},"properties":{"id":58224,"name":"Palata","state_code":"CB","country_code":"IT"}},{"type":"Feature","geometry":{"type":"Point","coordinates":[14.86026,42.00827]},"properties":{"id":58473,"name":"Petacciato","state_code":"CB","country_code":"IT"}},{"type":"Feature","geometry":{"type":"Point","coordinates":[14.69751,41.69135]},"properties":{"id":58480,"name":"Petrella Tifernina","state_code":"CB","country_code":"IT"}},{"type":"Feature","geometry":{"type":"Point","coordinates":[14.87298,41.58064]},"properties":{"id":58608,"name":"Pietracatella","state_code":"CB","country_code":"IT"}},{"type":"Feature","geometry":{"type":"Point","coordinates":[14.51933,41.68253]},"properties":{"id":58609,"name":"Pietracupa","state_code":"CB","country_code":"IT"}},{"type":"Feature","geometry":{"type":"Point","coordinates":[15.00845,41.91441]},"properties":{"id":58943,"name":"Portocannone","state_code":"CB","country_code":"IT"}},{"type":"Feature","geometry":{"type":"Point","coordinates":[14.82349,41.71795]},"properties":{"id":59191,"name":"Provvidenti","state_code":"CB","country_code":"IT"}},{"type":"Feature","geometry":{"type":"Point","coordinates":[14.83181,41.48314]},"properties":{"id":59365,"name":"Riccia","state_code":"CB","country_code":"IT"}},{"type":"Feature","geometry":{"type":"Point","coordinates":[14.80866,41.68996]},"properties":{"id":59401,"name":"Ripabottoni","state_code":"CB","country_code":"IT"}},{"type":"Feature","geometry":{"type":"Point","coordinates":[14.66306,41.61064]},"properties":{"id":59403,"name":"Ripalimosani","state_code":"CB","country_code":"IT"}},{"type":"Feature","geometry":{"type":"Point","coordinates":[14.60013,41.83336]},"properties":{"id":59530,"name":"Roccavivara","state_code":"CB","country_code":"IT"}},{"type":"Feature","geometry":{"type":"Point","coordinates":[15.00608,41.74776]},"properties":{"id":59658,"name":"Rotello","state_code":"CB","country_code":"IT"}},{"type":"Feature","geometry":{"type":"Point","coordinates":[14.51085,41.7464]},"properties":{"id":59753,"name":"Salcito","state_code":"CB","country_code":"IT"}},{"type":"Feature","geometry":{"type":"Point","coordinates":[14.59049,41.71526]},"properties":{"id":59845,"name":"San Biase","state_code":"CB","country_code":"IT"}},{"type":"Feature","geometry":{"type":"Point","coordinates":[14.70088,41.89]},"properties":{"id":59911,"name":"San Felice del Molise","state_code":"CB","country_code":"IT"}},{"type":"Feature","geometry":{"type":"Point","coordinates":[14.94481,41.96234]},"properties":{"id":59946,"name":"San Giacomo degli Schiavoni","state_code":"CB","country_code":"IT"}},{"type":"Feature","geometry":{"type":"Point","coordinates":[14.75202,41.5911]},"properties":{"id":59998,"name":"San Giovanni in Galdo","state_code":"CB","country_code":"IT"}},{"type":"Feature","geometry":{"type":"Point","coordinates":[14.64169,41.45752]},"properties":{"id":60007,"name":"San Giuliano del Sannio","state_code":"CB","country_code":"IT"}},{"type":"Feature","geometry":{"type":"Point","coordinates":[14.96231,41.68796]},"properties":{"id":60008,"name":"San Giuliano di Puglia","state_code":"CB","country_code":"IT"}},{"type":"Feature","geometry":{"type":"Point","coordinates":[15.01824,41.87814]},"properties":{"id":60093,"name":"San Martino in Pensilis","state_code":"CB","country_code":"IT"}},{"type":"Feature","geometry":{"type":"Point","coordinates":[14.41023,41.49292]},"properties":{"id":60101,"name":"San Massimo","state_code":"CB","country_code":"IT"}},{"type":"Feature","geometry":{"type":"Point","coordinates":[14.49343,41.45932]},"properties":{"id":60208,"name":"San Polomatese","state_code":"CB","country_code":"IT"}},{"type":"Feature","geometry":{"type":"Point","coordinates":[14.60346,41.69266]},"properties":{"id":60357,"name":"Sant'Angelo Limosano","state_code":"CB","country_code":"IT"}},{"type":"Feature","geometry":{"type":"Point","coordinates":[14.87523,41.62043]},"properties":{"id":60398,"name":"Sant'Elia a Pianisi","state_code":"CB","country_code":"IT"}},{"type":"Feature","geometry":{"type":"Point","coordinates":[14.98732,41.71223]},"properties":{"id":60429,"name":"Santa Croce di Magliano","state_code":"CB","country_code":"IT"}},{"type":"Feature","geometry":{"type":"Point","coordinates":[14.61938,41.40782]},"properties":{"id":60732,"name":"Sepino","state_code":"CB","country_code":"IT"}},{"type":"Feature","geometry":{"type":"Point","coordinates":[14.48743,41.54431]},"properties":{"id":61017,"name":"Spinete","state_code":"CB","country_code":"IT"}},{"type":"Feature","geometry":{"type":"Point","coordinates":[14.76176,41.90898]},"properties":{"id":61183,"name":"Tavenna","state_code":"CB","country_code":"IT"}},{"type":"Feature","geometry":{"type":"Point","coordinates":[14.99389,41.99994]},"properties":{"id":61229,"name":"Termoli","state_code":"CB","country_code":"IT"}},{"type":"Feature","geometry":{"type":"Point","coordinates":[14.52031,41.63878]},"properties":{"id":61325,"name":"Torella del Sannio","state_code":"CB","country_code":"IT"}},{"type":"Feature","geometry":{"type":"Point","coordinates":[14.76183,41.57313]},"properties":{"id":61339,"name":"Toro","state_code":"CB","country_code":"IT"}},{"type":"Feature","geometry":{"type":"Point","coordinates":[14.54613,41.77004]},"properties":{"id":61539,"name":"Trivento","state_code":"CB","country_code":"IT"}},{"type":"Feature","geometry":{"type":"Point","coordinates":[14.94654,41.48203]},"properties":{"id":61562,"name":"Tufara","state_code":"CB","country_code":"IT"}},{"type":"Feature","geometry":{"type":"Point","coordinates":[15.01611,41.81518]},"properties":{"id":61608,"name":"Ururi","state_code":"CB","country_code":"IT"}},{"type":"Feature","geometry":{"type":"Point","coordinates":[14.592,41.49282]},"properties":{"id":62161,"name":"Vinchiaturo","state_code":"CB","country_code":"IT"}}]}