{"type":"FeatureCollection","features":[{"type":"Feature","geometry":{"type":"Point","coordinates":[14.20536,41.39001]},"properties":{"id":135330,"name":"Ailano","state_code":"CE","country_code":"IT"}},{"type":"Feature","geometry":{"type":"Point","coordinates":[14.33403,41.32612]},"properties":{"id":135411,"name":"Alife","state_code":"CE","country_code":"IT"}},{"type":"Feature","geometry":{"type":"Point","coordinates":[14.33671,41.24427]},"properties":{"id":135448,"name":"Alvignano","state_code":"CE","country_code":"IT"}},{"type":"Feature","geometry":{"type":"Point","coordinates":[14.36518,41.121]},"properties":{"id":135508,"name":"Annunziata","state_code":"CE","country_code":"IT"}},{"type":"Feature","geometry":{"type":"Point","coordinates":[14.4977,41.02734]},"properties":{"id":135603,"name":"Arienzo","state_code":"CE","country_code":"IT"}},{"type":"Feature","geometry":{"type":"Point","coordinates":[14.20745,40.97259]},"properties":{"id":135702,"name":"Aversa","state_code":"CE","country_code":"IT"}},{"type":"Feature","geometry":{"type":"Point","coordinates":[14.25016,41.30366]},"properties":{"id":135777,"name":"Baia","state_code":"CE","country_code":"IT"}},{"type":"Feature","geometry":{"type":"Point","coordinates":[14.23313,41.16052]},"properties":{"id":135947,"name":"Bellona","state_code":"CE","country_code":"IT"}},{"type":"Feature","geometry":{"type":"Point","coordinates":[14.11201,41.11073]},"properties":{"id":136322,"name":"Brezza","state_code":"CE","country_code":"IT"}},{"type":"Feature","geometry":{"type":"Point","coordinates":[14.08516,41.30509]},"properties":{"id":136474,"name":"Caianello","state_code":"CE","country_code":"IT"}},{"type":"Feature","geometry":{"type":"Point","coordinates":[14.35946,41.18435]},"properties":{"id":136475,"name":"Caiazzo","state_code":"CE","country_code":"IT"}},{"type":"Feature","geometry":{"type":"Point","coordinates":[14.13092,41.21598]},"properties":{"id":136558,"name":"Calvi Risorta","state_code":"CE","country_code":"IT"}},{"type":"Feature","geometry":{"type":"Point","coordinates":[14.20978,41.18116]},"properties":{"id":136586,"name":"Camigliano","state_code":"CE","country_code":"IT"}},{"type":"Feature","geometry":{"type":"Point","coordinates":[14.02542,41.0734]},"properties":{"id":136695,"name":"Cancello-Arnone","state_code":"CE","country_code":"IT"}},{"type":"Feature","geometry":{"type":"Point","coordinates":[14.30607,41.04268]},"properties":{"id":136782,"name":"Capodrise","state_code":"CE","country_code":"IT"}},{"type":"Feature","geometry":{"type":"Point","coordinates":[14.14602,41.46801]},"properties":{"id":136816,"name":"Capriati A Volturno","state_code":"CE","country_code":"IT"}},{"type":"Feature","geometry":{"type":"Point","coordinates":[14.21269,41.10519]},"properties":{"id":136825,"name":"Capua","state_code":"CE","country_code":"IT"}},{"type":"Feature","geometry":{"type":"Point","coordinates":[13.90972,41.20526]},"properties":{"id":136832,"name":"Carano","state_code":"CE","country_code":"IT"}},{"type":"Feature","geometry":{"type":"Point","coordinates":[14.21963,40.98291]},"properties":{"id":136879,"name":"Carinaro","state_code":"CE","country_code":"IT"}},{"type":"Feature","geometry":{"type":"Point","coordinates":[13.9824,41.18775]},"properties":{"id":136881,"name":"Carinola","state_code":"CE","country_code":"IT"}},{"type":"Feature","geometry":{"type":"Point","coordinates":[14.31163,41.07124]},"properties":{"id":136956,"name":"Casagiove","state_code":"CE","country_code":"IT"}},{"type":"Feature","geometry":{"type":"Point","coordinates":[14.13013,41.00996]},"properties":{"id":136960,"name":"Casal di Principe","state_code":"CE","country_code":"IT"}},{"type":"Feature","geometry":{"type":"Point","coordinates":[14.00231,41.21972]},"properties":{"id":136972,"name":"Casale","state_code":"CE","country_code":"IT"}},{"type":"Feature","geometry":{"type":"Point","coordinates":[14.19671,40.99785]},"properties":{"id":137009,"name":"Casaluce","state_code":"CE","country_code":"IT"}},{"type":"Feature","geometry":{"type":"Point","coordinates":[13.96344,41.19254]},"properties":{"id":137021,"name":"Casanova","state_code":"CE","country_code":"IT"}},{"type":"Feature","geometry":{"type":"Point","coordinates":[14.13613,40.99151]},"properties":{"id":137026,"name":"Casapesenna","state_code":"CE","country_code":"IT"}},{"type":"Feature","geometry":{"type":"Point","coordinates":[14.28927,41.07665]},"properties":{"id":137029,"name":"Casapulla","state_code":"CE","country_code":"IT"}},{"type":"Feature","geometry":{"type":"Point","coordinates":[13.96927,41.23232]},"properties":{"id":137044,"name":"Cascano","state_code":"CE","country_code":"IT"}},{"type":"Feature","geometry":{"type":"Point","coordinates":[14.33231,41.07262]},"properties":{"id":137065,"name":"Caserta","state_code":"CE","country_code":"IT"}},{"type":"Feature","geometry":{"type":"Point","coordinates":[14.38172,41.09513]},"properties":{"id":137077,"name":"Casola","state_code":"CE","country_code":"IT"}},{"type":"Feature","geometry":{"type":"Point","coordinates":[14.453,41.1824]},"properties":{"id":137132,"name":"Castel Campagnano","state_code":"CE","country_code":"IT"}},{"type":"Feature","geometry":{"type":"Point","coordinates":[14.27773,41.19242]},"properties":{"id":137174,"name":"Castel di Sasso","state_code":"CE","country_code":"IT"}},{"type":"Feature","geometry":{"type":"Point","coordinates":[14.35473,41.12102]},"properties":{"id":137146,"name":"Castel Morrone","state_code":"CE","country_code":"IT"}},{"type":"Feature","geometry":{"type":"Point","coordinates":[13.94354,41.03288]},"properties":{"id":137161,"name":"Castel Volturno","state_code":"CE","country_code":"IT"}},{"type":"Feature","geometry":{"type":"Point","coordinates":[14.37773,41.36672]},"properties":{"id":137257,"name":"Castello del Matese","state_code":"CE","country_code":"IT"}},{"type":"Feature","geometry":{"type":"Point","coordinates":[13.85332,41.20338]},"properties":{"id":137482,"name":"Cellole","state_code":"CE","country_code":"IT"}},{"type":"Feature","geometry":{"type":"Point","coordinates":[14.42403,41.04001]},"properties":{"id":137596,"name":"Cervino","state_code":"CE","country_code":"IT"}},{"type":"Feature","geometry":{"type":"Point","coordinates":[14.23081,40.96287]},"properties":{"id":137600,"name":"Cesa","state_code":"CE","country_code":"IT"}},{"type":"Feature","geometry":{"type":"Point","coordinates":[14.15832,41.45022]},"properties":{"id":137743,"name":"Ciorlano","state_code":"CE","country_code":"IT"}},{"type":"Feature","geometry":{"type":"Point","coordinates":[13.99142,41.33174]},"properties":{"id":137955,"name":"Conca della Campania","state_code":"CE","country_code":"IT"}},{"type":"Feature","geometry":{"type":"Point","coordinates":[14.28039,41.07616]},"properties":{"id":138209,"name":"Curti","state_code":"CE","country_code":"IT"}},{"type":"Feature","geometry":{"type":"Point","coordinates":[14.30368,41.27619]},"properties":{"id":138326,"name":"Dragoni","state_code":"CE","country_code":"IT"}},{"type":"Feature","geometry":{"type":"Point","coordinates":[13.94812,41.16271]},"properties":{"id":138414,"name":"Falciano del Massico","state_code":"CE","country_code":"IT"}},{"type":"Feature","geometry":{"type":"Point","coordinates":[14.18385,41.45653]},"properties":{"id":138611,"name":"Fontegreca","state_code":"CE","country_code":"IT"}},{"type":"Feature","geometry":{"type":"Point","coordinates":[14.23462,41.21084]},"properties":{"id":138638,"name":"Formicola","state_code":"CE","country_code":"IT"}},{"type":"Feature","geometry":{"type":"Point","coordinates":[14.05672,41.18501]},"properties":{"id":138705,"name":"Francolise","state_code":"CE","country_code":"IT"}},{"type":"Feature","geometry":{"type":"Point","coordinates":[14.17913,40.99811]},"properties":{"id":138734,"name":"Frignano","state_code":"CE","country_code":"IT"}},{"type":"Feature","geometry":{"type":"Point","coordinates":[14.22519,41.46499]},"properties":{"id":138816,"name":"Gallo","state_code":"CE","country_code":"IT"}},{"type":"Feature","geometry":{"type":"Point","coordinates":[14.22502,41.46452]},"properties":{"id":138817,"name":"Gallo Matese","state_code":"CE","country_code":"IT"}},{"type":"Feature","geometry":{"type":"Point","coordinates":[13.95372,41.35232]},"properties":{"id":138820,"name":"Galluccio","state_code":"CE","country_code":"IT"}},{"type":"Feature","geometry":{"type":"Point","coordinates":[14.19342,41.20272]},"properties":{"id":138942,"name":"Giano Vetusto","state_code":"CE","country_code":"IT"}},{"type":"Feature","geometry":{"type":"Point","coordinates":[14.44381,41.29965]},"properties":{"id":138968,"name":"Gioia Sannitica","state_code":"CE","country_code":"IT"}},{"type":"Feature","geometry":{"type":"Point","coordinates":[14.09878,41.0897]},"properties":{"id":139084,"name":"Grazzanise","state_code":"CE","country_code":"IT"}},{"type":"Feature","geometry":{"type":"Point","coordinates":[14.23087,40.97973]},"properties":{"id":139096,"name":"Gricignano di Aversa","state_code":"CE","country_code":"IT"}},{"type":"Feature","geometry":{"type":"Point","coordinates":[14.04121,41.31708]},"properties":{"id":139129,"name":"Grottola","state_code":"CE","country_code":"IT"}},{"type":"Feature","geometry":{"type":"Point","coordinates":[14.25542,41.45302]},"properties":{"id":139476,"name":"Letino","state_code":"CE","country_code":"IT"}},{"type":"Feature","geometry":{"type":"Point","coordinates":[14.28985,41.22648]},"properties":{"id":139492,"name":"Liberi","state_code":"CE","country_code":"IT"}},{"type":"Feature","geometry":{"type":"Point","coordinates":[14.19043,40.97001]},"properties":{"id":139670,"name":"Lusciano","state_code":"CE","country_code":"IT"}},{"type":"Feature","geometry":{"type":"Point","coordinates":[14.2775,41.06327]},"properties":{"id":139697,"name":"Macerata Campania","state_code":"CE","country_code":"IT"}},{"type":"Feature","geometry":{"type":"Point","coordinates":[14.3823,41.03578]},"properties":{"id":139706,"name":"Maddaloni","state_code":"CE","country_code":"IT"}},{"type":"Feature","geometry":{"type":"Point","coordinates":[14.29868,41.03064]},"properties":{"id":139847,"name":"Marcianise","state_code":"CE","country_code":"IT"}},{"type":"Feature","geometry":{"type":"Point","coordinates":[14.11611,41.31447]},"properties":{"id":139944,"name":"Marzanello","state_code":"CE","country_code":"IT"}},{"type":"Feature","geometry":{"type":"Point","coordinates":[14.04502,41.31772]},"properties":{"id":139946,"name":"Marzano Appio","state_code":"CE","country_code":"IT"}},{"type":"Feature","geometry":{"type":"Point","coordinates":[13.98552,41.40592]},"properties":{"id":140141,"name":"Mignano Monte Lungo","state_code":"CE","country_code":"IT"}},{"type":"Feature","geometry":{"type":"Point","coordinates":[13.89157,41.11399]},"properties":{"id":140276,"name":"Mondragone","state_code":"CE","country_code":"IT"}},{"type":"Feature","geometry":{"type":"Point","coordinates":[14.41774,41.02772]},"properties":{"id":140426,"name":"Montedecoro","state_code":"CE","country_code":"IT"}},{"type":"Feature","geometry":{"type":"Point","coordinates":[14.01565,41.17067]},"properties":{"id":140781,"name":"Nocelleto","state_code":"CE","country_code":"IT"}},{"type":"Feature","geometry":{"type":"Point","coordinates":[14.26854,40.96441]},"properties":{"id":140979,"name":"Orta di Atella","state_code":"CE","country_code":"IT"}},{"type":"Feature","geometry":{"type":"Point","coordinates":[14.16193,40.95891]},"properties":{"id":58303,"name":"Parete","state_code":"CE","country_code":"IT"}},{"type":"Feature","geometry":{"type":"Point","coordinates":[14.19823,41.18082]},"properties":{"id":58339,"name":"Pastorano","state_code":"CE","country_code":"IT"}},{"type":"Feature","geometry":{"type":"Point","coordinates":[14.33373,41.16712]},"properties":{"id":58515,"name":"Piana di Monte Verna","state_code":"CE","country_code":"IT"}},{"type":"Feature","geometry":{"type":"Point","coordinates":[13.89856,41.18886]},"properties":{"id":58588,"name":"Piedimonte","state_code":"CE","country_code":"IT"}},{"type":"Feature","geometry":{"type":"Point","coordinates":[14.36803,41.35082]},"properties":{"id":58590,"name":"Piedimonte Matese","state_code":"CE","country_code":"IT"}},{"type":"Feature","geometry":{"type":"Point","coordinates":[14.18711,41.27086]},"properties":{"id":58616,"name":"Pietramelara","state_code":"CE","country_code":"IT"}},{"type":"Feature","geometry":{"type":"Point","coordinates":[14.16592,41.32522]},"properties":{"id":58627,"name":"Pietravairano","state_code":"CE","country_code":"IT"}},{"type":"Feature","geometry":{"type":"Point","coordinates":[14.16978,41.19006]},"properties":{"id":58662,"name":"Pignataro Maggiore","state_code":"CE","country_code":"IT"}},{"type":"Feature","geometry":{"type":"Point","coordinates":[14.24814,41.1946]},"properties":{"id":58873,"name":"Pontelatone","state_code":"CE","country_code":"IT"}},{"type":"Feature","geometry":{"type":"Point","coordinates":[14.28022,41.05562]},"properties":{"id":58918,"name":"Portico di Caserta","state_code":"CE","country_code":"IT"}},{"type":"Feature","geometry":{"type":"Point","coordinates":[14.1953,41.20337]},"properties":{"id":58981,"name":"Pozzillo","state_code":"CE","country_code":"IT"}},{"type":"Feature","geometry":{"type":"Point","coordinates":[14.20272,41.43282]},"properties":{"id":59014,"name":"Prata Sannita Centro","state_code":"CE","country_code":"IT"}},{"type":"Feature","geometry":{"type":"Point","coordinates":[14.17913,41.40579]},"properties":{"id":59019,"name":"Pratella","state_code":"CE","country_code":"IT"}},{"type":"Feature","geometry":{"type":"Point","coordinates":[14.09162,41.37823]},"properties":{"id":59065,"name":"Presenzano","state_code":"CE","country_code":"IT"}},{"type":"Feature","geometry":{"type":"Point","coordinates":[14.24335,41.3709]},"properties":{"id":59302,"name":"Raviscanina","state_code":"CE","country_code":"IT"}},{"type":"Feature","geometry":{"type":"Point","coordinates":[14.3027,41.05702]},"properties":{"id":59309,"name":"Recale","state_code":"CE","country_code":"IT"}},{"type":"Feature","geometry":{"type":"Point","coordinates":[14.15045,41.26197]},"properties":{"id":59358,"name":"Riardo","state_code":"CE","country_code":"IT"}},{"type":"Feature","geometry":{"type":"Point","coordinates":[13.97905,41.28683]},"properties":{"id":59509,"name":"Roccamonfina","state_code":"CE","country_code":"IT"}},{"type":"Feature","geometry":{"type":"Point","coordinates":[14.2219,41.2736]},"properties":{"id":59517,"name":"Roccaromana","state_code":"CE","country_code":"IT"}},{"type":"Feature","geometry":{"type":"Point","coordinates":[14.15765,41.23716]},"properties":{"id":59535,"name":"Rocchetta","state_code":"CE","country_code":"IT"}},{"type":"Feature","geometry":{"type":"Point","coordinates":[14.40983,41.21063]},"properties":{"id":59707,"name":"Ruviano","state_code":"CE","country_code":"IT"}},{"type":"Feature","geometry":{"type":"Point","coordinates":[13.86541,41.25862]},"properties":{"id":59861,"name":"San Castrese","state_code":"CE","country_code":"IT"}},{"type":"Feature","geometry":{"type":"Point","coordinates":[14.13173,40.99881]},"properties":{"id":59871,"name":"San Cipriano d'Aversa","state_code":"CE","country_code":"IT"}},{"type":"Feature","geometry":{"type":"Point","coordinates":[13.95597,41.34027]},"properties":{"id":59875,"name":"San Clemente","state_code":"CE","country_code":"IT"}},{"type":"Feature","geometry":{"type":"Point","coordinates":[14.48736,41.01702]},"properties":{"id":59908,"name":"San Felice A Cancello","state_code":"CE","country_code":"IT"}},{"type":"Feature","geometry":{"type":"Point","coordinates":[14.31278,41.27065]},"properties":{"id":59952,"name":"San Giorgio","state_code":"CE","country_code":"IT"}},{"type":"Feature","geometry":{"type":"Point","coordinates":[14.37217,41.38556]},"properties":{"id":60021,"name":"San Gregorio Matese","state_code":"CE","country_code":"IT"}},{"type":"Feature","geometry":{"type":"Point","coordinates":[14.17583,40.99001]},"properties":{"id":60057,"name":"San Marcellino","state_code":"CE","country_code":"IT"}},{"type":"Feature","geometry":{"type":"Point","coordinates":[14.33979,41.03702]},"properties":{"id":60062,"name":"San Marco Evangelista","state_code":"CE","country_code":"IT"}},{"type":"Feature","geometry":{"type":"Point","coordinates":[14.33334,41.05237]},"properties":{"id":60142,"name":"San Nicola la Strada","state_code":"CE","country_code":"IT"}},{"type":"Feature","geometry":{"type":"Point","coordinates":[13.96029,41.44552]},"properties":{"id":60179,"name":"San Pietro Infine","state_code":"CE","country_code":"IT"}},{"type":"Feature","geometry":{"type":"Point","coordinates":[14.39185,41.33698]},"properties":{"id":60211,"name":"San Potito Sannitico","state_code":"CE","country_code":"IT"}},{"type":"Feature","geometry":{"type":"Point","coordinates":[14.27675,41.08592]},"properties":{"id":60213,"name":"San Prisco","state_code":"CE","country_code":"IT"}},{"type":"Feature","geometry":{"type":"Point","coordinates":[14.23105,41.07588]},"properties":{"id":60251,"name":"San Tammaro","state_code":"CE","country_code":"IT"}},{"type":"Feature","geometry":{"type":"Point","coordinates":[14.03333,41.15]},"properties":{"id":60350,"name":"Sant'Andrea-Pizzone-Ciamprisco","state_code":"CE","country_code":"IT"}},{"type":"Feature","geometry":{"type":"Point","coordinates":[14.26125,41.36119]},"properties":{"id":60362,"name":"Sant'Angelo d'Alife","state_code":"CE","country_code":"IT"}},{"type":"Feature","geometry":{"type":"Point","coordinates":[14.25,41.11667]},"properties":{"id":60367,"name":"Sant'Angelo in Formis","state_code":"CE","country_code":"IT"}},{"type":"Feature","geometry":{"type":"Point","coordinates":[14.25075,40.95716]},"properties":{"id":60389,"name":"Sant'Arpino","state_code":"CE","country_code":"IT"}},{"type":"Feature","geometry":{"type":"Point","coordinates":[14.07937,41.30409]},"properties":{"id":60445,"name":"Santa Lucia","state_code":"CE","country_code":"IT"}},{"type":"Feature","geometry":{"type":"Point","coordinates":[14.46515,41.02611]},"properties":{"id":60457,"name":"Santa Maria A Vico","state_code":"CE","country_code":"IT"}},{"type":"Feature","geometry":{"type":"Point","coordinates":[14.25342,41.08156]},"properties":{"id":60459,"name":"Santa Maria Capua Vetere","state_code":"CE","country_code":"IT"}},{"type":"Feature","geometry":{"type":"Point","coordinates":[14.12822,41.09171]},"properties":{"id":60479,"name":"Santa Maria la Fossa","state_code":"CE","country_code":"IT"}},{"type":"Feature","geometry":{"type":"Point","coordinates":[13.92966,41.23987]},"properties":{"id":60788,"name":"Sessa Aurunca","state_code":"CE","country_code":"IT"}},{"type":"Feature","geometry":{"type":"Point","coordinates":[14.09628,41.18788]},"properties":{"id":60990,"name":"Sparanise","state_code":"CE","country_code":"IT"}},{"type":"Feature","geometry":{"type":"Point","coordinates":[14.25563,40.96801]},"properties":{"id":61110,"name":"Succivo","state_code":"CE","country_code":"IT"}},{"type":"Feature","geometry":{"type":"Point","coordinates":[14.06652,41.25132]},"properties":{"id":61199,"name":"Teano","state_code":"CE","country_code":"IT"}},{"type":"Feature","geometry":{"type":"Point","coordinates":[14.20763,40.99561]},"properties":{"id":61269,"name":"Teverola","state_code":"CE","country_code":"IT"}},{"type":"Feature","geometry":{"type":"Point","coordinates":[14.02399,41.33987]},"properties":{"id":61315,"name":"Tora","state_code":"CE","country_code":"IT"}},{"type":"Feature","geometry":{"type":"Point","coordinates":[14.1749,40.97517]},"properties":{"id":61484,"name":"Trentola-Ducenta","state_code":"CE","country_code":"IT"}},{"type":"Feature","geometry":{"type":"Point","coordinates":[14.13112,41.33702]},"properties":{"id":61641,"name":"Vairano-Patenora","state_code":"CE","country_code":"IT"}},{"type":"Feature","geometry":{"type":"Point","coordinates":[14.25584,41.42477]},"properties":{"id":61684,"name":"Valle Agricola","state_code":"CE","country_code":"IT"}},{"type":"Feature","geometry":{"type":"Point","coordinates":[14.41788,41.07946]},"properties":{"id":61698,"name":"Valle di Maddaloni","state_code":"CE","country_code":"IT"}},{"type":"Feature","geometry":{"type":"Point","coordinates":[14.16073,41.00001]},"properties":{"id":62040,"name":"Villa di Briano","state_code":"CE","country_code":"IT"}},{"type":"Feature","geometry":{"type":"Point","coordinates":[14.07612,41.00942]},"properties":{"id":62004,"name":"Villa Literno","state_code":"CE","country_code":"IT"}},{"type":"Feature","geometry":{"type":"Point","coordinates":[14.21341,41.16302]},"properties":{"id":62189,"name":"Vitulazio","state_code":"CE","country_code":"IT"}},{"type":"Feature","geometry":{"type":"Point","coordinates":[14.13082,41.21722]},"properties":{"id":62288,"name":"Zuni","state_code":"CE","country_code":"IT"}}]}