{"type":"FeatureCollection","features":[{"type":"Feature","geometry":{"type":"Point","coordinates":[16.2653,38.83585]},"properties":{"id":135251,"name":"Acconia","state_code":"CZ","country_code":"IT"}},{"type":"Feature","geometry":{"type":"Point","coordinates":[16.59721,39.02456]},"properties":{"id":135369,"name":"Albi","state_code":"CZ","country_code":"IT"}},{"type":"Feature","geometry":{"type":"Point","coordinates":[16.44809,38.79424]},"properties":{"id":135460,"name":"Amaroni","state_code":"CZ","country_code":"IT"}},{"type":"Feature","geometry":{"type":"Point","coordinates":[16.13333,38.38333]},"properties":{"id":135462,"name":"Amato","state_code":"CZ","country_code":"IT"}},{"type":"Feature","geometry":{"type":"Point","coordinates":[16.76926,39.01281]},"properties":{"id":135480,"name":"Andali","state_code":"CZ","country_code":"IT"}},{"type":"Feature","geometry":{"type":"Point","coordinates":[16.43627,38.68051]},"properties":{"id":135596,"name":"Argusto","state_code":"CZ","country_code":"IT"}},{"type":"Feature","geometry":{"type":"Point","coordinates":[16.52461,38.56868]},"properties":{"id":135742,"name":"Badolato","state_code":"CZ","country_code":"IT"}},{"type":"Feature","geometry":{"type":"Point","coordinates":[16.56527,38.57613]},"properties":{"id":135743,"name":"Badolato Marina","state_code":"CZ","country_code":"IT"}},{"type":"Feature","geometry":{"type":"Point","coordinates":[16.63927,38.85225]},"properties":{"id":135863,"name":"Barone","state_code":"CZ","country_code":"IT"}},{"type":"Feature","geometry":{"type":"Point","coordinates":[16.78641,39.01799]},"properties":{"id":135926,"name":"Belcastro","state_code":"CZ","country_code":"IT"}},{"type":"Feature","geometry":{"type":"Point","coordinates":[16.5077,38.82627]},"properties":{"id":136166,"name":"Borgia","state_code":"CZ","country_code":"IT"}},{"type":"Feature","geometry":{"type":"Point","coordinates":[16.85801,38.92997]},"properties":{"id":136256,"name":"Botricello","state_code":"CZ","country_code":"IT"}},{"type":"Feature","geometry":{"type":"Point","coordinates":[16.48675,38.88194]},"properties":{"id":136828,"name":"Caraffa di Catanzaro","state_code":"CZ","country_code":"IT"}},{"type":"Feature","geometry":{"type":"Point","coordinates":[16.38715,38.65379]},"properties":{"id":136861,"name":"Cardinale","state_code":"CZ","country_code":"IT"}},{"type":"Feature","geometry":{"type":"Point","coordinates":[16.45455,39.05406]},"properties":{"id":136889,"name":"Carlopoli","state_code":"CZ","country_code":"IT"}},{"type":"Feature","geometry":{"type":"Point","coordinates":[16.60086,38.88247]},"properties":{"id":137392,"name":"Catanzaro","state_code":"CZ","country_code":"IT"}},{"type":"Feature","geometry":{"type":"Point","coordinates":[16.62226,38.89383]},"properties":{"id":137404,"name":"Cava-Cuculera Nobile","state_code":"CZ","country_code":"IT"}},{"type":"Feature","geometry":{"type":"Point","coordinates":[16.41582,38.71934]},"properties":{"id":137485,"name":"Cenadi","state_code":"CZ","country_code":"IT"}},{"type":"Feature","geometry":{"type":"Point","coordinates":[16.43101,38.72872]},"properties":{"id":137500,"name":"Centrache","state_code":"CZ","country_code":"IT"}},{"type":"Feature","geometry":{"type":"Point","coordinates":[16.74538,39.02397]},"properties":{"id":137581,"name":"Cerva","state_code":"CZ","country_code":"IT"}},{"type":"Feature","geometry":{"type":"Point","coordinates":[16.40864,38.67936]},"properties":{"id":137653,"name":"Chiaravalle Centrale","state_code":"CZ","country_code":"IT"}},{"type":"Feature","geometry":{"type":"Point","coordinates":[16.4861,39.02219]},"properties":{"id":137708,"name":"Cicala","state_code":"CZ","country_code":"IT"}},{"type":"Feature","geometry":{"type":"Point","coordinates":[16.2845,39.07169]},"properties":{"id":137969,"name":"Conflenti","state_code":"CZ","country_code":"IT"}},{"type":"Feature","geometry":{"type":"Point","coordinates":[16.4096,38.84009]},"properties":{"id":138051,"name":"Cortale","state_code":"CZ","country_code":"IT"}},{"type":"Feature","geometry":{"type":"Point","coordinates":[16.64178,38.95296]},"properties":{"id":138154,"name":"Crichi","state_code":"CZ","country_code":"IT"}},{"type":"Feature","geometry":{"type":"Point","coordinates":[16.78022,38.9669]},"properties":{"id":138166,"name":"Cropani","state_code":"CZ","country_code":"IT"}},{"type":"Feature","geometry":{"type":"Point","coordinates":[16.8108,38.92376]},"properties":{"id":138167,"name":"Cropani Marina","state_code":"CZ","country_code":"IT"}},{"type":"Feature","geometry":{"type":"Point","coordinates":[16.31344,38.82811]},"properties":{"id":138202,"name":"Curinga","state_code":"CZ","country_code":"IT"}},{"type":"Feature","geometry":{"type":"Point","coordinates":[16.48764,38.64904]},"properties":{"id":138233,"name":"Davoli","state_code":"CZ","country_code":"IT"}},{"type":"Feature","geometry":{"type":"Point","coordinates":[16.35753,39.04645]},"properties":{"id":138238,"name":"Decollatura","state_code":"CZ","country_code":"IT"}},{"type":"Feature","geometry":{"type":"Point","coordinates":[16.17151,39.00298]},"properties":{"id":138419,"name":"Falerna","state_code":"CZ","country_code":"IT"}},{"type":"Feature","geometry":{"type":"Point","coordinates":[16.15294,38.97285]},"properties":{"id":138420,"name":"Falerna Scalo","state_code":"CZ","country_code":"IT"}},{"type":"Feature","geometry":{"type":"Point","coordinates":[16.3878,38.96239]},"properties":{"id":138485,"name":"Feroleto Antico","state_code":"CZ","country_code":"IT"}},{"type":"Feature","geometry":{"type":"Point","coordinates":[16.5796,38.99629]},"properties":{"id":138676,"name":"Fossato Serralta","state_code":"CZ","country_code":"IT"}},{"type":"Feature","geometry":{"type":"Point","coordinates":[16.46061,38.67578]},"properties":{"id":138784,"name":"Gagliato","state_code":"CZ","country_code":"IT"}},{"type":"Feature","geometry":{"type":"Point","coordinates":[16.50666,38.74039]},"properties":{"id":138864,"name":"Gasperina","state_code":"CZ","country_code":"IT"}},{"type":"Feature","geometry":{"type":"Point","coordinates":[16.53165,38.97338]},"properties":{"id":138962,"name":"Gimigliano","state_code":"CZ","country_code":"IT"}},{"type":"Feature","geometry":{"type":"Point","coordinates":[16.42688,38.82594]},"properties":{"id":138983,"name":"Girifalco","state_code":"CZ","country_code":"IT"}},{"type":"Feature","geometry":{"type":"Point","coordinates":[16.20671,38.98025]},"properties":{"id":139003,"name":"Gizzeria","state_code":"CZ","country_code":"IT"}},{"type":"Feature","geometry":{"type":"Point","coordinates":[16.50669,38.5051]},"properties":{"id":139156,"name":"Guardavalle","state_code":"CZ","country_code":"IT"}},{"type":"Feature","geometry":{"type":"Point","coordinates":[16.55733,38.60341]},"properties":{"id":139225,"name":"Isca Marina","state_code":"CZ","country_code":"IT"}},{"type":"Feature","geometry":{"type":"Point","coordinates":[16.5201,38.60103]},"properties":{"id":139226,"name":"Isca sullo Ionio","state_code":"CZ","country_code":"IT"}},{"type":"Feature","geometry":{"type":"Point","coordinates":[16.3798,38.84649]},"properties":{"id":139273,"name":"Jacurso","state_code":"CZ","country_code":"IT"}},{"type":"Feature","geometry":{"type":"Point","coordinates":[16.30938,38.96255]},"properties":{"id":139344,"name":"Lamezia Terme","state_code":"CZ","country_code":"IT"}},{"type":"Feature","geometry":{"type":"Point","coordinates":[16.6279,39.01339]},"properties":{"id":139721,"name":"Magisano","state_code":"CZ","country_code":"IT"}},{"type":"Feature","geometry":{"type":"Point","coordinates":[16.36277,38.85884]},"properties":{"id":139745,"name":"Maida","state_code":"CZ","country_code":"IT"}},{"type":"Feature","geometry":{"type":"Point","coordinates":[16.83612,39.02675]},"properties":{"id":139836,"name":"Marcedusa","state_code":"CZ","country_code":"IT"}},{"type":"Feature","geometry":{"type":"Point","coordinates":[16.48757,38.92574]},"properties":{"id":139840,"name":"Marcellinara","state_code":"CZ","country_code":"IT"}},{"type":"Feature","geometry":{"type":"Point","coordinates":[16.54825,38.66361]},"properties":{"id":139884,"name":"Marina di Davoli","state_code":"CZ","country_code":"IT"}},{"type":"Feature","geometry":{"type":"Point","coordinates":[16.53549,38.6793]},"properties":{"id":139928,"name":"Martelli-Laganosa","state_code":"CZ","country_code":"IT"}},{"type":"Feature","geometry":{"type":"Point","coordinates":[16.24829,39.08119]},"properties":{"id":139937,"name":"Martirano","state_code":"CZ","country_code":"IT"}},{"type":"Feature","geometry":{"type":"Point","coordinates":[16.232,39.07469]},"properties":{"id":139938,"name":"Martirano Lombardo","state_code":"CZ","country_code":"IT"}},{"type":"Feature","geometry":{"type":"Point","coordinates":[16.47233,38.9506]},"properties":{"id":140137,"name":"Miglierina","state_code":"CZ","country_code":"IT"}},{"type":"Feature","geometry":{"type":"Point","coordinates":[16.51226,38.74927]},"properties":{"id":140349,"name":"Montauro","state_code":"CZ","country_code":"IT"}},{"type":"Feature","geometry":{"type":"Point","coordinates":[16.49795,38.72222]},"properties":{"id":140506,"name":"Montepaone","state_code":"CZ","country_code":"IT"}},{"type":"Feature","geometry":{"type":"Point","coordinates":[16.54241,38.72951]},"properties":{"id":140507,"name":"Montepaone Lido","state_code":"CZ","country_code":"IT"}},{"type":"Feature","geometry":{"type":"Point","coordinates":[16.29313,39.09122]},"properties":{"id":140662,"name":"Motta Santa Lucia","state_code":"CZ","country_code":"IT"}},{"type":"Feature","geometry":{"type":"Point","coordinates":[16.31285,38.97089]},"properties":{"id":140761,"name":"Nicastro","state_code":"CZ","country_code":"IT"}},{"type":"Feature","geometry":{"type":"Point","coordinates":[16.1204,39.01576]},"properties":{"id":140783,"name":"Nocera Scalo","state_code":"CZ","country_code":"IT"}},{"type":"Feature","geometry":{"type":"Point","coordinates":[16.16737,39.03474]},"properties":{"id":140785,"name":"Nocera Terinese","state_code":"CZ","country_code":"IT"}},{"type":"Feature","geometry":{"type":"Point","coordinates":[16.4237,38.72558]},"properties":{"id":140899,"name":"Olivadi","state_code":"CZ","country_code":"IT"}},{"type":"Feature","geometry":{"type":"Point","coordinates":[16.4522,38.74868]},"properties":{"id":58239,"name":"Palermiti","state_code":"CZ","country_code":"IT"}},{"type":"Feature","geometry":{"type":"Point","coordinates":[16.5825,38.98579]},"properties":{"id":58410,"name":"Pentone","state_code":"CZ","country_code":"IT"}},{"type":"Feature","geometry":{"type":"Point","coordinates":[16.47187,38.70179]},"properties":{"id":58485,"name":"Petrizzi","state_code":"CZ","country_code":"IT"}},{"type":"Feature","geometry":{"type":"Point","coordinates":[16.75796,39.0437]},"properties":{"id":58486,"name":"Petronà","state_code":"CZ","country_code":"IT"}},{"type":"Feature","geometry":{"type":"Point","coordinates":[16.38863,38.95246]},"properties":{"id":58549,"name":"Pianopoli","state_code":"CZ","country_code":"IT"}},{"type":"Feature","geometry":{"type":"Point","coordinates":[16.32194,39.0062]},"properties":{"id":58734,"name":"Platania","state_code":"CZ","country_code":"IT"}},{"type":"Feature","geometry":{"type":"Point","coordinates":[16.5982,38.81126]},"properties":{"id":59534,"name":"Roccelletta","state_code":"CZ","country_code":"IT"}},{"type":"Feature","geometry":{"type":"Point","coordinates":[16.28333,38.96667]},"properties":{"id":59801,"name":"Sambiase","state_code":"CZ","country_code":"IT"}},{"type":"Feature","geometry":{"type":"Point","coordinates":[16.5187,38.83799]},"properties":{"id":59925,"name":"San Floro","state_code":"CZ","country_code":"IT"}},{"type":"Feature","geometry":{"type":"Point","coordinates":[16.19224,39.06036]},"properties":{"id":60055,"name":"San Mango d'Aquino","state_code":"CZ","country_code":"IT"}},{"type":"Feature","geometry":{"type":"Point","coordinates":[16.34116,38.84731]},"properties":{"id":60186,"name":"San Pietro a Maida","state_code":"CZ","country_code":"IT"}},{"type":"Feature","geometry":{"type":"Point","coordinates":[16.46783,39.00413]},"properties":{"id":60173,"name":"San Pietro Apostolo","state_code":"CZ","country_code":"IT"}},{"type":"Feature","geometry":{"type":"Point","coordinates":[16.48751,38.63733]},"properties":{"id":60247,"name":"San Sostene","state_code":"CZ","country_code":"IT"}},{"type":"Feature","geometry":{"type":"Point","coordinates":[16.40862,38.70749]},"properties":{"id":60278,"name":"San Vito Sullo Ionio","state_code":"CZ","country_code":"IT"}},{"type":"Feature","geometry":{"type":"Point","coordinates":[16.53048,38.62165]},"properties":{"id":60344,"name":"Sant'Andrea Apostolo dello Ionio","state_code":"CZ","country_code":"IT"}},{"type":"Feature","geometry":{"type":"Point","coordinates":[16.54927,38.62001]},"properties":{"id":60346,"name":"Sant'Andrea Ionio Marina","state_code":"CZ","country_code":"IT"}},{"type":"Feature","geometry":{"type":"Point","coordinates":[16.58521,38.95788]},"properties":{"id":60396,"name":"Sant'Elia","state_code":"CZ","country_code":"IT"}},{"type":"Feature","geometry":{"type":"Point","coordinates":[16.52176,38.53324]},"properties":{"id":60416,"name":"Santa Caterina dello Ionio","state_code":"CZ","country_code":"IT"}},{"type":"Feature","geometry":{"type":"Point","coordinates":[16.57071,38.52736]},"properties":{"id":60417,"name":"Santa Caterina dello Ionio Marina","state_code":"CZ","country_code":"IT"}},{"type":"Feature","geometry":{"type":"Point","coordinates":[16.25221,38.91982]},"properties":{"id":60435,"name":"Santa Eufemia Lamezia","state_code":"CZ","country_code":"IT"}},{"type":"Feature","geometry":{"type":"Point","coordinates":[16.4797,38.6664]},"properties":{"id":60578,"name":"Satriano","state_code":"CZ","country_code":"IT"}},{"type":"Feature","geometry":{"type":"Point","coordinates":[16.6307,38.98206]},"properties":{"id":60701,"name":"Sellia","state_code":"CZ","country_code":"IT"}},{"type":"Feature","geometry":{"type":"Point","coordinates":[16.74931,38.88599]},"properties":{"id":60702,"name":"Sellia Marina","state_code":"CZ","country_code":"IT"}},{"type":"Feature","geometry":{"type":"Point","coordinates":[16.4163,39.01319]},"properties":{"id":60769,"name":"Serrastretta","state_code":"CZ","country_code":"IT"}},{"type":"Feature","geometry":{"type":"Point","coordinates":[16.7296,39.01013]},"properties":{"id":60785,"name":"Sersale","state_code":"CZ","country_code":"IT"}},{"type":"Feature","geometry":{"type":"Point","coordinates":[16.5139,38.91139]},"properties":{"id":60817,"name":"Settingiano","state_code":"CZ","country_code":"IT"}},{"type":"Feature","geometry":{"type":"Point","coordinates":[16.60224,38.91547]},"properties":{"id":60835,"name":"Siano","state_code":"CZ","country_code":"IT"}},{"type":"Feature","geometry":{"type":"Point","coordinates":[16.5691,39.01939]},"properties":{"id":60949,"name":"Sorbo San Basile","state_code":"CZ","country_code":"IT"}},{"type":"Feature","geometry":{"type":"Point","coordinates":[16.54991,38.68498]},"properties":{"id":60977,"name":"Soverato Marina","state_code":"CZ","country_code":"IT"}},{"type":"Feature","geometry":{"type":"Point","coordinates":[16.53391,38.68993]},"properties":{"id":60978,"name":"Soverato Superiore","state_code":"CZ","country_code":"IT"}},{"type":"Feature","geometry":{"type":"Point","coordinates":[16.37708,39.07784]},"properties":{"id":60980,"name":"Soveria Mannelli","state_code":"CZ","country_code":"IT"}},{"type":"Feature","geometry":{"type":"Point","coordinates":[16.67854,38.94986]},"properties":{"id":60981,"name":"Soveria Simeri","state_code":"CZ","country_code":"IT"}},{"type":"Feature","geometry":{"type":"Point","coordinates":[16.51175,38.78091]},"properties":{"id":61034,"name":"Squillace","state_code":"CZ","country_code":"IT"}},{"type":"Feature","geometry":{"type":"Point","coordinates":[16.57007,38.77781]},"properties":{"id":61035,"name":"Squillace Lido","state_code":"CZ","country_code":"IT"}},{"type":"Feature","geometry":{"type":"Point","coordinates":[16.53932,38.76428]},"properties":{"id":61043,"name":"Staletti","state_code":"CZ","country_code":"IT"}},{"type":"Feature","geometry":{"type":"Point","coordinates":[16.58081,39.022]},"properties":{"id":61184,"name":"Taverna","state_code":"CZ","country_code":"IT"}},{"type":"Feature","geometry":{"type":"Point","coordinates":[16.51046,38.94069]},"properties":{"id":61284,"name":"Tiriolo","state_code":"CZ","country_code":"IT"}},{"type":"Feature","geometry":{"type":"Point","coordinates":[16.37211,38.65293]},"properties":{"id":61375,"name":"Torre di Ruggiero","state_code":"CZ","country_code":"IT"}},{"type":"Feature","geometry":{"type":"Point","coordinates":[16.461,38.77638]},"properties":{"id":61707,"name":"Vallefiorita","state_code":"CZ","country_code":"IT"}},{"type":"Feature","geometry":{"type":"Point","coordinates":[16.6642,38.99985]},"properties":{"id":62230,"name":"Zagarise","state_code":"CZ","country_code":"IT"}}]}