{"type":"FeatureCollection","features":[{"type":"Feature","geometry":{"type":"Point","coordinates":[11.32233,43.72774]},"properties":{"id":135513,"name":"Antella","state_code":"FI","country_code":"IT"}},{"type":"Feature","geometry":{"type":"Point","coordinates":[11.32252,43.75115]},"properties":{"id":135761,"name":"Bagno a Ripoli","state_code":"FI","country_code":"IT"}},{"type":"Feature","geometry":{"type":"Point","coordinates":[11.23676,43.9993]},"properties":{"id":135828,"name":"Barberino di Mugello","state_code":"FI","country_code":"IT"}},{"type":"Feature","geometry":{"type":"Point","coordinates":[11.17178,43.53987]},"properties":{"id":135827,"name":"Barberino Val d'Elsa","state_code":"FI","country_code":"IT"}},{"type":"Feature","geometry":{"type":"Point","coordinates":[11.38561,43.95548]},"properties":{"id":136184,"name":"Borgo San Lorenzo","state_code":"FI","country_code":"IT"}},{"type":"Feature","geometry":{"type":"Point","coordinates":[11.30442,43.82834]},"properties":{"id":136518,"name":"Caldine","state_code":"FI","country_code":"IT"}},{"type":"Feature","geometry":{"type":"Point","coordinates":[11.16608,43.85447]},"properties":{"id":136522,"name":"Calenzano","state_code":"FI","country_code":"IT"}},{"type":"Feature","geometry":{"type":"Point","coordinates":[11.13027,43.8245]},"properties":{"id":136615,"name":"Campi Bisenzio","state_code":"FI","country_code":"IT"}},{"type":"Feature","geometry":{"type":"Point","coordinates":[10.98342,43.74535]},"properties":{"id":136799,"name":"Capraia e Limite","state_code":"FI","country_code":"IT"}},{"type":"Feature","geometry":{"type":"Point","coordinates":[11.1819,43.89534]},"properties":{"id":136923,"name":"Carraia","state_code":"FI","country_code":"IT"}},{"type":"Feature","geometry":{"type":"Point","coordinates":[10.96772,43.60963]},"properties":{"id":137193,"name":"Castelfiorentino","state_code":"FI","country_code":"IT"}},{"type":"Feature","geometry":{"type":"Point","coordinates":[11.23147,43.98353]},"properties":{"id":137417,"name":"Cavallina","state_code":"FI","country_code":"IT"}},{"type":"Feature","geometry":{"type":"Point","coordinates":[11.12889,43.68519]},"properties":{"id":137519,"name":"Cerbaia","state_code":"FI","country_code":"IT"}},{"type":"Feature","geometry":{"type":"Point","coordinates":[10.88191,43.75851]},"properties":{"id":137563,"name":"Cerreto Guidi","state_code":"FI","country_code":"IT"}},{"type":"Feature","geometry":{"type":"Point","coordinates":[11.03924,43.54768]},"properties":{"id":137578,"name":"Certaldo","state_code":"FI","country_code":"IT"}},{"type":"Feature","geometry":{"type":"Point","coordinates":[11.35909,43.78485]},"properties":{"id":137949,"name":"Compiobbi","state_code":"FI","country_code":"IT"}},{"type":"Feature","geometry":{"type":"Point","coordinates":[11.52182,43.89267]},"properties":{"id":138265,"name":"Dicomano","state_code":"FI","country_code":"IT"}},{"type":"Feature","geometry":{"type":"Point","coordinates":[10.94758,43.71795]},"properties":{"id":138356,"name":"Empoli","state_code":"FI","country_code":"IT"}},{"type":"Feature","geometry":{"type":"Point","coordinates":[11.29487,43.80455]},"properties":{"id":138511,"name":"Fiesole","state_code":"FI","country_code":"IT"}},{"type":"Feature","geometry":{"type":"Point","coordinates":[11.47191,43.61995]},"properties":{"id":138519,"name":"Figline Valdarno","state_code":"FI","country_code":"IT"}},{"type":"Feature","geometry":{"type":"Point","coordinates":[11.38185,44.11968]},"properties":{"id":138543,"name":"Firenzuola","state_code":"FI","country_code":"IT"}},{"type":"Feature","geometry":{"type":"Point","coordinates":[11.24626,43.77925]},"properties":{"id":138563,"name":"Florence","state_code":"FI","country_code":"IT"}},{"type":"Feature","geometry":{"type":"Point","coordinates":[10.79749,43.73292]},"properties":{"id":138746,"name":"Fucecchio","state_code":"FI","country_code":"IT"}},{"type":"Feature","geometry":{"type":"Point","coordinates":[11.29353,44.01725]},"properties":{"id":138803,"name":"Galliano","state_code":"FI","country_code":"IT"}},{"type":"Feature","geometry":{"type":"Point","coordinates":[10.95161,43.53576]},"properties":{"id":138829,"name":"Gambassi Terme","state_code":"FI","country_code":"IT"}},{"type":"Feature","geometry":{"type":"Point","coordinates":[11.07384,43.70939]},"properties":{"id":138964,"name":"Ginestra Fiorentina","state_code":"FI","country_code":"IT"}},{"type":"Feature","geometry":{"type":"Point","coordinates":[11.3,43.73333]},"properties":{"id":139073,"name":"Grassina Ponte a Ema","state_code":"FI","country_code":"IT"}},{"type":"Feature","geometry":{"type":"Point","coordinates":[11.31712,43.58514]},"properties":{"id":139092,"name":"Greve in Chianti","state_code":"FI","country_code":"IT"}},{"type":"Feature","geometry":{"type":"Point","coordinates":[11.25434,43.68453]},"properties":{"id":139202,"name":"Impruneta","state_code":"FI","country_code":"IT"}},{"type":"Feature","geometry":{"type":"Point","coordinates":[11.44901,43.6548]},"properties":{"id":139205,"name":"Incisa in Val d'Arno","state_code":"FI","country_code":"IT"}},{"type":"Feature","geometry":{"type":"Point","coordinates":[11.11271,43.76998]},"properties":{"id":139385,"name":"Lastra a Signa","state_code":"FI","country_code":"IT"}},{"type":"Feature","geometry":{"type":"Point","coordinates":[10.86054,43.78305]},"properties":{"id":139423,"name":"Lazzeretto","state_code":"FI","country_code":"IT"}},{"type":"Feature","geometry":{"type":"Point","coordinates":[11.56425,43.86344]},"properties":{"id":139587,"name":"Londa","state_code":"FI","country_code":"IT"}},{"type":"Feature","geometry":{"type":"Point","coordinates":[11.39611,44.00032]},"properties":{"id":139637,"name":"Luco Mugello","state_code":"FI","country_code":"IT"}},{"type":"Feature","geometry":{"type":"Point","coordinates":[11.07285,43.74717]},"properties":{"id":139770,"name":"Malmantile","state_code":"FI","country_code":"IT"}},{"type":"Feature","geometry":{"type":"Point","coordinates":[11.16958,43.782]},"properties":{"id":139810,"name":"Mantignano-Ugnano","state_code":"FI","country_code":"IT"}},{"type":"Feature","geometry":{"type":"Point","coordinates":[10.88436,43.7183]},"properties":{"id":139851,"name":"Marcignana","state_code":"FI","country_code":"IT"}},{"type":"Feature","geometry":{"type":"Point","coordinates":[11.61092,44.07353]},"properties":{"id":139915,"name":"Marradi","state_code":"FI","country_code":"IT"}},{"type":"Feature","geometry":{"type":"Point","coordinates":[11.2279,43.63677]},"properties":{"id":140072,"name":"Mercatale","state_code":"FI","country_code":"IT"}},{"type":"Feature","geometry":{"type":"Point","coordinates":[11.39992,43.81098]},"properties":{"id":140224,"name":"Molino del Piano","state_code":"FI","country_code":"IT"}},{"type":"Feature","geometry":{"type":"Point","coordinates":[10.91371,43.55144]},"properties":{"id":140314,"name":"Montaione","state_code":"FI","country_code":"IT"}},{"type":"Feature","geometry":{"type":"Point","coordinates":[11.48655,43.83027]},"properties":{"id":140392,"name":"Montebonello","state_code":"FI","country_code":"IT"}},{"type":"Feature","geometry":{"type":"Point","coordinates":[11.00997,43.72958]},"properties":{"id":140481,"name":"Montelupo Fiorentino","state_code":"FI","country_code":"IT"}},{"type":"Feature","geometry":{"type":"Point","coordinates":[11.07331,43.6426]},"properties":{"id":140543,"name":"Montespertoli","state_code":"FI","country_code":"IT"}},{"type":"Feature","geometry":{"type":"Point","coordinates":[11.5427,44.11298]},"properties":{"id":58237,"name":"Palazzuolo sul Senio","state_code":"FI","country_code":"IT"}},{"type":"Feature","geometry":{"type":"Point","coordinates":[11.50148,43.77255]},"properties":{"id":58390,"name":"Pelago","state_code":"FI","country_code":"IT"}},{"type":"Feature","geometry":{"type":"Point","coordinates":[11.29585,43.8181]},"properties":{"id":58509,"name":"Pian di Mugnone","state_code":"FI","country_code":"IT"}},{"type":"Feature","geometry":{"type":"Point","coordinates":[11.43109,43.77477]},"properties":{"id":58831,"name":"Pontassieve","state_code":"FI","country_code":"IT"}},{"type":"Feature","geometry":{"type":"Point","coordinates":[10.89281,43.68907]},"properties":{"id":58833,"name":"Ponte A Elsa","state_code":"FI","country_code":"IT"}},{"type":"Feature","geometry":{"type":"Point","coordinates":[10.95651,43.69584]},"properties":{"id":58978,"name":"Pozzale-Case Nuove","state_code":"FI","country_code":"IT"}},{"type":"Feature","geometry":{"type":"Point","coordinates":[11.33333,43.83333]},"properties":{"id":59102,"name":"Province of Florence","state_code":"FI","country_code":"IT"}},{"type":"Feature","geometry":{"type":"Point","coordinates":[11.0807,43.74148]},"properties":{"id":59237,"name":"Quattro Strade","state_code":"FI","country_code":"IT"}},{"type":"Feature","geometry":{"type":"Point","coordinates":[11.52976,43.67967]},"properties":{"id":59319,"name":"Reggello","state_code":"FI","country_code":"IT"}},{"type":"Feature","geometry":{"type":"Point","coordinates":[11.45183,43.72145]},"properties":{"id":59379,"name":"Rignano sull'Arno","state_code":"FI","country_code":"IT"}},{"type":"Feature","geometry":{"type":"Point","coordinates":[11.42894,44.0031]},"properties":{"id":59617,"name":"Ronta","state_code":"FI","country_code":"IT"}},{"type":"Feature","geometry":{"type":"Point","coordinates":[11.48673,43.82396]},"properties":{"id":59699,"name":"Rufina","state_code":"FI","country_code":"IT"}},{"type":"Feature","geometry":{"type":"Point","coordinates":[11.21407,43.57344]},"properties":{"id":59803,"name":"Sambuca","state_code":"FI","country_code":"IT"}},{"type":"Feature","geometry":{"type":"Point","coordinates":[11.18494,43.65975]},"properties":{"id":59858,"name":"San Casciano in Val di Pesa","state_code":"FI","country_code":"IT"}},{"type":"Feature","geometry":{"type":"Point","coordinates":[11.14654,43.79547]},"properties":{"id":59900,"name":"San Donnino","state_code":"FI","country_code":"IT"}},{"type":"Feature","geometry":{"type":"Point","coordinates":[11.44842,43.77483]},"properties":{"id":59926,"name":"San Francesco","state_code":"FI","country_code":"IT"}},{"type":"Feature","geometry":{"type":"Point","coordinates":[11.61982,43.92504]},"properties":{"id":60018,"name":"San Godenzo","state_code":"FI","country_code":"IT"}},{"type":"Feature","geometry":{"type":"Point","coordinates":[11.34032,43.76956]},"properties":{"id":60026,"name":"San Jacopo al Girone","state_code":"FI","country_code":"IT"}},{"type":"Feature","geometry":{"type":"Point","coordinates":[11.12499,43.79418]},"properties":{"id":60104,"name":"San Mauro","state_code":"FI","country_code":"IT"}},{"type":"Feature","geometry":{"type":"Point","coordinates":[11.32426,43.96251]},"properties":{"id":60168,"name":"San Piero a Sieve","state_code":"FI","country_code":"IT"}},{"type":"Feature","geometry":{"type":"Point","coordinates":[11.18794,43.75423]},"properties":{"id":60617,"name":"Scandicci","state_code":"FI","country_code":"IT"}},{"type":"Feature","geometry":{"type":"Point","coordinates":[11.35415,43.99357]},"properties":{"id":60636,"name":"Scarperia","state_code":"FI","country_code":"IT"}},{"type":"Feature","geometry":{"type":"Point","coordinates":[11.19924,43.83193]},"properties":{"id":60797,"name":"Sesto Fiorentino","state_code":"FI","country_code":"IT"}},{"type":"Feature","geometry":{"type":"Point","coordinates":[11.39445,43.78847]},"properties":{"id":60843,"name":"Sieci","state_code":"FI","country_code":"IT"}},{"type":"Feature","geometry":{"type":"Point","coordinates":[11.1036,43.7942]},"properties":{"id":60846,"name":"Signa","state_code":"FI","country_code":"IT"}},{"type":"Feature","geometry":{"type":"Point","coordinates":[10.93921,43.73016]},"properties":{"id":61006,"name":"Spicchio-Sovigliana","state_code":"FI","country_code":"IT"}},{"type":"Feature","geometry":{"type":"Point","coordinates":[10.83475,43.78266]},"properties":{"id":61037,"name":"Stabbia","state_code":"FI","country_code":"IT"}},{"type":"Feature","geometry":{"type":"Point","coordinates":[11.29678,43.65874]},"properties":{"id":61085,"name":"Strada in Chianti","state_code":"FI","country_code":"IT"}},{"type":"Feature","geometry":{"type":"Point","coordinates":[11.17152,43.56184]},"properties":{"id":61180,"name":"Tavarnelle Val di Pesa","state_code":"FI","country_code":"IT"}},{"type":"Feature","geometry":{"type":"Point","coordinates":[11.21721,43.71019]},"properties":{"id":61181,"name":"Tavarnuzze","state_code":"FI","country_code":"IT"}},{"type":"Feature","geometry":{"type":"Point","coordinates":[11.27997,43.9107]},"properties":{"id":61633,"name":"Vaglia","state_code":"FI","country_code":"IT"}},{"type":"Feature","geometry":{"type":"Point","coordinates":[11.46004,43.93413]},"properties":{"id":61913,"name":"Vicchio","state_code":"FI","country_code":"IT"}},{"type":"Feature","geometry":{"type":"Point","coordinates":[10.92365,43.78133]},"properties":{"id":62163,"name":"Vinci","state_code":"FI","country_code":"IT"}}]}