{"type":"FeatureCollection","features":[{"type":"Feature","geometry":{"type":"Point","coordinates":[8.68315,44.40521]},"properties":{"id":135588,"name":"Arenzano","state_code":"GE","country_code":"IT"}},{"type":"Feature","geometry":{"type":"Point","coordinates":[9.15797,44.38285]},"properties":{"id":135697,"name":"Avegno","state_code":"GE","country_code":"IT"}},{"type":"Feature","geometry":{"type":"Point","coordinates":[9.09372,44.4475]},"properties":{"id":135849,"name":"Bargagli","state_code":"GE","country_code":"IT"}},{"type":"Feature","geometry":{"type":"Point","coordinates":[9.30333,44.35111]},"properties":{"id":136090,"name":"Bocco","state_code":"GE","country_code":"IT"}},{"type":"Feature","geometry":{"type":"Point","coordinates":[9.06926,44.3807]},"properties":{"id":136096,"name":"Bogliasco","state_code":"GE","country_code":"IT"}},{"type":"Feature","geometry":{"type":"Point","coordinates":[8.93671,44.58933]},"properties":{"id":136171,"name":"Borgo Fornari-Pieve","state_code":"GE","country_code":"IT"}},{"type":"Feature","geometry":{"type":"Point","coordinates":[9.38851,44.42002]},"properties":{"id":136235,"name":"Borzonasca","state_code":"GE","country_code":"IT"}},{"type":"Feature","geometry":{"type":"Point","coordinates":[8.94545,44.5706]},"properties":{"id":136418,"name":"Busalla","state_code":"GE","country_code":"IT"}},{"type":"Feature","geometry":{"type":"Point","coordinates":[9.15487,44.34945]},"properties":{"id":136597,"name":"Camogli","state_code":"GE","country_code":"IT"}},{"type":"Feature","geometry":{"type":"Point","coordinates":[8.69896,44.53658]},"properties":{"id":136629,"name":"Campo Ligure","state_code":"GE","country_code":"IT"}},{"type":"Feature","geometry":{"type":"Point","coordinates":[8.88502,44.50954]},"properties":{"id":136670,"name":"Campomorone","state_code":"GE","country_code":"IT"}},{"type":"Feature","geometry":{"type":"Point","coordinates":[9.34567,44.34975]},"properties":{"id":136836,"name":"Carasco","state_code":"GE","country_code":"IT"}},{"type":"Feature","geometry":{"type":"Point","coordinates":[9.44704,44.27188]},"properties":{"id":137035,"name":"Casarza Ligure","state_code":"GE","country_code":"IT"}},{"type":"Feature","geometry":{"type":"Point","coordinates":[8.62157,44.52756]},"properties":{"id":137042,"name":"Casavecchia","state_code":"GE","country_code":"IT"}},{"type":"Feature","geometry":{"type":"Point","coordinates":[9.0008,44.53523]},"properties":{"id":137058,"name":"Casella","state_code":"GE","country_code":"IT"}},{"type":"Feature","geometry":{"type":"Point","coordinates":[8.89343,44.50563]},"properties":{"id":137513,"name":"Ceranesi","state_code":"GE","country_code":"IT"}},{"type":"Feature","geometry":{"type":"Point","coordinates":[9.32241,44.31771]},"properties":{"id":137659,"name":"Chiavari","state_code":"GE","country_code":"IT"}},{"type":"Feature","geometry":{"type":"Point","coordinates":[9.31161,44.36976]},"properties":{"id":137666,"name":"Chiesa Nuova","state_code":"GE","country_code":"IT"}},{"type":"Feature","geometry":{"type":"Point","coordinates":[9.23917,44.40714]},"properties":{"id":137707,"name":"Cicagna","state_code":"GE","country_code":"IT"}},{"type":"Feature","geometry":{"type":"Point","coordinates":[8.64692,44.38996]},"properties":{"id":137842,"name":"Cogoleto","state_code":"GE","country_code":"IT"}},{"type":"Feature","geometry":{"type":"Point","coordinates":[9.37117,44.32074]},"properties":{"id":137845,"name":"Cogorno","state_code":"GE","country_code":"IT"}},{"type":"Feature","geometry":{"type":"Point","coordinates":[9.39537,44.34491]},"properties":{"id":137972,"name":"Conscenti","state_code":"GE","country_code":"IT"}},{"type":"Feature","geometry":{"type":"Point","coordinates":[9.26097,44.38775]},"properties":{"id":138006,"name":"Coreglia Ligure","state_code":"GE","country_code":"IT"}},{"type":"Feature","geometry":{"type":"Point","coordinates":[9.0236,44.58077]},"properties":{"id":138159,"name":"Crocefieschi","state_code":"GE","country_code":"IT"}},{"type":"Feature","geometry":{"type":"Point","coordinates":[9.08666,44.46585]},"properties":{"id":138231,"name":"Davagna","state_code":"GE","country_code":"IT"}},{"type":"Feature","geometry":{"type":"Point","coordinates":[9.22136,44.58255]},"properties":{"id":138455,"name":"Fascia","state_code":"GE","country_code":"IT"}},{"type":"Feature","geometry":{"type":"Point","coordinates":[9.26,44.45163]},"properties":{"id":138458,"name":"Favale di Malvaro","state_code":"GE","country_code":"IT"}},{"type":"Feature","geometry":{"type":"Point","coordinates":[9.21016,44.42008]},"properties":{"id":138487,"name":"Ferrada","state_code":"GE","country_code":"IT"}},{"type":"Feature","geometry":{"type":"Point","coordinates":[9.13675,44.44302]},"properties":{"id":138497,"name":"Ferriere","state_code":"GE","country_code":"IT"}},{"type":"Feature","geometry":{"type":"Point","coordinates":[9.30548,44.5454]},"properties":{"id":138604,"name":"Fontanigorda","state_code":"GE","country_code":"IT"}},{"type":"Feature","geometry":{"type":"Point","coordinates":[8.94439,44.40478]},"properties":{"id":138899,"name":"Genoa","state_code":"GE","country_code":"IT"}},{"type":"Feature","geometry":{"type":"Point","coordinates":[9.29126,44.60485]},"properties":{"id":139040,"name":"Gorreto","state_code":"GE","country_code":"IT"}},{"type":"Feature","geometry":{"type":"Point","coordinates":[8.95746,44.64783]},"properties":{"id":139243,"name":"Isola del Cantone","state_code":"GE","country_code":"IT"}},{"type":"Feature","geometry":{"type":"Point","coordinates":[8.86049,44.52941]},"properties":{"id":139257,"name":"Isoverde","state_code":"GE","country_code":"IT"}},{"type":"Feature","geometry":{"type":"Point","coordinates":[9.35383,44.3062]},"properties":{"id":139408,"name":"Lavagna","state_code":"GE","country_code":"IT"}},{"type":"Feature","geometry":{"type":"Point","coordinates":[9.31074,44.35344]},"properties":{"id":139440,"name":"Leivi","state_code":"GE","country_code":"IT"}},{"type":"Feature","geometry":{"type":"Point","coordinates":[9.27677,44.43415]},"properties":{"id":139615,"name":"Lorsica","state_code":"GE","country_code":"IT"}},{"type":"Feature","geometry":{"type":"Point","coordinates":[8.92784,44.47816]},"properties":{"id":139795,"name":"Manesseno","state_code":"GE","country_code":"IT"}},{"type":"Feature","geometry":{"type":"Point","coordinates":[8.71891,44.50162]},"properties":{"id":139965,"name":"Masone","state_code":"GE","country_code":"IT"}},{"type":"Feature","geometry":{"type":"Point","coordinates":[8.74889,44.44573]},"properties":{"id":140038,"name":"Mele","state_code":"GE","country_code":"IT"}},{"type":"Feature","geometry":{"type":"Point","coordinates":[9.37667,44.38275]},"properties":{"id":140110,"name":"Mezzanego","state_code":"GE","country_code":"IT"}},{"type":"Feature","geometry":{"type":"Point","coordinates":[8.91412,44.52748]},"properties":{"id":140140,"name":"Mignanego","state_code":"GE","country_code":"IT"}},{"type":"Feature","geometry":{"type":"Point","coordinates":[9.20977,44.42065]},"properties":{"id":140187,"name":"Moconesi","state_code":"GE","country_code":"IT"}},{"type":"Feature","geometry":{"type":"Point","coordinates":[9.06816,44.55555]},"properties":{"id":140221,"name":"Molino Vecchio-Scapitola-Baio","state_code":"GE","country_code":"IT"}},{"type":"Feature","geometry":{"type":"Point","coordinates":[9.49081,44.23905]},"properties":{"id":140277,"name":"Moneglia","state_code":"GE","country_code":"IT"}},{"type":"Feature","geometry":{"type":"Point","coordinates":[9.24831,44.52577]},"properties":{"id":140393,"name":"Montebruno","state_code":"GE","country_code":"IT"}},{"type":"Feature","geometry":{"type":"Point","coordinates":[9.04923,44.51699]},"properties":{"id":140578,"name":"Montoggio","state_code":"GE","country_code":"IT"}},{"type":"Feature","geometry":{"type":"Point","coordinates":[9.19133,44.45482]},"properties":{"id":140737,"name":"Neirone","state_code":"GE","country_code":"IT"}},{"type":"Feature","geometry":{"type":"Point","coordinates":[9.26707,44.40835]},"properties":{"id":140948,"name":"Orero","state_code":"GE","country_code":"IT"}},{"type":"Feature","geometry":{"type":"Point","coordinates":[8.92614,44.50307]},"properties":{"id":58379,"name":"Pedemonte","state_code":"GE","country_code":"IT"}},{"type":"Feature","geometry":{"type":"Point","coordinates":[8.96595,44.48392]},"properties":{"id":58578,"name":"Piccarello","state_code":"GE","country_code":"IT"}},{"type":"Feature","geometry":{"type":"Point","coordinates":[9.0941,44.37494]},"properties":{"id":58636,"name":"Pieve Ligure","state_code":"GE","country_code":"IT"}},{"type":"Feature","geometry":{"type":"Point","coordinates":[9.20942,44.30349]},"properties":{"id":58945,"name":"Portofino","state_code":"GE","country_code":"IT"}},{"type":"Feature","geometry":{"type":"Point","coordinates":[9.37567,44.3829]},"properties":{"id":59021,"name":"Prati","state_code":"GE","country_code":"IT"}},{"type":"Feature","geometry":{"type":"Point","coordinates":[9.18587,44.56487]},"properties":{"id":59091,"name":"Propata","state_code":"GE","country_code":"IT"}},{"type":"Feature","geometry":{"type":"Point","coordinates":[9.22796,44.3496]},"properties":{"id":59284,"name":"Rapallo","state_code":"GE","country_code":"IT"}},{"type":"Feature","geometry":{"type":"Point","coordinates":[9.14354,44.36227]},"properties":{"id":59311,"name":"Recco","state_code":"GE","country_code":"IT"}},{"type":"Feature","geometry":{"type":"Point","coordinates":[9.38827,44.52625]},"properties":{"id":59349,"name":"Rezzoaglio","state_code":"GE","country_code":"IT"}},{"type":"Feature","geometry":{"type":"Point","coordinates":[8.95042,44.61357]},"properties":{"id":59605,"name":"Ronco Scrivia","state_code":"GE","country_code":"IT"}},{"type":"Feature","geometry":{"type":"Point","coordinates":[9.21806,44.56325]},"properties":{"id":59614,"name":"Rondanina","state_code":"GE","country_code":"IT"}},{"type":"Feature","geometry":{"type":"Point","coordinates":[8.66956,44.56358]},"properties":{"id":59651,"name":"Rossiglione","state_code":"GE","country_code":"IT"}},{"type":"Feature","geometry":{"type":"Point","coordinates":[9.27917,44.57675]},"properties":{"id":59670,"name":"Rovegno","state_code":"GE","country_code":"IT"}},{"type":"Feature","geometry":{"type":"Point","coordinates":[9.35479,44.33098]},"properties":{"id":60230,"name":"San Salvatore","state_code":"GE","country_code":"IT"}},{"type":"Feature","geometry":{"type":"Point","coordinates":[9.21204,44.33456]},"properties":{"id":60451,"name":"Santa Margherita Ligure","state_code":"GE","country_code":"IT"}},{"type":"Feature","geometry":{"type":"Point","coordinates":[8.89268,44.50401]},"properties":{"id":60485,"name":"Santa Marta","state_code":"GE","country_code":"IT"}},{"type":"Feature","geometry":{"type":"Point","coordinates":[9.45325,44.54677]},"properties":{"id":60518,"name":"Santo Stefano d'Aveto","state_code":"GE","country_code":"IT"}},{"type":"Feature","geometry":{"type":"Point","coordinates":[8.98726,44.56435]},"properties":{"id":60592,"name":"Savignone","state_code":"GE","country_code":"IT"}},{"type":"Feature","geometry":{"type":"Point","coordinates":[8.61541,44.40182]},"properties":{"id":60651,"name":"Sciarborasca","state_code":"GE","country_code":"IT"}},{"type":"Feature","geometry":{"type":"Point","coordinates":[8.93806,44.51071]},"properties":{"id":60751,"name":"Serra Riccò","state_code":"GE","country_code":"IT"}},{"type":"Feature","geometry":{"type":"Point","coordinates":[9.39683,44.27317]},"properties":{"id":60803,"name":"Sestri Levante","state_code":"GE","country_code":"IT"}},{"type":"Feature","geometry":{"type":"Point","coordinates":[9.1047,44.37301]},"properties":{"id":60957,"name":"Sori","state_code":"GE","country_code":"IT"}},{"type":"Feature","geometry":{"type":"Point","coordinates":[8.61925,44.52324]},"properties":{"id":61277,"name":"Tiglieto","state_code":"GE","country_code":"IT"}},{"type":"Feature","geometry":{"type":"Point","coordinates":[9.15811,44.51755]},"properties":{"id":61405,"name":"Torriglia","state_code":"GE","country_code":"IT"}},{"type":"Feature","geometry":{"type":"Point","coordinates":[9.19557,44.41655]},"properties":{"id":61517,"name":"Tribogna","state_code":"GE","country_code":"IT"}},{"type":"Feature","geometry":{"type":"Point","coordinates":[9.16227,44.41233]},"properties":{"id":61610,"name":"Uscio","state_code":"GE","country_code":"IT"}},{"type":"Feature","geometry":{"type":"Point","coordinates":[9.03866,44.60125]},"properties":{"id":62198,"name":"Vobbia","state_code":"GE","country_code":"IT"}},{"type":"Feature","geometry":{"type":"Point","coordinates":[9.2668,44.33668]},"properties":{"id":62263,"name":"Zoagli","state_code":"GE","country_code":"IT"}}]}