{"type":"FeatureCollection","features":[{"type":"Feature","geometry":{"type":"Point","coordinates":[7.55414,43.87092]},"properties":{"id":135335,"name":"Airole","state_code":"IM","country_code":"IT"}},{"type":"Feature","geometry":{"type":"Point","coordinates":[7.65993,43.88033]},"properties":{"id":135539,"name":"Apricale","state_code":"IM","country_code":"IT"}},{"type":"Feature","geometry":{"type":"Point","coordinates":[7.91545,44.08773]},"properties":{"id":135616,"name":"Armo","state_code":"IM","country_code":"IT"}},{"type":"Feature","geometry":{"type":"Point","coordinates":[7.92342,43.98281]},"properties":{"id":135690,"name":"Aurigo","state_code":"IM","country_code":"IT"}},{"type":"Feature","geometry":{"type":"Point","coordinates":[7.84584,43.91683]},"properties":{"id":135732,"name":"Badalucco","state_code":"IM","country_code":"IT"}},{"type":"Feature","geometry":{"type":"Point","coordinates":[7.72534,43.90402]},"properties":{"id":135781,"name":"Bajardo","state_code":"IM","country_code":"IT"}},{"type":"Feature","geometry":{"type":"Point","coordinates":[7.66451,43.78064]},"properties":{"id":136148,"name":"Bordighera","state_code":"IM","country_code":"IT"}},{"type":"Feature","geometry":{"type":"Point","coordinates":[7.98076,44.05672]},"properties":{"id":136161,"name":"Borghetto d'Arroscia","state_code":"IM","country_code":"IT"}},{"type":"Feature","geometry":{"type":"Point","coordinates":[7.94408,43.9753]},"properties":{"id":136208,"name":"Borgomaro","state_code":"IM","country_code":"IT"}},{"type":"Feature","geometry":{"type":"Point","coordinates":[7.62829,43.8131]},"properties":{"id":136676,"name":"Camporosso","state_code":"IM","country_code":"IT"}},{"type":"Feature","geometry":{"type":"Point","coordinates":[7.95805,43.99303]},"properties":{"id":136843,"name":"Caravonica","state_code":"IM","country_code":"IT"}},{"type":"Feature","geometry":{"type":"Point","coordinates":[7.86631,43.96024]},"properties":{"id":136908,"name":"Carpasio","state_code":"IM","country_code":"IT"}},{"type":"Feature","geometry":{"type":"Point","coordinates":[7.67471,43.92752]},"properties":{"id":137160,"name":"Castel Vittorio","state_code":"IM","country_code":"IT"}},{"type":"Feature","geometry":{"type":"Point","coordinates":[7.86881,43.86436]},"properties":{"id":137223,"name":"Castellaro","state_code":"IM","country_code":"IT"}},{"type":"Feature","geometry":{"type":"Point","coordinates":[7.77476,43.88091]},"properties":{"id":137547,"name":"Ceriana","state_code":"IM","country_code":"IT"}},{"type":"Feature","geometry":{"type":"Point","coordinates":[8.11529,43.92572]},"properties":{"id":137597,"name":"Cervo","state_code":"IM","country_code":"IT"}},{"type":"Feature","geometry":{"type":"Point","coordinates":[7.97515,44.00803]},"properties":{"id":137614,"name":"Cesio","state_code":"IM","country_code":"IT"}},{"type":"Feature","geometry":{"type":"Point","coordinates":[7.99185,43.97303]},"properties":{"id":137691,"name":"Chiusanico","state_code":"IM","country_code":"IT"}},{"type":"Feature","geometry":{"type":"Point","coordinates":[7.98443,43.96726]},"properties":{"id":137694,"name":"Chiusavecchia","state_code":"IM","country_code":"IT"}},{"type":"Feature","geometry":{"type":"Point","coordinates":[7.93144,43.85205]},"properties":{"id":137745,"name":"Cipressa","state_code":"IM","country_code":"IT"}},{"type":"Feature","geometry":{"type":"Point","coordinates":[7.95165,43.87982]},"properties":{"id":137779,"name":"Civezza","state_code":"IM","country_code":"IT"}},{"type":"Feature","geometry":{"type":"Point","coordinates":[7.83244,44.07743]},"properties":{"id":138080,"name":"Cosio di Arroscia","state_code":"IM","country_code":"IT"}},{"type":"Feature","geometry":{"type":"Point","coordinates":[7.94106,43.85477]},"properties":{"id":138106,"name":"Costarainera","state_code":"IM","country_code":"IT"}},{"type":"Feature","geometry":{"type":"Point","coordinates":[8.04155,43.94962]},"properties":{"id":138260,"name":"Diano Arentino","state_code":"IM","country_code":"IT"}},{"type":"Feature","geometry":{"type":"Point","coordinates":[8.06602,43.92423]},"properties":{"id":138261,"name":"Diano Castello","state_code":"IM","country_code":"IT"}},{"type":"Feature","geometry":{"type":"Point","coordinates":[8.08029,43.91088]},"properties":{"id":138262,"name":"Diano Marina","state_code":"IM","country_code":"IT"}},{"type":"Feature","geometry":{"type":"Point","coordinates":[8.07249,43.92953]},"properties":{"id":138263,"name":"Diano San Pietro","state_code":"IM","country_code":"IT"}},{"type":"Feature","geometry":{"type":"Point","coordinates":[7.62373,43.84975]},"properties":{"id":138279,"name":"Dolceacqua","state_code":"IM","country_code":"IT"}},{"type":"Feature","geometry":{"type":"Point","coordinates":[7.94943,43.90735]},"properties":{"id":138280,"name":"Dolcedo","state_code":"IM","country_code":"IT"}},{"type":"Feature","geometry":{"type":"Point","coordinates":[8.03933,43.88917]},"properties":{"id":139200,"name":"Imperia","state_code":"IM","country_code":"IT"}},{"type":"Feature","geometry":{"type":"Point","coordinates":[7.63993,43.88076]},"properties":{"id":139253,"name":"Isolabona","state_code":"IM","country_code":"IT"}},{"type":"Feature","geometry":{"type":"Point","coordinates":[7.96005,43.96602]},"properties":{"id":139633,"name":"Lucinasco","state_code":"IM","country_code":"IT"}},{"type":"Feature","geometry":{"type":"Point","coordinates":[7.80564,44.07713]},"properties":{"id":140062,"name":"Mendatica","state_code":"IM","country_code":"IT"}},{"type":"Feature","geometry":{"type":"Point","coordinates":[7.93835,43.92594]},"properties":{"id":140219,"name":"Molini","state_code":"IM","country_code":"IT"}},{"type":"Feature","geometry":{"type":"Point","coordinates":[7.77463,43.98905]},"properties":{"id":140220,"name":"Molini di Triora","state_code":"IM","country_code":"IT"}},{"type":"Feature","geometry":{"type":"Point","coordinates":[7.84491,43.92868]},"properties":{"id":140332,"name":"Montalto Ligure","state_code":"IM","country_code":"IT"}},{"type":"Feature","geometry":{"type":"Point","coordinates":[7.81602,44.06631]},"properties":{"id":140460,"name":"Montegrosso Pian Latte","state_code":"IM","country_code":"IT"}},{"type":"Feature","geometry":{"type":"Point","coordinates":[7.51504,43.87872]},"properties":{"id":140903,"name":"Olivetta San Michele","state_code":"IM","country_code":"IT"}},{"type":"Feature","geometry":{"type":"Point","coordinates":[7.7183,43.80221]},"properties":{"id":141014,"name":"Ospedaletti","state_code":"IM","country_code":"IT"}},{"type":"Feature","geometry":{"type":"Point","coordinates":[7.67194,43.86689]},"properties":{"id":58425,"name":"Perinaldo","state_code":"IM","country_code":"IT"}},{"type":"Feature","geometry":{"type":"Point","coordinates":[7.90319,43.88927]},"properties":{"id":58606,"name":"Pietrabruna","state_code":"IM","country_code":"IT"}},{"type":"Feature","geometry":{"type":"Point","coordinates":[7.91564,44.04706]},"properties":{"id":58654,"name":"Pieve di Teco","state_code":"IM","country_code":"IT"}},{"type":"Feature","geometry":{"type":"Point","coordinates":[7.66123,43.93205]},"properties":{"id":58660,"name":"Pigna","state_code":"IM","country_code":"IT"}},{"type":"Feature","geometry":{"type":"Point","coordinates":[7.88836,43.85297]},"properties":{"id":58818,"name":"Pompeiana","state_code":"IM","country_code":"IT"}},{"type":"Feature","geometry":{"type":"Point","coordinates":[8.01464,43.9383]},"properties":{"id":58868,"name":"Pontedassio","state_code":"IM","country_code":"IT"}},{"type":"Feature","geometry":{"type":"Point","coordinates":[7.86954,44.07053]},"properties":{"id":58908,"name":"Pornassio","state_code":"IM","country_code":"IT"}},{"type":"Feature","geometry":{"type":"Point","coordinates":[7.94409,43.94006]},"properties":{"id":59051,"name":"Prelà Castello","state_code":"IM","country_code":"IT"}},{"type":"Feature","geometry":{"type":"Point","coordinates":[7.87199,44.02101]},"properties":{"id":59348,"name":"Rezzo","state_code":"IM","country_code":"IT"}},{"type":"Feature","geometry":{"type":"Point","coordinates":[7.87935,43.83883]},"properties":{"id":59416,"name":"Riva Ligure","state_code":"IM","country_code":"IT"}},{"type":"Feature","geometry":{"type":"Point","coordinates":[7.60071,43.88988]},"properties":{"id":59538,"name":"Rocchetta Nervina","state_code":"IM","country_code":"IT"}},{"type":"Feature","geometry":{"type":"Point","coordinates":[8.10482,43.92312]},"properties":{"id":59821,"name":"San Bartolomeo al Mare","state_code":"IM","country_code":"IT"}},{"type":"Feature","geometry":{"type":"Point","coordinates":[7.65133,43.81784]},"properties":{"id":59843,"name":"San Biagio della Cima","state_code":"IM","country_code":"IT"}},{"type":"Feature","geometry":{"type":"Point","coordinates":[7.96406,43.85378]},"properties":{"id":60044,"name":"San Lorenzo al Mare","state_code":"IM","country_code":"IT"}},{"type":"Feature","geometry":{"type":"Point","coordinates":[7.7772,43.81725]},"properties":{"id":60220,"name":"San Remo","state_code":"IM","country_code":"IT"}},{"type":"Feature","geometry":{"type":"Point","coordinates":[7.89728,43.83855]},"properties":{"id":60517,"name":"Santo Stefano al Mare","state_code":"IM","country_code":"IT"}},{"type":"Feature","geometry":{"type":"Point","coordinates":[7.69585,43.8273]},"properties":{"id":60674,"name":"Seborga","state_code":"IM","country_code":"IT"}},{"type":"Feature","geometry":{"type":"Point","coordinates":[7.65627,43.82954]},"properties":{"id":60912,"name":"Soldano","state_code":"IM","country_code":"IT"}},{"type":"Feature","geometry":{"type":"Point","coordinates":[7.85223,43.84612]},"properties":{"id":61140,"name":"Taggia","state_code":"IM","country_code":"IT"}},{"type":"Feature","geometry":{"type":"Point","coordinates":[7.89835,43.85232]},"properties":{"id":61259,"name":"Terzorio","state_code":"IM","country_code":"IT"}},{"type":"Feature","geometry":{"type":"Point","coordinates":[7.76369,43.99309]},"properties":{"id":61533,"name":"Triora","state_code":"IM","country_code":"IT"}},{"type":"Feature","geometry":{"type":"Point","coordinates":[7.66535,43.8122]},"properties":{"id":61701,"name":"Vallebona","state_code":"IM","country_code":"IT"}},{"type":"Feature","geometry":{"type":"Point","coordinates":[7.63902,43.78671]},"properties":{"id":61703,"name":"Vallecrosia","state_code":"IM","country_code":"IT"}},{"type":"Feature","geometry":{"type":"Point","coordinates":[7.95389,43.93268]},"properties":{"id":61779,"name":"Vasia","state_code":"IM","country_code":"IT"}},{"type":"Feature","geometry":{"type":"Point","coordinates":[7.60872,43.78956]},"properties":{"id":61825,"name":"Ventimiglia","state_code":"IM","country_code":"IT"}},{"type":"Feature","geometry":{"type":"Point","coordinates":[7.96013,44.04559]},"properties":{"id":61884,"name":"Vessalico","state_code":"IM","country_code":"IT"}},{"type":"Feature","geometry":{"type":"Point","coordinates":[8.08965,43.96843]},"properties":{"id":61997,"name":"Villa Faraldi","state_code":"IM","country_code":"IT"}}]}