{"type":"FeatureCollection","features":[{"type":"Feature","geometry":{"type":"Point","coordinates":[10.67668,43.81618]},"properties":{"id":135446,"name":"Altopascio","state_code":"LU","country_code":"IT"}},{"type":"Feature","geometry":{"type":"Point","coordinates":[10.5531,44.00513]},"properties":{"id":135757,"name":"Bagni di Lucca","state_code":"LU","country_code":"IT"}},{"type":"Feature","geometry":{"type":"Point","coordinates":[10.47789,44.0731]},"properties":{"id":135848,"name":"Barga","state_code":"LU","country_code":"IT"}},{"type":"Feature","geometry":{"type":"Point","coordinates":[10.54489,43.97946]},"properties":{"id":136198,"name":"Borgo a Mozzano","state_code":"LU","country_code":"IT"}},{"type":"Feature","geometry":{"type":"Point","coordinates":[10.29754,43.94265]},"properties":{"id":136567,"name":"Camaiore","state_code":"LU","country_code":"IT"}},{"type":"Feature","geometry":{"type":"Point","coordinates":[10.333,44.15927]},"properties":{"id":136675,"name":"Camporgiano","state_code":"LU","country_code":"IT"}},{"type":"Feature","geometry":{"type":"Point","coordinates":[10.15636,43.9972]},"properties":{"id":136760,"name":"Capanne-Prato-Cinquale","state_code":"LU","country_code":"IT"}},{"type":"Feature","geometry":{"type":"Point","coordinates":[10.57271,43.84171]},"properties":{"id":136762,"name":"Capannori","state_code":"LU","country_code":"IT"}},{"type":"Feature","geometry":{"type":"Point","coordinates":[10.3254,44.11995]},"properties":{"id":136864,"name":"Careggine","state_code":"LU","country_code":"IT"}},{"type":"Feature","geometry":{"type":"Point","coordinates":[10.40518,44.1126]},"properties":{"id":137302,"name":"Castelnuovo di Garfagnana","state_code":"LU","country_code":"IT"}},{"type":"Feature","geometry":{"type":"Point","coordinates":[10.41212,44.15248]},"properties":{"id":137356,"name":"Castiglione di Garfagnana","state_code":"LU","country_code":"IT"}},{"type":"Feature","geometry":{"type":"Point","coordinates":[10.52426,44.06278]},"properties":{"id":138005,"name":"Coreglia Antelminelli","state_code":"LU","country_code":"IT"}},{"type":"Feature","geometry":{"type":"Point","coordinates":[10.30621,43.90828]},"properties":{"id":138046,"name":"Corsanico-Bargecchia","state_code":"LU","country_code":"IT"}},{"type":"Feature","geometry":{"type":"Point","coordinates":[10.4279,43.99765]},"properties":{"id":138391,"name":"Fabbriche di Vallico","state_code":"LU","country_code":"IT"}},{"type":"Feature","geometry":{"type":"Point","coordinates":[10.27943,44.11386]},"properties":{"id":138593,"name":"Fontana delle Monache","state_code":"LU","country_code":"IT"}},{"type":"Feature","geometry":{"type":"Point","coordinates":[10.47111,44.04899]},"properties":{"id":138650,"name":"Fornaci di Barga","state_code":"LU","country_code":"IT"}},{"type":"Feature","geometry":{"type":"Point","coordinates":[10.17478,43.96388]},"properties":{"id":138661,"name":"Forte dei Marmi","state_code":"LU","country_code":"IT"}},{"type":"Feature","geometry":{"type":"Point","coordinates":[10.4585,44.11495]},"properties":{"id":138665,"name":"Fosciandora","state_code":"LU","country_code":"IT"}},{"type":"Feature","geometry":{"type":"Point","coordinates":[10.44209,44.05833]},"properties":{"id":138807,"name":"Gallicano","state_code":"LU","country_code":"IT"}},{"type":"Feature","geometry":{"type":"Point","coordinates":[10.24719,44.21055]},"properties":{"id":138994,"name":"Giuncugnano","state_code":"LU","country_code":"IT"}},{"type":"Feature","geometry":{"type":"Point","coordinates":[10.50447,43.84369]},"properties":{"id":139629,"name":"Lucca","state_code":"LU","country_code":"IT"}},{"type":"Feature","geometry":{"type":"Point","coordinates":[10.10674,44.0038]},"properties":{"id":139889,"name":"Marina di Massa","state_code":"LU","country_code":"IT"}},{"type":"Feature","geometry":{"type":"Point","coordinates":[10.34458,43.86638]},"properties":{"id":139980,"name":"Massarosa","state_code":"LU","country_code":"IT"}},{"type":"Feature","geometry":{"type":"Point","coordinates":[10.20807,44.17]},"properties":{"id":140163,"name":"Minucciano","state_code":"LU","country_code":"IT"}},{"type":"Feature","geometry":{"type":"Point","coordinates":[10.4178,44.07175]},"properties":{"id":140211,"name":"Molazzana","state_code":"LU","country_code":"IT"}},{"type":"Feature","geometry":{"type":"Point","coordinates":[10.66742,43.85218]},"properties":{"id":140400,"name":"Montecarlo","state_code":"LU","country_code":"IT"}},{"type":"Feature","geometry":{"type":"Point","coordinates":[10.65939,43.77907]},"properties":{"id":140947,"name":"Orentano","state_code":"LU","country_code":"IT"}},{"type":"Feature","geometry":{"type":"Point","coordinates":[10.41292,43.96517]},"properties":{"id":58448,"name":"Pescaglia","state_code":"LU","country_code":"IT"}},{"type":"Feature","geometry":{"type":"Point","coordinates":[10.29493,43.89413]},"properties":{"id":58541,"name":"Piano di Conca","state_code":"LU","country_code":"IT"}},{"type":"Feature","geometry":{"type":"Point","coordinates":[10.51667,44.03333]},"properties":{"id":58542,"name":"Piano di Coreglia-Ghivizzano","state_code":"LU","country_code":"IT"}},{"type":"Feature","geometry":{"type":"Point","coordinates":[10.27435,43.90954]},"properties":{"id":58544,"name":"Piano di Mommio","state_code":"LU","country_code":"IT"}},{"type":"Feature","geometry":{"type":"Point","coordinates":[10.29689,44.18455]},"properties":{"id":58569,"name":"Piazza al Serchio-San Michele","state_code":"LU","country_code":"IT"}},{"type":"Feature","geometry":{"type":"Point","coordinates":[10.22784,43.95952]},"properties":{"id":58625,"name":"Pietrasanta","state_code":"LU","country_code":"IT"}},{"type":"Feature","geometry":{"type":"Point","coordinates":[10.40952,44.13067]},"properties":{"id":58635,"name":"Pieve Fosciana","state_code":"LU","country_code":"IT"}},{"type":"Feature","geometry":{"type":"Point","coordinates":[10.29439,43.99665]},"properties":{"id":58878,"name":"Pontestazzemese","state_code":"LU","country_code":"IT"}},{"type":"Feature","geometry":{"type":"Point","coordinates":[10.61632,43.84152]},"properties":{"id":58903,"name":"Porcari","state_code":"LU","country_code":"IT"}},{"type":"Feature","geometry":{"type":"Point","coordinates":[10.20372,43.97806]},"properties":{"id":59400,"name":"Ripa-Pozzi-Querceta-Ponterosso","state_code":"LU","country_code":"IT"}},{"type":"Feature","geometry":{"type":"Point","coordinates":[10.43778,43.90921]},"properties":{"id":60091,"name":"San Martino in Freddana-Monsagrati","state_code":"LU","country_code":"IT"}},{"type":"Feature","geometry":{"type":"Point","coordinates":[10.3469,44.16945]},"properties":{"id":60228,"name":"San Romano in Garfagnana","state_code":"LU","country_code":"IT"}},{"type":"Feature","geometry":{"type":"Point","coordinates":[10.2272,43.99471]},"properties":{"id":60735,"name":"Seravezza","state_code":"LU","country_code":"IT"}},{"type":"Feature","geometry":{"type":"Point","coordinates":[10.30235,44.22298]},"properties":{"id":60853,"name":"Sillano","state_code":"LU","country_code":"IT"}},{"type":"Feature","geometry":{"type":"Point","coordinates":[10.7151,43.81075]},"properties":{"id":61004,"name":"Spianate","state_code":"LU","country_code":"IT"}},{"type":"Feature","geometry":{"type":"Point","coordinates":[10.31798,43.8972]},"properties":{"id":61070,"name":"Stiava","state_code":"LU","country_code":"IT"}},{"type":"Feature","geometry":{"type":"Point","coordinates":[10.19357,43.98987]},"properties":{"id":61094,"name":"Strettoia","state_code":"LU","country_code":"IT"}},{"type":"Feature","geometry":{"type":"Point","coordinates":[10.28912,43.82887]},"properties":{"id":61372,"name":"Torre del Lago Puccini","state_code":"LU","country_code":"IT"}},{"type":"Feature","geometry":{"type":"Point","coordinates":[10.48115,43.94187]},"properties":{"id":61658,"name":"Valdottavo","state_code":"LU","country_code":"IT"}},{"type":"Feature","geometry":{"type":"Point","coordinates":[10.2502,43.86693]},"properties":{"id":61905,"name":"Viareggio","state_code":"LU","country_code":"IT"}},{"type":"Feature","geometry":{"type":"Point","coordinates":[10.64518,43.92572]},"properties":{"id":61986,"name":"Villa Basilica","state_code":"LU","country_code":"IT"}},{"type":"Feature","geometry":{"type":"Point","coordinates":[10.3976,44.15855]},"properties":{"id":61994,"name":"Villa Collemandina","state_code":"LU","country_code":"IT"}}]}