{"type":"FeatureCollection","features":[{"type":"Feature","geometry":{"type":"Point","coordinates":[10.66407,44.14595]},"properties":{"id":135244,"name":"Abetone","state_code":"MO","country_code":"IT"}},{"type":"Feature","geometry":{"type":"Point","coordinates":[10.86256,44.60416]},"properties":{"id":135746,"name":"Baggiovara","state_code":"MO","country_code":"IT"}},{"type":"Feature","geometry":{"type":"Point","coordinates":[10.9986,44.72697]},"properties":{"id":135904,"name":"Bastiglia","state_code":"MO","country_code":"IT"}},{"type":"Feature","geometry":{"type":"Point","coordinates":[11.08675,44.50176]},"properties":{"id":135915,"name":"Bazzano","state_code":"MO","country_code":"IT"}},{"type":"Feature","geometry":{"type":"Point","coordinates":[11.03667,44.73389]},"properties":{"id":136122,"name":"Bomporto","state_code":"MO","country_code":"IT"}},{"type":"Feature","geometry":{"type":"Point","coordinates":[10.95448,44.52986]},"properties":{"id":136447,"name":"Ca' di Sola","state_code":"MO","country_code":"IT"}},{"type":"Feature","geometry":{"type":"Point","coordinates":[11.13366,44.54696]},"properties":{"id":136499,"name":"Calcara","state_code":"MO","country_code":"IT"}},{"type":"Feature","geometry":{"type":"Point","coordinates":[10.84705,44.68874]},"properties":{"id":136657,"name":"Campogalliano","state_code":"MO","country_code":"IT"}},{"type":"Feature","geometry":{"type":"Point","coordinates":[11.14049,44.79009]},"properties":{"id":136681,"name":"Camposanto","state_code":"MO","country_code":"IT"}},{"type":"Feature","geometry":{"type":"Point","coordinates":[11.04979,44.59445]},"properties":{"id":137197,"name":"Castelfranco Emilia","state_code":"MO","country_code":"IT"}},{"type":"Feature","geometry":{"type":"Point","coordinates":[11.06478,44.44015]},"properties":{"id":137229,"name":"Castelletto","state_code":"MO","country_code":"IT"}},{"type":"Feature","geometry":{"type":"Point","coordinates":[10.9335,44.54935]},"properties":{"id":137293,"name":"Castelnuovo Rangone","state_code":"MO","country_code":"IT"}},{"type":"Feature","geometry":{"type":"Point","coordinates":[10.94666,44.50422]},"properties":{"id":137331,"name":"Castelvetro di Modena","state_code":"MO","country_code":"IT"}},{"type":"Feature","geometry":{"type":"Point","coordinates":[11.11903,44.57326]},"properties":{"id":137429,"name":"Cavazzona","state_code":"MO","country_code":"IT"}},{"type":"Feature","geometry":{"type":"Point","coordinates":[11.0289,44.835]},"properties":{"id":137436,"name":"Cavezzo","state_code":"MO","country_code":"IT"}},{"type":"Feature","geometry":{"type":"Point","coordinates":[10.89628,44.55153]},"properties":{"id":137918,"name":"Colombaro","state_code":"MO","country_code":"IT"}},{"type":"Feature","geometry":{"type":"Point","coordinates":[10.98802,44.91258]},"properties":{"id":137960,"name":"Concordia sulla Secchia","state_code":"MO","country_code":"IT"}},{"type":"Feature","geometry":{"type":"Point","coordinates":[11.13224,44.51196]},"properties":{"id":138144,"name":"Crespellano","state_code":"MO","country_code":"IT"}},{"type":"Feature","geometry":{"type":"Point","coordinates":[10.75617,44.10059]},"properties":{"id":138217,"name":"Cutigliano","state_code":"MO","country_code":"IT"}},{"type":"Feature","geometry":{"type":"Point","coordinates":[11.29124,44.79234]},"properties":{"id":138275,"name":"Dodici Morelli","state_code":"MO","country_code":"IT"}},{"type":"Feature","geometry":{"type":"Point","coordinates":[10.7966,44.21245]},"properties":{"id":138429,"name":"Fanano","state_code":"MO","country_code":"IT"}},{"type":"Feature","geometry":{"type":"Point","coordinates":[11.29378,44.83373]},"properties":{"id":138535,"name":"Finale Emilia","state_code":"MO","country_code":"IT"}},{"type":"Feature","geometry":{"type":"Point","coordinates":[10.81166,44.53889]},"properties":{"id":138539,"name":"Fiorano","state_code":"MO","country_code":"IT"}},{"type":"Feature","geometry":{"type":"Point","coordinates":[10.6472,44.17925]},"properties":{"id":138547,"name":"Fiumalbo-Dogana","state_code":"MO","country_code":"IT"}},{"type":"Feature","geometry":{"type":"Point","coordinates":[11.01337,44.46838]},"properties":{"id":138637,"name":"Formica","state_code":"MO","country_code":"IT"}},{"type":"Feature","geometry":{"type":"Point","coordinates":[10.84737,44.57268]},"properties":{"id":138640,"name":"Formigine","state_code":"MO","country_code":"IT"}},{"type":"Feature","geometry":{"type":"Point","coordinates":[11.02356,44.92304]},"properties":{"id":138668,"name":"Fossa","state_code":"MO","country_code":"IT"}},{"type":"Feature","geometry":{"type":"Point","coordinates":[10.57117,44.29451]},"properties":{"id":138716,"name":"Frassinoro","state_code":"MO","country_code":"IT"}},{"type":"Feature","geometry":{"type":"Point","coordinates":[11.01334,44.63458]},"properties":{"id":138778,"name":"Gaggio","state_code":"MO","country_code":"IT"}},{"type":"Feature","geometry":{"type":"Point","coordinates":[10.87983,44.51626]},"properties":{"id":139041,"name":"Gorzano","state_code":"MO","country_code":"IT"}},{"type":"Feature","geometry":{"type":"Point","coordinates":[10.96125,44.42432]},"properties":{"id":139180,"name":"Guiglia","state_code":"MO","country_code":"IT"}},{"type":"Feature","geometry":{"type":"Point","coordinates":[10.7306,44.30726]},"properties":{"id":139339,"name":"Lama","state_code":"MO","country_code":"IT"}},{"type":"Feature","geometry":{"type":"Point","coordinates":[10.92002,44.76427]},"properties":{"id":139520,"name":"Limidi","state_code":"MO","country_code":"IT"}},{"type":"Feature","geometry":{"type":"Point","coordinates":[11.09982,44.59577]},"properties":{"id":139814,"name":"Manzolino","state_code":"MO","country_code":"IT"}},{"type":"Feature","geometry":{"type":"Point","coordinates":[10.86888,44.53101]},"properties":{"id":139819,"name":"Maranello","state_code":"MO","country_code":"IT"}},{"type":"Feature","geometry":{"type":"Point","coordinates":[10.96879,44.45924]},"properties":{"id":139829,"name":"Marano sul Panaro","state_code":"MO","country_code":"IT"}},{"type":"Feature","geometry":{"type":"Point","coordinates":[11.21429,44.8524]},"properties":{"id":139969,"name":"Massa Finalese","state_code":"MO","country_code":"IT"}},{"type":"Feature","geometry":{"type":"Point","coordinates":[11.0676,44.84667]},"properties":{"id":140025,"name":"Medolla","state_code":"MO","country_code":"IT"}},{"type":"Feature","geometry":{"type":"Point","coordinates":[11.06902,44.88515]},"properties":{"id":140174,"name":"Mirandola","state_code":"MO","country_code":"IT"}},{"type":"Feature","geometry":{"type":"Point","coordinates":[10.92539,44.64783]},"properties":{"id":140188,"name":"Modena","state_code":"MO","country_code":"IT"}},{"type":"Feature","geometry":{"type":"Point","coordinates":[10.90771,44.56923]},"properties":{"id":140327,"name":"Montale","state_code":"MO","country_code":"IT"}},{"type":"Feature","geometry":{"type":"Point","coordinates":[10.7176,44.24596]},"properties":{"id":140425,"name":"Montecreto","state_code":"MO","country_code":"IT"}},{"type":"Feature","geometry":{"type":"Point","coordinates":[10.62375,44.35382]},"properties":{"id":140441,"name":"Montefiorino","state_code":"MO","country_code":"IT"}},{"type":"Feature","geometry":{"type":"Point","coordinates":[10.94545,44.26993]},"properties":{"id":140539,"name":"Montese","state_code":"MO","country_code":"IT"}},{"type":"Feature","geometry":{"type":"Point","coordinates":[11.04667,44.49257]},"properties":{"id":140683,"name":"Mulino","state_code":"MO","country_code":"IT"}},{"type":"Feature","geometry":{"type":"Point","coordinates":[11.03785,44.67785]},"properties":{"id":140802,"name":"Nonantola","state_code":"MO","country_code":"IT"}},{"type":"Feature","geometry":{"type":"Point","coordinates":[10.90027,44.88974]},"properties":{"id":140837,"name":"Novi di Modena","state_code":"MO","country_code":"IT"}},{"type":"Feature","geometry":{"type":"Point","coordinates":[10.6466,44.32152]},"properties":{"id":58218,"name":"Palagano","state_code":"MO","country_code":"IT"}},{"type":"Feature","geometry":{"type":"Point","coordinates":[10.83544,44.33352]},"properties":{"id":58365,"name":"Pavullo nel Frignano","state_code":"MO","country_code":"IT"}},{"type":"Feature","geometry":{"type":"Point","coordinates":[10.6166,44.20475]},"properties":{"id":58658,"name":"Pievepelago","state_code":"MO","country_code":"IT"}},{"type":"Feature","geometry":{"type":"Point","coordinates":[11.06727,44.54631]},"properties":{"id":58720,"name":"Piumazzo","state_code":"MO","country_code":"IT"}},{"type":"Feature","geometry":{"type":"Point","coordinates":[10.72597,44.34502]},"properties":{"id":58791,"name":"Polinago","state_code":"MO","country_code":"IT"}},{"type":"Feature","geometry":{"type":"Point","coordinates":[10.89234,44.52641]},"properties":{"id":58973,"name":"Pozza","state_code":"MO","country_code":"IT"}},{"type":"Feature","geometry":{"type":"Point","coordinates":[10.69118,44.4379]},"properties":{"id":59075,"name":"Prignano","state_code":"MO","country_code":"IT"}},{"type":"Feature","geometry":{"type":"Point","coordinates":[10.6919,44.43836]},"properties":{"id":59077,"name":"Prignano sulla Secchia","state_code":"MO","country_code":"IT"}},{"type":"Feature","geometry":{"type":"Point","coordinates":[11.09588,44.72475]},"properties":{"id":59296,"name":"Ravarino","state_code":"MO","country_code":"IT"}},{"type":"Feature","geometry":{"type":"Point","coordinates":[10.6531,44.23102]},"properties":{"id":59394,"name":"Riolunato","state_code":"MO","country_code":"IT"}},{"type":"Feature","geometry":{"type":"Point","coordinates":[10.95157,44.83381]},"properties":{"id":59678,"name":"Rovereto","state_code":"MO","country_code":"IT"}},{"type":"Feature","geometry":{"type":"Point","coordinates":[10.91438,44.80738]},"properties":{"id":59797,"name":"Sam Marino","state_code":"MO","country_code":"IT"}},{"type":"Feature","geometry":{"type":"Point","coordinates":[11.03508,44.56352]},"properties":{"id":59865,"name":"San Cesario sul Panaro","state_code":"MO","country_code":"IT"}},{"type":"Feature","geometry":{"type":"Point","coordinates":[10.97373,44.60102]},"properties":{"id":59884,"name":"San Damaso","state_code":"MO","country_code":"IT"}},{"type":"Feature","geometry":{"type":"Point","coordinates":[11.13791,44.83671]},"properties":{"id":59912,"name":"San Felice sul Panaro","state_code":"MO","country_code":"IT"}},{"type":"Feature","geometry":{"type":"Point","coordinates":[10.98087,44.87402]},"properties":{"id":60210,"name":"San Possidonio","state_code":"MO","country_code":"IT"}},{"type":"Feature","geometry":{"type":"Point","coordinates":[11.0221,44.78967]},"properties":{"id":60215,"name":"San Prospero","state_code":"MO","country_code":"IT"}},{"type":"Feature","geometry":{"type":"Point","coordinates":[10.97432,44.55822]},"properties":{"id":60274,"name":"San Vito","state_code":"MO","country_code":"IT"}},{"type":"Feature","geometry":{"type":"Point","coordinates":[10.83646,44.36586]},"properties":{"id":60382,"name":"Sant'Antonio","state_code":"MO","country_code":"IT"}},{"type":"Feature","geometry":{"type":"Point","coordinates":[10.7848,44.5432]},"properties":{"id":60577,"name":"Sassuolo","state_code":"MO","country_code":"IT"}},{"type":"Feature","geometry":{"type":"Point","coordinates":[11.0351,44.48036]},"properties":{"id":60589,"name":"Savignano sul Panaro","state_code":"MO","country_code":"IT"}},{"type":"Feature","geometry":{"type":"Point","coordinates":[11.07481,44.39186]},"properties":{"id":60591,"name":"Savigno","state_code":"MO","country_code":"IT"}},{"type":"Feature","geometry":{"type":"Point","coordinates":[10.79055,44.42735]},"properties":{"id":60763,"name":"Serramazzoni","state_code":"MO","country_code":"IT"}},{"type":"Feature","geometry":{"type":"Point","coordinates":[10.77349,44.22994]},"properties":{"id":60802,"name":"Sestola","state_code":"MO","country_code":"IT"}},{"type":"Feature","geometry":{"type":"Point","coordinates":[11.09287,44.77163]},"properties":{"id":60902,"name":"Solara","state_code":"MO","country_code":"IT"}},{"type":"Feature","geometry":{"type":"Point","coordinates":[10.92177,44.73387]},"properties":{"id":60918,"name":"Soliera","state_code":"MO","country_code":"IT"}},{"type":"Feature","geometry":{"type":"Point","coordinates":[10.92626,44.52746]},"properties":{"id":60920,"name":"Solignano Nuovo","state_code":"MO","country_code":"IT"}},{"type":"Feature","geometry":{"type":"Point","coordinates":[11.00731,44.74808]},"properties":{"id":60948,"name":"Sorbara","state_code":"MO","country_code":"IT"}},{"type":"Feature","geometry":{"type":"Point","coordinates":[11.01697,44.53273]},"properties":{"id":61010,"name":"Spilamberto","state_code":"MO","country_code":"IT"}},{"type":"Feature","geometry":{"type":"Point","coordinates":[11.01096,44.48383]},"properties":{"id":61961,"name":"Vignola","state_code":"MO","country_code":"IT"}},{"type":"Feature","geometry":{"type":"Point","coordinates":[10.99308,44.34566]},"properties":{"id":62264,"name":"Zocca","state_code":"MO","country_code":"IT"}}]}