{"type":"FeatureCollection","features":[{"type":"Feature","geometry":{"type":"Point","coordinates":[14.5855,38.05708]},"properties":{"id":135282,"name":"Acquedolci","state_code":"ME","country_code":"IT"}},{"type":"Feature","geometry":{"type":"Point","coordinates":[14.70142,38.02143]},"properties":{"id":135390,"name":"Alcara Li Fusi","state_code":"ME","country_code":"IT"}},{"type":"Feature","geometry":{"type":"Point","coordinates":[15.4191,38.02678]},"properties":{"id":135454,"name":"Alì","state_code":"ME","country_code":"IT"}},{"type":"Feature","geometry":{"type":"Point","coordinates":[15.42269,38.00506]},"properties":{"id":135455,"name":"Alì Terme","state_code":"ME","country_code":"IT"}},{"type":"Feature","geometry":{"type":"Point","coordinates":[15.24029,37.97937]},"properties":{"id":135519,"name":"Antillo","state_code":"ME","country_code":"IT"}},{"type":"Feature","geometry":{"type":"Point","coordinates":[15.21469,38.14772]},"properties":{"id":135834,"name":"Barcellona Pozzo di Gotto","state_code":"ME","country_code":"IT"}},{"type":"Feature","geometry":{"type":"Point","coordinates":[15.06263,38.06077]},"properties":{"id":135885,"name":"Basicò","state_code":"ME","country_code":"IT"}},{"type":"Feature","geometry":{"type":"Point","coordinates":[14.82799,38.15623]},"properties":{"id":136349,"name":"Brolo","state_code":"ME","country_code":"IT"}},{"type":"Feature","geometry":{"type":"Point","coordinates":[14.96037,38.49505]},"properties":{"id":136721,"name":"Canneto","state_code":"ME","country_code":"IT"}},{"type":"Feature","geometry":{"type":"Point","coordinates":[14.47976,37.84788]},"properties":{"id":136776,"name":"Capizzi","state_code":"ME","country_code":"IT"}},{"type":"Feature","geometry":{"type":"Point","coordinates":[14.73292,38.14262]},"properties":{"id":136778,"name":"Capo d'Orlando","state_code":"ME","country_code":"IT"}},{"type":"Feature","geometry":{"type":"Point","coordinates":[14.72959,38.08682]},"properties":{"id":136810,"name":"Capri Leone","state_code":"ME","country_code":"IT"}},{"type":"Feature","geometry":{"type":"Point","coordinates":[14.44142,38.02381]},"properties":{"id":136900,"name":"Caronia","state_code":"ME","country_code":"IT"}},{"type":"Feature","geometry":{"type":"Point","coordinates":[15.32371,37.9585]},"properties":{"id":137010,"name":"Casalvecchio Siculo","state_code":"ME","country_code":"IT"}},{"type":"Feature","geometry":{"type":"Point","coordinates":[15.52178,38.26165]},"properties":{"id":137125,"name":"Castanea delle Furie","state_code":"ME","country_code":"IT"}},{"type":"Feature","geometry":{"type":"Point","coordinates":[14.31116,37.88698]},"properties":{"id":137172,"name":"Castel di Lucio","state_code":"ME","country_code":"IT"}},{"type":"Feature","geometry":{"type":"Point","coordinates":[14.80686,38.08626]},"properties":{"id":137209,"name":"Castell'Umberto","state_code":"ME","country_code":"IT"}},{"type":"Feature","geometry":{"type":"Point","coordinates":[15.27713,37.85829]},"properties":{"id":137275,"name":"Castelmola","state_code":"ME","country_code":"IT"}},{"type":"Feature","geometry":{"type":"Point","coordinates":[15.21012,38.09857]},"properties":{"id":137387,"name":"Castroreale","state_code":"ME","country_code":"IT"}},{"type":"Feature","geometry":{"type":"Point","coordinates":[14.71308,37.84476]},"properties":{"id":137609,"name":"Cesarò","state_code":"ME","country_code":"IT"}},{"type":"Feature","geometry":{"type":"Point","coordinates":[15.25317,37.82108]},"properties":{"id":137643,"name":"Chianchitta-Pallio","state_code":"ME","country_code":"IT"}},{"type":"Feature","geometry":{"type":"Point","coordinates":[15.25077,37.82984]},"properties":{"id":137644,"name":"Chianchitta-Trappitello","state_code":"ME","country_code":"IT"}},{"type":"Feature","geometry":{"type":"Point","coordinates":[15.3266,38.17375]},"properties":{"id":137965,"name":"Condrò","state_code":"ME","country_code":"IT"}},{"type":"Feature","geometry":{"type":"Point","coordinates":[15.17324,37.98412]},"properties":{"id":138389,"name":"Evangelisti-Rubino","state_code":"ME","country_code":"IT"}},{"type":"Feature","geometry":{"type":"Point","coordinates":[15.07965,38.11698]},"properties":{"id":138417,"name":"Falcone","state_code":"ME","country_code":"IT"}},{"type":"Feature","geometry":{"type":"Point","coordinates":[14.8299,38.10849]},"properties":{"id":138505,"name":"Ficarra","state_code":"ME","country_code":"IT"}},{"type":"Feature","geometry":{"type":"Point","coordinates":[15.38099,38.02596]},"properties":{"id":138551,"name":"Fiumedinisi","state_code":"ME","country_code":"IT"}},{"type":"Feature","geometry":{"type":"Point","coordinates":[14.91096,37.98779]},"properties":{"id":138564,"name":"Floresta","state_code":"ME","country_code":"IT"}},{"type":"Feature","geometry":{"type":"Point","coordinates":[15.17519,37.98476]},"properties":{"id":138587,"name":"Fondachelli-Fantina","state_code":"ME","country_code":"IT"}},{"type":"Feature","geometry":{"type":"Point","coordinates":[15.33409,37.91539]},"properties":{"id":138664,"name":"Forza d'Agrò","state_code":"ME","country_code":"IT"}},{"type":"Feature","geometry":{"type":"Point","coordinates":[15.13821,37.90197]},"properties":{"id":138698,"name":"Francavilla di Sicilia","state_code":"ME","country_code":"IT"}},{"type":"Feature","geometry":{"type":"Point","coordinates":[14.74407,38.07202]},"properties":{"id":138727,"name":"Frazzanò","state_code":"ME","country_code":"IT"}},{"type":"Feature","geometry":{"type":"Point","coordinates":[15.37763,37.96159]},"properties":{"id":138756,"name":"Furci Siculo","state_code":"ME","country_code":"IT"}},{"type":"Feature","geometry":{"type":"Point","coordinates":[15.12358,38.10436]},"properties":{"id":138757,"name":"Furnari","state_code":"ME","country_code":"IT"}},{"type":"Feature","geometry":{"type":"Point","coordinates":[15.22126,37.85995]},"properties":{"id":138775,"name":"Gaggi","state_code":"ME","country_code":"IT"}},{"type":"Feature","geometry":{"type":"Point","coordinates":[14.77145,38.03176]},"properties":{"id":138794,"name":"Galati Mamertino","state_code":"ME","country_code":"IT"}},{"type":"Feature","geometry":{"type":"Point","coordinates":[15.29359,37.90206]},"properties":{"id":138819,"name":"Gallodoro","state_code":"ME","country_code":"IT"}},{"type":"Feature","geometry":{"type":"Point","coordinates":[15.30666,38.20372]},"properties":{"id":138940,"name":"Giammoro","state_code":"ME","country_code":"IT"}},{"type":"Feature","geometry":{"type":"Point","coordinates":[15.26713,37.82755]},"properties":{"id":138946,"name":"Giardini-Naxos","state_code":"ME","country_code":"IT"}},{"type":"Feature","geometry":{"type":"Point","coordinates":[14.89932,38.17373]},"properties":{"id":138973,"name":"Gioiosa Marea","state_code":"ME","country_code":"IT"}},{"type":"Feature","geometry":{"type":"Point","coordinates":[14.84768,38.16317]},"properties":{"id":139004,"name":"Gliaca","state_code":"ME","country_code":"IT"}},{"type":"Feature","geometry":{"type":"Point","coordinates":[15.22459,37.88986]},"properties":{"id":139066,"name":"Graniti","state_code":"ME","country_code":"IT"}},{"type":"Feature","geometry":{"type":"Point","coordinates":[15.31699,38.16267]},"properties":{"id":139149,"name":"Gualtieri Sicaminò","state_code":"ME","country_code":"IT"}},{"type":"Feature","geometry":{"type":"Point","coordinates":[15.46303,38.04528]},"properties":{"id":139177,"name":"Guidomandri Marina","state_code":"ME","country_code":"IT"}},{"type":"Feature","geometry":{"type":"Point","coordinates":[15.43706,38.05144]},"properties":{"id":139267,"name":"Itala","state_code":"ME","country_code":"IT"}},{"type":"Feature","geometry":{"type":"Point","coordinates":[15.50287,38.14101]},"properties":{"id":139372,"name":"Larderia","state_code":"ME","country_code":"IT"}},{"type":"Feature","geometry":{"type":"Point","coordinates":[14.82497,38.55534]},"properties":{"id":139444,"name":"Leni","state_code":"ME","country_code":"IT"}},{"type":"Feature","geometry":{"type":"Point","coordinates":[15.30735,37.8805]},"properties":{"id":139477,"name":"Letojanni","state_code":"ME","country_code":"IT"}},{"type":"Feature","geometry":{"type":"Point","coordinates":[14.95909,38.09719]},"properties":{"id":139493,"name":"Librizzi","state_code":"ME","country_code":"IT"}},{"type":"Feature","geometry":{"type":"Point","coordinates":[15.27119,37.94076]},"properties":{"id":139522,"name":"Limina","state_code":"ME","country_code":"IT"}},{"type":"Feature","geometry":{"type":"Point","coordinates":[14.95398,38.46743]},"properties":{"id":139533,"name":"Lipari","state_code":"ME","country_code":"IT"}},{"type":"Feature","geometry":{"type":"Point","coordinates":[14.75306,38.02617]},"properties":{"id":139595,"name":"Longi","state_code":"ME","country_code":"IT"}},{"type":"Feature","geometry":{"type":"Point","coordinates":[14.83598,38.5773]},"properties":{"id":139764,"name":"Malfa","state_code":"ME","country_code":"IT"}},{"type":"Feature","geometry":{"type":"Point","coordinates":[15.05548,37.91752]},"properties":{"id":139776,"name":"Malvagna","state_code":"ME","country_code":"IT"}},{"type":"Feature","geometry":{"type":"Point","coordinates":[15.31669,38.00356]},"properties":{"id":139783,"name":"Mandanici","state_code":"ME","country_code":"IT"}},{"type":"Feature","geometry":{"type":"Point","coordinates":[14.44182,38.03545]},"properties":{"id":139880,"name":"Marina di Caronia","state_code":"ME","country_code":"IT"}},{"type":"Feature","geometry":{"type":"Point","coordinates":[15.13535,38.08969]},"properties":{"id":140009,"name":"Mazzarrà Sant'Andrea","state_code":"ME","country_code":"IT"}},{"type":"Feature","geometry":{"type":"Point","coordinates":[15.27499,37.90384]},"properties":{"id":140044,"name":"Melia","state_code":"ME","country_code":"IT"}},{"type":"Feature","geometry":{"type":"Point","coordinates":[15.2497,38.1663]},"properties":{"id":140090,"name":"Merì","state_code":"ME","country_code":"IT"}},{"type":"Feature","geometry":{"type":"Point","coordinates":[14.86667,38.05]},"properties":{"id":140098,"name":"Messina","state_code":"ME","country_code":"IT"}},{"type":"Feature","geometry":{"type":"Point","coordinates":[15.24023,38.22008]},"properties":{"id":140145,"name":"Milazzo","state_code":"ME","country_code":"IT"}},{"type":"Feature","geometry":{"type":"Point","coordinates":[14.67584,38.04575]},"properties":{"id":140149,"name":"Militello Rosmarino","state_code":"ME","country_code":"IT"}},{"type":"Feature","geometry":{"type":"Point","coordinates":[14.74609,38.08439]},"properties":{"id":140177,"name":"Mirto","state_code":"ME","country_code":"IT"}},{"type":"Feature","geometry":{"type":"Point","coordinates":[14.3578,37.92823]},"properties":{"id":140185,"name":"Mistretta","state_code":"ME","country_code":"IT"}},{"type":"Feature","geometry":{"type":"Point","coordinates":[15.05072,37.90056]},"properties":{"id":140205,"name":"Moio Alcantara","state_code":"ME","country_code":"IT"}},{"type":"Feature","geometry":{"type":"Point","coordinates":[15.38132,38.15733]},"properties":{"id":140280,"name":"Monforte San Giorgio","state_code":"ME","country_code":"IT"}},{"type":"Feature","geometry":{"type":"Point","coordinates":[15.27539,37.90336]},"properties":{"id":140287,"name":"Mongiuffi Melia","state_code":"ME","country_code":"IT"}},{"type":"Feature","geometry":{"type":"Point","coordinates":[14.94658,38.13216]},"properties":{"id":140311,"name":"Montagnareale","state_code":"ME","country_code":"IT"}},{"type":"Feature","geometry":{"type":"Point","coordinates":[15.01393,38.0236]},"properties":{"id":140317,"name":"Montalbano Elicona","state_code":"ME","country_code":"IT"}},{"type":"Feature","geometry":{"type":"Point","coordinates":[15.17008,37.89431]},"properties":{"id":140657,"name":"Motta Camastra","state_code":"ME","country_code":"IT"}},{"type":"Feature","geometry":{"type":"Point","coordinates":[14.30337,37.98096]},"properties":{"id":140664,"name":"Motta d'Affermo","state_code":"ME","country_code":"IT"}},{"type":"Feature","geometry":{"type":"Point","coordinates":[14.78702,38.12215]},"properties":{"id":140724,"name":"Naso","state_code":"ME","country_code":"IT"}},{"type":"Feature","geometry":{"type":"Point","coordinates":[15.40956,37.99081]},"properties":{"id":140775,"name":"Nizza di Sicilia","state_code":"ME","country_code":"IT"}},{"type":"Feature","geometry":{"type":"Point","coordinates":[15.13134,38.01538]},"properties":{"id":140823,"name":"Novara di Sicilia","state_code":"ME","country_code":"IT"}},{"type":"Feature","geometry":{"type":"Point","coordinates":[15.06068,38.12515]},"properties":{"id":140900,"name":"Oliveri","state_code":"ME","country_code":"IT"}},{"type":"Feature","geometry":{"type":"Point","coordinates":[15.30629,38.17997]},"properties":{"id":141068,"name":"Pace del Mela","state_code":"ME","country_code":"IT"}},{"type":"Feature","geometry":{"type":"Point","coordinates":[15.35969,37.98546]},"properties":{"id":58204,"name":"Pagliara","state_code":"ME","country_code":"IT"}},{"type":"Feature","geometry":{"type":"Point","coordinates":[14.96409,38.14736]},"properties":{"id":58350,"name":"Patti","state_code":"ME","country_code":"IT"}},{"type":"Feature","geometry":{"type":"Point","coordinates":[14.29118,37.96793]},"properties":{"id":58491,"name":"Pettineo","state_code":"ME","country_code":"IT"}},{"type":"Feature","geometry":{"type":"Point","coordinates":[14.92857,38.47432]},"properties":{"id":58547,"name":"Pianoconte","state_code":"ME","country_code":"IT"}},{"type":"Feature","geometry":{"type":"Point","coordinates":[14.861,38.16127]},"properties":{"id":58701,"name":"Piraino","state_code":"ME","country_code":"IT"}},{"type":"Feature","geometry":{"type":"Point","coordinates":[14.91044,38.05583]},"properties":{"id":59258,"name":"Raccuja","state_code":"ME","country_code":"IT"}},{"type":"Feature","geometry":{"type":"Point","coordinates":[14.34418,37.97198]},"properties":{"id":59326,"name":"Reitano","state_code":"ME","country_code":"IT"}},{"type":"Feature","geometry":{"type":"Point","coordinates":[14.71032,38.10677]},"properties":{"id":59485,"name":"Rocca di Capri Leone","state_code":"ME","country_code":"IT"}},{"type":"Feature","geometry":{"type":"Point","coordinates":[15.26739,37.93086]},"properties":{"id":59496,"name":"Roccafiorita","state_code":"ME","country_code":"IT"}},{"type":"Feature","geometry":{"type":"Point","coordinates":[15.39439,37.97554]},"properties":{"id":59506,"name":"Roccalumera","state_code":"ME","country_code":"IT"}},{"type":"Feature","geometry":{"type":"Point","coordinates":[15.37402,38.18296]},"properties":{"id":59526,"name":"Roccavaldina","state_code":"ME","country_code":"IT"}},{"type":"Feature","geometry":{"type":"Point","coordinates":[15.00997,37.93289]},"properties":{"id":59533,"name":"Roccella Valdemone","state_code":"ME","country_code":"IT"}},{"type":"Feature","geometry":{"type":"Point","coordinates":[15.16933,38.10823]},"properties":{"id":59555,"name":"Rodì","state_code":"ME","country_code":"IT"}},{"type":"Feature","geometry":{"type":"Point","coordinates":[15.41429,38.17007]},"properties":{"id":59585,"name":"Rometta","state_code":"ME","country_code":"IT"}},{"type":"Feature","geometry":{"type":"Point","coordinates":[15.40955,38.23264]},"properties":{"id":59586,"name":"Rometta Marea","state_code":"ME","country_code":"IT"}},{"type":"Feature","geometry":{"type":"Point","coordinates":[15.27338,38.17007]},"properties":{"id":59919,"name":"San Filippo del Mela","state_code":"ME","country_code":"IT"}},{"type":"Feature","geometry":{"type":"Point","coordinates":[14.59818,38.01556]},"properties":{"id":59928,"name":"San Fratello","state_code":"ME","country_code":"IT"}},{"type":"Feature","geometry":{"type":"Point","coordinates":[14.94825,38.16834]},"properties":{"id":59951,"name":"San Giorgio","state_code":"ME","country_code":"IT"}},{"type":"Feature","geometry":{"type":"Point","coordinates":[14.70093,38.07261]},"properties":{"id":60063,"name":"San Marco d'Alunzio","state_code":"ME","country_code":"IT"}},{"type":"Feature","geometry":{"type":"Point","coordinates":[15.34982,38.1605]},"properties":{"id":60164,"name":"San Pier Niceto","state_code":"ME","country_code":"IT"}},{"type":"Feature","geometry":{"type":"Point","coordinates":[14.96816,38.05214]},"properties":{"id":60167,"name":"San Piero Patti","state_code":"ME","country_code":"IT"}},{"type":"Feature","geometry":{"type":"Point","coordinates":[14.77799,38.06841]},"properties":{"id":60233,"name":"San Salvatore di Fitalia","state_code":"ME","country_code":"IT"}},{"type":"Feature","geometry":{"type":"Point","coordinates":[14.69878,37.84797]},"properties":{"id":60252,"name":"San Teodoro","state_code":"ME","country_code":"IT"}},{"type":"Feature","geometry":{"type":"Point","coordinates":[14.636,38.06838]},"properties":{"id":60323,"name":"Sant'Agata di Militello","state_code":"ME","country_code":"IT"}},{"type":"Feature","geometry":{"type":"Point","coordinates":[15.34968,37.92516]},"properties":{"id":60334,"name":"Sant'Alessio Siculo","state_code":"ME","country_code":"IT"}},{"type":"Feature","geometry":{"type":"Point","coordinates":[14.88403,38.11518]},"properties":{"id":60365,"name":"Sant'Angelo di Brolo","state_code":"ME","country_code":"IT"}},{"type":"Feature","geometry":{"type":"Point","coordinates":[14.96288,37.91624]},"properties":{"id":60433,"name":"Santa Domenica Vittoria","state_code":"ME","country_code":"IT"}},{"type":"Feature","geometry":{"type":"Point","coordinates":[15.28055,38.14408]},"properties":{"id":60447,"name":"Santa Lucia del Mela","state_code":"ME","country_code":"IT"}},{"type":"Feature","geometry":{"type":"Point","coordinates":[14.87077,38.56117]},"properties":{"id":60483,"name":"Santa Marina Salina","state_code":"ME","country_code":"IT"}},{"type":"Feature","geometry":{"type":"Point","coordinates":[15.36671,37.94635]},"properties":{"id":60496,"name":"Santa Teresa di Riva","state_code":"ME","country_code":"IT"}},{"type":"Feature","geometry":{"type":"Point","coordinates":[14.35142,38.01295]},"properties":{"id":60521,"name":"Santo Stefano di Camastra","state_code":"ME","country_code":"IT"}},{"type":"Feature","geometry":{"type":"Point","coordinates":[15.43442,38.19241]},"properties":{"id":60535,"name":"Saponara","state_code":"ME","country_code":"IT"}},{"type":"Feature","geometry":{"type":"Point","coordinates":[15.42621,38.23121]},"properties":{"id":60536,"name":"Saponara Marittima","state_code":"ME","country_code":"IT"}},{"type":"Feature","geometry":{"type":"Point","coordinates":[15.34009,37.95326]},"properties":{"id":60595,"name":"Savoca","state_code":"ME","country_code":"IT"}},{"type":"Feature","geometry":{"type":"Point","coordinates":[15.46769,38.04796]},"properties":{"id":60609,"name":"Scaletta Zanclea","state_code":"ME","country_code":"IT"}},{"type":"Feature","geometry":{"type":"Point","coordinates":[14.83147,38.05815]},"properties":{"id":60826,"name":"Sfaranda","state_code":"ME","country_code":"IT"}},{"type":"Feature","geometry":{"type":"Point","coordinates":[14.85009,38.08191]},"properties":{"id":60862,"name":"Sinagra","state_code":"ME","country_code":"IT"}},{"type":"Feature","geometry":{"type":"Point","coordinates":[15.38178,38.22349]},"properties":{"id":60988,"name":"Spadafora","state_code":"ME","country_code":"IT"}},{"type":"Feature","geometry":{"type":"Point","coordinates":[15.53503,38.29371]},"properties":{"id":60992,"name":"Sparta'","state_code":"ME","country_code":"IT"}},{"type":"Feature","geometry":{"type":"Point","coordinates":[15.28851,37.85358]},"properties":{"id":61161,"name":"Taormina","state_code":"ME","country_code":"IT"}},{"type":"Feature","geometry":{"type":"Point","coordinates":[15.15658,38.13586]},"properties":{"id":61226,"name":"Terme","state_code":"ME","country_code":"IT"}},{"type":"Feature","geometry":{"type":"Point","coordinates":[15.11348,38.12539]},"properties":{"id":61313,"name":"Tonnarella","state_code":"ME","country_code":"IT"}},{"type":"Feature","geometry":{"type":"Point","coordinates":[15.3501,38.20262]},"properties":{"id":61383,"name":"Torregrotta","state_code":"ME","country_code":"IT"}},{"type":"Feature","geometry":{"type":"Point","coordinates":[14.67917,38.09246]},"properties":{"id":61386,"name":"Torrenova","state_code":"ME","country_code":"IT"}},{"type":"Feature","geometry":{"type":"Point","coordinates":[14.82212,38.02973]},"properties":{"id":61418,"name":"Tortorici","state_code":"ME","country_code":"IT"}},{"type":"Feature","geometry":{"type":"Point","coordinates":[15.0967,38.04673]},"properties":{"id":61534,"name":"Tripi","state_code":"ME","country_code":"IT"}},{"type":"Feature","geometry":{"type":"Point","coordinates":[14.23606,37.98385]},"properties":{"id":61580,"name":"Tusa","state_code":"ME","country_code":"IT"}},{"type":"Feature","geometry":{"type":"Point","coordinates":[14.88087,38.04624]},"properties":{"id":61586,"name":"Ucria","state_code":"ME","country_code":"IT"}},{"type":"Feature","geometry":{"type":"Point","coordinates":[15.3698,38.19351]},"properties":{"id":61655,"name":"Valdina","state_code":"ME","country_code":"IT"}},{"type":"Feature","geometry":{"type":"Point","coordinates":[15.36648,38.21928]},"properties":{"id":61818,"name":"Venetico Marina","state_code":"ME","country_code":"IT"}},{"type":"Feature","geometry":{"type":"Point","coordinates":[15.38119,38.19307]},"properties":{"id":61819,"name":"Venetico Superiore","state_code":"ME","country_code":"IT"}},{"type":"Feature","geometry":{"type":"Point","coordinates":[15.13066,38.12221]},"properties":{"id":61954,"name":"Vigliatore 2","state_code":"ME","country_code":"IT"}},{"type":"Feature","geometry":{"type":"Point","coordinates":[15.43885,38.23952]},"properties":{"id":62059,"name":"Villafranca Tirrena","state_code":"ME","country_code":"IT"}}]}