{"type":"FeatureCollection","features":[{"type":"Feature","geometry":{"type":"Point","coordinates":[12.33078,41.76337]},"properties":{"id":135261,"name":"Acilia-Castel Fusano-Ostia Antica","state_code":"RM","country_code":"IT"}},{"type":"Feature","geometry":{"type":"Point","coordinates":[13.09853,41.88435]},"properties":{"id":135293,"name":"Affile","state_code":"RM","country_code":"IT"}},{"type":"Feature","geometry":{"type":"Point","coordinates":[13.03499,41.98133]},"properties":{"id":135313,"name":"Agosta","state_code":"RM","country_code":"IT"}},{"type":"Feature","geometry":{"type":"Point","coordinates":[12.659,41.72748]},"properties":{"id":135351,"name":"Albano Laziale","state_code":"RM","country_code":"IT"}},{"type":"Feature","geometry":{"type":"Point","coordinates":[12.69873,41.95245]},"properties":{"id":135386,"name":"Albuccione","state_code":"RM","country_code":"IT"}},{"type":"Feature","geometry":{"type":"Point","coordinates":[11.90361,42.15751]},"properties":{"id":135419,"name":"Allumiere","state_code":"RM","country_code":"IT"}},{"type":"Feature","geometry":{"type":"Point","coordinates":[12.28368,42.0792]},"properties":{"id":135502,"name":"Anguillara Sabazia","state_code":"RM","country_code":"IT"}},{"type":"Feature","geometry":{"type":"Point","coordinates":[12.99049,42.00801]},"properties":{"id":135517,"name":"Anticoli Corrado","state_code":"RM","country_code":"IT"}},{"type":"Feature","geometry":{"type":"Point","coordinates":[12.62157,41.45263]},"properties":{"id":135527,"name":"Anzio","state_code":"RM","country_code":"IT"}},{"type":"Feature","geometry":{"type":"Point","coordinates":[12.2398,41.933]},"properties":{"id":135548,"name":"Ara Nova","state_code":"RM","country_code":"IT"}},{"type":"Feature","geometry":{"type":"Point","coordinates":[12.82502,41.94766]},"properties":{"id":135566,"name":"Arci-Empolitana","state_code":"RM","country_code":"IT"}},{"type":"Feature","geometry":{"type":"Point","coordinates":[13.11439,41.87972]},"properties":{"id":135568,"name":"Arcinazzo Romano","state_code":"RM","country_code":"IT"}},{"type":"Feature","geometry":{"type":"Point","coordinates":[12.54158,41.60742]},"properties":{"id":135578,"name":"Ardea","state_code":"RM","country_code":"IT"}},{"type":"Feature","geometry":{"type":"Point","coordinates":[12.50697,41.68211]},"properties":{"id":135584,"name":"Area Produttiva","state_code":"RM","country_code":"IT"}},{"type":"Feature","geometry":{"type":"Point","coordinates":[12.6723,41.72063]},"properties":{"id":135601,"name":"Ariccia","state_code":"RM","country_code":"IT"}},{"type":"Feature","geometry":{"type":"Point","coordinates":[12.68782,41.8128]},"properties":{"id":135615,"name":"Armetta","state_code":"RM","country_code":"IT"}},{"type":"Feature","geometry":{"type":"Point","coordinates":[13.01606,42.04158]},"properties":{"id":135640,"name":"Arsoli","state_code":"RM","country_code":"IT"}},{"type":"Feature","geometry":{"type":"Point","coordinates":[12.90667,41.74126]},"properties":{"id":135643,"name":"Artena","state_code":"RM","country_code":"IT"}},{"type":"Feature","geometry":{"type":"Point","coordinates":[11.78713,42.1391]},"properties":{"id":135689,"name":"Aurelia","state_code":"RM","country_code":"IT"}},{"type":"Feature","geometry":{"type":"Point","coordinates":[12.71667,41.95]},"properties":{"id":135758,"name":"Bagni di Tivoli","state_code":"RM","country_code":"IT"}},{"type":"Feature","geometry":{"type":"Point","coordinates":[13.02861,41.88166]},"properties":{"id":135942,"name":"Bellegra","state_code":"RM","country_code":"IT"}},{"type":"Feature","geometry":{"type":"Point","coordinates":[12.59395,42.11962]},"properties":{"id":136074,"name":"Bivio di Capanelle","state_code":"RM","country_code":"IT"}},{"type":"Feature","geometry":{"type":"Point","coordinates":[12.82993,41.97418]},"properties":{"id":136072,"name":"Bivio San Polo","state_code":"RM","country_code":"IT"}},{"type":"Feature","geometry":{"type":"Point","coordinates":[12.555,41.76414]},"properties":{"id":136174,"name":"Borgo Lotti","state_code":"RM","country_code":"IT"}},{"type":"Feature","geometry":{"type":"Point","coordinates":[12.16565,42.10271]},"properties":{"id":136281,"name":"Bracciano","state_code":"RM","country_code":"IT"}},{"type":"Feature","geometry":{"type":"Point","coordinates":[13.1097,42.018]},"properties":{"id":136581,"name":"Camerata Nuova","state_code":"RM","country_code":"IT"}},{"type":"Feature","geometry":{"type":"Point","coordinates":[12.61738,41.59848]},"properties":{"id":136587,"name":"Camilleri-Vallelata","state_code":"RM","country_code":"IT"}},{"type":"Feature","geometry":{"type":"Point","coordinates":[12.37358,42.1357]},"properties":{"id":136601,"name":"Campagnano di Roma","state_code":"RM","country_code":"IT"}},{"type":"Feature","geometry":{"type":"Point","coordinates":[12.64114,41.55265]},"properties":{"id":136634,"name":"Campo di Carne","state_code":"RM","country_code":"IT"}},{"type":"Feature","geometry":{"type":"Point","coordinates":[12.51258,41.62716]},"properties":{"id":136628,"name":"Campo Jemini","state_code":"RM","country_code":"IT"}},{"type":"Feature","geometry":{"type":"Point","coordinates":[12.77016,41.96732]},"properties":{"id":136630,"name":"Campo Limpido-Favale","state_code":"RM","country_code":"IT"}},{"type":"Feature","geometry":{"type":"Point","coordinates":[12.64826,41.6457]},"properties":{"id":136659,"name":"Campoleone","state_code":"RM","country_code":"IT"}},{"type":"Feature","geometry":{"type":"Point","coordinates":[12.10284,42.13598]},"properties":{"id":136688,"name":"Canale Monterano","state_code":"RM","country_code":"IT"}},{"type":"Feature","geometry":{"type":"Point","coordinates":[13.03809,41.94322]},"properties":{"id":136747,"name":"Canterano","state_code":"RM","country_code":"IT"}},{"type":"Feature","geometry":{"type":"Point","coordinates":[12.54513,42.14247]},"properties":{"id":136763,"name":"Capena","state_code":"RM","country_code":"IT"}},{"type":"Feature","geometry":{"type":"Point","coordinates":[12.95077,41.86285]},"properties":{"id":136802,"name":"Capranica Prenestina","state_code":"RM","country_code":"IT"}},{"type":"Feature","geometry":{"type":"Point","coordinates":[12.82955,41.78688]},"properties":{"id":136855,"name":"Carchitti","state_code":"RM","country_code":"IT"}},{"type":"Feature","geometry":{"type":"Point","coordinates":[13.0841,41.6047]},"properties":{"id":136918,"name":"Carpineto Romano","state_code":"RM","country_code":"IT"}},{"type":"Feature","geometry":{"type":"Point","coordinates":[12.34726,41.74845]},"properties":{"id":136958,"name":"Casal Palocco","state_code":"RM","country_code":"IT"}},{"type":"Feature","geometry":{"type":"Point","coordinates":[12.57634,41.62299]},"properties":{"id":136963,"name":"Casalazzara","state_code":"RM","country_code":"IT"}},{"type":"Feature","geometry":{"type":"Point","coordinates":[12.88579,41.90702]},"properties":{"id":137025,"name":"Casape","state_code":"RM","country_code":"IT"}},{"type":"Feature","geometry":{"type":"Point","coordinates":[12.69764,42.05617]},"properties":{"id":137134,"name":"Castel Chiodato","state_code":"RM","country_code":"IT"}},{"type":"Feature","geometry":{"type":"Point","coordinates":[12.3119,41.74717]},"properties":{"id":137137,"name":"Castel Fusano","state_code":"RM","country_code":"IT"}},{"type":"Feature","geometry":{"type":"Point","coordinates":[12.64975,41.74875]},"properties":{"id":137139,"name":"Castel Gandolfo","state_code":"RM","country_code":"IT"}},{"type":"Feature","geometry":{"type":"Point","coordinates":[12.86782,41.9735]},"properties":{"id":137143,"name":"Castel Madama","state_code":"RM","country_code":"IT"}},{"type":"Feature","geometry":{"type":"Point","coordinates":[12.89489,41.84572]},"properties":{"id":137154,"name":"Castel San Pietro Romano","state_code":"RM","country_code":"IT"}},{"type":"Feature","geometry":{"type":"Point","coordinates":[12.51043,42.1228]},"properties":{"id":137303,"name":"Castelnuovo di Porto","state_code":"RM","country_code":"IT"}},{"type":"Feature","geometry":{"type":"Point","coordinates":[12.94055,41.81682]},"properties":{"id":137430,"name":"Cave","state_code":"RM","country_code":"IT"}},{"type":"Feature","geometry":{"type":"Point","coordinates":[12.64972,41.70161]},"properties":{"id":137451,"name":"Cecchina","state_code":"RM","country_code":"IT"}},{"type":"Feature","geometry":{"type":"Point","coordinates":[12.98169,41.94332]},"properties":{"id":137565,"name":"Cerreto Laziale","state_code":"RM","country_code":"IT"}},{"type":"Feature","geometry":{"type":"Point","coordinates":[13.06799,41.98822]},"properties":{"id":137582,"name":"Cervara di Roma","state_code":"RM","country_code":"IT"}},{"type":"Feature","geometry":{"type":"Point","coordinates":[12.09082,41.9908]},"properties":{"id":137590,"name":"Cerveteri","state_code":"RM","country_code":"IT"}},{"type":"Feature","geometry":{"type":"Point","coordinates":[12.33711,42.07375]},"properties":{"id":137604,"name":"Cesano","state_code":"RM","country_code":"IT"}},{"type":"Feature","geometry":{"type":"Point","coordinates":[12.60158,41.80064]},"properties":{"id":137701,"name":"Ciampino","state_code":"RM","country_code":"IT"}},{"type":"Feature","geometry":{"type":"Point","coordinates":[12.94163,41.9599]},"properties":{"id":137711,"name":"Ciciliano","state_code":"RM","country_code":"IT"}},{"type":"Feature","geometry":{"type":"Point","coordinates":[12.9608,42.05014]},"properties":{"id":137730,"name":"Cineto Romano","state_code":"RM","country_code":"IT"}},{"type":"Feature","geometry":{"type":"Point","coordinates":[12.66667,41.96667]},"properties":{"id":137776,"name":"Città metropolitana di Roma Capitale","state_code":"RM","country_code":"IT"}},{"type":"Feature","geometry":{"type":"Point","coordinates":[11.79674,42.09325]},"properties":{"id":137794,"name":"Civitavecchia","state_code":"RM","country_code":"IT"}},{"type":"Feature","geometry":{"type":"Point","coordinates":[12.57455,42.19935]},"properties":{"id":137800,"name":"Civitella San Paolo","state_code":"RM","country_code":"IT"}},{"type":"Feature","geometry":{"type":"Point","coordinates":[12.49644,41.74246]},"properties":{"id":137870,"name":"Colle del Pino","state_code":"RM","country_code":"IT"}},{"type":"Feature","geometry":{"type":"Point","coordinates":[12.80683,41.80091]},"properties":{"id":137871,"name":"Colle di Fuori","state_code":"RM","country_code":"IT"}},{"type":"Feature","geometry":{"type":"Point","coordinates":[12.78767,41.86975]},"properties":{"id":137862,"name":"Colle Mainello","state_code":"RM","country_code":"IT"}},{"type":"Feature","geometry":{"type":"Point","coordinates":[12.84723,41.78205]},"properties":{"id":137866,"name":"Colle Spina","state_code":"RM","country_code":"IT"}},{"type":"Feature","geometry":{"type":"Point","coordinates":[12.61855,41.97694]},"properties":{"id":137868,"name":"Colle Verde","state_code":"RM","country_code":"IT"}},{"type":"Feature","geometry":{"type":"Point","coordinates":[13.00481,41.72722]},"properties":{"id":137880,"name":"Colleferro","state_code":"RM","country_code":"IT"}},{"type":"Feature","geometry":{"type":"Point","coordinates":[12.63191,41.97533]},"properties":{"id":137897,"name":"Colleverde II","state_code":"RM","country_code":"IT"}},{"type":"Feature","geometry":{"type":"Point","coordinates":[12.49035,41.65554]},"properties":{"id":137900,"name":"Colli di Enea","state_code":"RM","country_code":"IT"}},{"type":"Feature","geometry":{"type":"Point","coordinates":[12.75495,41.83454]},"properties":{"id":137922,"name":"Colonna","state_code":"RM","country_code":"IT"}},{"type":"Feature","geometry":{"type":"Point","coordinates":[12.86726,41.73506]},"properties":{"id":137929,"name":"Colubro","state_code":"RM","country_code":"IT"}},{"type":"Feature","geometry":{"type":"Point","coordinates":[12.73654,41.90421]},"properties":{"id":138000,"name":"Corcolle","state_code":"RM","country_code":"IT"}},{"type":"Feature","geometry":{"type":"Point","coordinates":[12.53712,42.07819]},"properties":{"id":138107,"name":"Costaroni","state_code":"RM","country_code":"IT"}},{"type":"Feature","geometry":{"type":"Point","coordinates":[12.70365,42.07116]},"properties":{"id":138150,"name":"Cretone","state_code":"RM","country_code":"IT"}},{"type":"Feature","geometry":{"type":"Point","coordinates":[12.59467,42.15538]},"properties":{"id":138501,"name":"Fiano Romano","state_code":"RM","country_code":"IT"}},{"type":"Feature","geometry":{"type":"Point","coordinates":[12.5988,42.25445]},"properties":{"id":138521,"name":"Filacciano","state_code":"RM","country_code":"IT"}},{"type":"Feature","geometry":{"type":"Point","coordinates":[12.23662,41.77093]},"properties":{"id":138555,"name":"Fiumicino-Isola Sacra","state_code":"RM","country_code":"IT"}},{"type":"Feature","geometry":{"type":"Point","coordinates":[12.21354,41.81367]},"properties":{"id":138571,"name":"Focene","state_code":"RM","country_code":"IT"}},{"type":"Feature","geometry":{"type":"Point","coordinates":[12.39435,42.06246]},"properties":{"id":138635,"name":"Formello","state_code":"RM","country_code":"IT"}},{"type":"Feature","geometry":{"type":"Point","coordinates":[12.56333,41.59226]},"properties":{"id":138678,"name":"Fossignano","state_code":"RM","country_code":"IT"}},{"type":"Feature","geometry":{"type":"Point","coordinates":[12.67942,41.8091]},"properties":{"id":138708,"name":"Frascati","state_code":"RM","country_code":"IT"}},{"type":"Feature","geometry":{"type":"Point","coordinates":[12.19671,41.85051]},"properties":{"id":138728,"name":"Fregene","state_code":"RM","country_code":"IT"}},{"type":"Feature","geometry":{"type":"Point","coordinates":[12.83543,41.86433]},"properties":{"id":138808,"name":"Gallicano nel Lazio","state_code":"RM","country_code":"IT"}},{"type":"Feature","geometry":{"type":"Point","coordinates":[13.05032,41.69891]},"properties":{"id":138877,"name":"Gavignano","state_code":"RM","country_code":"IT"}},{"type":"Feature","geometry":{"type":"Point","coordinates":[12.97196,41.82807]},"properties":{"id":138895,"name":"Genazzano","state_code":"RM","country_code":"IT"}},{"type":"Feature","geometry":{"type":"Point","coordinates":[12.69161,41.54807]},"properties":{"id":138897,"name":"Genio Civile","state_code":"RM","country_code":"IT"}},{"type":"Feature","geometry":{"type":"Point","coordinates":[12.68904,41.70706]},"properties":{"id":138904,"name":"Genzano di Roma","state_code":"RM","country_code":"IT"}},{"type":"Feature","geometry":{"type":"Point","coordinates":[12.99034,41.93474]},"properties":{"id":138909,"name":"Gerano","state_code":"RM","country_code":"IT"}},{"type":"Feature","geometry":{"type":"Point","coordinates":[12.5796,42.10266]},"properties":{"id":138981,"name":"Girardi-Bellavista-Terrazze","state_code":"RM","country_code":"IT"}},{"type":"Feature","geometry":{"type":"Point","coordinates":[13.10663,41.65468]},"properties":{"id":139026,"name":"Gorga","state_code":"RM","country_code":"IT"}},{"type":"Feature","geometry":{"type":"Point","coordinates":[12.67144,41.78664]},"properties":{"id":139120,"name":"Grottaferrata","state_code":"RM","country_code":"IT"}},{"type":"Feature","geometry":{"type":"Point","coordinates":[12.71876,41.99232]},"properties":{"id":139178,"name":"Guidonia","state_code":"RM","country_code":"IT"}},{"type":"Feature","geometry":{"type":"Point","coordinates":[12.72238,41.99362]},"properties":{"id":139179,"name":"Guidonia Montecelio","state_code":"RM","country_code":"IT"}},{"type":"Feature","geometry":{"type":"Point","coordinates":[13.16959,41.88882]},"properties":{"id":139275,"name":"Jenne","state_code":"RM","country_code":"IT"}},{"type":"Feature","geometry":{"type":"Point","coordinates":[12.76775,41.98176]},"properties":{"id":139286,"name":"La Botte","state_code":"RM","country_code":"IT"}},{"type":"Feature","geometry":{"type":"Point","coordinates":[12.35694,41.87332]},"properties":{"id":139296,"name":"La Massimina-Casal Lumbroso","state_code":"RM","country_code":"IT"}},{"type":"Feature","geometry":{"type":"Point","coordinates":[12.87127,41.7926]},"properties":{"id":139310,"name":"Labico","state_code":"RM","country_code":"IT"}},{"type":"Feature","geometry":{"type":"Point","coordinates":[12.075,41.95068]},"properties":{"id":139318,"name":"Ladispoli","state_code":"RM","country_code":"IT"}},{"type":"Feature","geometry":{"type":"Point","coordinates":[12.65609,41.96734]},"properties":{"id":139322,"name":"Laghetto","state_code":"RM","country_code":"IT"}},{"type":"Feature","geometry":{"type":"Point","coordinates":[12.69403,41.67297]},"properties":{"id":139361,"name":"Lanuvio","state_code":"RM","country_code":"IT"}},{"type":"Feature","geometry":{"type":"Point","coordinates":[12.82868,41.71847]},"properties":{"id":139375,"name":"Lariano","state_code":"RM","country_code":"IT"}},{"type":"Feature","geometry":{"type":"Point","coordinates":[12.58973,41.5035]},"properties":{"id":139417,"name":"Lavinio","state_code":"RM","country_code":"IT"}},{"type":"Feature","geometry":{"type":"Point","coordinates":[12.37624,42.06885]},"properties":{"id":139429,"name":"Le Rughe","state_code":"RM","country_code":"IT"}},{"type":"Feature","geometry":{"type":"Point","coordinates":[12.90008,42.07413]},"properties":{"id":139496,"name":"Licenza","state_code":"RM","country_code":"IT"}},{"type":"Feature","geometry":{"type":"Point","coordinates":[12.58976,41.5366]},"properties":{"id":139504,"name":"Lido dei Pini","state_code":"RM","country_code":"IT"}},{"type":"Feature","geometry":{"type":"Point","coordinates":[12.27654,41.73212]},"properties":{"id":139507,"name":"Lido di Ostia","state_code":"RM","country_code":"IT"}},{"type":"Feature","geometry":{"type":"Point","coordinates":[12.21975,41.87696]},"properties":{"id":139688,"name":"Maccarese","state_code":"RM","country_code":"IT"}},{"type":"Feature","geometry":{"type":"Point","coordinates":[12.85835,41.74873]},"properties":{"id":139699,"name":"Macere","state_code":"RM","country_code":"IT"}},{"type":"Feature","geometry":{"type":"Point","coordinates":[12.43662,42.1575]},"properties":{"id":139726,"name":"Magliano Romano","state_code":"RM","country_code":"IT"}},{"type":"Feature","geometry":{"type":"Point","coordinates":[12.92089,42.02795]},"properties":{"id":139786,"name":"Mandela","state_code":"RM","country_code":"IT"}},{"type":"Feature","geometry":{"type":"Point","coordinates":[12.61453,41.67685]},"properties":{"id":139808,"name":"Mantiglia di Ardea","state_code":"RM","country_code":"IT"}},{"type":"Feature","geometry":{"type":"Point","coordinates":[12.12537,42.12998]},"properties":{"id":139813,"name":"Manziana","state_code":"RM","country_code":"IT"}},{"type":"Feature","geometry":{"type":"Point","coordinates":[13.01501,41.99535]},"properties":{"id":139821,"name":"Marano Equo","state_code":"RM","country_code":"IT"}},{"type":"Feature","geometry":{"type":"Point","coordinates":[12.80445,42.02436]},"properties":{"id":139838,"name":"Marcellina","state_code":"RM","country_code":"IT"}},{"type":"Feature","geometry":{"type":"Point","coordinates":[12.64775,41.95544]},"properties":{"id":139853,"name":"Marco Simone","state_code":"RM","country_code":"IT"}},{"type":"Feature","geometry":{"type":"Point","coordinates":[12.54115,41.55439]},"properties":{"id":139877,"name":"Marina di Ardea-Tor San Lorenzo","state_code":"RM","country_code":"IT"}},{"type":"Feature","geometry":{"type":"Point","coordinates":[12.05295,41.97997]},"properties":{"id":139883,"name":"Marina di Cerveteri","state_code":"RM","country_code":"IT"}},{"type":"Feature","geometry":{"type":"Point","coordinates":[12.12024,41.93102]},"properties":{"id":139874,"name":"Marina San Nicola","state_code":"RM","country_code":"IT"}},{"type":"Feature","geometry":{"type":"Point","coordinates":[12.65917,41.76984]},"properties":{"id":139900,"name":"Marino","state_code":"RM","country_code":"IT"}},{"type":"Feature","geometry":{"type":"Point","coordinates":[12.39554,42.20597]},"properties":{"id":140006,"name":"Mazzano Romano","state_code":"RM","country_code":"IT"}},{"type":"Feature","geometry":{"type":"Point","coordinates":[12.64413,42.03539]},"properties":{"id":140065,"name":"Mentana","state_code":"RM","country_code":"IT"}},{"type":"Feature","geometry":{"type":"Point","coordinates":[12.47358,42.0665]},"properties":{"id":140353,"name":"Monte Caminetto","state_code":"RM","country_code":"IT"}},{"type":"Feature","geometry":{"type":"Point","coordinates":[12.50206,41.7206]},"properties":{"id":140362,"name":"Monte Migliore La Selvotta","state_code":"RM","country_code":"IT"}},{"type":"Feature","geometry":{"type":"Point","coordinates":[12.71432,41.81585]},"properties":{"id":140364,"name":"Monte Porzio Catone","state_code":"RM","country_code":"IT"}},{"type":"Feature","geometry":{"type":"Point","coordinates":[12.74354,42.02067]},"properties":{"id":140413,"name":"Montecelio","state_code":"RM","country_code":"IT"}},{"type":"Feature","geometry":{"type":"Point","coordinates":[12.73778,41.80892]},"properties":{"id":140419,"name":"Montecompatri","state_code":"RM","country_code":"IT"}},{"type":"Feature","geometry":{"type":"Point","coordinates":[12.83076,42.10935]},"properties":{"id":140442,"name":"Monteflavio","state_code":"RM","country_code":"IT"}},{"type":"Feature","geometry":{"type":"Point","coordinates":[13.04027,41.65069]},"properties":{"id":140464,"name":"Montelanico","state_code":"RM","country_code":"IT"}},{"type":"Feature","geometry":{"type":"Point","coordinates":[12.48398,42.16339]},"properties":{"id":140466,"name":"Montelarco","state_code":"RM","country_code":"IT"}},{"type":"Feature","geometry":{"type":"Point","coordinates":[12.73868,42.13553]},"properties":{"id":140475,"name":"Montelibretti","state_code":"RM","country_code":"IT"}},{"type":"Feature","geometry":{"type":"Point","coordinates":[12.61969,42.05159]},"properties":{"id":140526,"name":"Monterotondo","state_code":"RM","country_code":"IT"}},{"type":"Feature","geometry":{"type":"Point","coordinates":[12.80404,42.13738]},"properties":{"id":140585,"name":"Montorio Romano","state_code":"RM","country_code":"IT"}},{"type":"Feature","geometry":{"type":"Point","coordinates":[12.77234,42.11661]},"properties":{"id":140617,"name":"Moricone","state_code":"RM","country_code":"IT"}},{"type":"Feature","geometry":{"type":"Point","coordinates":[12.50306,42.15002]},"properties":{"id":140622,"name":"Morlupo","state_code":"RM","country_code":"IT"}},{"type":"Feature","geometry":{"type":"Point","coordinates":[12.5944,42.23018]},"properties":{"id":140733,"name":"Nazzano","state_code":"RM","country_code":"IT"}},{"type":"Feature","geometry":{"type":"Point","coordinates":[12.71809,41.72185]},"properties":{"id":140740,"name":"Nemi","state_code":"RM","country_code":"IT"}},{"type":"Feature","geometry":{"type":"Point","coordinates":[12.78529,42.16011]},"properties":{"id":140747,"name":"Nerola","state_code":"RM","country_code":"IT"}},{"type":"Feature","geometry":{"type":"Point","coordinates":[12.66393,41.45794]},"properties":{"id":140753,"name":"Nettuno","state_code":"RM","country_code":"IT"}},{"type":"Feature","geometry":{"type":"Point","coordinates":[13.03601,41.85869]},"properties":{"id":140889,"name":"Olevano Romano","state_code":"RM","country_code":"IT"}},{"type":"Feature","geometry":{"type":"Point","coordinates":[12.30924,42.03721]},"properties":{"id":141036,"name":"Osteria Nuova","state_code":"RM","country_code":"IT"}},{"type":"Feature","geometry":{"type":"Point","coordinates":[12.88178,41.83274]},"properties":{"id":58241,"name":"Palestrina","state_code":"RM","country_code":"IT"}},{"type":"Feature","geometry":{"type":"Point","coordinates":[12.76684,42.06909]},"properties":{"id":58263,"name":"Palombara Sabina","state_code":"RM","country_code":"IT"}},{"type":"Feature","geometry":{"type":"Point","coordinates":[12.30028,41.80035]},"properties":{"id":58299,"name":"Parco Leonardo","state_code":"RM","country_code":"IT"}},{"type":"Feature","geometry":{"type":"Point","coordinates":[12.15723,41.90209]},"properties":{"id":58335,"name":"Passoscuro","state_code":"RM","country_code":"IT"}},{"type":"Feature","geometry":{"type":"Point","coordinates":[12.61642,41.72629]},"properties":{"id":58362,"name":"Pavona","state_code":"RM","country_code":"IT"}},{"type":"Feature","geometry":{"type":"Point","coordinates":[12.91048,42.09497]},"properties":{"id":58414,"name":"Percile","state_code":"RM","country_code":"IT"}},{"type":"Feature","geometry":{"type":"Point","coordinates":[12.95794,41.90816]},"properties":{"id":58712,"name":"Pisoniano","state_code":"RM","country_code":"IT"}},{"type":"Feature","geometry":{"type":"Point","coordinates":[12.37174,42.1138]},"properties":{"id":58754,"name":"Poggio Ellera","state_code":"RM","country_code":"IT"}},{"type":"Feature","geometry":{"type":"Point","coordinates":[12.89037,41.88913]},"properties":{"id":58786,"name":"Poli","state_code":"RM","country_code":"IT"}},{"type":"Feature","geometry":{"type":"Point","coordinates":[12.50124,41.66931]},"properties":{"id":58815,"name":"Pomezia","state_code":"RM","country_code":"IT"}},{"type":"Feature","geometry":{"type":"Point","coordinates":[12.33925,41.84634]},"properties":{"id":58840,"name":"Ponte Galeria-La Pisana","state_code":"RM","country_code":"IT"}},{"type":"Feature","geometry":{"type":"Point","coordinates":[12.23505,42.0227]},"properties":{"id":58892,"name":"Ponton dell'Elce","state_code":"RM","country_code":"IT"}},{"type":"Feature","geometry":{"type":"Point","coordinates":[12.57047,42.25693]},"properties":{"id":58897,"name":"Ponzano Romano","state_code":"RM","country_code":"IT"}},{"type":"Feature","geometry":{"type":"Point","coordinates":[12.51462,42.09347]},"properties":{"id":59357,"name":"Riano","state_code":"RM","country_code":"IT"}},{"type":"Feature","geometry":{"type":"Point","coordinates":[12.48068,42.2055]},"properties":{"id":59377,"name":"Rignano Flaminio","state_code":"RM","country_code":"IT"}},{"type":"Feature","geometry":{"type":"Point","coordinates":[12.99661,42.05875]},"properties":{"id":59391,"name":"Riofreddo","state_code":"RM","country_code":"IT"}},{"type":"Feature","geometry":{"type":"Point","coordinates":[13.02179,41.95652]},"properties":{"id":59466,"name":"Rocca Canterano","state_code":"RM","country_code":"IT"}},{"type":"Feature","geometry":{"type":"Point","coordinates":[12.94509,41.84589]},"properties":{"id":59486,"name":"Rocca di Cave","state_code":"RM","country_code":"IT"}},{"type":"Feature","geometry":{"type":"Point","coordinates":[12.70188,41.7658]},"properties":{"id":59489,"name":"Rocca di Papa","state_code":"RM","country_code":"IT"}},{"type":"Feature","geometry":{"type":"Point","coordinates":[12.76577,41.76585]},"properties":{"id":59475,"name":"Rocca Priora","state_code":"RM","country_code":"IT"}},{"type":"Feature","geometry":{"type":"Point","coordinates":[13.02379,41.91052]},"properties":{"id":59479,"name":"Rocca Santo Stefano","state_code":"RM","country_code":"IT"}},{"type":"Feature","geometry":{"type":"Point","coordinates":[12.89925,42.05069]},"properties":{"id":59502,"name":"Roccagiovine","state_code":"RM","country_code":"IT"}},{"type":"Feature","geometry":{"type":"Point","coordinates":[13.06627,41.87332]},"properties":{"id":59566,"name":"Roiate","state_code":"RM","country_code":"IT"}},{"type":"Feature","geometry":{"type":"Point","coordinates":[12.51133,41.89193]},"properties":{"id":59582,"name":"Rome","state_code":"RM","country_code":"IT"}},{"type":"Feature","geometry":{"type":"Point","coordinates":[12.9939,42.02643]},"properties":{"id":59684,"name":"Roviano","state_code":"RM","country_code":"IT"}},{"type":"Feature","geometry":{"type":"Point","coordinates":[12.44781,42.10457]},"properties":{"id":59721,"name":"Sacrofano","state_code":"RM","country_code":"IT"}},{"type":"Feature","geometry":{"type":"Point","coordinates":[12.93817,41.98536]},"properties":{"id":59807,"name":"Sambuci","state_code":"RM","country_code":"IT"}},{"type":"Feature","geometry":{"type":"Point","coordinates":[12.80447,41.82113]},"properties":{"id":59863,"name":"San Cesareo","state_code":"RM","country_code":"IT"}},{"type":"Feature","geometry":{"type":"Point","coordinates":[12.87447,41.91881]},"properties":{"id":60023,"name":"San Gregorio da Sassola","state_code":"RM","country_code":"IT"}},{"type":"Feature","geometry":{"type":"Point","coordinates":[12.83989,42.01037]},"properties":{"id":60206,"name":"San Polo dei Cavalieri","state_code":"RM","country_code":"IT"}},{"type":"Feature","geometry":{"type":"Point","coordinates":[12.97793,41.88001]},"properties":{"id":60277,"name":"San Vito Romano","state_code":"RM","country_code":"IT"}},{"type":"Feature","geometry":{"type":"Point","coordinates":[12.71342,42.0357]},"properties":{"id":60361,"name":"Sant'Angelo Romano","state_code":"RM","country_code":"IT"}},{"type":"Feature","geometry":{"type":"Point","coordinates":[12.51507,42.23298]},"properties":{"id":60410,"name":"Sant'Oreste","state_code":"RM","country_code":"IT"}},{"type":"Feature","geometry":{"type":"Point","coordinates":[12.65625,41.9824]},"properties":{"id":60446,"name":"Santa Lucia","state_code":"RM","country_code":"IT"}},{"type":"Feature","geometry":{"type":"Point","coordinates":[11.85416,42.03425]},"properties":{"id":60484,"name":"Santa Marinella","state_code":"RM","country_code":"IT"}},{"type":"Feature","geometry":{"type":"Point","coordinates":[12.95329,42.00332]},"properties":{"id":60540,"name":"Saracinesco","state_code":"RM","country_code":"IT"}},{"type":"Feature","geometry":{"type":"Point","coordinates":[13.01934,41.68893]},"properties":{"id":60689,"name":"Segni","state_code":"RM","country_code":"IT"}},{"type":"Feature","geometry":{"type":"Point","coordinates":[12.47533,41.76529]},"properties":{"id":60694,"name":"Selcetta","state_code":"RM","country_code":"IT"}},{"type":"Feature","geometry":{"type":"Point","coordinates":[12.65122,41.94375]},"properties":{"id":60808,"name":"Setteville","state_code":"RM","country_code":"IT"}},{"type":"Feature","geometry":{"type":"Point","coordinates":[13.08906,41.92619]},"properties":{"id":61109,"name":"Subiaco","state_code":"RM","country_code":"IT"}},{"type":"Feature","geometry":{"type":"Point","coordinates":[12.8016,41.95952]},"properties":{"id":61288,"name":"Tivoli","state_code":"RM","country_code":"IT"}},{"type":"Feature","geometry":{"type":"Point","coordinates":[11.93216,42.15023]},"properties":{"id":61299,"name":"Tolfa","state_code":"RM","country_code":"IT"}},{"type":"Feature","geometry":{"type":"Point","coordinates":[12.61814,41.99771]},"properties":{"id":61314,"name":"Tor Lupara","state_code":"RM","country_code":"IT"}},{"type":"Feature","geometry":{"type":"Point","coordinates":[12.61633,42.23821]},"properties":{"id":61409,"name":"Torrita Tiberina","state_code":"RM","country_code":"IT"}},{"type":"Feature","geometry":{"type":"Point","coordinates":[12.46197,41.62112]},"properties":{"id":61419,"name":"Torvaianica","state_code":"RM","country_code":"IT"}},{"type":"Feature","geometry":{"type":"Point","coordinates":[12.49765,41.63162]},"properties":{"id":61420,"name":"Torvaianica Alta","state_code":"RM","country_code":"IT"}},{"type":"Feature","geometry":{"type":"Point","coordinates":[12.252,42.01334]},"properties":{"id":61429,"name":"Tragliatella Campitello","state_code":"RM","country_code":"IT"}},{"type":"Feature","geometry":{"type":"Point","coordinates":[12.23775,42.1602]},"properties":{"id":61506,"name":"Trevignano Romano","state_code":"RM","country_code":"IT"}},{"type":"Feature","geometry":{"type":"Point","coordinates":[12.15734,41.95078]},"properties":{"id":61648,"name":"Valcanneto","state_code":"RM","country_code":"IT"}},{"type":"Feature","geometry":{"type":"Point","coordinates":[12.74677,41.87827]},"properties":{"id":61688,"name":"Valle Martella","state_code":"RM","country_code":"IT"}},{"type":"Feature","geometry":{"type":"Point","coordinates":[12.31971,41.94532]},"properties":{"id":61693,"name":"Valle Santa","state_code":"RM","country_code":"IT"}},{"type":"Feature","geometry":{"type":"Point","coordinates":[13.23127,41.92552]},"properties":{"id":61712,"name":"Vallepietra","state_code":"RM","country_code":"IT"}},{"type":"Feature","geometry":{"type":"Point","coordinates":[12.99595,42.08485]},"properties":{"id":61721,"name":"Vallinfreda","state_code":"RM","country_code":"IT"}},{"type":"Feature","geometry":{"type":"Point","coordinates":[12.91856,41.77323]},"properties":{"id":61732,"name":"Valmontone","state_code":"RM","country_code":"IT"}},{"type":"Feature","geometry":{"type":"Point","coordinates":[12.77753,41.68573]},"properties":{"id":61802,"name":"Velletri","state_code":"RM","country_code":"IT"}},{"type":"Feature","geometry":{"type":"Point","coordinates":[12.90001,42.01924]},"properties":{"id":61926,"name":"Vicovaro","state_code":"RM","country_code":"IT"}},{"type":"Feature","geometry":{"type":"Point","coordinates":[12.77216,41.95499]},"properties":{"id":61984,"name":"Villa Adriana","state_code":"RM","country_code":"IT"}},{"type":"Feature","geometry":{"type":"Point","coordinates":[12.72938,41.95387]},"properties":{"id":62077,"name":"Villalba","state_code":"RM","country_code":"IT"}},{"type":"Feature","geometry":{"type":"Point","coordinates":[12.75633,41.96357]},"properties":{"id":62095,"name":"Villanova","state_code":"RM","country_code":"IT"}},{"type":"Feature","geometry":{"type":"Point","coordinates":[12.4081,41.79124]},"properties":{"id":62182,"name":"Vitinia","state_code":"RM","country_code":"IT"}},{"type":"Feature","geometry":{"type":"Point","coordinates":[13.00589,42.10095]},"properties":{"id":62191,"name":"Vivaro Romano","state_code":"RM","country_code":"IT"}},{"type":"Feature","geometry":{"type":"Point","coordinates":[12.8154,41.84159]},"properties":{"id":62231,"name":"Zagarolo","state_code":"RM","country_code":"IT"}}]}