{"type":"FeatureCollection","features":[{"type":"Feature","geometry":{"type":"Point","coordinates":[12.05599,45.05445]},"properties":{"id":135290,"name":"Adria","state_code":"RO","country_code":"IT"}},{"type":"Feature","geometry":{"type":"Point","coordinates":[12.12448,44.94604]},"properties":{"id":135598,"name":"Ariano","state_code":"RO","country_code":"IT"}},{"type":"Feature","geometry":{"type":"Point","coordinates":[11.73981,45.01008]},"properties":{"id":135633,"name":"Arquà Polesine","state_code":"RO","country_code":"IT"}},{"type":"Feature","geometry":{"type":"Point","coordinates":[11.49443,45.09508]},"properties":{"id":135737,"name":"Badia Polesine","state_code":"RO","country_code":"IT"}},{"type":"Feature","geometry":{"type":"Point","coordinates":[11.50091,45.01548]},"properties":{"id":135772,"name":"Bagnolo di Po","state_code":"RO","country_code":"IT"}},{"type":"Feature","geometry":{"type":"Point","coordinates":[11.45208,45.06601]},"properties":{"id":135871,"name":"Baruchella","state_code":"RO","country_code":"IT"}},{"type":"Feature","geometry":{"type":"Point","coordinates":[11.25237,45.06145]},"properties":{"id":135988,"name":"Bergantino","state_code":"RO","country_code":"IT"}},{"type":"Feature","geometry":{"type":"Point","coordinates":[11.97727,44.97656]},"properties":{"id":135996,"name":"Berra","state_code":"RO","country_code":"IT"}},{"type":"Feature","geometry":{"type":"Point","coordinates":[11.2093,45.04658]},"properties":{"id":136204,"name":"Borgofranco sul Po","state_code":"RO","country_code":"IT"}},{"type":"Feature","geometry":{"type":"Point","coordinates":[11.76471,44.99878]},"properties":{"id":136237,"name":"Bosaro","state_code":"RO","country_code":"IT"}},{"type":"Feature","geometry":{"type":"Point","coordinates":[12.12182,45.13658]},"properties":{"id":136245,"name":"Boscochiaro","state_code":"RO","country_code":"IT"}},{"type":"Feature","geometry":{"type":"Point","coordinates":[12.08236,45.02552]},"properties":{"id":136263,"name":"Bottrighe","state_code":"RO","country_code":"IT"}},{"type":"Feature","geometry":{"type":"Point","coordinates":[12.03377,44.98446]},"properties":{"id":136283,"name":"Braglia","state_code":"RO","country_code":"IT"}},{"type":"Feature","geometry":{"type":"Point","coordinates":[11.84772,45.06491]},"properties":{"id":136427,"name":"Buso","state_code":"RO","country_code":"IT"}},{"type":"Feature","geometry":{"type":"Point","coordinates":[12.33917,44.94861]},"properties":{"id":136444,"name":"Ca' Tiepolo","state_code":"RO","country_code":"IT"}},{"type":"Feature","geometry":{"type":"Point","coordinates":[11.35854,44.99072]},"properties":{"id":136546,"name":"Calto","state_code":"RO","country_code":"IT"}},{"type":"Feature","geometry":{"type":"Point","coordinates":[11.67541,44.93394]},"properties":{"id":136691,"name":"Canaro","state_code":"RO","country_code":"IT"}},{"type":"Feature","geometry":{"type":"Point","coordinates":[11.50331,45.03608]},"properties":{"id":136696,"name":"Canda","state_code":"RO","country_code":"IT"}},{"type":"Feature","geometry":{"type":"Point","coordinates":[11.22923,45.03537]},"properties":{"id":136848,"name":"Carbonara di Po","state_code":"RO","country_code":"IT"}},{"type":"Feature","geometry":{"type":"Point","coordinates":[11.5369,45.02539]},"properties":{"id":137204,"name":"Castelguglielmo","state_code":"RO","country_code":"IT"}},{"type":"Feature","geometry":{"type":"Point","coordinates":[11.31505,45.01826]},"properties":{"id":137270,"name":"Castelmassa","state_code":"RO","country_code":"IT"}},{"type":"Feature","geometry":{"type":"Point","coordinates":[11.2876,45.02738]},"properties":{"id":137278,"name":"Castelnovo Bariano","state_code":"RO","country_code":"IT"}},{"type":"Feature","geometry":{"type":"Point","coordinates":[11.36936,45.01377]},"properties":{"id":137492,"name":"Ceneselli","state_code":"RO","country_code":"IT"}},{"type":"Feature","geometry":{"type":"Point","coordinates":[11.86792,45.04811]},"properties":{"id":137532,"name":"Ceregnano","state_code":"RO","country_code":"IT"}},{"type":"Feature","geometry":{"type":"Point","coordinates":[11.86667,44.91667]},"properties":{"id":137823,"name":"Coccanile-Cesta","state_code":"RO","country_code":"IT"}},{"type":"Feature","geometry":{"type":"Point","coordinates":[12.08567,45.00272]},"properties":{"id":137995,"name":"Corbola","state_code":"RO","country_code":"IT"}},{"type":"Feature","geometry":{"type":"Point","coordinates":[11.6956,45.05181]},"properties":{"id":138099,"name":"Costa di Rovigo","state_code":"RO","country_code":"IT"}},{"type":"Feature","geometry":{"type":"Point","coordinates":[11.88958,44.98527]},"properties":{"id":138147,"name":"Crespino","state_code":"RO","country_code":"IT"}},{"type":"Feature","geometry":{"type":"Point","coordinates":[12.33119,44.93047]},"properties":{"id":138305,"name":"Donzella","state_code":"RO","country_code":"IT"}},{"type":"Feature","geometry":{"type":"Point","coordinates":[11.43662,44.95425]},"properties":{"id":138504,"name":"Ficarolo","state_code":"RO","country_code":"IT"}},{"type":"Feature","geometry":{"type":"Point","coordinates":[11.60576,44.96072]},"properties":{"id":138514,"name":"Fiesso Umbertiano","state_code":"RO","country_code":"IT"}},{"type":"Feature","geometry":{"type":"Point","coordinates":[11.65701,44.89662]},"properties":{"id":138704,"name":"Francolino","state_code":"RO","country_code":"IT"}},{"type":"Feature","geometry":{"type":"Point","coordinates":[11.69881,44.99518]},"properties":{"id":138711,"name":"Frassinelle Polesine","state_code":"RO","country_code":"IT"}},{"type":"Feature","geometry":{"type":"Point","coordinates":[11.64265,45.02819]},"properties":{"id":138719,"name":"Fratta Polesine","state_code":"RO","country_code":"IT"}},{"type":"Feature","geometry":{"type":"Point","coordinates":[11.48087,44.94573]},"properties":{"id":138788,"name":"Gaiba","state_code":"RO","country_code":"IT"}},{"type":"Feature","geometry":{"type":"Point","coordinates":[11.91368,45.02469]},"properties":{"id":138874,"name":"Gavello","state_code":"RO","country_code":"IT"}},{"type":"Feature","geometry":{"type":"Point","coordinates":[11.4504,45.06718]},"properties":{"id":138938,"name":"Giacciano con Baruchella","state_code":"RO","country_code":"IT"}},{"type":"Feature","geometry":{"type":"Point","coordinates":[11.74682,45.0435]},"properties":{"id":139098,"name":"Grignano Polesine","state_code":"RO","country_code":"IT"}},{"type":"Feature","geometry":{"type":"Point","coordinates":[11.80178,44.98188]},"properties":{"id":139153,"name":"Guarda Veneta","state_code":"RO","country_code":"IT"}},{"type":"Feature","geometry":{"type":"Point","coordinates":[11.90942,45.04357]},"properties":{"id":139340,"name":"Lama Pezzoli","state_code":"RO","country_code":"IT"}},{"type":"Feature","geometry":{"type":"Point","coordinates":[11.60318,45.08301]},"properties":{"id":139443,"name":"Lendinara","state_code":"RO","country_code":"IT"}},{"type":"Feature","geometry":{"type":"Point","coordinates":[12.18812,45.06213]},"properties":{"id":139608,"name":"Loreo","state_code":"RO","country_code":"IT"}},{"type":"Feature","geometry":{"type":"Point","coordinates":[11.66511,45.09848]},"properties":{"id":139675,"name":"Lusia","state_code":"RO","country_code":"IT"}},{"type":"Feature","geometry":{"type":"Point","coordinates":[11.83744,45.10703]},"properties":{"id":139856,"name":"Mardimago","state_code":"RO","country_code":"IT"}},{"type":"Feature","geometry":{"type":"Point","coordinates":[11.20117,45.06421]},"properties":{"id":140035,"name":"Melara","state_code":"RO","country_code":"IT"}},{"type":"Feature","geometry":{"type":"Point","coordinates":[11.58139,44.9224]},"properties":{"id":140868,"name":"Occhiobello","state_code":"RO","country_code":"IT"}},{"type":"Feature","geometry":{"type":"Point","coordinates":[12.03092,44.98578]},"properties":{"id":58292,"name":"Papozze","state_code":"RO","country_code":"IT"}},{"type":"Feature","geometry":{"type":"Point","coordinates":[11.98779,45.13585]},"properties":{"id":58494,"name":"Pettorazza Grimani","state_code":"RO","country_code":"IT"}},{"type":"Feature","geometry":{"type":"Point","coordinates":[11.62101,45.00064]},"properties":{"id":58674,"name":"Pincara","state_code":"RO","country_code":"IT"}},{"type":"Feature","geometry":{"type":"Point","coordinates":[11.74887,44.96457]},"properties":{"id":58784,"name":"Polesella","state_code":"RO","country_code":"IT"}},{"type":"Feature","geometry":{"type":"Point","coordinates":[11.81321,45.0202]},"properties":{"id":58864,"name":"Pontecchio Polesine","state_code":"RO","country_code":"IT"}},{"type":"Feature","geometry":{"type":"Point","coordinates":[12.32453,44.94969]},"properties":{"id":58937,"name":"Porto Tolle","state_code":"RO","country_code":"IT"}},{"type":"Feature","geometry":{"type":"Point","coordinates":[12.21754,45.02678]},"properties":{"id":58940,"name":"Porto Viro","state_code":"RO","country_code":"IT"}},{"type":"Feature","geometry":{"type":"Point","coordinates":[11.76006,44.94695]},"properties":{"id":59446,"name":"Ro","state_code":"RO","country_code":"IT"}},{"type":"Feature","geometry":{"type":"Point","coordinates":[12.22977,45.07674]},"properties":{"id":59642,"name":"Rosolina","state_code":"RO","country_code":"IT"}},{"type":"Feature","geometry":{"type":"Point","coordinates":[12.01849,45.14361]},"properties":{"id":59663,"name":"Rottanova","state_code":"RO","country_code":"IT"}},{"type":"Feature","geometry":{"type":"Point","coordinates":[11.79022,45.06982]},"properties":{"id":59685,"name":"Rovigo","state_code":"RO","country_code":"IT"}},{"type":"Feature","geometry":{"type":"Point","coordinates":[11.42655,44.98586]},"properties":{"id":59748,"name":"Salara","state_code":"RO","country_code":"IT"}},{"type":"Feature","geometry":{"type":"Point","coordinates":[11.59222,45.02943]},"properties":{"id":59826,"name":"San Bellino","state_code":"RO","country_code":"IT"}},{"type":"Feature","geometry":{"type":"Point","coordinates":[11.87018,45.12532]},"properties":{"id":60087,"name":"San Martino di Venezze","state_code":"RO","country_code":"IT"}},{"type":"Feature","geometry":{"type":"Point","coordinates":[11.82533,45.04115]},"properties":{"id":60386,"name":"Sant'Apollinare","state_code":"RO","country_code":"IT"}},{"type":"Feature","geometry":{"type":"Point","coordinates":[11.60663,44.90231]},"properties":{"id":60465,"name":"Santa Maria Maddalena","state_code":"RO","country_code":"IT"}},{"type":"Feature","geometry":{"type":"Point","coordinates":[12.45462,44.89765]},"properties":{"id":60630,"name":"Scardovari","state_code":"RO","country_code":"IT"}},{"type":"Feature","geometry":{"type":"Point","coordinates":[11.33333,44.88333]},"properties":{"id":60668,"name":"Scortichino","state_code":"RO","country_code":"IT"}},{"type":"Feature","geometry":{"type":"Point","coordinates":[12.04664,44.96532]},"properties":{"id":60771,"name":"Serravalle","state_code":"RO","country_code":"IT"}},{"type":"Feature","geometry":{"type":"Point","coordinates":[11.54375,44.9397]},"properties":{"id":61071,"name":"Stienta","state_code":"RO","country_code":"IT"}},{"type":"Feature","geometry":{"type":"Point","coordinates":[12.21083,45.02222]},"properties":{"id":61144,"name":"Taglio","state_code":"RO","country_code":"IT"}},{"type":"Feature","geometry":{"type":"Point","coordinates":[12.21386,45.00189]},"properties":{"id":61145,"name":"Taglio di Po","state_code":"RO","country_code":"IT"}},{"type":"Feature","geometry":{"type":"Point","coordinates":[11.45931,45.02937]},"properties":{"id":61469,"name":"Trecenta","state_code":"RO","country_code":"IT"}},{"type":"Feature","geometry":{"type":"Point","coordinates":[11.89899,45.07219]},"properties":{"id":62052,"name":"Villadose","state_code":"RO","country_code":"IT"}},{"type":"Feature","geometry":{"type":"Point","coordinates":[11.69225,45.01457]},"properties":{"id":62083,"name":"Villamarzana","state_code":"RO","country_code":"IT"}},{"type":"Feature","geometry":{"type":"Point","coordinates":[11.64314,45.05933]},"properties":{"id":62109,"name":"Villanova del Ghebbo Canton","state_code":"RO","country_code":"IT"}},{"type":"Feature","geometry":{"type":"Point","coordinates":[11.96675,44.99231]},"properties":{"id":62098,"name":"Villanova Marchesana","state_code":"RO","country_code":"IT"}}]}