{"type":"FeatureCollection","features":[{"type":"Feature","geometry":{"type":"Point","coordinates":[13.24761,42.69476]},"properties":{"id":135252,"name":"Accumoli","state_code":"RI","country_code":"IT"}},{"type":"Feature","geometry":{"type":"Point","coordinates":[13.29509,42.62664]},"properties":{"id":135463,"name":"Amatrice","state_code":"RI","country_code":"IT"}},{"type":"Feature","geometry":{"type":"Point","coordinates":[13.07673,42.41498]},"properties":{"id":135521,"name":"Antrodoco","state_code":"RI","country_code":"IT"}},{"type":"Feature","geometry":{"type":"Point","coordinates":[12.99457,42.19763]},"properties":{"id":135657,"name":"Ascrea","state_code":"RI","country_code":"IT"}},{"type":"Feature","geometry":{"type":"Point","coordinates":[12.89178,42.31482]},"properties":{"id":135956,"name":"Belmonte in Sabina","state_code":"RI","country_code":"IT"}},{"type":"Feature","geometry":{"type":"Point","coordinates":[13.13206,42.50939]},"properties":{"id":136145,"name":"Borbona","state_code":"RI","country_code":"IT"}},{"type":"Feature","geometry":{"type":"Point","coordinates":[13.0565,42.40508]},"properties":{"id":136195,"name":"Borgo Velino","state_code":"RI","country_code":"IT"}},{"type":"Feature","geometry":{"type":"Point","coordinates":[13.23282,42.19077]},"properties":{"id":136216,"name":"Borgorose","state_code":"RI","country_code":"IT"}},{"type":"Feature","geometry":{"type":"Point","coordinates":[12.90461,42.46458]},"properties":{"id":136739,"name":"Cantalice","state_code":"RI","country_code":"IT"}},{"type":"Feature","geometry":{"type":"Point","coordinates":[12.64513,42.30689]},"properties":{"id":136743,"name":"Cantalupo in Sabina","state_code":"RI","country_code":"IT"}},{"type":"Feature","geometry":{"type":"Point","coordinates":[12.80428,42.25177]},"properties":{"id":137028,"name":"Casaprota","state_code":"RI","country_code":"IT"}},{"type":"Feature","geometry":{"type":"Point","coordinates":[12.67017,42.33869]},"properties":{"id":137091,"name":"Casperia","state_code":"RI","country_code":"IT"}},{"type":"Feature","geometry":{"type":"Point","coordinates":[12.97073,42.21392]},"properties":{"id":137175,"name":"Castel di Tora","state_code":"RI","country_code":"IT"}},{"type":"Feature","geometry":{"type":"Point","coordinates":[13.02738,42.39373]},"properties":{"id":137157,"name":"Castel Sant'Angelo","state_code":"RI","country_code":"IT"}},{"type":"Feature","geometry":{"type":"Point","coordinates":[12.74308,42.23193]},"properties":{"id":137301,"name":"Castelnuovo di Farfa","state_code":"RI","country_code":"IT"}},{"type":"Feature","geometry":{"type":"Point","coordinates":[12.95497,42.38664]},"properties":{"id":137767,"name":"Cittaducale","state_code":"RI","country_code":"IT"}},{"type":"Feature","geometry":{"type":"Point","coordinates":[13.15788,42.61624]},"properties":{"id":137769,"name":"Cittareale","state_code":"RI","country_code":"IT"}},{"type":"Feature","geometry":{"type":"Point","coordinates":[13.04841,42.13522]},"properties":{"id":137856,"name":"Collalto Sabino","state_code":"RI","country_code":"IT"}},{"type":"Feature","geometry":{"type":"Point","coordinates":[12.94746,42.20809]},"properties":{"id":137872,"name":"Colle di Tora","state_code":"RI","country_code":"IT"}},{"type":"Feature","geometry":{"type":"Point","coordinates":[13.03844,42.17506]},"properties":{"id":137882,"name":"Collegiove","state_code":"RI","country_code":"IT"}},{"type":"Feature","geometry":{"type":"Point","coordinates":[12.55329,42.33368]},"properties":{"id":137896,"name":"Collevecchio","state_code":"RI","country_code":"IT"}},{"type":"Feature","geometry":{"type":"Point","coordinates":[12.78153,42.49828]},"properties":{"id":137901,"name":"Colli sul Velino","state_code":"RI","country_code":"IT"}},{"type":"Feature","geometry":{"type":"Point","coordinates":[12.98534,42.32214]},"properties":{"id":137956,"name":"Concerviano","state_code":"RI","country_code":"IT"}},{"type":"Feature","geometry":{"type":"Point","coordinates":[12.64431,42.42543]},"properties":{"id":137968,"name":"Configni","state_code":"RI","country_code":"IT"}},{"type":"Feature","geometry":{"type":"Point","coordinates":[12.77202,42.41058]},"properties":{"id":137978,"name":"Contigliano","state_code":"RI","country_code":"IT"}},{"type":"Feature","geometry":{"type":"Point","coordinates":[13.26496,42.20538]},"properties":{"id":138074,"name":"Corvaro","state_code":"RI","country_code":"IT"}},{"type":"Feature","geometry":{"type":"Point","coordinates":[12.68592,42.40811]},"properties":{"id":138113,"name":"Cottanello","state_code":"RI","country_code":"IT"}},{"type":"Feature","geometry":{"type":"Point","coordinates":[12.7296,42.20807]},"properties":{"id":138443,"name":"Fara in Sabina","state_code":"RI","country_code":"IT"}},{"type":"Feature","geometry":{"type":"Point","coordinates":[13.12413,42.26546]},"properties":{"id":138499,"name":"Fiamignano","state_code":"RI","country_code":"IT"}},{"type":"Feature","geometry":{"type":"Point","coordinates":[12.59469,42.29768]},"properties":{"id":138617,"name":"Forano","state_code":"RI","country_code":"IT"}},{"type":"Feature","geometry":{"type":"Point","coordinates":[12.80658,42.22927]},"properties":{"id":138717,"name":"Frasso Sabino","state_code":"RI","country_code":"IT"}},{"type":"Feature","geometry":{"type":"Point","coordinates":[12.80068,42.52603]},"properties":{"id":139311,"name":"Labro","state_code":"RI","country_code":"IT"}},{"type":"Feature","geometry":{"type":"Point","coordinates":[12.95996,42.56855]},"properties":{"id":139456,"name":"Leonessa","state_code":"RI","country_code":"IT"}},{"type":"Feature","geometry":{"type":"Point","coordinates":[12.76955,42.45329]},"properties":{"id":139524,"name":"Limiti di Greccio","state_code":"RI","country_code":"IT"}},{"type":"Feature","geometry":{"type":"Point","coordinates":[12.96653,42.2726]},"properties":{"id":139599,"name":"Longone Sabino","state_code":"RI","country_code":"IT"}},{"type":"Feature","geometry":{"type":"Point","coordinates":[12.4852,42.36568]},"properties":{"id":139727,"name":"Magliano Sabina","state_code":"RI","country_code":"IT"}},{"type":"Feature","geometry":{"type":"Point","coordinates":[13.04589,42.22663]},"properties":{"id":139841,"name":"Marcetelli","state_code":"RI","country_code":"IT"}},{"type":"Feature","geometry":{"type":"Point","coordinates":[13.05318,42.45203]},"properties":{"id":140130,"name":"Micigliano","state_code":"RI","country_code":"IT"}},{"type":"Feature","geometry":{"type":"Point","coordinates":[12.7513,42.2478]},"properties":{"id":140246,"name":"Mompeo","state_code":"RI","country_code":"IT"}},{"type":"Feature","geometry":{"type":"Point","coordinates":[12.68127,42.38495]},"properties":{"id":140348,"name":"Montasola","state_code":"RI","country_code":"IT"}},{"type":"Feature","geometry":{"type":"Point","coordinates":[12.77858,42.32703]},"properties":{"id":140372,"name":"Monte San Giovanni in Sabina","state_code":"RI","country_code":"IT"}},{"type":"Feature","geometry":{"type":"Point","coordinates":[12.59721,42.3677]},"properties":{"id":140394,"name":"Montebuono","state_code":"RI","country_code":"IT"}},{"type":"Feature","geometry":{"type":"Point","coordinates":[12.85828,42.23267]},"properties":{"id":140468,"name":"Monteleone Sabino","state_code":"RI","country_code":"IT"}},{"type":"Feature","geometry":{"type":"Point","coordinates":[12.81358,42.28123]},"properties":{"id":140501,"name":"Montenero Sabino","state_code":"RI","country_code":"IT"}},{"type":"Feature","geometry":{"type":"Point","coordinates":[12.69208,42.24593]},"properties":{"id":140581,"name":"Montopoli in Sabina","state_code":"RI","country_code":"IT"}},{"type":"Feature","geometry":{"type":"Point","coordinates":[12.83449,42.52226]},"properties":{"id":140632,"name":"Morro Reatino","state_code":"RI","country_code":"IT"}},{"type":"Feature","geometry":{"type":"Point","coordinates":[13.06938,42.15671]},"properties":{"id":140750,"name":"Nespolo","state_code":"RI","country_code":"IT"}},{"type":"Feature","geometry":{"type":"Point","coordinates":[12.93762,42.13039]},"properties":{"id":140995,"name":"Orvinio","state_code":"RI","country_code":"IT"}},{"type":"Feature","geometry":{"type":"Point","coordinates":[12.99689,42.18963]},"properties":{"id":58202,"name":"Paganico Sabino","state_code":"RI","country_code":"IT"}},{"type":"Feature","geometry":{"type":"Point","coordinates":[13.14715,42.20623]},"properties":{"id":58465,"name":"Pescorocchiano","state_code":"RI","country_code":"IT"}},{"type":"Feature","geometry":{"type":"Point","coordinates":[13.06794,42.29405]},"properties":{"id":58479,"name":"Petrella Salto","state_code":"RI","country_code":"IT"}},{"type":"Feature","geometry":{"type":"Point","coordinates":[12.88524,42.5033]},"properties":{"id":58752,"name":"Poggio Bustone","state_code":"RI","country_code":"IT"}},{"type":"Feature","geometry":{"type":"Point","coordinates":[12.69838,42.2942]},"properties":{"id":58753,"name":"Poggio Catino","state_code":"RI","country_code":"IT"}},{"type":"Feature","geometry":{"type":"Point","coordinates":[12.68837,42.26763]},"properties":{"id":58756,"name":"Poggio Mirteto","state_code":"RI","country_code":"IT"}},{"type":"Feature","geometry":{"type":"Point","coordinates":[12.88136,42.20411]},"properties":{"id":58757,"name":"Poggio Moiano","state_code":"RI","country_code":"IT"}},{"type":"Feature","geometry":{"type":"Point","coordinates":[12.79691,42.21783]},"properties":{"id":58758,"name":"Poggio Nativo","state_code":"RI","country_code":"IT"}},{"type":"Feature","geometry":{"type":"Point","coordinates":[12.84343,42.25174]},"properties":{"id":58762,"name":"Poggio San Lorenzo","state_code":"RI","country_code":"IT"}},{"type":"Feature","geometry":{"type":"Point","coordinates":[13.09723,42.52562]},"properties":{"id":58958,"name":"Posta","state_code":"RI","country_code":"IT"}},{"type":"Feature","geometry":{"type":"Point","coordinates":[12.96428,42.15863]},"properties":{"id":58975,"name":"Pozzaglia Sabino","state_code":"RI","country_code":"IT"}},{"type":"Feature","geometry":{"type":"Point","coordinates":[12.85735,42.40476]},"properties":{"id":59374,"name":"Rieti","state_code":"RI","country_code":"IT"}},{"type":"Feature","geometry":{"type":"Point","coordinates":[12.85595,42.51684]},"properties":{"id":59440,"name":"Rivodutri","state_code":"RI","country_code":"IT"}},{"type":"Feature","geometry":{"type":"Point","coordinates":[12.92469,42.27215]},"properties":{"id":59480,"name":"Rocca Sinibalda","state_code":"RI","country_code":"IT"}},{"type":"Feature","geometry":{"type":"Point","coordinates":[12.69398,42.32073]},"properties":{"id":59512,"name":"Roccantica","state_code":"RI","country_code":"IT"}},{"type":"Feature","geometry":{"type":"Point","coordinates":[12.74774,42.25947]},"properties":{"id":59774,"name":"Salisano","state_code":"RI","country_code":"IT"}},{"type":"Feature","geometry":{"type":"Point","coordinates":[12.91843,42.40897]},"properties":{"id":60489,"name":"Santa Rufina","state_code":"RI","country_code":"IT"}},{"type":"Feature","geometry":{"type":"Point","coordinates":[12.84096,42.16128]},"properties":{"id":60620,"name":"Scandriglia","state_code":"RI","country_code":"IT"}},{"type":"Feature","geometry":{"type":"Point","coordinates":[12.62135,42.30293]},"properties":{"id":60695,"name":"Selci","state_code":"RI","country_code":"IT"}},{"type":"Feature","geometry":{"type":"Point","coordinates":[12.56337,42.30103]},"properties":{"id":61076,"name":"Stimigliano","state_code":"RI","country_code":"IT"}},{"type":"Feature","geometry":{"type":"Point","coordinates":[12.59497,42.35593]},"properties":{"id":61162,"name":"Tarano","state_code":"RI","country_code":"IT"}},{"type":"Feature","geometry":{"type":"Point","coordinates":[12.755,42.213]},"properties":{"id":61296,"name":"Toffia","state_code":"RI","country_code":"IT"}},{"type":"Feature","geometry":{"type":"Point","coordinates":[12.64157,42.35057]},"properties":{"id":61396,"name":"Torri in Sabina","state_code":"RI","country_code":"IT"}},{"type":"Feature","geometry":{"type":"Point","coordinates":[12.8717,42.26252]},"properties":{"id":61404,"name":"Torricella in Sabina","state_code":"RI","country_code":"IT"}},{"type":"Feature","geometry":{"type":"Point","coordinates":[13.00983,42.13517]},"properties":{"id":61570,"name":"Turania","state_code":"RI","country_code":"IT"}},{"type":"Feature","geometry":{"type":"Point","coordinates":[12.64504,42.381]},"properties":{"id":61625,"name":"Vacone","state_code":"RI","country_code":"IT"}},{"type":"Feature","geometry":{"type":"Point","coordinates":[13.02052,42.24016]},"properties":{"id":61765,"name":"Varco Sabino","state_code":"RI","country_code":"IT"}}]}