{"type":"FeatureCollection","features":[{"type":"Feature","geometry":{"type":"Point","coordinates":[9.06517,40.92995]},"properties":{"id":135299,"name":"Aggius","state_code":"SS","country_code":"IT"}},{"type":"Feature","geometry":{"type":"Point","coordinates":[9.11267,41.07906]},"properties":{"id":135305,"name":"Aglientu","state_code":"SS","country_code":"IT"}},{"type":"Feature","geometry":{"type":"Point","coordinates":[9.32783,40.65007]},"properties":{"id":135453,"name":"Alà dei Sardi","state_code":"SS","country_code":"IT"}},{"type":"Feature","geometry":{"type":"Point","coordinates":[8.31953,40.55969]},"properties":{"id":135404,"name":"Alghero","state_code":"SS","country_code":"IT"}},{"type":"Feature","geometry":{"type":"Point","coordinates":[9.05743,40.44176]},"properties":{"id":135494,"name":"Anela","state_code":"SS","country_code":"IT"}},{"type":"Feature","geometry":{"type":"Point","coordinates":[8.80987,40.6214]},"properties":{"id":135576,"name":"Ardara","state_code":"SS","country_code":"IT"}},{"type":"Feature","geometry":{"type":"Point","coordinates":[9.39055,41.0762]},"properties":{"id":135646,"name":"Arzachena","state_code":"SS","country_code":"IT"}},{"type":"Feature","geometry":{"type":"Point","coordinates":[8.88235,40.9646]},"properties":{"id":135733,"name":"Badesi","state_code":"SS","country_code":"IT"}},{"type":"Feature","geometry":{"type":"Point","coordinates":[8.70052,40.57056]},"properties":{"id":135800,"name":"Banari","state_code":"SS","country_code":"IT"}},{"type":"Feature","geometry":{"type":"Point","coordinates":[8.46328,40.73549]},"properties":{"id":135801,"name":"Bancali","state_code":"SS","country_code":"IT"}},{"type":"Feature","geometry":{"type":"Point","coordinates":[9.16754,40.45689]},"properties":{"id":135974,"name":"Benetutti","state_code":"SS","country_code":"IT"}},{"type":"Feature","geometry":{"type":"Point","coordinates":[9.1651,40.78476]},"properties":{"id":135982,"name":"Berchidda","state_code":"SS","country_code":"IT"}},{"type":"Feature","geometry":{"type":"Point","coordinates":[8.72753,40.55449]},"properties":{"id":136017,"name":"Bessude","state_code":"SS","country_code":"IT"}},{"type":"Feature","geometry":{"type":"Point","coordinates":[8.76389,40.53265]},"properties":{"id":136140,"name":"Bonnanaro","state_code":"SS","country_code":"IT"}},{"type":"Feature","geometry":{"type":"Point","coordinates":[9.03187,40.41387]},"properties":{"id":136141,"name":"Bono","state_code":"SS","country_code":"IT"}},{"type":"Feature","geometry":{"type":"Point","coordinates":[8.76831,40.41839]},"properties":{"id":136142,"name":"Bonorva","state_code":"SS","country_code":"IT"}},{"type":"Feature","geometry":{"type":"Point","coordinates":[9.04352,40.89167]},"properties":{"id":136231,"name":"Bortigiadas","state_code":"SS","country_code":"IT"}},{"type":"Feature","geometry":{"type":"Point","coordinates":[8.74352,40.52236]},"properties":{"id":136233,"name":"Borutta","state_code":"SS","country_code":"IT"}},{"type":"Feature","geometry":{"type":"Point","coordinates":[9.01039,40.39242]},"properties":{"id":136262,"name":"Bottidda","state_code":"SS","country_code":"IT"}},{"type":"Feature","geometry":{"type":"Point","coordinates":[9.25839,40.57723]},"properties":{"id":136390,"name":"Buddusò","state_code":"SS","country_code":"IT"}},{"type":"Feature","geometry":{"type":"Point","coordinates":[9.70384,40.70467]},"properties":{"id":136392,"name":"Budoni","state_code":"SS","country_code":"IT"}},{"type":"Feature","geometry":{"type":"Point","coordinates":[9.06367,40.4572]},"properties":{"id":136403,"name":"Bultei","state_code":"SS","country_code":"IT"}},{"type":"Feature","geometry":{"type":"Point","coordinates":[8.83026,40.84666]},"properties":{"id":136404,"name":"Bulzi","state_code":"SS","country_code":"IT"}},{"type":"Feature","geometry":{"type":"Point","coordinates":[8.99558,40.39081]},"properties":{"id":136413,"name":"Burgos","state_code":"SS","country_code":"IT"}},{"type":"Feature","geometry":{"type":"Point","coordinates":[9.19343,40.92027]},"properties":{"id":136490,"name":"Calangianus","state_code":"SS","country_code":"IT"}},{"type":"Feature","geometry":{"type":"Point","coordinates":[8.61521,40.66894]},"properties":{"id":136873,"name":"Cargeghe","state_code":"SS","country_code":"IT"}},{"type":"Feature","geometry":{"type":"Point","coordinates":[8.71453,40.91256]},"properties":{"id":137314,"name":"Castelsardo","state_code":"SS","country_code":"IT"}},{"type":"Feature","geometry":{"type":"Point","coordinates":[8.72582,40.50455]},"properties":{"id":137637,"name":"Cheremule","state_code":"SS","country_code":"IT"}},{"type":"Feature","geometry":{"type":"Point","coordinates":[8.82114,40.74829]},"properties":{"id":137649,"name":"Chiaramonti","state_code":"SS","country_code":"IT"}},{"type":"Feature","geometry":{"type":"Point","coordinates":[8.82398,40.92847]},"properties":{"id":137827,"name":"Codaruina","state_code":"SS","country_code":"IT"}},{"type":"Feature","geometry":{"type":"Point","coordinates":[8.6814,40.65603]},"properties":{"id":137838,"name":"Codrongianos","state_code":"SS","country_code":"IT"}},{"type":"Feature","geometry":{"type":"Point","coordinates":[8.71578,40.43068]},"properties":{"id":138089,"name":"Cossoine","state_code":"SS","country_code":"IT"}},{"type":"Feature","geometry":{"type":"Point","coordinates":[8.94418,40.79244]},"properties":{"id":138377,"name":"Erula","state_code":"SS","country_code":"IT"}},{"type":"Feature","geometry":{"type":"Point","coordinates":[8.98983,40.38456]},"properties":{"id":138385,"name":"Esporlatu","state_code":"SS","country_code":"IT"}},{"type":"Feature","geometry":{"type":"Point","coordinates":[8.66548,40.649]},"properties":{"id":138566,"name":"Florinas","state_code":"SS","country_code":"IT"}},{"type":"Feature","geometry":{"type":"Point","coordinates":[8.75175,40.45224]},"properties":{"id":138950,"name":"Giave","state_code":"SS","country_code":"IT"}},{"type":"Feature","geometry":{"type":"Point","coordinates":[9.63333,40.98333]},"properties":{"id":139014,"name":"Golfo Aranci","state_code":"SS","country_code":"IT"}},{"type":"Feature","geometry":{"type":"Point","coordinates":[9.0017,40.35271]},"properties":{"id":139196,"name":"Illorai","state_code":"SS","country_code":"IT"}},{"type":"Feature","geometry":{"type":"Point","coordinates":[8.90118,40.54398]},"properties":{"id":139269,"name":"Ittireddu","state_code":"SS","country_code":"IT"}},{"type":"Feature","geometry":{"type":"Point","coordinates":[8.56976,40.59151]},"properties":{"id":139270,"name":"Ittiri","state_code":"SS","country_code":"IT"}},{"type":"Feature","geometry":{"type":"Point","coordinates":[9.01223,39.14429]},"properties":{"id":139293,"name":"La Maddalena","state_code":"SS","country_code":"IT"}},{"type":"Feature","geometry":{"type":"Point","coordinates":[8.8365,40.81705]},"properties":{"id":139319,"name":"Laerru","state_code":"SS","country_code":"IT"}},{"type":"Feature","geometry":{"type":"Point","coordinates":[8.489,40.76338]},"properties":{"id":139491,"name":"Li Punti-San Giovanni","state_code":"SS","country_code":"IT"}},{"type":"Feature","geometry":{"type":"Point","coordinates":[9.4982,40.84262]},"properties":{"id":139577,"name":"Loiri Porto San Paolo","state_code":"SS","country_code":"IT"}},{"type":"Feature","geometry":{"type":"Point","coordinates":[8.68555,40.90184]},"properties":{"id":139627,"name":"Lu Bagnu","state_code":"SS","country_code":"IT"}},{"type":"Feature","geometry":{"type":"Point","coordinates":[9.20553,41.04681]},"properties":{"id":139663,"name":"Luogosanto","state_code":"SS","country_code":"IT"}},{"type":"Feature","geometry":{"type":"Point","coordinates":[9.1748,40.93643]},"properties":{"id":139668,"name":"Luras","state_code":"SS","country_code":"IT"}},{"type":"Feature","geometry":{"type":"Point","coordinates":[8.63664,40.41019]},"properties":{"id":139817,"name":"Mara","state_code":"SS","country_code":"IT"}},{"type":"Feature","geometry":{"type":"Point","coordinates":[8.80897,40.77804]},"properties":{"id":139939,"name":"Martis","state_code":"SS","country_code":"IT"}},{"type":"Feature","geometry":{"type":"Point","coordinates":[8.56071,40.47206]},"properties":{"id":140467,"name":"Monteleone Rocca Doria","state_code":"SS","country_code":"IT"}},{"type":"Feature","geometry":{"type":"Point","coordinates":[9.32553,40.80715]},"properties":{"id":140553,"name":"Monti","state_code":"SS","country_code":"IT"}},{"type":"Feature","geometry":{"type":"Point","coordinates":[8.83302,40.54745]},"properties":{"id":140609,"name":"Mores","state_code":"SS","country_code":"IT"}},{"type":"Feature","geometry":{"type":"Point","coordinates":[8.6178,40.67902]},"properties":{"id":140695,"name":"Muros","state_code":"SS","country_code":"IT"}},{"type":"Feature","geometry":{"type":"Point","coordinates":[9.02142,40.55736]},"properties":{"id":140843,"name":"Nughedu San Nicolò","state_code":"SS","country_code":"IT"}},{"type":"Feature","geometry":{"type":"Point","coordinates":[9.19076,40.46266]},"properties":{"id":140845,"name":"Nule","state_code":"SS","country_code":"IT"}},{"type":"Feature","geometry":{"type":"Point","coordinates":[8.74358,40.78447]},"properties":{"id":140846,"name":"Nulvi","state_code":"SS","country_code":"IT"}},{"type":"Feature","geometry":{"type":"Point","coordinates":[9.49802,40.92337]},"properties":{"id":140884,"name":"Olbia","state_code":"SS","country_code":"IT"}},{"type":"Feature","geometry":{"type":"Point","coordinates":[8.38021,40.65156]},"properties":{"id":140908,"name":"Olmedo","state_code":"SS","country_code":"IT"}},{"type":"Feature","geometry":{"type":"Point","coordinates":[9.10102,40.71977]},"properties":{"id":141002,"name":"Oschiri","state_code":"SS","country_code":"IT"}},{"type":"Feature","geometry":{"type":"Point","coordinates":[8.67113,40.74349]},"properties":{"id":141006,"name":"Osilo","state_code":"SS","country_code":"IT"}},{"type":"Feature","geometry":{"type":"Point","coordinates":[8.59254,40.67483]},"properties":{"id":141026,"name":"Ossi","state_code":"SS","country_code":"IT"}},{"type":"Feature","geometry":{"type":"Point","coordinates":[8.47543,40.78525]},"properties":{"id":141049,"name":"Ottava","state_code":"SS","country_code":"IT"}},{"type":"Feature","geometry":{"type":"Point","coordinates":[9.0034,40.5863]},"properties":{"id":141062,"name":"Ozieri","state_code":"SS","country_code":"IT"}},{"type":"Feature","geometry":{"type":"Point","coordinates":[8.62992,40.39635]},"properties":{"id":141086,"name":"Padria","state_code":"SS","country_code":"IT"}},{"type":"Feature","geometry":{"type":"Point","coordinates":[9.521,40.76619]},"properties":{"id":141087,"name":"Padru","state_code":"SS","country_code":"IT"}},{"type":"Feature","geometry":{"type":"Point","coordinates":[9.3819,41.17936]},"properties":{"id":58225,"name":"Palau","state_code":"SS","country_code":"IT"}},{"type":"Feature","geometry":{"type":"Point","coordinates":[9.11129,40.58067]},"properties":{"id":58349,"name":"Pattada","state_code":"SS","country_code":"IT"}},{"type":"Feature","geometry":{"type":"Point","coordinates":[8.88354,40.83231]},"properties":{"id":58421,"name":"Perfugas","state_code":"SS","country_code":"IT"}},{"type":"Feature","geometry":{"type":"Point","coordinates":[8.74962,40.67068]},"properties":{"id":58739,"name":"Ploaghe","state_code":"SS","country_code":"IT"}},{"type":"Feature","geometry":{"type":"Point","coordinates":[9.53267,41.14063]},"properties":{"id":58925,"name":"Porto Cervo","state_code":"SS","country_code":"IT"}},{"type":"Feature","geometry":{"type":"Point","coordinates":[8.40531,40.83375]},"properties":{"id":58938,"name":"Porto Torres","state_code":"SS","country_code":"IT"}},{"type":"Feature","geometry":{"type":"Point","coordinates":[8.65931,40.39767]},"properties":{"id":58987,"name":"Pozzomaggiore","state_code":"SS","country_code":"IT"}},{"type":"Feature","geometry":{"type":"Point","coordinates":[8.46063,40.56145]},"properties":{"id":59208,"name":"Putifigari","state_code":"SS","country_code":"IT"}},{"type":"Feature","geometry":{"type":"Point","coordinates":[8.58571,40.48439]},"properties":{"id":59574,"name":"Romana","state_code":"SS","country_code":"IT"}},{"type":"Feature","geometry":{"type":"Point","coordinates":[8.98841,40.61055]},"properties":{"id":60135,"name":"San Nicola","state_code":"SS","country_code":"IT"}},{"type":"Feature","geometry":{"type":"Point","coordinates":[9.66929,40.77354]},"properties":{"id":60253,"name":"San Teodoro","state_code":"SS","country_code":"IT"}},{"type":"Feature","geometry":{"type":"Point","coordinates":[9.30153,40.99146]},"properties":{"id":60384,"name":"Sant'Antonio di Gallura","state_code":"SS","country_code":"IT"}},{"type":"Feature","geometry":{"type":"Point","coordinates":[8.86383,40.90423]},"properties":{"id":60461,"name":"Santa Maria Coghinas","state_code":"SS","country_code":"IT"}},{"type":"Feature","geometry":{"type":"Point","coordinates":[9.18873,41.23859]},"properties":{"id":60495,"name":"Santa Teresa Gallura","state_code":"SS","country_code":"IT"}},{"type":"Feature","geometry":{"type":"Point","coordinates":[8.55552,40.72586]},"properties":{"id":60568,"name":"Sassari","state_code":"SS","country_code":"IT"}},{"type":"Feature","geometry":{"type":"Point","coordinates":[8.8167,40.85277]},"properties":{"id":60683,"name":"Sedini","state_code":"SS","country_code":"IT"}},{"type":"Feature","geometry":{"type":"Point","coordinates":[8.72542,40.39846]},"properties":{"id":60713,"name":"Semestene","state_code":"SS","country_code":"IT"}},{"type":"Feature","geometry":{"type":"Point","coordinates":[8.59285,40.7878]},"properties":{"id":60730,"name":"Sennori","state_code":"SS","country_code":"IT"}},{"type":"Feature","geometry":{"type":"Point","coordinates":[8.72835,40.57483]},"properties":{"id":60850,"name":"Siligo","state_code":"SS","country_code":"IT"}},{"type":"Feature","geometry":{"type":"Point","coordinates":[8.5757,40.79949]},"properties":{"id":60967,"name":"Sorso","state_code":"SS","country_code":"IT"}},{"type":"Feature","geometry":{"type":"Point","coordinates":[8.21978,40.95201]},"properties":{"id":61077,"name":"Stintino","state_code":"SS","country_code":"IT"}},{"type":"Feature","geometry":{"type":"Point","coordinates":[9.35328,40.87575]},"properties":{"id":61207,"name":"Telti","state_code":"SS","country_code":"IT"}},{"type":"Feature","geometry":{"type":"Point","coordinates":[9.10456,40.90068]},"properties":{"id":61210,"name":"Tempio Pausania","state_code":"SS","country_code":"IT"}},{"type":"Feature","geometry":{"type":"Point","coordinates":[8.71467,40.86652]},"properties":{"id":61222,"name":"Tergu","state_code":"SS","country_code":"IT"}},{"type":"Feature","geometry":{"type":"Point","coordinates":[8.72001,40.52398]},"properties":{"id":61272,"name":"Thiesi","state_code":"SS","country_code":"IT"}},{"type":"Feature","geometry":{"type":"Point","coordinates":[8.56127,40.67832]},"properties":{"id":61286,"name":"Tissi","state_code":"SS","country_code":"IT"}},{"type":"Feature","geometry":{"type":"Point","coordinates":[8.76532,40.51296]},"properties":{"id":61342,"name":"Torralba","state_code":"SS","country_code":"IT"}},{"type":"Feature","geometry":{"type":"Point","coordinates":[8.91562,40.98377]},"properties":{"id":61531,"name":"Trinità d'Agultu e Vignola","state_code":"SS","country_code":"IT"}},{"type":"Feature","geometry":{"type":"Point","coordinates":[8.98392,40.73246]},"properties":{"id":61568,"name":"Tula","state_code":"SS","country_code":"IT"}},{"type":"Feature","geometry":{"type":"Point","coordinates":[8.48881,40.63841]},"properties":{"id":61607,"name":"Uri","state_code":"SS","country_code":"IT"}},{"type":"Feature","geometry":{"type":"Point","coordinates":[8.53919,40.66416]},"properties":{"id":61612,"name":"Usini","state_code":"SS","country_code":"IT"}},{"type":"Feature","geometry":{"type":"Point","coordinates":[8.82321,40.92867]},"properties":{"id":61706,"name":"Valledoria","state_code":"SS","country_code":"IT"}},{"type":"Feature","geometry":{"type":"Point","coordinates":[8.89009,40.91259]},"properties":{"id":61929,"name":"Viddalba","state_code":"SS","country_code":"IT"}},{"type":"Feature","geometry":{"type":"Point","coordinates":[8.47115,40.50264]},"properties":{"id":62101,"name":"Villanova Monteleone","state_code":"SS","country_code":"IT"}}]}