{"type":"FeatureCollection","features":[{"type":"Feature","geometry":{"type":"Point","coordinates":[15.22121,37.24065]},"properties":{"id":135685,"name":"Augusta","state_code":"SR","country_code":"IT"}},{"type":"Feature","geometry":{"type":"Point","coordinates":[15.13937,36.9084]},"properties":{"id":135713,"name":"Avola","state_code":"SR","country_code":"IT"}},{"type":"Feature","geometry":{"type":"Point","coordinates":[15.21314,37.08839]},"properties":{"id":135960,"name":"Belvedere","state_code":"SR","country_code":"IT"}},{"type":"Feature","geometry":{"type":"Point","coordinates":[15.18836,37.28191]},"properties":{"id":136361,"name":"Brucoli","state_code":"SR","country_code":"IT"}},{"type":"Feature","geometry":{"type":"Point","coordinates":[14.85222,37.12494]},"properties":{"id":136384,"name":"Buccheri","state_code":"SR","country_code":"IT"}},{"type":"Feature","geometry":{"type":"Point","coordinates":[14.88499,37.08604]},"properties":{"id":136423,"name":"Buscemi","state_code":"SR","country_code":"IT"}},{"type":"Feature","geometry":{"type":"Point","coordinates":[15.06388,37.03171]},"properties":{"id":136711,"name":"Canicattini Bagni","state_code":"SR","country_code":"IT"}},{"type":"Feature","geometry":{"type":"Point","coordinates":[15.0102,37.28071]},"properties":{"id":136886,"name":"Carlentini","state_code":"SR","country_code":"IT"}},{"type":"Feature","geometry":{"type":"Point","coordinates":[15.27195,37.0376]},"properties":{"id":136931,"name":"Carrozziere","state_code":"SR","country_code":"IT"}},{"type":"Feature","geometry":{"type":"Point","coordinates":[14.94697,37.10571]},"properties":{"id":137102,"name":"Cassaro","state_code":"SR","country_code":"IT"}},{"type":"Feature","geometry":{"type":"Point","coordinates":[15.20061,36.97862]},"properties":{"id":137103,"name":"Cassibile","state_code":"SR","country_code":"IT"}},{"type":"Feature","geometry":{"type":"Point","coordinates":[15.21172,37.10444]},"properties":{"id":137771,"name":"Città Giardino","state_code":"SR","country_code":"IT"}},{"type":"Feature","geometry":{"type":"Point","coordinates":[14.93881,37.11978]},"properties":{"id":138481,"name":"Ferla","state_code":"SR","country_code":"IT"}},{"type":"Feature","geometry":{"type":"Point","coordinates":[15.15332,37.08343]},"properties":{"id":138565,"name":"Floridia","state_code":"SR","country_code":"IT"}},{"type":"Feature","geometry":{"type":"Point","coordinates":[14.87488,37.22477]},"properties":{"id":138703,"name":"Francofonte","state_code":"SR","country_code":"IT"}},{"type":"Feature","geometry":{"type":"Point","coordinates":[14.99737,37.28556]},"properties":{"id":139454,"name":"Lentini","state_code":"SR","country_code":"IT"}},{"type":"Feature","geometry":{"type":"Point","coordinates":[15.1302,37.17821]},"properties":{"id":140047,"name":"Melilli","state_code":"SR","country_code":"IT"}},{"type":"Feature","geometry":{"type":"Point","coordinates":[15.06977,36.89244]},"properties":{"id":140812,"name":"Noto","state_code":"SR","country_code":"IT"}},{"type":"Feature","geometry":{"type":"Point","coordinates":[15.09019,36.71522]},"properties":{"id":141071,"name":"Pachino","state_code":"SR","country_code":"IT"}},{"type":"Feature","geometry":{"type":"Point","coordinates":[14.90593,37.06261]},"properties":{"id":58233,"name":"Palazzolo Acreide","state_code":"SR","country_code":"IT"}},{"type":"Feature","geometry":{"type":"Point","coordinates":[14.93654,37.19182]},"properties":{"id":58373,"name":"Pedagaggi","state_code":"SR","country_code":"IT"}},{"type":"Feature","geometry":{"type":"Point","coordinates":[15.13378,36.68219]},"properties":{"id":58948,"name":"Portopalo di Capo Passero","state_code":"SR","country_code":"IT"}},{"type":"Feature","geometry":{"type":"Point","coordinates":[15.18248,37.15512]},"properties":{"id":59081,"name":"Priolo Gargallo","state_code":"SR","country_code":"IT"}},{"type":"Feature","geometry":{"type":"Point","coordinates":[14.95132,36.82145]},"properties":{"id":59643,"name":"Rosolini","state_code":"SR","country_code":"IT"}},{"type":"Feature","geometry":{"type":"Point","coordinates":[15.28664,37.07542]},"properties":{"id":60871,"name":"Siracusa","state_code":"SR","country_code":"IT"}},{"type":"Feature","geometry":{"type":"Point","coordinates":[15.11988,37.10136]},"properties":{"id":60903,"name":"Solarino","state_code":"SR","country_code":"IT"}},{"type":"Feature","geometry":{"type":"Point","coordinates":[15.02998,37.15881]},"properties":{"id":60968,"name":"Sortino","state_code":"SR","country_code":"IT"}},{"type":"Feature","geometry":{"type":"Point","coordinates":[15.09087,37.25132]},"properties":{"id":62137,"name":"Villasmundo","state_code":"SR","country_code":"IT"}}]}