{"type":"FeatureCollection","features":[{"type":"Feature","geometry":{"type":"Point","coordinates":[12.54275,42.68915]},"properties":{"id":135275,"name":"Acquasparta","state_code":"TR","country_code":"IT"}},{"type":"Feature","geometry":{"type":"Point","coordinates":[11.97451,42.81174]},"properties":{"id":135417,"name":"Allerona","state_code":"TR","country_code":"IT"}},{"type":"Feature","geometry":{"type":"Point","coordinates":[12.29775,42.59084]},"properties":{"id":135447,"name":"Alviano","state_code":"TR","country_code":"IT"}},{"type":"Feature","geometry":{"type":"Point","coordinates":[12.42076,42.55177]},"properties":{"id":135468,"name":"Amelia","state_code":"TR","country_code":"IT"}},{"type":"Feature","geometry":{"type":"Point","coordinates":[12.76714,42.58266]},"properties":{"id":135635,"name":"Arrone","state_code":"TR","country_code":"IT"}},{"type":"Feature","geometry":{"type":"Point","coordinates":[12.29455,42.51505]},"properties":{"id":135681,"name":"Attigliano","state_code":"TR","country_code":"IT"}},{"type":"Feature","geometry":{"type":"Point","coordinates":[12.42571,42.65303]},"properties":{"id":135710,"name":"Avigliano Umbro","state_code":"TR","country_code":"IT"}},{"type":"Feature","geometry":{"type":"Point","coordinates":[12.21762,42.67324]},"properties":{"id":135880,"name":"Baschi","state_code":"TR","country_code":"IT"}},{"type":"Feature","geometry":{"type":"Point","coordinates":[12.56771,42.40421]},"properties":{"id":136559,"name":"Calvi dell'Umbria","state_code":"TR","country_code":"IT"}},{"type":"Feature","geometry":{"type":"Point","coordinates":[11.97717,42.70697]},"properties":{"id":137140,"name":"Castel Giorgio","state_code":"TR","country_code":"IT"}},{"type":"Feature","geometry":{"type":"Point","coordinates":[12.00072,42.75359]},"properties":{"id":137159,"name":"Castel Viscardo","state_code":"TR","country_code":"IT"}},{"type":"Feature","geometry":{"type":"Point","coordinates":[12.5,42.66667]},"properties":{"id":137319,"name":"Casteltodino","state_code":"TR","country_code":"IT"}},{"type":"Feature","geometry":{"type":"Point","coordinates":[12.134,42.73356]},"properties":{"id":137713,"name":"Ciconia","state_code":"TR","country_code":"IT"}},{"type":"Feature","geometry":{"type":"Point","coordinates":[12.0154,42.87267]},"properties":{"id":138397,"name":"Fabro","state_code":"TR","country_code":"IT"}},{"type":"Feature","geometry":{"type":"Point","coordinates":[12.04624,42.87605]},"properties":{"id":138398,"name":"Fabro Scalo","state_code":"TR","country_code":"IT"}},{"type":"Feature","geometry":{"type":"Point","coordinates":[12.78726,42.62027]},"properties":{"id":138479,"name":"Ferentillo","state_code":"TR","country_code":"IT"}},{"type":"Feature","geometry":{"type":"Point","coordinates":[12.06801,42.83194]},"properties":{"id":138506,"name":"Ficulle","state_code":"TR","country_code":"IT"}},{"type":"Feature","geometry":{"type":"Point","coordinates":[12.45576,42.54218]},"properties":{"id":138658,"name":"Fornole","state_code":"TR","country_code":"IT"}},{"type":"Feature","geometry":{"type":"Point","coordinates":[12.33015,42.50988]},"properties":{"id":138976,"name":"Giove","state_code":"TR","country_code":"IT"}},{"type":"Feature","geometry":{"type":"Point","coordinates":[12.29928,42.6237]},"properties":{"id":139158,"name":"Guardea","state_code":"TR","country_code":"IT"}},{"type":"Feature","geometry":{"type":"Point","coordinates":[12.33336,42.57592]},"properties":{"id":139647,"name":"Lugnano in Teverina","state_code":"TR","country_code":"IT"}},{"type":"Feature","geometry":{"type":"Point","coordinates":[12.48811,42.65087]},"properties":{"id":140404,"name":"Montecastrilli","state_code":"TR","country_code":"IT"}},{"type":"Feature","geometry":{"type":"Point","coordinates":[12.28803,42.66234]},"properties":{"id":140409,"name":"Montecchio","state_code":"TR","country_code":"IT"}},{"type":"Feature","geometry":{"type":"Point","coordinates":[12.76376,42.59835]},"properties":{"id":140447,"name":"Montefranco","state_code":"TR","country_code":"IT"}},{"type":"Feature","geometry":{"type":"Point","coordinates":[12.09212,42.91973]},"properties":{"id":140450,"name":"Montegabbione","state_code":"TR","country_code":"IT"}},{"type":"Feature","geometry":{"type":"Point","coordinates":[12.05347,42.92171]},"properties":{"id":140469,"name":"Monteleone d'Orvieto","state_code":"TR","country_code":"IT"}},{"type":"Feature","geometry":{"type":"Point","coordinates":[12.52758,42.51956]},"properties":{"id":140719,"name":"Narni","state_code":"TR","country_code":"IT"}},{"type":"Feature","geometry":{"type":"Point","coordinates":[12.5168,42.5362]},"properties":{"id":140720,"name":"Narni Scalo","state_code":"TR","country_code":"IT"}},{"type":"Feature","geometry":{"type":"Point","coordinates":[12.11249,42.71924]},"properties":{"id":140993,"name":"Orvieto","state_code":"TR","country_code":"IT"}},{"type":"Feature","geometry":{"type":"Point","coordinates":[12.13402,42.72088]},"properties":{"id":140994,"name":"Orvieto Scalo","state_code":"TR","country_code":"IT"}},{"type":"Feature","geometry":{"type":"Point","coordinates":[12.47737,42.42079]},"properties":{"id":141046,"name":"Otricoli","state_code":"TR","country_code":"IT"}},{"type":"Feature","geometry":{"type":"Point","coordinates":[12.11026,42.86624]},"properties":{"id":58314,"name":"Parrano","state_code":"TR","country_code":"IT"}},{"type":"Feature","geometry":{"type":"Point","coordinates":[12.35845,42.49342]},"properties":{"id":58404,"name":"Penna in Teverina","state_code":"TR","country_code":"IT"}},{"type":"Feature","geometry":{"type":"Point","coordinates":[12.84437,42.58423]},"properties":{"id":58792,"name":"Polino","state_code":"TR","country_code":"IT"}},{"type":"Feature","geometry":{"type":"Point","coordinates":[12.10331,42.68099]},"properties":{"id":58902,"name":"Porano","state_code":"TR","country_code":"IT"}},{"type":"Feature","geometry":{"type":"Point","coordinates":[12.54528,42.61378]},"properties":{"id":59931,"name":"San Gemini","state_code":"TR","country_code":"IT"}},{"type":"Feature","geometry":{"type":"Point","coordinates":[12.26853,42.86886]},"properties":{"id":60261,"name":"San Venanzo","state_code":"TR","country_code":"IT"}},{"type":"Feature","geometry":{"type":"Point","coordinates":[12.09569,42.72631]},"properties":{"id":60828,"name":"Sferracavallo","state_code":"TR","country_code":"IT"}},{"type":"Feature","geometry":{"type":"Point","coordinates":[12.03726,42.7855]},"properties":{"id":61055,"name":"Stazione di Allerona","state_code":"TR","country_code":"IT"}},{"type":"Feature","geometry":{"type":"Point","coordinates":[12.6477,42.51196]},"properties":{"id":61098,"name":"Stroncone","state_code":"TR","country_code":"IT"}},{"type":"Feature","geometry":{"type":"Point","coordinates":[12.64329,42.56335]},"properties":{"id":61232,"name":"Terni","state_code":"TR","country_code":"IT"}}]}