{"type":"FeatureCollection","features":[{"type":"Feature","geometry":{"type":"Point","coordinates":[13.36038,45.87276]},"properties":{"id":135327,"name":"Aiello del Friuli","state_code":"UD","country_code":"IT"}},{"type":"Feature","geometry":{"type":"Point","coordinates":[13.09368,46.37367]},"properties":{"id":135459,"name":"Amaro","state_code":"UD","country_code":"IT"}},{"type":"Feature","geometry":{"type":"Point","coordinates":[12.79634,46.41459]},"properties":{"id":135474,"name":"Ampezzo","state_code":"UD","country_code":"IT"}},{"type":"Feature","geometry":{"type":"Point","coordinates":[12.95829,46.23311]},"properties":{"id":135493,"name":"Anduins","state_code":"UD","country_code":"IT"}},{"type":"Feature","geometry":{"type":"Point","coordinates":[13.36779,45.7683]},"properties":{"id":135545,"name":"Aquileia","state_code":"UD","country_code":"IT"}},{"type":"Feature","geometry":{"type":"Point","coordinates":[13.0204,46.48021]},"properties":{"id":135641,"name":"Arta Terme","state_code":"UD","country_code":"IT"}},{"type":"Feature","geometry":{"type":"Point","coordinates":[13.15399,46.23929]},"properties":{"id":135642,"name":"Artegna","state_code":"UD","country_code":"IT"}},{"type":"Feature","geometry":{"type":"Point","coordinates":[13.31127,46.19022]},"properties":{"id":135682,"name":"Attimis","state_code":"UD","country_code":"IT"}},{"type":"Feature","geometry":{"type":"Point","coordinates":[13.28562,45.88383]},"properties":{"id":135752,"name":"Bagnaria Arsa","state_code":"UD","country_code":"IT"}},{"type":"Feature","geometry":{"type":"Point","coordinates":[13.21718,46.02527]},"properties":{"id":135877,"name":"Basaldella","state_code":"UD","country_code":"IT"}},{"type":"Feature","geometry":{"type":"Point","coordinates":[13.07,46.01417]},"properties":{"id":135887,"name":"Basiliano","state_code":"UD","country_code":"IT"}},{"type":"Feature","geometry":{"type":"Point","coordinates":[13.09306,46.02278]},"properties":{"id":135888,"name":"Basiliano-Vissandone","state_code":"UD","country_code":"IT"}},{"type":"Feature","geometry":{"type":"Point","coordinates":[13.05606,45.94463]},"properties":{"id":136001,"name":"Bertiolo","state_code":"UD","country_code":"IT"}},{"type":"Feature","geometry":{"type":"Point","coordinates":[13.03616,45.63565]},"properties":{"id":136042,"name":"Bibione","state_code":"UD","country_code":"IT"}},{"type":"Feature","geometry":{"type":"Point","coordinates":[13.253,45.93211]},"properties":{"id":136044,"name":"Bicinicco","state_code":"UD","country_code":"IT"}},{"type":"Feature","geometry":{"type":"Point","coordinates":[13.10529,46.31528]},"properties":{"id":136147,"name":"Bordano","state_code":"UD","country_code":"IT"}},{"type":"Feature","geometry":{"type":"Point","coordinates":[13.14724,46.03446]},"properties":{"id":136316,"name":"Bressa","state_code":"UD","country_code":"IT"}},{"type":"Feature","geometry":{"type":"Point","coordinates":[13.11691,46.21222]},"properties":{"id":136399,"name":"Buia","state_code":"UD","country_code":"IT"}},{"type":"Feature","geometry":{"type":"Point","coordinates":[13.33354,46.01098]},"properties":{"id":136441,"name":"Buttrio","state_code":"UD","country_code":"IT"}},{"type":"Feature","geometry":{"type":"Point","coordinates":[12.94489,45.92767]},"properties":{"id":136591,"name":"Camino al Tagliamento","state_code":"UD","country_code":"IT"}},{"type":"Feature","geometry":{"type":"Point","coordinates":[13.1575,46.01952]},"properties":{"id":136655,"name":"Campoformido","state_code":"UD","country_code":"IT"}},{"type":"Feature","geometry":{"type":"Point","coordinates":[13.39667,45.86389]},"properties":{"id":136664,"name":"Campolongo al Torre","state_code":"UD","country_code":"IT"}},{"type":"Feature","geometry":{"type":"Point","coordinates":[13.38944,45.86306]},"properties":{"id":136665,"name":"Campolongo al Torre-Cavenzano","state_code":"UD","country_code":"IT"}},{"type":"Feature","geometry":{"type":"Point","coordinates":[13.18874,45.80321]},"properties":{"id":136887,"name":"Carlino","state_code":"UD","country_code":"IT"}},{"type":"Feature","geometry":{"type":"Point","coordinates":[13.19236,46.17345]},"properties":{"id":137093,"name":"Cassacco","state_code":"UD","country_code":"IT"}},{"type":"Feature","geometry":{"type":"Point","coordinates":[13.18167,45.91247]},"properties":{"id":137367,"name":"Castions di Strada","state_code":"UD","country_code":"IT"}},{"type":"Feature","geometry":{"type":"Point","coordinates":[13.04075,46.36793]},"properties":{"id":137428,"name":"Cavazzo Carnico","state_code":"UD","country_code":"IT"}},{"type":"Feature","geometry":{"type":"Point","coordinates":[12.99219,46.52745]},"properties":{"id":137527,"name":"Cercivento","state_code":"UD","country_code":"IT"}},{"type":"Feature","geometry":{"type":"Point","coordinates":[13.33929,45.82082]},"properties":{"id":137594,"name":"Cervignano del Friuli","state_code":"UD","country_code":"IT"}},{"type":"Feature","geometry":{"type":"Point","coordinates":[13.01555,45.71884]},"properties":{"id":137608,"name":"Cesarolo","state_code":"UD","country_code":"IT"}},{"type":"Feature","geometry":{"type":"Point","coordinates":[12.99155,46.38877]},"properties":{"id":137658,"name":"Chiaulis","state_code":"UD","country_code":"IT"}},{"type":"Feature","geometry":{"type":"Point","coordinates":[13.30552,46.40663]},"properties":{"id":137690,"name":"Chiusaforte","state_code":"UD","country_code":"IT"}},{"type":"Feature","geometry":{"type":"Point","coordinates":[13.42861,46.09019]},"properties":{"id":137782,"name":"Cividale del Friuli","state_code":"UD","country_code":"IT"}},{"type":"Feature","geometry":{"type":"Point","coordinates":[13.59399,46.1562]},"properties":{"id":137814,"name":"Clodig","state_code":"UD","country_code":"IT"}},{"type":"Feature","geometry":{"type":"Point","coordinates":[12.97985,45.96469]},"properties":{"id":137837,"name":"Codroipo","state_code":"UD","country_code":"IT"}},{"type":"Feature","geometry":{"type":"Point","coordinates":[13.13861,46.16472]},"properties":{"id":137906,"name":"Colloredo di Monte Albano","state_code":"UD","country_code":"IT"}},{"type":"Feature","geometry":{"type":"Point","coordinates":[13.12278,46.15861]},"properties":{"id":137907,"name":"Colloredo di Monte Albano-Lauzzana","state_code":"UD","country_code":"IT"}},{"type":"Feature","geometry":{"type":"Point","coordinates":[13.14394,46.05124]},"properties":{"id":137908,"name":"Colloredo di Prato","state_code":"UD","country_code":"IT"}},{"type":"Feature","geometry":{"type":"Point","coordinates":[13.20282,46.091]},"properties":{"id":137930,"name":"Colugna","state_code":"UD","country_code":"IT"}},{"type":"Feature","geometry":{"type":"Point","coordinates":[12.86619,46.51614]},"properties":{"id":137938,"name":"Comeglians","state_code":"UD","country_code":"IT"}},{"type":"Feature","geometry":{"type":"Point","coordinates":[13.44368,45.9911]},"properties":{"id":138034,"name":"Corno di Rosazzo","state_code":"UD","country_code":"IT"}},{"type":"Feature","geometry":{"type":"Point","coordinates":[13.02028,46.09636]},"properties":{"id":138077,"name":"Coseano","state_code":"UD","country_code":"IT"}},{"type":"Feature","geometry":{"type":"Point","coordinates":[13.62287,46.17403]},"properties":{"id":138123,"name":"Cras","state_code":"UD","country_code":"IT"}},{"type":"Feature","geometry":{"type":"Point","coordinates":[12.94009,46.08392]},"properties":{"id":138266,"name":"Dignano","state_code":"UD","country_code":"IT"}},{"type":"Feature","geometry":{"type":"Point","coordinates":[13.31502,46.44793]},"properties":{"id":138278,"name":"Dogna","state_code":"UD","country_code":"IT"}},{"type":"Feature","geometry":{"type":"Point","coordinates":[12.87944,46.40833]},"properties":{"id":138359,"name":"Enemonzo-Quinis","state_code":"UD","country_code":"IT"}},{"type":"Feature","geometry":{"type":"Point","coordinates":[13.34463,46.14931]},"properties":{"id":138399,"name":"Faedis","state_code":"UD","country_code":"IT"}},{"type":"Feature","geometry":{"type":"Point","coordinates":[13.09361,46.10698]},"properties":{"id":138405,"name":"Fagagna","state_code":"UD","country_code":"IT"}},{"type":"Feature","geometry":{"type":"Point","coordinates":[13.40964,45.79202]},"properties":{"id":138554,"name":"Fiumicello","state_code":"UD","country_code":"IT"}},{"type":"Feature","geometry":{"type":"Point","coordinates":[12.98424,46.05837]},"properties":{"id":138559,"name":"Flaibano","state_code":"UD","country_code":"IT"}},{"type":"Feature","geometry":{"type":"Point","coordinates":[12.9747,46.22036]},"properties":{"id":138628,"name":"Forgaria nel Friuli","state_code":"UD","country_code":"IT"}},{"type":"Feature","geometry":{"type":"Point","coordinates":[12.7751,46.58615]},"properties":{"id":138653,"name":"Forni Avoltri","state_code":"UD","country_code":"IT"}},{"type":"Feature","geometry":{"type":"Point","coordinates":[12.58312,46.42028]},"properties":{"id":138654,"name":"Forni di Sopra","state_code":"UD","country_code":"IT"}},{"type":"Feature","geometry":{"type":"Point","coordinates":[12.6721,46.39379]},"properties":{"id":138655,"name":"Forni di Sotto","state_code":"UD","country_code":"IT"}},{"type":"Feature","geometry":{"type":"Point","coordinates":[13.12237,46.27405]},"properties":{"id":138893,"name":"Gemona","state_code":"UD","country_code":"IT"}},{"type":"Feature","geometry":{"type":"Point","coordinates":[13.24402,45.8974]},"properties":{"id":139016,"name":"Gonars","state_code":"UD","country_code":"IT"}},{"type":"Feature","geometry":{"type":"Point","coordinates":[12.68933,46.56755]},"properties":{"id":139070,"name":"Granvilla","state_code":"UD","country_code":"IT"}},{"type":"Feature","geometry":{"type":"Point","coordinates":[13.34611,45.91333]},"properties":{"id":139188,"name":"Ialmicco","state_code":"UD","country_code":"IT"}},{"type":"Feature","geometry":{"type":"Point","coordinates":[13.17906,46.25573]},"properties":{"id":139236,"name":"Isola","state_code":"UD","country_code":"IT"}},{"type":"Feature","geometry":{"type":"Point","coordinates":[13.00618,45.76859]},"properties":{"id":139392,"name":"Latisana","state_code":"UD","country_code":"IT"}},{"type":"Feature","geometry":{"type":"Point","coordinates":[12.93222,46.42397]},"properties":{"id":139395,"name":"Lauco","state_code":"UD","country_code":"IT"}},{"type":"Feature","geometry":{"type":"Point","coordinates":[13.28024,45.98134]},"properties":{"id":139407,"name":"Lauzacco","state_code":"UD","country_code":"IT"}},{"type":"Feature","geometry":{"type":"Point","coordinates":[13.14221,45.95656]},"properties":{"id":139475,"name":"Lestizza","state_code":"UD","country_code":"IT"}},{"type":"Feature","geometry":{"type":"Point","coordinates":[13.11727,45.6759]},"properties":{"id":139511,"name":"Lignano Sabbiadoro","state_code":"UD","country_code":"IT"}},{"type":"Feature","geometry":{"type":"Point","coordinates":[13.07547,46.54008]},"properties":{"id":139513,"name":"Ligosullo","state_code":"UD","country_code":"IT"}},{"type":"Feature","geometry":{"type":"Point","coordinates":[13.26922,46.27529]},"properties":{"id":139674,"name":"Lusevera","state_code":"UD","country_code":"IT"}},{"type":"Feature","geometry":{"type":"Point","coordinates":[13.19483,46.22369]},"properties":{"id":139738,"name":"Magnano in Riviera","state_code":"UD","country_code":"IT"}},{"type":"Feature","geometry":{"type":"Point","coordinates":[13.06162,46.18752]},"properties":{"id":139753,"name":"Majano","state_code":"UD","country_code":"IT"}},{"type":"Feature","geometry":{"type":"Point","coordinates":[13.43946,46.50679]},"properties":{"id":139757,"name":"Malborghetto","state_code":"UD","country_code":"IT"}},{"type":"Feature","geometry":{"type":"Point","coordinates":[13.37674,45.98843]},"properties":{"id":139812,"name":"Manzano","state_code":"UD","country_code":"IT"}},{"type":"Feature","geometry":{"type":"Point","coordinates":[13.16733,45.76353]},"properties":{"id":139822,"name":"Marano Lagunare","state_code":"UD","country_code":"IT"}},{"type":"Feature","geometry":{"type":"Point","coordinates":[13.13973,46.09313]},"properties":{"id":139930,"name":"Martignacco","state_code":"UD","country_code":"IT"}},{"type":"Feature","geometry":{"type":"Point","coordinates":[12.82341,46.40336]},"properties":{"id":140022,"name":"Mediis","state_code":"UD","country_code":"IT"}},{"type":"Feature","geometry":{"type":"Point","coordinates":[13.04432,46.05128]},"properties":{"id":140082,"name":"Mereto di Tomba","state_code":"UD","country_code":"IT"}},{"type":"Feature","geometry":{"type":"Point","coordinates":[13.52806,46.12389]},"properties":{"id":140089,"name":"Merso di Sopra","state_code":"UD","country_code":"IT"}},{"type":"Feature","geometry":{"type":"Point","coordinates":[13.19507,46.40651]},"properties":{"id":140196,"name":"Moggio di Sotto","state_code":"UD","country_code":"IT"}},{"type":"Feature","geometry":{"type":"Point","coordinates":[13.20139,46.41083]},"properties":{"id":140195,"name":"Moggio Udinese","state_code":"UD","country_code":"IT"}},{"type":"Feature","geometry":{"type":"Point","coordinates":[13.3727,46.09145]},"properties":{"id":140204,"name":"Moimacco","state_code":"UD","country_code":"IT"}},{"type":"Feature","geometry":{"type":"Point","coordinates":[13.16944,46.25111]},"properties":{"id":140500,"name":"Montenars","state_code":"UD","country_code":"IT"}},{"type":"Feature","geometry":{"type":"Point","coordinates":[13.17255,45.94553]},"properties":{"id":140640,"name":"Mortegliano","state_code":"UD","country_code":"IT"}},{"type":"Feature","geometry":{"type":"Point","coordinates":[13.124,46.11967]},"properties":{"id":140642,"name":"Moruzzo","state_code":"UD","country_code":"IT"}},{"type":"Feature","geometry":{"type":"Point","coordinates":[13.12751,45.81799]},"properties":{"id":140707,"name":"Muzzana del Turgnano","state_code":"UD","country_code":"IT"}},{"type":"Feature","geometry":{"type":"Point","coordinates":[13.26777,46.20659]},"properties":{"id":140770,"name":"Nimis","state_code":"UD","country_code":"IT"}},{"type":"Feature","geometry":{"type":"Point","coordinates":[13.38247,46.03862]},"properties":{"id":140973,"name":"Orsaria","state_code":"UD","country_code":"IT"}},{"type":"Feature","geometry":{"type":"Point","coordinates":[13.08453,46.25536]},"properties":{"id":141013,"name":"Osoppo","state_code":"UD","country_code":"IT"}},{"type":"Feature","geometry":{"type":"Point","coordinates":[12.86704,46.48409]},"properties":{"id":141056,"name":"Ovaro","state_code":"UD","country_code":"IT"}},{"type":"Feature","geometry":{"type":"Point","coordinates":[13.18377,46.11462]},"properties":{"id":58210,"name":"Pagnacco","state_code":"UD","country_code":"IT"}},{"type":"Feature","geometry":{"type":"Point","coordinates":[13.08776,45.79823]},"properties":{"id":58235,"name":"Palazzolo dello Stella","state_code":"UD","country_code":"IT"}},{"type":"Feature","geometry":{"type":"Point","coordinates":[13.30998,45.9054]},"properties":{"id":58255,"name":"Palmanova","state_code":"UD","country_code":"IT"}},{"type":"Feature","geometry":{"type":"Point","coordinates":[13.01586,46.53202]},"properties":{"id":58269,"name":"Paluzza","state_code":"UD","country_code":"IT"}},{"type":"Feature","geometry":{"type":"Point","coordinates":[13.1878,46.04667]},"properties":{"id":58322,"name":"Pasian di Prato","state_code":"UD","country_code":"IT"}},{"type":"Feature","geometry":{"type":"Point","coordinates":[13.18917,46.06889]},"properties":{"id":58334,"name":"Passons","state_code":"UD","country_code":"IT"}},{"type":"Feature","geometry":{"type":"Point","coordinates":[13.11886,46.53101]},"properties":{"id":58353,"name":"Paularo","state_code":"UD","country_code":"IT"}},{"type":"Feature","geometry":{"type":"Point","coordinates":[13.30367,45.99502]},"properties":{"id":58360,"name":"Pavia di Udine","state_code":"UD","country_code":"IT"}},{"type":"Feature","geometry":{"type":"Point","coordinates":[13.32304,45.97471]},"properties":{"id":58415,"name":"Percoto","state_code":"UD","country_code":"IT"}},{"type":"Feature","geometry":{"type":"Point","coordinates":[13.04379,45.72179]},"properties":{"id":58440,"name":"Pertegada","state_code":"UD","country_code":"IT"}},{"type":"Feature","geometry":{"type":"Point","coordinates":[12.80328,46.52037]},"properties":{"id":58599,"name":"Pieria-Prato Carnico","state_code":"UD","country_code":"IT"}},{"type":"Feature","geometry":{"type":"Point","coordinates":[13.10145,45.8357]},"properties":{"id":58743,"name":"Pocenia","state_code":"UD","country_code":"IT"}},{"type":"Feature","geometry":{"type":"Point","coordinates":[13.30622,46.5054]},"properties":{"id":58862,"name":"Pontebba","state_code":"UD","country_code":"IT"}},{"type":"Feature","geometry":{"type":"Point","coordinates":[13.21703,45.857]},"properties":{"id":58910,"name":"Porpetto","state_code":"UD","country_code":"IT"}},{"type":"Feature","geometry":{"type":"Point","coordinates":[13.29171,46.11568]},"properties":{"id":58972,"name":"Povoletto","state_code":"UD","country_code":"IT"}},{"type":"Feature","geometry":{"type":"Point","coordinates":[13.19724,45.98517]},"properties":{"id":58992,"name":"Pozzuolo del Friuli","state_code":"UD","country_code":"IT"}},{"type":"Feature","geometry":{"type":"Point","coordinates":[13.30223,46.03391]},"properties":{"id":58994,"name":"Pradamano","state_code":"UD","country_code":"IT"}},{"type":"Feature","geometry":{"type":"Point","coordinates":[13.30659,46.37364]},"properties":{"id":59025,"name":"Prato","state_code":"UD","country_code":"IT"}},{"type":"Feature","geometry":{"type":"Point","coordinates":[12.80886,46.52049]},"properties":{"id":59029,"name":"Prato Carnico","state_code":"UD","country_code":"IT"}},{"type":"Feature","geometry":{"type":"Point","coordinates":[13.07554,45.79694]},"properties":{"id":59041,"name":"Precenicco","state_code":"UD","country_code":"IT"}},{"type":"Feature","geometry":{"type":"Point","coordinates":[13.39461,46.06145]},"properties":{"id":59053,"name":"Premariacco","state_code":"UD","country_code":"IT"}},{"type":"Feature","geometry":{"type":"Point","coordinates":[12.86645,46.39411]},"properties":{"id":59060,"name":"Preone","state_code":"UD","country_code":"IT"}},{"type":"Feature","geometry":{"type":"Point","coordinates":[13.47921,46.04522]},"properties":{"id":59063,"name":"Prepotto","state_code":"UD","country_code":"IT"}},{"type":"Feature","geometry":{"type":"Point","coordinates":[13.48363,46.17376]},"properties":{"id":59202,"name":"Pulfero","state_code":"UD","country_code":"IT"}},{"type":"Feature","geometry":{"type":"Point","coordinates":[12.92138,46.52504]},"properties":{"id":59297,"name":"Ravascletto","state_code":"UD","country_code":"IT"}},{"type":"Feature","geometry":{"type":"Point","coordinates":[12.87165,46.43392]},"properties":{"id":59300,"name":"Raveo","state_code":"UD","country_code":"IT"}},{"type":"Feature","geometry":{"type":"Point","coordinates":[13.2232,46.13733]},"properties":{"id":59306,"name":"Reana del Roiale","state_code":"UD","country_code":"IT"}},{"type":"Feature","geometry":{"type":"Point","coordinates":[13.24653,46.14322]},"properties":{"id":59307,"name":"Reana del Rojale","state_code":"UD","country_code":"IT"}},{"type":"Feature","geometry":{"type":"Point","coordinates":[13.32358,46.08535]},"properties":{"id":59327,"name":"Remanzacco","state_code":"UD","country_code":"IT"}},{"type":"Feature","geometry":{"type":"Point","coordinates":[13.21796,46.39371]},"properties":{"id":59336,"name":"Resiutta","state_code":"UD","country_code":"IT"}},{"type":"Feature","geometry":{"type":"Point","coordinates":[12.84619,46.55393]},"properties":{"id":59380,"name":"Rigolato","state_code":"UD","country_code":"IT"}},{"type":"Feature","geometry":{"type":"Point","coordinates":[13.03222,46.12722]},"properties":{"id":59435,"name":"Rive d'Arcano","state_code":"UD","country_code":"IT"}},{"type":"Feature","geometry":{"type":"Point","coordinates":[13.0419,45.87575]},"properties":{"id":59438,"name":"Rivignano","state_code":"UD","country_code":"IT"}},{"type":"Feature","geometry":{"type":"Point","coordinates":[13.0111,46.11085]},"properties":{"id":59547,"name":"Rodeano","state_code":"UD","country_code":"IT"}},{"type":"Feature","geometry":{"type":"Point","coordinates":[12.99545,45.80792]},"properties":{"id":59598,"name":"Ronchis","state_code":"UD","country_code":"IT"}},{"type":"Feature","geometry":{"type":"Point","coordinates":[13.40177,45.83986]},"properties":{"id":59693,"name":"Ruda","state_code":"UD","country_code":"IT"}},{"type":"Feature","geometry":{"type":"Point","coordinates":[13.00726,46.15714]},"properties":{"id":59889,"name":"San Daniele del Friuli","state_code":"UD","country_code":"IT"}},{"type":"Feature","geometry":{"type":"Point","coordinates":[12.98344,46.17311]},"properties":{"id":59941,"name":"San Giacomo","state_code":"UD","country_code":"IT"}},{"type":"Feature","geometry":{"type":"Point","coordinates":[13.21088,45.82745]},"properties":{"id":59971,"name":"San Giorgio di Nogaro","state_code":"UD","country_code":"IT"}},{"type":"Feature","geometry":{"type":"Point","coordinates":[13.40182,45.97079]},"properties":{"id":59992,"name":"San Giovanni al Natisone","state_code":"UD","country_code":"IT"}},{"type":"Feature","geometry":{"type":"Point","coordinates":[13.53085,46.11913]},"properties":{"id":60029,"name":"San Leonardo","state_code":"UD","country_code":"IT"}},{"type":"Feature","geometry":{"type":"Point","coordinates":[13.48296,46.11444]},"properties":{"id":60188,"name":"San Pietro al Natisone","state_code":"UD","country_code":"IT"}},{"type":"Feature","geometry":{"type":"Point","coordinates":[13.41236,45.79039]},"properties":{"id":60257,"name":"San Valentino","state_code":"UD","country_code":"IT"}},{"type":"Feature","geometry":{"type":"Point","coordinates":[13.37588,45.89587]},"properties":{"id":60281,"name":"San Vito al Torre","state_code":"UD","country_code":"IT"}},{"type":"Feature","geometry":{"type":"Point","coordinates":[13.06569,46.09103]},"properties":{"id":60283,"name":"San Vito di Fagagna","state_code":"UD","country_code":"IT"}},{"type":"Feature","geometry":{"type":"Point","coordinates":[13.28911,45.93403]},"properties":{"id":60480,"name":"Santa Maria la Longa","state_code":"UD","country_code":"IT"}},{"type":"Feature","geometry":{"type":"Point","coordinates":[12.68421,46.56663]},"properties":{"id":60537,"name":"Sappada","state_code":"UD","country_code":"IT"}},{"type":"Feature","geometry":{"type":"Point","coordinates":[12.70852,46.46624]},"properties":{"id":60580,"name":"Sauris di Sotto","state_code":"UD","country_code":"IT"}},{"type":"Feature","geometry":{"type":"Point","coordinates":[13.53089,46.15846]},"properties":{"id":60596,"name":"Savogna","state_code":"UD","country_code":"IT"}},{"type":"Feature","geometry":{"type":"Point","coordinates":[12.97734,46.01396]},"properties":{"id":60680,"name":"Sedegliano","state_code":"UD","country_code":"IT"}},{"type":"Feature","geometry":{"type":"Point","coordinates":[13.30541,45.88749]},"properties":{"id":60821,"name":"Sevegliano","state_code":"UD","country_code":"IT"}},{"type":"Feature","geometry":{"type":"Point","coordinates":[13.32416,45.91134]},"properties":{"id":60975,"name":"Sottoselva","state_code":"UD","country_code":"IT"}},{"type":"Feature","geometry":{"type":"Point","coordinates":[13.57761,46.12689]},"properties":{"id":61091,"name":"Stregna","state_code":"UD","country_code":"IT"}},{"type":"Feature","geometry":{"type":"Point","coordinates":[12.99325,46.51206]},"properties":{"id":61134,"name":"Sutrio","state_code":"UD","country_code":"IT"}},{"type":"Feature","geometry":{"type":"Point","coordinates":[13.3415,46.24911]},"properties":{"id":61150,"name":"Taipana","state_code":"UD","country_code":"IT"}},{"type":"Feature","geometry":{"type":"Point","coordinates":[13.12199,45.9281]},"properties":{"id":61156,"name":"Talmassons","state_code":"UD","country_code":"IT"}},{"type":"Feature","geometry":{"type":"Point","coordinates":[13.21514,46.21251]},"properties":{"id":61166,"name":"Tarcento","state_code":"UD","country_code":"IT"}},{"type":"Feature","geometry":{"type":"Point","coordinates":[13.58689,46.50567]},"properties":{"id":61170,"name":"Tarvisio","state_code":"UD","country_code":"IT"}},{"type":"Feature","geometry":{"type":"Point","coordinates":[13.22251,46.10976]},"properties":{"id":61178,"name":"Tavagnacco","state_code":"UD","country_code":"IT"}},{"type":"Feature","geometry":{"type":"Point","coordinates":[13.05608,45.85416]},"properties":{"id":61215,"name":"Teor","state_code":"UD","country_code":"IT"}},{"type":"Feature","geometry":{"type":"Point","coordinates":[13.34177,45.79994]},"properties":{"id":61257,"name":"Terzo d'Aquileia","state_code":"UD","country_code":"IT"}},{"type":"Feature","geometry":{"type":"Point","coordinates":[13.02051,46.39996]},"properties":{"id":61302,"name":"Tolmezzo","state_code":"UD","country_code":"IT"}},{"type":"Feature","geometry":{"type":"Point","coordinates":[13.42933,46.12786]},"properties":{"id":61378,"name":"Torreano","state_code":"UD","country_code":"IT"}},{"type":"Feature","geometry":{"type":"Point","coordinates":[13.2805,45.82337]},"properties":{"id":61421,"name":"Torviscosa","state_code":"UD","country_code":"IT"}},{"type":"Feature","geometry":{"type":"Point","coordinates":[13.07545,46.28164]},"properties":{"id":61445,"name":"Trasaghis","state_code":"UD","country_code":"IT"}},{"type":"Feature","geometry":{"type":"Point","coordinates":[13.04292,46.53323]},"properties":{"id":61487,"name":"Treppo Carnico","state_code":"UD","country_code":"IT"}},{"type":"Feature","geometry":{"type":"Point","coordinates":[13.1535,46.19988]},"properties":{"id":61488,"name":"Treppo Grande","state_code":"UD","country_code":"IT"}},{"type":"Feature","geometry":{"type":"Point","coordinates":[13.21566,46.16058]},"properties":{"id":61521,"name":"Tricesimo","state_code":"UD","country_code":"IT"}},{"type":"Feature","geometry":{"type":"Point","coordinates":[13.34019,45.94601]},"properties":{"id":61543,"name":"Trivignano Udinese","state_code":"UD","country_code":"IT"}},{"type":"Feature","geometry":{"type":"Point","coordinates":[13.23715,46.0693]},"properties":{"id":61587,"name":"Udine","state_code":"UD","country_code":"IT"}},{"type":"Feature","geometry":{"type":"Point","coordinates":[12.99005,45.8863]},"properties":{"id":61772,"name":"Varmo","state_code":"UD","country_code":"IT"}},{"type":"Feature","geometry":{"type":"Point","coordinates":[13.13825,46.33031]},"properties":{"id":61830,"name":"Venzone","state_code":"UD","country_code":"IT"}},{"type":"Feature","geometry":{"type":"Point","coordinates":[12.92445,46.41368]},"properties":{"id":62027,"name":"Villa Santina","state_code":"UD","country_code":"IT"}},{"type":"Feature","geometry":{"type":"Point","coordinates":[13.39332,45.81378]},"properties":{"id":62031,"name":"Villa Vicentina","state_code":"UD","country_code":"IT"}},{"type":"Feature","geometry":{"type":"Point","coordinates":[12.97084,46.13226]},"properties":{"id":62090,"name":"Villanova","state_code":"UD","country_code":"IT"}},{"type":"Feature","geometry":{"type":"Point","coordinates":[13.34861,45.89194]},"properties":{"id":62173,"name":"Visco","state_code":"UD","country_code":"IT"}},{"type":"Feature","geometry":{"type":"Point","coordinates":[13.21694,46.0075]},"properties":{"id":62282,"name":"Zugliano-Terenzano-Cargnacco","state_code":"UD","country_code":"IT"}},{"type":"Feature","geometry":{"type":"Point","coordinates":[13.02589,46.4583]},"properties":{"id":62283,"name":"Zuglio","state_code":"UD","country_code":"IT"}}]}