{"type":"FeatureCollection","features":[{"type":"Feature","geometry":{"type":"Point","coordinates":[8.76833,46.03668]},"properties":{"id":135314,"name":"Agra","state_code":"VA","country_code":"IT"}},{"type":"Feature","geometry":{"type":"Point","coordinates":[8.80312,45.72698]},"properties":{"id":135383,"name":"Albizzate","state_code":"VA","country_code":"IT"}},{"type":"Feature","geometry":{"type":"Point","coordinates":[8.57861,45.77555]},"properties":{"id":135496,"name":"Angera","state_code":"VA","country_code":"IT"}},{"type":"Feature","geometry":{"type":"Point","coordinates":[8.86823,45.85578]},"properties":{"id":135569,"name":"Arcisate","state_code":"VA","country_code":"IT"}},{"type":"Feature","geometry":{"type":"Point","coordinates":[8.73509,45.68764]},"properties":{"id":135636,"name":"Arsago Seprio","state_code":"VA","country_code":"IT"}},{"type":"Feature","geometry":{"type":"Point","coordinates":[8.79414,45.77803]},"properties":{"id":135725,"name":"Azzate","state_code":"VA","country_code":"IT"}},{"type":"Feature","geometry":{"type":"Point","coordinates":[8.70853,45.88468]},"properties":{"id":135726,"name":"Azzio","state_code":"VA","country_code":"IT"}},{"type":"Feature","geometry":{"type":"Point","coordinates":[8.90885,45.85516]},"properties":{"id":135809,"name":"Baraggia","state_code":"VA","country_code":"IT"}},{"type":"Feature","geometry":{"type":"Point","coordinates":[8.75683,45.84048]},"properties":{"id":135814,"name":"Barasso","state_code":"VA","country_code":"IT"}},{"type":"Feature","geometry":{"type":"Point","coordinates":[8.69683,45.83597]},"properties":{"id":135839,"name":"Bardello","state_code":"VA","country_code":"IT"}},{"type":"Feature","geometry":{"type":"Point","coordinates":[8.71852,45.97776]},"properties":{"id":135917,"name":"Bedero","state_code":"VA","country_code":"IT"}},{"type":"Feature","geometry":{"type":"Point","coordinates":[8.79553,45.91088]},"properties":{"id":135918,"name":"Bedero Valcuvia","state_code":"VA","country_code":"IT"}},{"type":"Feature","geometry":{"type":"Point","coordinates":[8.89068,45.88949]},"properties":{"id":136011,"name":"Besano","state_code":"VA","country_code":"IT"}},{"type":"Feature","geometry":{"type":"Point","coordinates":[8.76734,45.69858]},"properties":{"id":136015,"name":"Besnate","state_code":"VA","country_code":"IT"}},{"type":"Feature","geometry":{"type":"Point","coordinates":[8.66517,45.84889]},"properties":{"id":136016,"name":"Besozzo","state_code":"VA","country_code":"IT"}},{"type":"Feature","geometry":{"type":"Point","coordinates":[8.70882,45.81281]},"properties":{"id":136032,"name":"Biandronno","state_code":"VA","country_code":"IT"}},{"type":"Feature","geometry":{"type":"Point","coordinates":[8.86843,45.87148]},"properties":{"id":136066,"name":"Bisuschio","state_code":"VA","country_code":"IT"}},{"type":"Feature","geometry":{"type":"Point","coordinates":[8.75146,45.78989]},"properties":{"id":136092,"name":"Bodio","state_code":"VA","country_code":"IT"}},{"type":"Feature","geometry":{"type":"Point","coordinates":[8.75083,45.78867]},"properties":{"id":136093,"name":"Bodio Lomnago","state_code":"VA","country_code":"IT"}},{"type":"Feature","geometry":{"type":"Point","coordinates":[8.84517,45.68649]},"properties":{"id":136104,"name":"Bolladello-Peveranza","state_code":"VA","country_code":"IT"}},{"type":"Feature","geometry":{"type":"Point","coordinates":[8.65042,45.82983]},"properties":{"id":136291,"name":"Brebbia","state_code":"VA","country_code":"IT"}},{"type":"Feature","geometry":{"type":"Point","coordinates":[8.68773,45.82578]},"properties":{"id":136293,"name":"Bregano","state_code":"VA","country_code":"IT"}},{"type":"Feature","geometry":{"type":"Point","coordinates":[8.87801,45.86148]},"properties":{"id":136306,"name":"Brenno Useria","state_code":"VA","country_code":"IT"}},{"type":"Feature","geometry":{"type":"Point","coordinates":[8.68373,45.89418]},"properties":{"id":136308,"name":"Brenta","state_code":"VA","country_code":"IT"}},{"type":"Feature","geometry":{"type":"Point","coordinates":[8.71743,45.97838]},"properties":{"id":136323,"name":"Brezzo di Bedero","state_code":"VA","country_code":"IT"}},{"type":"Feature","geometry":{"type":"Point","coordinates":[8.78683,45.88914]},"properties":{"id":136336,"name":"Brinzio","state_code":"VA","country_code":"IT"}},{"type":"Feature","geometry":{"type":"Point","coordinates":[8.7459,45.94921]},"properties":{"id":136342,"name":"Brissago-Valtravaglia","state_code":"VA","country_code":"IT"}},{"type":"Feature","geometry":{"type":"Point","coordinates":[8.79533,45.76497]},"properties":{"id":136370,"name":"Brunello","state_code":"VA","country_code":"IT"}},{"type":"Feature","geometry":{"type":"Point","coordinates":[8.88953,45.94468]},"properties":{"id":136376,"name":"Brusimpiano","state_code":"VA","country_code":"IT"}},{"type":"Feature","geometry":{"type":"Point","coordinates":[8.81063,45.78227]},"properties":{"id":136398,"name":"Buguggiate","state_code":"VA","country_code":"IT"}},{"type":"Feature","geometry":{"type":"Point","coordinates":[8.84914,45.61128]},"properties":{"id":136434,"name":"Busto Arsizio","state_code":"VA","country_code":"IT"}},{"type":"Feature","geometry":{"type":"Point","coordinates":[8.84343,45.95948]},"properties":{"id":136453,"name":"Cadegliano-Viconago","state_code":"VA","country_code":"IT"}},{"type":"Feature","geometry":{"type":"Point","coordinates":[8.64333,45.79927]},"properties":{"id":136462,"name":"Cadrezzate","state_code":"VA","country_code":"IT"}},{"type":"Feature","geometry":{"type":"Point","coordinates":[8.86807,45.6875]},"properties":{"id":136482,"name":"Cairate","state_code":"VA","country_code":"IT"}},{"type":"Feature","geometry":{"type":"Point","coordinates":[8.97181,45.96818]},"properties":{"id":136622,"name":"Campione","state_code":"VA","country_code":"IT"}},{"type":"Feature","geometry":{"type":"Point","coordinates":[8.89593,45.82248]},"properties":{"id":136746,"name":"Cantello","state_code":"VA","country_code":"IT"}},{"type":"Feature","geometry":{"type":"Point","coordinates":[8.65431,45.87862]},"properties":{"id":136841,"name":"Caravate","state_code":"VA","country_code":"IT"}},{"type":"Feature","geometry":{"type":"Point","coordinates":[8.76933,45.64887]},"properties":{"id":136858,"name":"Cardano al Campo","state_code":"VA","country_code":"IT"}},{"type":"Feature","geometry":{"type":"Point","coordinates":[8.83423,45.72207]},"properties":{"id":136894,"name":"Carnago","state_code":"VA","country_code":"IT"}},{"type":"Feature","geometry":{"type":"Point","coordinates":[9.04634,45.59777]},"properties":{"id":136901,"name":"Caronno Pertusella","state_code":"VA","country_code":"IT"}},{"type":"Feature","geometry":{"type":"Point","coordinates":[8.83173,45.73577]},"properties":{"id":136902,"name":"Caronno Varesino","state_code":"VA","country_code":"IT"}},{"type":"Feature","geometry":{"type":"Point","coordinates":[8.74133,45.76787]},"properties":{"id":136976,"name":"Casale Litta","state_code":"VA","country_code":"IT"}},{"type":"Feature","geometry":{"type":"Point","coordinates":[8.70883,45.90508]},"properties":{"id":137014,"name":"Casalzuigno","state_code":"VA","country_code":"IT"}},{"type":"Feature","geometry":{"type":"Point","coordinates":[8.78333,45.83248]},"properties":{"id":137046,"name":"Casciago","state_code":"VA","country_code":"IT"}},{"type":"Feature","geometry":{"type":"Point","coordinates":[8.79978,45.60425]},"properties":{"id":137049,"name":"Cascina Elisa","state_code":"VA","country_code":"IT"}},{"type":"Feature","geometry":{"type":"Point","coordinates":[8.74513,45.67079]},"properties":{"id":137087,"name":"Casorate Sempione","state_code":"VA","country_code":"IT"}},{"type":"Feature","geometry":{"type":"Point","coordinates":[8.82691,45.67206]},"properties":{"id":137097,"name":"Cassano Magnago","state_code":"VA","country_code":"IT"}},{"type":"Feature","geometry":{"type":"Point","coordinates":[8.76843,45.93238]},"properties":{"id":137099,"name":"Cassano Valcuvia","state_code":"VA","country_code":"IT"}},{"type":"Feature","geometry":{"type":"Point","coordinates":[8.89616,45.61079]},"properties":{"id":137219,"name":"Castellanza","state_code":"VA","country_code":"IT"}},{"type":"Feature","geometry":{"type":"Point","coordinates":[8.75763,45.89358]},"properties":{"id":137252,"name":"Castello Cabiaglio","state_code":"VA","country_code":"IT"}},{"type":"Feature","geometry":{"type":"Point","coordinates":[8.86161,45.71372]},"properties":{"id":137315,"name":"Castelseprio","state_code":"VA","country_code":"IT"}},{"type":"Feature","geometry":{"type":"Point","coordinates":[8.66633,45.94798]},"properties":{"id":137320,"name":"Castelveccana","state_code":"VA","country_code":"IT"}},{"type":"Feature","geometry":{"type":"Point","coordinates":[8.87278,45.75256]},"properties":{"id":137344,"name":"Castiglione Olona","state_code":"VA","country_code":"IT"}},{"type":"Feature","geometry":{"type":"Point","coordinates":[8.81442,45.74793]},"properties":{"id":137383,"name":"Castronno","state_code":"VA","country_code":"IT"}},{"type":"Feature","geometry":{"type":"Point","coordinates":[8.80299,45.69247]},"properties":{"id":137423,"name":"Cavaria Con Premezzo","state_code":"VA","country_code":"IT"}},{"type":"Feature","geometry":{"type":"Point","coordinates":[8.73483,45.79588]},"properties":{"id":137445,"name":"Cazzago Brabbia","state_code":"VA","country_code":"IT"}},{"type":"Feature","geometry":{"type":"Point","coordinates":[8.7205,45.7357]},"properties":{"id":137722,"name":"Cimbro","state_code":"VA","country_code":"IT"}},{"type":"Feature","geometry":{"type":"Point","coordinates":[8.97272,45.65928]},"properties":{"id":137756,"name":"Cislago","state_code":"VA","country_code":"IT"}},{"type":"Feature","geometry":{"type":"Point","coordinates":[8.66551,45.89587]},"properties":{"id":137770,"name":"Cittiglio","state_code":"VA","country_code":"IT"}},{"type":"Feature","geometry":{"type":"Point","coordinates":[8.93083,45.86278]},"properties":{"id":137813,"name":"Clivio","state_code":"VA","country_code":"IT"}},{"type":"Feature","geometry":{"type":"Point","coordinates":[8.68823,45.86288]},"properties":{"id":137825,"name":"Cocquio","state_code":"VA","country_code":"IT"}},{"type":"Feature","geometry":{"type":"Point","coordinates":[8.67833,45.77359]},"properties":{"id":137933,"name":"Comabbio","state_code":"VA","country_code":"IT"}},{"type":"Feature","geometry":{"type":"Point","coordinates":[8.74207,45.84191]},"properties":{"id":137939,"name":"Comerio","state_code":"VA","country_code":"IT"}},{"type":"Feature","geometry":{"type":"Point","coordinates":[8.68797,45.74588]},"properties":{"id":138009,"name":"Corgeno","state_code":"VA","country_code":"IT"}},{"type":"Feature","geometry":{"type":"Point","coordinates":[8.80333,45.98938]},"properties":{"id":138134,"name":"Cremenaga","state_code":"VA","country_code":"IT"}},{"type":"Feature","geometry":{"type":"Point","coordinates":[8.77043,45.75997]},"properties":{"id":138169,"name":"Crosio della Valle","state_code":"VA","country_code":"IT"}},{"type":"Feature","geometry":{"type":"Point","coordinates":[8.74525,45.72955]},"properties":{"id":138175,"name":"Crugnola","state_code":"VA","country_code":"IT"}},{"type":"Feature","geometry":{"type":"Point","coordinates":[8.87923,45.91478]},"properties":{"id":138176,"name":"Cuasso al Monte","state_code":"VA","country_code":"IT"}},{"type":"Feature","geometry":{"type":"Point","coordinates":[8.87951,45.89454]},"properties":{"id":138177,"name":"Cuasso al Piano","state_code":"VA","country_code":"IT"}},{"type":"Feature","geometry":{"type":"Point","coordinates":[8.81863,45.94568]},"properties":{"id":138184,"name":"Cugliate-Fabiasco","state_code":"VA","country_code":"IT"}},{"type":"Feature","geometry":{"type":"Point","coordinates":[8.80773,45.93428]},"properties":{"id":138189,"name":"Cunardo","state_code":"VA","country_code":"IT"}},{"type":"Feature","geometry":{"type":"Point","coordinates":[8.80484,46.06065]},"properties":{"id":138201,"name":"Curiglia","state_code":"VA","country_code":"IT"}},{"type":"Feature","geometry":{"type":"Point","coordinates":[8.73333,45.90608]},"properties":{"id":138220,"name":"Cuveglio","state_code":"VA","country_code":"IT"}},{"type":"Feature","geometry":{"type":"Point","coordinates":[8.73413,45.89618]},"properties":{"id":138221,"name":"Cuvio","state_code":"VA","country_code":"IT"}},{"type":"Feature","geometry":{"type":"Point","coordinates":[8.77343,45.77797]},"properties":{"id":138232,"name":"Daverio","state_code":"VA","country_code":"IT"}},{"type":"Feature","geometry":{"type":"Point","coordinates":[8.78674,46.02088]},"properties":{"id":138342,"name":"Dumenza","state_code":"VA","country_code":"IT"}},{"type":"Feature","geometry":{"type":"Point","coordinates":[8.73763,45.91398]},"properties":{"id":138343,"name":"Duno","state_code":"VA","country_code":"IT"}},{"type":"Feature","geometry":{"type":"Point","coordinates":[8.85994,45.66977]},"properties":{"id":138409,"name":"Fagnano Olona-Bergoro","state_code":"VA","country_code":"IT"}},{"type":"Feature","geometry":{"type":"Point","coordinates":[8.75695,45.61496]},"properties":{"id":138484,"name":"Ferno","state_code":"VA","country_code":"IT"}},{"type":"Feature","geometry":{"type":"Point","coordinates":[8.78913,45.93278]},"properties":{"id":138493,"name":"Ferrera di Varese","state_code":"VA","country_code":"IT"}},{"type":"Feature","geometry":{"type":"Point","coordinates":[8.79164,45.66019]},"properties":{"id":138801,"name":"Gallarate","state_code":"VA","country_code":"IT"}},{"type":"Feature","geometry":{"type":"Point","coordinates":[8.77043,45.78487]},"properties":{"id":138805,"name":"Galliate Lombardo","state_code":"VA","country_code":"IT"}},{"type":"Feature","geometry":{"type":"Point","coordinates":[8.82606,45.90212]},"properties":{"id":138841,"name":"Ganna","state_code":"VA","country_code":"IT"}},{"type":"Feature","geometry":{"type":"Point","coordinates":[8.72619,45.83707]},"properties":{"id":138878,"name":"Gavirate","state_code":"VA","country_code":"IT"}},{"type":"Feature","geometry":{"type":"Point","coordinates":[8.83344,45.78017]},"properties":{"id":138882,"name":"Gazzada Schianno","state_code":"VA","country_code":"IT"}},{"type":"Feature","geometry":{"type":"Point","coordinates":[8.67478,45.87878]},"properties":{"id":138894,"name":"Gemonio","state_code":"VA","country_code":"IT"}},{"type":"Feature","geometry":{"type":"Point","coordinates":[9.00104,45.63967]},"properties":{"id":138914,"name":"Gerenzano","state_code":"VA","country_code":"IT"}},{"type":"Feature","geometry":{"type":"Point","coordinates":[8.72403,45.99128]},"properties":{"id":138918,"name":"Germignaga","state_code":"VA","country_code":"IT"}},{"type":"Feature","geometry":{"type":"Point","coordinates":[8.66112,45.69821]},"properties":{"id":139012,"name":"Golasecca","state_code":"VA","country_code":"IT"}},{"type":"Feature","geometry":{"type":"Point","coordinates":[8.89537,45.66388]},"properties":{"id":139033,"name":"Gorla Maggiore","state_code":"VA","country_code":"IT"}},{"type":"Feature","geometry":{"type":"Point","coordinates":[8.90264,45.64117]},"properties":{"id":139034,"name":"Gorla Minore","state_code":"VA","country_code":"IT"}},{"type":"Feature","geometry":{"type":"Point","coordinates":[8.85994,45.74157]},"properties":{"id":139037,"name":"Gornate Olona","state_code":"VA","country_code":"IT"}},{"type":"Feature","geometry":{"type":"Point","coordinates":[8.77433,45.94918]},"properties":{"id":139068,"name":"Grantola","state_code":"VA","country_code":"IT"}},{"type":"Feature","geometry":{"type":"Point","coordinates":[8.73563,45.78578]},"properties":{"id":139203,"name":"Inarzo","state_code":"VA","country_code":"IT"}},{"type":"Feature","geometry":{"type":"Point","coordinates":[8.84056,45.84571]},"properties":{"id":139207,"name":"Induno Olona","state_code":"VA","country_code":"IT"}},{"type":"Feature","geometry":{"type":"Point","coordinates":[8.61294,45.8148]},"properties":{"id":139260,"name":"Ispra","state_code":"VA","country_code":"IT"}},{"type":"Feature","geometry":{"type":"Point","coordinates":[8.79593,45.70467]},"properties":{"id":139276,"name":"Jerago Con Orago","state_code":"VA","country_code":"IT"}},{"type":"Feature","geometry":{"type":"Point","coordinates":[8.85725,45.9671]},"properties":{"id":139411,"name":"Lavena Ponte Tresa","state_code":"VA","country_code":"IT"}},{"type":"Feature","geometry":{"type":"Point","coordinates":[8.62036,45.90888]},"properties":{"id":139412,"name":"Laveno","state_code":"VA","country_code":"IT"}},{"type":"Feature","geometry":{"type":"Point","coordinates":[8.62063,45.87588]},"properties":{"id":139434,"name":"Leggiuno","state_code":"VA","country_code":"IT"}},{"type":"Feature","geometry":{"type":"Point","coordinates":[8.87936,45.70863]},"properties":{"id":139584,"name":"Lonate Ceppino","state_code":"VA","country_code":"IT"}},{"type":"Feature","geometry":{"type":"Point","coordinates":[8.75194,45.59213]},"properties":{"id":139585,"name":"Lonate Pozzolo","state_code":"VA","country_code":"IT"}},{"type":"Feature","geometry":{"type":"Point","coordinates":[8.85773,45.77567]},"properties":{"id":139622,"name":"Lozza","state_code":"VA","country_code":"IT"}},{"type":"Feature","geometry":{"type":"Point","coordinates":[8.74512,46.00185]},"properties":{"id":139651,"name":"Luino","state_code":"VA","country_code":"IT"}},{"type":"Feature","geometry":{"type":"Point","coordinates":[8.77193,45.83958]},"properties":{"id":139681,"name":"Luvinate","state_code":"VA","country_code":"IT"}},{"type":"Feature","geometry":{"type":"Point","coordinates":[8.73413,46.04357]},"properties":{"id":139687,"name":"Maccagno","state_code":"VA","country_code":"IT"}},{"type":"Feature","geometry":{"type":"Point","coordinates":[8.67553,45.82787]},"properties":{"id":139765,"name":"Malgesso","state_code":"VA","country_code":"IT"}},{"type":"Feature","geometry":{"type":"Point","coordinates":[8.88104,45.79377]},"properties":{"id":139771,"name":"Malnate","state_code":"VA","country_code":"IT"}},{"type":"Feature","geometry":{"type":"Point","coordinates":[8.83343,45.94788]},"properties":{"id":139844,"name":"Marchirolo","state_code":"VA","country_code":"IT"}},{"type":"Feature","geometry":{"type":"Point","coordinates":[8.90916,45.62855]},"properties":{"id":139908,"name":"Marnate","state_code":"VA","country_code":"IT"}},{"type":"Feature","geometry":{"type":"Point","coordinates":[8.85813,45.93818]},"properties":{"id":139949,"name":"Marzio","state_code":"VA","country_code":"IT"}},{"type":"Feature","geometry":{"type":"Point","coordinates":[8.78113,45.91778]},"properties":{"id":139955,"name":"Masciago Primo","state_code":"VA","country_code":"IT"}},{"type":"Feature","geometry":{"type":"Point","coordinates":[8.66998,45.74791]},"properties":{"id":140070,"name":"Mercallo","state_code":"VA","country_code":"IT"}},{"type":"Feature","geometry":{"type":"Point","coordinates":[8.76453,45.95158]},"properties":{"id":140093,"name":"Mesenzana","state_code":"VA","country_code":"IT"}},{"type":"Feature","geometry":{"type":"Point","coordinates":[8.82222,45.71489]},"properties":{"id":140351,"name":"Monte","state_code":"VA","country_code":"IT"}},{"type":"Feature","geometry":{"type":"Point","coordinates":[8.76743,45.97398]},"properties":{"id":140458,"name":"Montegrino Valtravaglia","state_code":"VA","country_code":"IT"}},{"type":"Feature","geometry":{"type":"Point","coordinates":[8.63088,45.8581]},"properties":{"id":140593,"name":"Monvalle","state_code":"VA","country_code":"IT"}},{"type":"Feature","geometry":{"type":"Point","coordinates":[8.82813,45.76447]},"properties":{"id":140601,"name":"Morazzone","state_code":"VA","country_code":"IT"}},{"type":"Feature","geometry":{"type":"Point","coordinates":[8.75046,45.74516]},"properties":{"id":140624,"name":"Mornago","state_code":"VA","country_code":"IT"}},{"type":"Feature","geometry":{"type":"Point","coordinates":[8.81653,45.70427]},"properties":{"id":140880,"name":"Oggiona-Santo Stefano","state_code":"VA","country_code":"IT"}},{"type":"Feature","geometry":{"type":"Point","coordinates":[8.88147,45.63706]},"properties":{"id":140894,"name":"Olgiate Olona","state_code":"VA","country_code":"IT"}},{"type":"Feature","geometry":{"type":"Point","coordinates":[9.01645,45.59676]},"properties":{"id":140953,"name":"Origgio","state_code":"VA","country_code":"IT"}},{"type":"Feature","geometry":{"type":"Point","coordinates":[8.71563,45.88148]},"properties":{"id":140954,"name":"Orino","state_code":"VA","country_code":"IT"}},{"type":"Feature","geometry":{"type":"Point","coordinates":[8.65523,45.78867]},"properties":{"id":141011,"name":"Osmate","state_code":"VA","country_code":"IT"}},{"type":"Feature","geometry":{"type":"Point","coordinates":[8.73873,46.10078]},"properties":{"id":58680,"name":"Pino sulla Sponda del Lago Maggiore","state_code":"VA","country_code":"IT"}},{"type":"Feature","geometry":{"type":"Point","coordinates":[8.89684,45.91285]},"properties":{"id":58924,"name":"Porto Ceresio","state_code":"VA","country_code":"IT"}},{"type":"Feature","geometry":{"type":"Point","coordinates":[8.68109,45.96088]},"properties":{"id":58939,"name":"Porto Valtravaglia","state_code":"VA","country_code":"IT"}},{"type":"Feature","geometry":{"type":"Point","coordinates":[8.77157,45.91594]},"properties":{"id":59278,"name":"Rancio Valcuvia","state_code":"VA","country_code":"IT"}},{"type":"Feature","geometry":{"type":"Point","coordinates":[8.57105,45.79733]},"properties":{"id":59279,"name":"Ranco","state_code":"VA","country_code":"IT"}},{"type":"Feature","geometry":{"type":"Point","coordinates":[8.92436,45.87347]},"properties":{"id":59782,"name":"Saltrio","state_code":"VA","country_code":"IT"}},{"type":"Feature","geometry":{"type":"Point","coordinates":[8.78507,45.6241]},"properties":{"id":59798,"name":"Samarate","state_code":"VA","country_code":"IT"}},{"type":"Feature","geometry":{"type":"Point","coordinates":[8.63333,45.87508]},"properties":{"id":60305,"name":"Sangiano","state_code":"VA","country_code":"IT"}},{"type":"Feature","geometry":{"type":"Point","coordinates":[9.03517,45.62513]},"properties":{"id":60556,"name":"Saronno","state_code":"VA","country_code":"IT"}},{"type":"Feature","geometry":{"type":"Point","coordinates":[8.63397,45.72608]},"properties":{"id":60795,"name":"Sesto Calende","state_code":"VA","country_code":"IT"}},{"type":"Feature","geometry":{"type":"Point","coordinates":[8.81372,45.7196]},"properties":{"id":60910,"name":"Solbiate Arno","state_code":"VA","country_code":"IT"}},{"type":"Feature","geometry":{"type":"Point","coordinates":[8.88198,45.65028]},"properties":{"id":60911,"name":"Solbiate Olona","state_code":"VA","country_code":"IT"}},{"type":"Feature","geometry":{"type":"Point","coordinates":[8.70759,45.68213]},"properties":{"id":60928,"name":"Somma Lombardo","state_code":"VA","country_code":"IT"}},{"type":"Feature","geometry":{"type":"Point","coordinates":[8.78356,45.73651]},"properties":{"id":61118,"name":"Sumirago","state_code":"VA","country_code":"IT"}},{"type":"Feature","geometry":{"type":"Point","coordinates":[8.61654,45.76249]},"properties":{"id":61148,"name":"Taino","state_code":"VA","country_code":"IT"}},{"type":"Feature","geometry":{"type":"Point","coordinates":[8.69931,45.78673]},"properties":{"id":61230,"name":"Ternate","state_code":"VA","country_code":"IT"}},{"type":"Feature","geometry":{"type":"Point","coordinates":[8.90763,45.70843]},"properties":{"id":61428,"name":"Tradate","state_code":"VA","country_code":"IT"}},{"type":"Feature","geometry":{"type":"Point","coordinates":[8.67143,45.80427]},"properties":{"id":61451,"name":"Travedona Monate","state_code":"VA","country_code":"IT"}},{"type":"Feature","geometry":{"type":"Point","coordinates":[8.7331,46.08871]},"properties":{"id":61554,"name":"Tronzano Lago Maggiore","state_code":"VA","country_code":"IT"}},{"type":"Feature","geometry":{"type":"Point","coordinates":[9.00394,45.61527]},"properties":{"id":61585,"name":"Uboldo","state_code":"VA","country_code":"IT"}},{"type":"Feature","geometry":{"type":"Point","coordinates":[8.82333,45.90228]},"properties":{"id":61671,"name":"Valganna","state_code":"VA","country_code":"IT"}},{"type":"Feature","geometry":{"type":"Point","coordinates":[8.70403,45.77407]},"properties":{"id":61761,"name":"Varano Borghi","state_code":"VA","country_code":"IT"}},{"type":"Feature","geometry":{"type":"Point","coordinates":[8.82511,45.82058]},"properties":{"id":61769,"name":"Varese","state_code":"VA","country_code":"IT"}},{"type":"Feature","geometry":{"type":"Point","coordinates":[8.88771,45.7757]},"properties":{"id":61788,"name":"Vedano Olona","state_code":"VA","country_code":"IT"}},{"type":"Feature","geometry":{"type":"Point","coordinates":[8.79873,46.07058]},"properties":{"id":61790,"name":"Veddasca","state_code":"VA","country_code":"IT"}},{"type":"Feature","geometry":{"type":"Point","coordinates":[8.89545,45.73569]},"properties":{"id":61816,"name":"Venegono Inferiore","state_code":"VA","country_code":"IT"}},{"type":"Feature","geometry":{"type":"Point","coordinates":[8.89734,45.75246]},"properties":{"id":61817,"name":"Venegono Superiore","state_code":"VA","country_code":"IT"}},{"type":"Feature","geometry":{"type":"Point","coordinates":[8.6953,45.7221]},"properties":{"id":61848,"name":"Vergiate","state_code":"VA","country_code":"IT"}},{"type":"Feature","geometry":{"type":"Point","coordinates":[8.90861,45.87096]},"properties":{"id":61947,"name":"Viggiù","state_code":"VA","country_code":"IT"}},{"type":"Feature","geometry":{"type":"Point","coordinates":[8.69651,45.62615]},"properties":{"id":62194,"name":"Vizzola Ticino","state_code":"VA","country_code":"IT"}}]}