{"type":"FeatureCollection","features":[{"type":"Feature","geometry":{"type":"Point","coordinates":[10.7864,45.55297]},"properties":{"id":135292,"name":"Affi","state_code":"VR","country_code":"IT"}},{"type":"Feature","geometry":{"type":"Point","coordinates":[11.27843,45.31859]},"properties":{"id":135358,"name":"Albaredo d'Adige","state_code":"VR","country_code":"IT"}},{"type":"Feature","geometry":{"type":"Point","coordinates":[10.91979,45.37687]},"properties":{"id":135427,"name":"Alpo","state_code":"VR","country_code":"IT"}},{"type":"Feature","geometry":{"type":"Point","coordinates":[11.2768,45.22318]},"properties":{"id":135498,"name":"Angiari","state_code":"VR","country_code":"IT"}},{"type":"Feature","geometry":{"type":"Point","coordinates":[10.93831,45.49489]},"properties":{"id":135555,"name":"Arbizzano-Santa Maria","state_code":"VR","country_code":"IT"}},{"type":"Feature","geometry":{"type":"Point","coordinates":[11.2875,45.36125]},"properties":{"id":135572,"name":"Arcole","state_code":"VR","country_code":"IT"}},{"type":"Feature","geometry":{"type":"Point","coordinates":[11.18263,45.21991]},"properties":{"id":135663,"name":"Asparetto","state_code":"VR","country_code":"IT"}},{"type":"Feature","geometry":{"type":"Point","coordinates":[11.15197,45.56463]},"properties":{"id":135735,"name":"Badia Calavena","state_code":"VR","country_code":"IT"}},{"type":"Feature","geometry":{"type":"Point","coordinates":[10.89081,45.27238]},"properties":{"id":135766,"name":"Bagnolo","state_code":"VR","country_code":"IT"}},{"type":"Feature","geometry":{"type":"Point","coordinates":[10.73298,45.54114]},"properties":{"id":135842,"name":"Bardolino","state_code":"VR","country_code":"IT"}},{"type":"Feature","geometry":{"type":"Point","coordinates":[10.89449,45.4511]},"properties":{"id":135897,"name":"Bassone","state_code":"VR","country_code":"IT"}},{"type":"Feature","geometry":{"type":"Point","coordinates":[10.96133,45.37435]},"properties":{"id":135916,"name":"Beccacivetta-Azzano","state_code":"VR","country_code":"IT"}},{"type":"Feature","geometry":{"type":"Point","coordinates":[11.21085,45.38189]},"properties":{"id":135927,"name":"Belfiore","state_code":"VR","country_code":"IT"}},{"type":"Feature","geometry":{"type":"Point","coordinates":[11.39496,45.23249]},"properties":{"id":136026,"name":"Bevilacqua","state_code":"VR","country_code":"IT"}},{"type":"Feature","geometry":{"type":"Point","coordinates":[11.18419,45.24426]},"properties":{"id":136127,"name":"Bonavicina","state_code":"VR","country_code":"IT"}},{"type":"Feature","geometry":{"type":"Point","coordinates":[11.27944,45.25831]},"properties":{"id":136128,"name":"Bonavigo","state_code":"VR","country_code":"IT"}},{"type":"Feature","geometry":{"type":"Point","coordinates":[11.01201,45.1838]},"properties":{"id":136137,"name":"Bonferraro","state_code":"VR","country_code":"IT"}},{"type":"Feature","geometry":{"type":"Point","coordinates":[11.3562,45.21768]},"properties":{"id":136239,"name":"Boschi Sant'Anna","state_code":"VR","country_code":"IT"}},{"type":"Feature","geometry":{"type":"Point","coordinates":[11.03224,45.62103]},"properties":{"id":136241,"name":"Bosco Chiesanuova","state_code":"VR","country_code":"IT"}},{"type":"Feature","geometry":{"type":"Point","coordinates":[11.11786,45.26142]},"properties":{"id":136275,"name":"Bovolone","state_code":"VR","country_code":"IT"}},{"type":"Feature","geometry":{"type":"Point","coordinates":[10.89368,45.65689]},"properties":{"id":136309,"name":"Brentino Belluno","state_code":"VR","country_code":"IT"}},{"type":"Feature","geometry":{"type":"Point","coordinates":[10.76058,45.69989]},"properties":{"id":136311,"name":"Brenzone","state_code":"VR","country_code":"IT"}},{"type":"Feature","geometry":{"type":"Point","coordinates":[11.29379,45.44869]},"properties":{"id":136348,"name":"Brognoligo-Costalunga","state_code":"VR","country_code":"IT"}},{"type":"Feature","geometry":{"type":"Point","coordinates":[10.85371,45.46903]},"properties":{"id":136432,"name":"Bussolengo","state_code":"VR","country_code":"IT"}},{"type":"Feature","geometry":{"type":"Point","coordinates":[10.99915,45.3411]},"properties":{"id":136438,"name":"Buttapietra","state_code":"VR","country_code":"IT"}},{"type":"Feature","geometry":{"type":"Point","coordinates":[11.13029,45.2955]},"properties":{"id":136446,"name":"Ca' degli Oppi","state_code":"VR","country_code":"IT"}},{"type":"Feature","geometry":{"type":"Point","coordinates":[11.15696,45.41616]},"properties":{"id":136516,"name":"Caldierino-Rota","state_code":"VR","country_code":"IT"}},{"type":"Feature","geometry":{"type":"Point","coordinates":[11.17739,45.41439]},"properties":{"id":136517,"name":"Caldiero","state_code":"VR","country_code":"IT"}},{"type":"Feature","geometry":{"type":"Point","coordinates":[10.75206,45.52099]},"properties":{"id":136534,"name":"Calmasino","state_code":"VR","country_code":"IT"}},{"type":"Feature","geometry":{"type":"Point","coordinates":[11.14014,45.20792]},"properties":{"id":136773,"name":"Capitello","state_code":"VR","country_code":"IT"}},{"type":"Feature","geometry":{"type":"Point","coordinates":[10.79518,45.60489]},"properties":{"id":136822,"name":"Caprino Veronese","state_code":"VR","country_code":"IT"}},{"type":"Feature","geometry":{"type":"Point","coordinates":[11.19401,45.16821]},"properties":{"id":136984,"name":"Casaleone","state_code":"VR","country_code":"IT"}},{"type":"Feature","geometry":{"type":"Point","coordinates":[11.40911,45.11795]},"properties":{"id":137116,"name":"Castagnaro","state_code":"VR","country_code":"IT"}},{"type":"Feature","geometry":{"type":"Point","coordinates":[10.75978,45.43878]},"properties":{"id":137297,"name":"Castelnuovo del Garda","state_code":"VR","country_code":"IT"}},{"type":"Feature","geometry":{"type":"Point","coordinates":[10.77048,45.54009]},"properties":{"id":137411,"name":"Cavajon Veronese","state_code":"VR","country_code":"IT"}},{"type":"Feature","geometry":{"type":"Point","coordinates":[10.72652,45.43695]},"properties":{"id":137412,"name":"Cavalcaselle","state_code":"VR","country_code":"IT"}},{"type":"Feature","geometry":{"type":"Point","coordinates":[11.20289,45.47309]},"properties":{"id":137449,"name":"Cazzano di Tramigna","state_code":"VR","country_code":"IT"}},{"type":"Feature","geometry":{"type":"Point","coordinates":[11.17831,45.48646]},"properties":{"id":137483,"name":"Cellore","state_code":"VR","country_code":"IT"}},{"type":"Feature","geometry":{"type":"Point","coordinates":[11.21661,45.18936]},"properties":{"id":137530,"name":"Cerea","state_code":"VR","country_code":"IT"}},{"type":"Feature","geometry":{"type":"Point","coordinates":[11.04159,45.57449]},"properties":{"id":137574,"name":"Cerro Veronese","state_code":"VR","country_code":"IT"}},{"type":"Feature","geometry":{"type":"Point","coordinates":[10.74257,45.47428]},"properties":{"id":137932,"name":"Colà","state_code":"VR","country_code":"IT"}},{"type":"Feature","geometry":{"type":"Point","coordinates":[11.38032,45.30777]},"properties":{"id":137912,"name":"Cologna Veneta","state_code":"VR","country_code":"IT"}},{"type":"Feature","geometry":{"type":"Point","coordinates":[11.18429,45.43369]},"properties":{"id":137917,"name":"Colognola ai Colli","state_code":"VR","country_code":"IT"}},{"type":"Feature","geometry":{"type":"Point","coordinates":[10.90359,45.48685]},"properties":{"id":138045,"name":"Corrubbio","state_code":"VR","country_code":"IT"}},{"type":"Feature","geometry":{"type":"Point","coordinates":[10.739,45.58606]},"properties":{"id":138108,"name":"Costermano","state_code":"VR","country_code":"IT"}},{"type":"Feature","geometry":{"type":"Point","coordinates":[10.85248,45.60069]},"properties":{"id":138281,"name":"Dolcè","state_code":"VR","country_code":"IT"}},{"type":"Feature","geometry":{"type":"Point","coordinates":[10.91054,45.39333]},"properties":{"id":138319,"name":"Dossobuono","state_code":"VR","country_code":"IT"}},{"type":"Feature","geometry":{"type":"Point","coordinates":[10.97135,45.24231]},"properties":{"id":138370,"name":"Erbè","state_code":"VR","country_code":"IT"}},{"type":"Feature","geometry":{"type":"Point","coordinates":[11.00057,45.6396]},"properties":{"id":138368,"name":"Erbezzo","state_code":"VR","country_code":"IT"}},{"type":"Feature","geometry":{"type":"Point","coordinates":[10.96425,45.57904]},"properties":{"id":138431,"name":"Fane","state_code":"VR","country_code":"IT"}},{"type":"Feature","geometry":{"type":"Point","coordinates":[10.85911,45.67408]},"properties":{"id":138490,"name":"Ferrara di Monte Baldo","state_code":"VR","country_code":"IT"}},{"type":"Feature","geometry":{"type":"Point","coordinates":[10.9446,45.34221]},"properties":{"id":138627,"name":"Forette","state_code":"VR","country_code":"IT"}},{"type":"Feature","geometry":{"type":"Point","coordinates":[10.88548,45.5416]},"properties":{"id":138749,"name":"Fumane","state_code":"VR","country_code":"IT"}},{"type":"Feature","geometry":{"type":"Point","coordinates":[10.71763,45.57889]},"properties":{"id":138849,"name":"Garda","state_code":"VR","country_code":"IT"}},{"type":"Feature","geometry":{"type":"Point","coordinates":[11.31319,45.37536]},"properties":{"id":138887,"name":"Gazzolo-Volpino","state_code":"VR","country_code":"IT"}},{"type":"Feature","geometry":{"type":"Point","coordinates":[11.01743,45.52272]},"properties":{"id":139094,"name":"Grezzana","state_code":"VR","country_code":"IT"}},{"type":"Feature","geometry":{"type":"Point","coordinates":[11.18165,45.46663]},"properties":{"id":139195,"name":"Illasi","state_code":"VR","country_code":"IT"}},{"type":"Feature","geometry":{"type":"Point","coordinates":[11.00824,45.26943]},"properties":{"id":139248,"name":"Isola della Scala","state_code":"VR","country_code":"IT"}},{"type":"Feature","geometry":{"type":"Point","coordinates":[11.199,45.29228]},"properties":{"id":139239,"name":"Isola Rizza","state_code":"VR","country_code":"IT"}},{"type":"Feature","geometry":{"type":"Point","coordinates":[11.13409,45.43869]},"properties":{"id":139409,"name":"Lavagno","state_code":"VR","country_code":"IT"}},{"type":"Feature","geometry":{"type":"Point","coordinates":[10.73923,45.50499]},"properties":{"id":139420,"name":"Lazise","state_code":"VR","country_code":"IT"}},{"type":"Feature","geometry":{"type":"Point","coordinates":[11.30227,45.19365]},"properties":{"id":139435,"name":"Legnago","state_code":"VR","country_code":"IT"}},{"type":"Feature","geometry":{"type":"Point","coordinates":[10.88402,45.43327]},"properties":{"id":139643,"name":"Lugagnano","state_code":"VR","country_code":"IT"}},{"type":"Feature","geometry":{"type":"Point","coordinates":[11.13499,45.14276]},"properties":{"id":139686,"name":"Maccacari","state_code":"VR","country_code":"IT"}},{"type":"Feature","geometry":{"type":"Point","coordinates":[10.76229,45.70084]},"properties":{"id":139744,"name":"Magugnano","state_code":"VR","country_code":"IT"}},{"type":"Feature","geometry":{"type":"Point","coordinates":[10.78677,45.29912]},"properties":{"id":139756,"name":"Malavicina","state_code":"VR","country_code":"IT"}},{"type":"Feature","geometry":{"type":"Point","coordinates":[10.80863,45.7614]},"properties":{"id":139758,"name":"Malcesine","state_code":"VR","country_code":"IT"}},{"type":"Feature","geometry":{"type":"Point","coordinates":[10.91622,45.55637]},"properties":{"id":139828,"name":"Marano di Valpolicella","state_code":"VR","country_code":"IT"}},{"type":"Feature","geometry":{"type":"Point","coordinates":[11,45.36667]},"properties":{"id":139843,"name":"Marchesino-Bovo","state_code":"VR","country_code":"IT"}},{"type":"Feature","geometry":{"type":"Point","coordinates":[11.12729,45.48199]},"properties":{"id":140109,"name":"Mezzane di Sotto","state_code":"VR","country_code":"IT"}},{"type":"Feature","geometry":{"type":"Point","coordinates":[11.35249,45.23198]},"properties":{"id":140157,"name":"Minerbe","state_code":"VR","country_code":"IT"}},{"type":"Feature","geometry":{"type":"Point","coordinates":[11.25438,45.4819]},"properties":{"id":140408,"name":"Montecchia di Crosara","state_code":"VR","country_code":"IT"}},{"type":"Feature","geometry":{"type":"Point","coordinates":[11.28446,45.42013]},"properties":{"id":140445,"name":"Monteforte d'Alpone","state_code":"VR","country_code":"IT"}},{"type":"Feature","geometry":{"type":"Point","coordinates":[11.13729,45.42965]},"properties":{"id":140563,"name":"Monticelli-Fontana","state_code":"VR","country_code":"IT"}},{"type":"Feature","geometry":{"type":"Point","coordinates":[11.06589,45.45826]},"properties":{"id":140583,"name":"Montorio","state_code":"VR","country_code":"IT"}},{"type":"Feature","geometry":{"type":"Point","coordinates":[10.81554,45.30763]},"properties":{"id":140674,"name":"Mozzecane","state_code":"VR","country_code":"IT"}},{"type":"Feature","geometry":{"type":"Point","coordinates":[10.93899,45.52918]},"properties":{"id":140735,"name":"Negrar","state_code":"VR","country_code":"IT"}},{"type":"Feature","geometry":{"type":"Point","coordinates":[11.06008,45.18109]},"properties":{"id":140791,"name":"Nogara","state_code":"VR","country_code":"IT"}},{"type":"Feature","geometry":{"type":"Point","coordinates":[10.88342,45.29027]},"properties":{"id":140793,"name":"Nogarole Rocca","state_code":"VR","country_code":"IT"}},{"type":"Feature","geometry":{"type":"Point","coordinates":[11.18005,45.30331]},"properties":{"id":140933,"name":"Oppeano","state_code":"VR","country_code":"IT"}},{"type":"Feature","geometry":{"type":"Point","coordinates":[11.15635,45.32473]},"properties":{"id":58270,"name":"Palù","state_code":"VR","country_code":"IT"}},{"type":"Feature","geometry":{"type":"Point","coordinates":[10.94414,45.47882]},"properties":{"id":58312,"name":"Parona","state_code":"VR","country_code":"IT"}},{"type":"Feature","geometry":{"type":"Point","coordinates":[10.79897,45.49588]},"properties":{"id":58340,"name":"Pastrengo","state_code":"VR","country_code":"IT"}},{"type":"Feature","geometry":{"type":"Point","coordinates":[10.86796,45.48548]},"properties":{"id":58449,"name":"Pescantina","state_code":"VR","country_code":"IT"}},{"type":"Feature","geometry":{"type":"Point","coordinates":[10.68614,45.43912]},"properties":{"id":58456,"name":"Peschiera del Garda","state_code":"VR","country_code":"IT"}},{"type":"Feature","geometry":{"type":"Point","coordinates":[11.14244,45.21585]},"properties":{"id":58562,"name":"Piazza","state_code":"VR","country_code":"IT"}},{"type":"Feature","geometry":{"type":"Point","coordinates":[11.01875,45.47029]},"properties":{"id":58780,"name":"Poiano","state_code":"VR","country_code":"IT"}},{"type":"Feature","geometry":{"type":"Point","coordinates":[10.88056,45.3473]},"properties":{"id":58969,"name":"Povegliano Veronese","state_code":"VR","country_code":"IT"}},{"type":"Feature","geometry":{"type":"Point","coordinates":[10.87083,45.28315]},"properties":{"id":58995,"name":"Pradelle","state_code":"VR","country_code":"IT"}},{"type":"Feature","geometry":{"type":"Point","coordinates":[11.40724,45.28258]},"properties":{"id":59068,"name":"Pressana","state_code":"VR","country_code":"IT"}},{"type":"Feature","geometry":{"type":"Point","coordinates":[10.78951,45.32915]},"properties":{"id":59210,"name":"Quaderni","state_code":"VR","country_code":"IT"}},{"type":"Feature","geometry":{"type":"Point","coordinates":[11.03786,45.34921]},"properties":{"id":59271,"name":"Raldon","state_code":"VR","country_code":"IT"}},{"type":"Feature","geometry":{"type":"Point","coordinates":[10.89336,45.65714]},"properties":{"id":59422,"name":"Rivalta","state_code":"VR","country_code":"IT"}},{"type":"Feature","geometry":{"type":"Point","coordinates":[10.81178,45.57249]},"properties":{"id":59442,"name":"Rivoli Veronese","state_code":"VR","country_code":"IT"}},{"type":"Feature","geometry":{"type":"Point","coordinates":[11.29323,45.47987]},"properties":{"id":59613,"name":"Roncà","state_code":"VR","country_code":"IT"}},{"type":"Feature","geometry":{"type":"Point","coordinates":[11.10349,45.14318]},"properties":{"id":59591,"name":"Roncanova","state_code":"VR","country_code":"IT"}},{"type":"Feature","geometry":{"type":"Point","coordinates":[11.23658,45.33647]},"properties":{"id":59601,"name":"Ronco All'Adige","state_code":"VR","country_code":"IT"}},{"type":"Feature","geometry":{"type":"Point","coordinates":[10.80854,45.34361]},"properties":{"id":59633,"name":"Rosegaferro","state_code":"VR","country_code":"IT"}},{"type":"Feature","geometry":{"type":"Point","coordinates":[11.2451,45.26799]},"properties":{"id":59675,"name":"Roverchiara","state_code":"VR","country_code":"IT"}},{"type":"Feature","geometry":{"type":"Point","coordinates":[11.06999,45.59329]},"properties":{"id":59680,"name":"Roverè Veronese","state_code":"VR","country_code":"IT"}},{"type":"Feature","geometry":{"type":"Point","coordinates":[11.4442,45.27309]},"properties":{"id":59676,"name":"Roveredo di Guà","state_code":"VR","country_code":"IT"}},{"type":"Feature","geometry":{"type":"Point","coordinates":[11.0954,45.24004]},"properties":{"id":59776,"name":"Salizzole","state_code":"VR","country_code":"IT"}},{"type":"Feature","geometry":{"type":"Point","coordinates":[11.27352,45.39595]},"properties":{"id":59846,"name":"San Bonifacio","state_code":"VR","country_code":"IT"}},{"type":"Feature","geometry":{"type":"Point","coordinates":[10.90817,45.51796]},"properties":{"id":59922,"name":"San Floriano","state_code":"VR","country_code":"IT"}},{"type":"Feature","geometry":{"type":"Point","coordinates":[10.78906,45.42676]},"properties":{"id":59975,"name":"San Giorgio in Salici","state_code":"VR","country_code":"IT"}},{"type":"Feature","geometry":{"type":"Point","coordinates":[11.23707,45.51927]},"properties":{"id":59984,"name":"San Giovanni Ilarione","state_code":"VR","country_code":"IT"}},{"type":"Feature","geometry":{"type":"Point","coordinates":[11.04474,45.38193]},"properties":{"id":59987,"name":"San Giovanni Lupatoto","state_code":"VR","country_code":"IT"}},{"type":"Feature","geometry":{"type":"Point","coordinates":[11.29933,45.34286]},"properties":{"id":60019,"name":"San Gregorio","state_code":"VR","country_code":"IT"}},{"type":"Feature","geometry":{"type":"Point","coordinates":[11.09562,45.42083]},"properties":{"id":60073,"name":"San Martino Buon Albergo","state_code":"VR","country_code":"IT"}},{"type":"Feature","geometry":{"type":"Point","coordinates":[11.11234,45.56452]},"properties":{"id":60112,"name":"San Mauro di Saline","state_code":"VR","country_code":"IT"}},{"type":"Feature","geometry":{"type":"Point","coordinates":[11.12968,45.44209]},"properties":{"id":60171,"name":"San Pietro","state_code":"VR","country_code":"IT"}},{"type":"Feature","geometry":{"type":"Point","coordinates":[11.227,45.24248]},"properties":{"id":60194,"name":"San Pietro di Morubio","state_code":"VR","country_code":"IT"}},{"type":"Feature","geometry":{"type":"Point","coordinates":[10.88624,45.51751]},"properties":{"id":60196,"name":"San Pietro in Cariano","state_code":"VR","country_code":"IT"}},{"type":"Feature","geometry":{"type":"Point","coordinates":[10.89243,45.47163]},"properties":{"id":60279,"name":"San Vito al Mantico","state_code":"VR","country_code":"IT"}},{"type":"Feature","geometry":{"type":"Point","coordinates":[10.73046,45.63381]},"properties":{"id":60290,"name":"San Zeno","state_code":"VR","country_code":"IT"}},{"type":"Feature","geometry":{"type":"Point","coordinates":[10.73218,45.63749]},"properties":{"id":60292,"name":"San Zeno di Montagna","state_code":"VR","country_code":"IT"}},{"type":"Feature","geometry":{"type":"Point","coordinates":[10.78686,45.46067]},"properties":{"id":60301,"name":"Sandrà","state_code":"VR","country_code":"IT"}},{"type":"Feature","geometry":{"type":"Point","coordinates":[11.14412,45.18567]},"properties":{"id":60307,"name":"Sanguinetto","state_code":"VR","country_code":"IT"}},{"type":"Feature","geometry":{"type":"Point","coordinates":[10.83618,45.52089]},"properties":{"id":60338,"name":"Sant'Ambrogio di Valpollicella","state_code":"VR","country_code":"IT"}},{"type":"Feature","geometry":{"type":"Point","coordinates":[10.95168,45.62719]},"properties":{"id":60375,"name":"Sant'Anna d'Alfaedo","state_code":"VR","country_code":"IT"}},{"type":"Feature","geometry":{"type":"Point","coordinates":[11.33199,45.36718]},"properties":{"id":60526,"name":"Santo Stefano-Bonaldo","state_code":"VR","country_code":"IT"}},{"type":"Feature","geometry":{"type":"Point","coordinates":[11.13799,45.61139]},"properties":{"id":60708,"name":"Selva di Progno","state_code":"VR","country_code":"IT"}},{"type":"Feature","geometry":{"type":"Point","coordinates":[10.9091,45.47929]},"properties":{"id":60810,"name":"Settimo","state_code":"VR","country_code":"IT"}},{"type":"Feature","geometry":{"type":"Point","coordinates":[11.24594,45.41955]},"properties":{"id":60890,"name":"Soave","state_code":"VR","country_code":"IT"}},{"type":"Feature","geometry":{"type":"Point","coordinates":[10.84382,45.40528]},"properties":{"id":60930,"name":"Sommacampagna","state_code":"VR","country_code":"IT"}},{"type":"Feature","geometry":{"type":"Point","coordinates":[10.8399,45.43271]},"properties":{"id":60935,"name":"Sona","state_code":"VR","country_code":"IT"}},{"type":"Feature","geometry":{"type":"Point","coordinates":[10.97989,45.21328]},"properties":{"id":60956,"name":"Sorgà","state_code":"VR","country_code":"IT"}},{"type":"Feature","geometry":{"type":"Point","coordinates":[11.37202,45.14398]},"properties":{"id":61021,"name":"Spinimbecco","state_code":"VR","country_code":"IT"}},{"type":"Feature","geometry":{"type":"Point","coordinates":[10.99669,45.56289]},"properties":{"id":61044,"name":"Stallavena-Lugo","state_code":"VR","country_code":"IT"}},{"type":"Feature","geometry":{"type":"Point","coordinates":[11.15749,45.42367]},"properties":{"id":61104,"name":"Strà-Montanara-Pieve","state_code":"VR","country_code":"IT"}},{"type":"Feature","geometry":{"type":"Point","coordinates":[11.39485,45.1726]},"properties":{"id":61249,"name":"Terrazzo","state_code":"VR","country_code":"IT"}},{"type":"Feature","geometry":{"type":"Point","coordinates":[10.68669,45.61013]},"properties":{"id":61394,"name":"Torri del Benaco","state_code":"VR","country_code":"IT"}},{"type":"Feature","geometry":{"type":"Point","coordinates":[11.16421,45.51397]},"properties":{"id":61474,"name":"Tregnago","state_code":"VR","country_code":"IT"}},{"type":"Feature","geometry":{"type":"Point","coordinates":[10.93386,45.26974]},"properties":{"id":61500,"name":"Trevenzuolo","state_code":"VR","country_code":"IT"}},{"type":"Feature","geometry":{"type":"Point","coordinates":[11.1302,45.41986]},"properties":{"id":61636,"name":"Vago","state_code":"VR","country_code":"IT"}},{"type":"Feature","geometry":{"type":"Point","coordinates":[10.73635,45.35333]},"properties":{"id":61661,"name":"Valeggio sul Mincio","state_code":"VR","country_code":"IT"}},{"type":"Feature","geometry":{"type":"Point","coordinates":[10.91191,45.53467]},"properties":{"id":61672,"name":"Valgatara","state_code":"VR","country_code":"IT"}},{"type":"Feature","geometry":{"type":"Point","coordinates":[11.08608,45.32827]},"properties":{"id":61717,"name":"Vallese","state_code":"VR","country_code":"IT"}},{"type":"Feature","geometry":{"type":"Point","coordinates":[11.09519,45.60669]},"properties":{"id":61805,"name":"Velo Veronese","state_code":"VR","country_code":"IT"}},{"type":"Feature","geometry":{"type":"Point","coordinates":[10.98444,45.4299]},"properties":{"id":61863,"name":"Verona","state_code":"VR","country_code":"IT"}},{"type":"Feature","geometry":{"type":"Point","coordinates":[11.32582,45.32378]},"properties":{"id":61864,"name":"Veronella","state_code":"VR","country_code":"IT"}},{"type":"Feature","geometry":{"type":"Point","coordinates":[11.22868,45.57421]},"properties":{"id":61885,"name":"Vestenanova","state_code":"VR","country_code":"IT"}},{"type":"Feature","geometry":{"type":"Point","coordinates":[10.94371,45.3178]},"properties":{"id":61942,"name":"Vigasio","state_code":"VR","country_code":"IT"}},{"type":"Feature","geometry":{"type":"Point","coordinates":[11.3538,45.15461]},"properties":{"id":61985,"name":"Villa Bartolomea","state_code":"VR","country_code":"IT"}},{"type":"Feature","geometry":{"type":"Point","coordinates":[10.84462,45.35405]},"properties":{"id":62061,"name":"Villafranca di Verona","state_code":"VR","country_code":"IT"}},{"type":"Feature","geometry":{"type":"Point","coordinates":[10.8182,45.53684]},"properties":{"id":62205,"name":"Volargne","state_code":"VR","country_code":"IT"}},{"type":"Feature","geometry":{"type":"Point","coordinates":[11.12929,45.37209]},"properties":{"id":62256,"name":"Zevio","state_code":"VR","country_code":"IT"}}]}