{"type":"FeatureCollection","features":[{"type":"Feature","geometry":{"type":"Point","coordinates":[-2.1566922,49.1958468]},"properties":{"id":154119,"name":"Vingtaine Bas de la Vallée","state_code":"06","country_code":"JE"}},{"type":"Feature","geometry":{"type":"Point","coordinates":[-2.1269749,49.2207436]},"properties":{"id":154120,"name":"Vingtaine du Coin Hatain","state_code":"06","country_code":"JE"}},{"type":"Feature","geometry":{"type":"Point","coordinates":[-2.139654,49.2249017]},"properties":{"id":154121,"name":"Vingtaine du Coin Motier","state_code":"06","country_code":"JE"}},{"type":"Feature","geometry":{"type":"Point","coordinates":[-2.1509257,49.2292499]},"properties":{"id":154122,"name":"Vingtaine du Coin Tourgis Nord","state_code":"06","country_code":"JE"}},{"type":"Feature","geometry":{"type":"Point","coordinates":[-2.1526433,49.2105946]},"properties":{"id":154123,"name":"Vingtaine du Coin Tourgis Sud","state_code":"06","country_code":"JE"}}]}