{"type":"FeatureCollection","features":[{"type":"Feature","geometry":{"type":"Point","coordinates":[-2.0619937,49.1720713]},"properties":{"id":154106,"name":"Grande Vingtaine","state_code":"03","country_code":"JE"}},{"type":"Feature","geometry":{"type":"Point","coordinates":[-2.0988029,49.1649758]},"properties":{"id":154108,"name":"Vingtaine de Samarès","state_code":"03","country_code":"JE"}},{"type":"Feature","geometry":{"type":"Point","coordinates":[-2.0654384,49.172505]},"properties":{"id":154107,"name":"Vingtaine du Rocquier","state_code":"03","country_code":"JE"}}]}