{"type":"FeatureCollection","features":[{"type":"Feature","geometry":{"type":"Point","coordinates":[-76.34216,17.92506]},"properties":{"id":62296,"name":"Airy Castle","state_code":"03","country_code":"JM"}},{"type":"Feature","geometry":{"type":"Point","coordinates":[-76.60761,17.90119]},"properties":{"id":62299,"name":"Albion","state_code":"03","country_code":"JM"}},{"type":"Feature","geometry":{"type":"Point","coordinates":[-76.25698,17.96759]},"properties":{"id":62311,"name":"Amity Hall","state_code":"03","country_code":"JM"}},{"type":"Feature","geometry":{"type":"Point","coordinates":[-76.3003,17.9223]},"properties":{"id":62314,"name":"Arcadia","state_code":"03","country_code":"JM"}},{"type":"Feature","geometry":{"type":"Point","coordinates":[-76.57837,17.87666]},"properties":{"id":62332,"name":"Baptist","state_code":"03","country_code":"JM"}},{"type":"Feature","geometry":{"type":"Point","coordinates":[-76.28922,17.89279]},"properties":{"id":62335,"name":"Barking Lodge","state_code":"03","country_code":"JM"}},{"type":"Feature","geometry":{"type":"Point","coordinates":[-76.34916,17.9482]},"properties":{"id":62339,"name":"Bath","state_code":"03","country_code":"JM"}},{"type":"Feature","geometry":{"type":"Point","coordinates":[-76.5805,17.98527]},"properties":{"id":62355,"name":"Bethel","state_code":"03","country_code":"JM"}},{"type":"Feature","geometry":{"type":"Point","coordinates":[-76.59556,18.02815]},"properties":{"id":62438,"name":"Cedar Valley","state_code":"03","country_code":"JM"}},{"type":"Feature","geometry":{"type":"Point","coordinates":[-76.41898,17.88718]},"properties":{"id":62455,"name":"Church Corner","state_code":"03","country_code":"JM"}},{"type":"Feature","geometry":{"type":"Point","coordinates":[-76.25001,17.90241]},"properties":{"id":62500,"name":"Dalvey","state_code":"03","country_code":"JM"}},{"type":"Feature","geometry":{"type":"Point","coordinates":[-76.47586,17.9288]},"properties":{"id":62502,"name":"Danvers Pen","state_code":"03","country_code":"JM"}},{"type":"Feature","geometry":{"type":"Point","coordinates":[-76.22657,17.92205]},"properties":{"id":62522,"name":"Duckenfield","state_code":"03","country_code":"JM"}},{"type":"Feature","geometry":{"type":"Point","coordinates":[-76.43193,17.89402]},"properties":{"id":62524,"name":"Duhaney Pen","state_code":"03","country_code":"JM"}},{"type":"Feature","geometry":{"type":"Point","coordinates":[-76.58824,17.92397]},"properties":{"id":62529,"name":"Easington","state_code":"03","country_code":"JM"}},{"type":"Feature","geometry":{"type":"Point","coordinates":[-76.64337,17.93745]},"properties":{"id":62535,"name":"Eleven Miles","state_code":"03","country_code":"JM"}},{"type":"Feature","geometry":{"type":"Point","coordinates":[-76.51169,17.94055]},"properties":{"id":62561,"name":"Font Hill","state_code":"03","country_code":"JM"}},{"type":"Feature","geometry":{"type":"Point","coordinates":[-76.27254,17.93361]},"properties":{"id":62592,"name":"Golden Grove","state_code":"03","country_code":"JM"}},{"type":"Feature","geometry":{"type":"Point","coordinates":[-76.62777,18.04845]},"properties":{"id":62622,"name":"Hagley Gap","state_code":"03","country_code":"JM"}},{"type":"Feature","geometry":{"type":"Point","coordinates":[-76.26131,17.91782]},"properties":{"id":62627,"name":"Hampton Court","state_code":"03","country_code":"JM"}},{"type":"Feature","geometry":{"type":"Point","coordinates":[-76.36841,17.98199]},"properties":{"id":62639,"name":"Hayfield","state_code":"03","country_code":"JM"}},{"type":"Feature","geometry":{"type":"Point","coordinates":[-76.49082,17.99619]},"properties":{"id":62649,"name":"Hillside","state_code":"03","country_code":"JM"}},{"type":"Feature","geometry":{"type":"Point","coordinates":[-76.36136,17.89659]},"properties":{"id":62677,"name":"Johns Town","state_code":"03","country_code":"JM"}},{"type":"Feature","geometry":{"type":"Point","coordinates":[-76.31986,17.98091]},"properties":{"id":62678,"name":"Johnson Mountain","state_code":"03","country_code":"JM"}},{"type":"Feature","geometry":{"type":"Point","coordinates":[-76.54775,17.95068]},"properties":{"id":62680,"name":"Jones Pen","state_code":"03","country_code":"JM"}},{"type":"Feature","geometry":{"type":"Point","coordinates":[-76.34331,17.87973]},"properties":{"id":62706,"name":"Leith Hall","state_code":"03","country_code":"JM"}},{"type":"Feature","geometry":{"type":"Point","coordinates":[-76.62245,17.94477]},"properties":{"id":62719,"name":"Llandewey","state_code":"03","country_code":"JM"}},{"type":"Feature","geometry":{"type":"Point","coordinates":[-76.54085,17.91504]},"properties":{"id":62721,"name":"Lloyds","state_code":"03","country_code":"JM"}},{"type":"Feature","geometry":{"type":"Point","coordinates":[-76.37961,17.88708]},"properties":{"id":62735,"name":"Lyssons","state_code":"03","country_code":"JM"}},{"type":"Feature","geometry":{"type":"Point","coordinates":[-76.43558,17.93971]},"properties":{"id":62772,"name":"Middleton","state_code":"03","country_code":"JM"}},{"type":"Feature","geometry":{"type":"Point","coordinates":[-76.40927,17.88145]},"properties":{"id":62789,"name":"Morant Bay","state_code":"03","country_code":"JM"}},{"type":"Feature","geometry":{"type":"Point","coordinates":[-76.53891,17.97544]},"properties":{"id":62797,"name":"Mount Lebanus","state_code":"03","country_code":"JM"}},{"type":"Feature","geometry":{"type":"Point","coordinates":[-76.57333,17.99158]},"properties":{"id":62820,"name":"New Monkland","state_code":"03","country_code":"JM"}},{"type":"Feature","geometry":{"type":"Point","coordinates":[-76.51736,17.8757]},"properties":{"id":62850,"name":"Pamphret","state_code":"03","country_code":"JM"}},{"type":"Feature","geometry":{"type":"Point","coordinates":[-76.31676,17.91162]},"properties":{"id":62869,"name":"Pear Tree","state_code":"03","country_code":"JM"}},{"type":"Feature","geometry":{"type":"Point","coordinates":[-76.58351,17.89152]},"properties":{"id":62891,"name":"Poormans Corner","state_code":"03","country_code":"JM"}},{"type":"Feature","geometry":{"type":"Point","coordinates":[-76.34286,17.89947]},"properties":{"id":62894,"name":"Port Morant","state_code":"03","country_code":"JM"}},{"type":"Feature","geometry":{"type":"Point","coordinates":[-76.34956,17.87404]},"properties":{"id":62907,"name":"Prospect","state_code":"03","country_code":"JM"}},{"type":"Feature","geometry":{"type":"Point","coordinates":[-76.6263,17.96791]},"properties":{"id":62912,"name":"Ramble","state_code":"03","country_code":"JM"}},{"type":"Feature","geometry":{"type":"Point","coordinates":[-76.36795,17.8776]},"properties":{"id":62925,"name":"Retreat","state_code":"03","country_code":"JM"}},{"type":"Feature","geometry":{"type":"Point","coordinates":[-76.59044,17.97435]},"properties":{"id":62932,"name":"Richmond Vale","state_code":"03","country_code":"JM"}},{"type":"Feature","geometry":{"type":"Point","coordinates":[-76.61082,17.99237]},"properties":{"id":62936,"name":"River Head","state_code":"03","country_code":"JM"}},{"type":"Feature","geometry":{"type":"Point","coordinates":[-76.28781,17.97355]},"properties":{"id":62957,"name":"Rowlandsfield","state_code":"03","country_code":"JM"}},{"type":"Feature","geometry":{"type":"Point","coordinates":[-76.45661,17.94421]},"properties":{"id":62980,"name":"Seaforth","state_code":"03","country_code":"JM"}},{"type":"Feature","geometry":{"type":"Point","coordinates":[-76.54595,18.00976]},"properties":{"id":63001,"name":"Somerset","state_code":"03","country_code":"JM"}},{"type":"Feature","geometry":{"type":"Point","coordinates":[-76.32596,17.95995]},"properties":{"id":63011,"name":"Spring Bank","state_code":"03","country_code":"JM"}},{"type":"Feature","geometry":{"type":"Point","coordinates":[-76.42978,17.91749]},"properties":{"id":63012,"name":"Spring Garden","state_code":"03","country_code":"JM"}},{"type":"Feature","geometry":{"type":"Point","coordinates":[-76.40931,17.95612]},"properties":{"id":63042,"name":"Sunning Hill","state_code":"03","country_code":"JM"}},{"type":"Feature","geometry":{"type":"Point","coordinates":[-76.51427,17.96076]},"properties":{"id":63064,"name":"Trinity Ville","state_code":"03","country_code":"JM"}},{"type":"Feature","geometry":{"type":"Point","coordinates":[-76.29623,17.95874]},"properties":{"id":63098,"name":"Wheelerfield","state_code":"03","country_code":"JM"}},{"type":"Feature","geometry":{"type":"Point","coordinates":[-76.43105,17.99805]},"properties":{"id":63099,"name":"White Hall","state_code":"03","country_code":"JM"}},{"type":"Feature","geometry":{"type":"Point","coordinates":[-76.47076,17.8962]},"properties":{"id":63101,"name":"White Horses","state_code":"03","country_code":"JM"}},{"type":"Feature","geometry":{"type":"Point","coordinates":[-76.38962,17.92856]},"properties":{"id":63109,"name":"Wilmington","state_code":"03","country_code":"JM"}},{"type":"Feature","geometry":{"type":"Point","coordinates":[-76.29823,17.94177]},"properties":{"id":63112,"name":"Winchester","state_code":"03","country_code":"JM"}},{"type":"Feature","geometry":{"type":"Point","coordinates":[-76.56245,17.8748]},"properties":{"id":63124,"name":"Yallahs","state_code":"03","country_code":"JM"}},{"type":"Feature","geometry":{"type":"Point","coordinates":[-76.43983,17.92849]},"properties":{"id":63125,"name":"York","state_code":"03","country_code":"JM"}}]}