{"type":"FeatureCollection","features":[{"type":"Feature","geometry":{"type":"Point","coordinates":[-77.56068,17.88369]},"properties":{"id":62304,"name":"Alligator Pond","state_code":"12","country_code":"JM"}},{"type":"Feature","geometry":{"type":"Point","coordinates":[-77.41563,17.91584]},"properties":{"id":62321,"name":"Asia/Pratville","state_code":"12","country_code":"JM"}},{"type":"Feature","geometry":{"type":"Point","coordinates":[-77.60361,18.22543]},"properties":{"id":62323,"name":"Auchtembeddie","state_code":"12","country_code":"JM"}},{"type":"Feature","geometry":{"type":"Point","coordinates":[-77.44004,18.09266]},"properties":{"id":62349,"name":"Bellefield","state_code":"12","country_code":"JM"}},{"type":"Feature","geometry":{"type":"Point","coordinates":[-77.55032,18.15373]},"properties":{"id":62354,"name":"Bethany","state_code":"12","country_code":"JM"}},{"type":"Feature","geometry":{"type":"Point","coordinates":[-77.4284,18.07095]},"properties":{"id":62366,"name":"Blue Mountain","state_code":"12","country_code":"JM"}},{"type":"Feature","geometry":{"type":"Point","coordinates":[-77.4494,18.1178]},"properties":{"id":62374,"name":"Bombay","state_code":"12","country_code":"JM"}},{"type":"Feature","geometry":{"type":"Point","coordinates":[-77.57777,17.97313]},"properties":{"id":62407,"name":"Butt-Up","state_code":"12","country_code":"JM"}},{"type":"Feature","geometry":{"type":"Point","coordinates":[-77.4963,18.01225]},"properties":{"id":62437,"name":"Cedar Grove","state_code":"12","country_code":"JM"}},{"type":"Feature","geometry":{"type":"Point","coordinates":[-77.46625,18.10447]},"properties":{"id":62444,"name":"Chantilly","state_code":"12","country_code":"JM"}},{"type":"Feature","geometry":{"type":"Point","coordinates":[-77.49045,18.18015]},"properties":{"id":62453,"name":"Christiana","state_code":"12","country_code":"JM"}},{"type":"Feature","geometry":{"type":"Point","coordinates":[-77.50707,18.15148]},"properties":{"id":62454,"name":"Chudleigh","state_code":"12","country_code":"JM"}},{"type":"Feature","geometry":{"type":"Point","coordinates":[-77.46998,18.1406]},"properties":{"id":62460,"name":"Cobbla","state_code":"12","country_code":"JM"}},{"type":"Feature","geometry":{"type":"Point","coordinates":[-77.51924,18.19993]},"properties":{"id":62465,"name":"Coleyville","state_code":"12","country_code":"JM"}},{"type":"Feature","geometry":{"type":"Point","coordinates":[-77.42477,18.0539]},"properties":{"id":62467,"name":"Comfort","state_code":"12","country_code":"JM"}},{"type":"Feature","geometry":{"type":"Point","coordinates":[-77.61041,18.18789]},"properties":{"id":62470,"name":"Comfort Hall","state_code":"12","country_code":"JM"}},{"type":"Feature","geometry":{"type":"Point","coordinates":[-77.45116,18.07444]},"properties":{"id":62474,"name":"Content","state_code":"12","country_code":"JM"}},{"type":"Feature","geometry":{"type":"Point","coordinates":[-77.56295,18.23658]},"properties":{"id":62486,"name":"Craig Head","state_code":"12","country_code":"JM"}},{"type":"Feature","geometry":{"type":"Point","coordinates":[-77.50111,17.90727]},"properties":{"id":62492,"name":"Cross Keys","state_code":"12","country_code":"JM"}},{"type":"Feature","geometry":{"type":"Point","coordinates":[-77.52507,18.16595]},"properties":{"id":62510,"name":"Devon","state_code":"12","country_code":"JM"}},{"type":"Feature","geometry":{"type":"Point","coordinates":[-77.57313,17.95004]},"properties":{"id":62517,"name":"Downs","state_code":"12","country_code":"JM"}},{"type":"Feature","geometry":{"type":"Point","coordinates":[-77.43931,17.96796]},"properties":{"id":62536,"name":"Ellen Street","state_code":"12","country_code":"JM"}},{"type":"Feature","geometry":{"type":"Point","coordinates":[-77.59965,18.15096]},"properties":{"id":62543,"name":"Evergreen","state_code":"12","country_code":"JM"}},{"type":"Feature","geometry":{"type":"Point","coordinates":[-77.57535,18.03117]},"properties":{"id":62547,"name":"Fairfield","state_code":"12","country_code":"JM"}},{"type":"Feature","geometry":{"type":"Point","coordinates":[-77.54471,17.95572]},"properties":{"id":62571,"name":"French Park","state_code":"12","country_code":"JM"}},{"type":"Feature","geometry":{"type":"Point","coordinates":[-77.48081,18.03172]},"properties":{"id":62581,"name":"George's Valley","state_code":"12","country_code":"JM"}},{"type":"Feature","geometry":{"type":"Point","coordinates":[-77.57086,18.20806]},"properties":{"id":62595,"name":"Good Intent","state_code":"12","country_code":"JM"}},{"type":"Feature","geometry":{"type":"Point","coordinates":[-77.53239,18.03928]},"properties":{"id":62613,"name":"Greenvale","state_code":"12","country_code":"JM"}},{"type":"Feature","geometry":{"type":"Point","coordinates":[-77.52923,18.10467]},"properties":{"id":62617,"name":"Grove Place","state_code":"12","country_code":"JM"}},{"type":"Feature","geometry":{"type":"Point","coordinates":[-77.45882,17.88606]},"properties":{"id":62618,"name":"Grove Town","state_code":"12","country_code":"JM"}},{"type":"Feature","geometry":{"type":"Point","coordinates":[-77.41208,17.98171]},"properties":{"id":62633,"name":"Harmons","state_code":"12","country_code":"JM"}},{"type":"Feature","geometry":{"type":"Point","coordinates":[-77.57611,18.17314]},"properties":{"id":62635,"name":"Harry Watch","state_code":"12","country_code":"JM"}},{"type":"Feature","geometry":{"type":"Point","coordinates":[-77.54009,18.01557]},"properties":{"id":62636,"name":"Hatfield","state_code":"12","country_code":"JM"}},{"type":"Feature","geometry":{"type":"Point","coordinates":[-77.48238,18.04878]},"properties":{"id":62641,"name":"Heartease","state_code":"12","country_code":"JM"}},{"type":"Feature","geometry":{"type":"Point","coordinates":[-77.5483,18.17575]},"properties":{"id":62646,"name":"Hibernia","state_code":"12","country_code":"JM"}},{"type":"Feature","geometry":{"type":"Point","coordinates":[-77.58171,18.06647]},"properties":{"id":62659,"name":"Huntley","state_code":"12","country_code":"JM"}},{"type":"Feature","geometry":{"type":"Point","coordinates":[-77.5032,18.08318]},"properties":{"id":62686,"name":"Kendal","state_code":"12","country_code":"JM"}},{"type":"Feature","geometry":{"type":"Point","coordinates":[-77.4927,17.99027]},"properties":{"id":62697,"name":"Knockpatrick","state_code":"12","country_code":"JM"}},{"type":"Feature","geometry":{"type":"Point","coordinates":[-77.46134,17.93603]},"properties":{"id":62701,"name":"Lancaster","state_code":"12","country_code":"JM"}},{"type":"Feature","geometry":{"type":"Point","coordinates":[-77.52448,18.13502]},"properties":{"id":62716,"name":"Litchfield","state_code":"12","country_code":"JM"}},{"type":"Feature","geometry":{"type":"Point","coordinates":[-77.57284,18.10165]},"properties":{"id":62740,"name":"Maidstone","state_code":"12","country_code":"JM"}},{"type":"Feature","geometry":{"type":"Point","coordinates":[-77.50714,18.04168]},"properties":{"id":62745,"name":"Mandeville","state_code":"12","country_code":"JM"}},{"type":"Feature","geometry":{"type":"Point","coordinates":[-77.50574,18.04453]},"properties":{"id":62746,"name":"Mandeville Proper","state_code":"12","country_code":"JM"}},{"type":"Feature","geometry":{"type":"Point","coordinates":[-77.50835,17.86692]},"properties":{"id":62753,"name":"Marlie Hill","state_code":"12","country_code":"JM"}},{"type":"Feature","geometry":{"type":"Point","coordinates":[-77.47606,18.00951]},"properties":{"id":62763,"name":"May Day","state_code":"12","country_code":"JM"}},{"type":"Feature","geometry":{"type":"Point","coordinates":[-77.59643,18.12236]},"properties":{"id":62769,"name":"Medina","state_code":"12","country_code":"JM"}},{"type":"Feature","geometry":{"type":"Point","coordinates":[-77.5549,18.04253]},"properties":{"id":62773,"name":"Mike Town","state_code":"12","country_code":"JM"}},{"type":"Feature","geometry":{"type":"Point","coordinates":[-77.56556,18.13395]},"properties":{"id":62775,"name":"Mile Gully","state_code":"12","country_code":"JM"}},{"type":"Feature","geometry":{"type":"Point","coordinates":[-77.55867,17.9201]},"properties":{"id":62813,"name":"New Forest","state_code":"12","country_code":"JM"}},{"type":"Feature","geometry":{"type":"Point","coordinates":[-77.52569,18.07663]},"properties":{"id":62814,"name":"New Green","state_code":"12","country_code":"JM"}},{"type":"Feature","geometry":{"type":"Point","coordinates":[-77.50486,17.96293]},"properties":{"id":62824,"name":"Newport","state_code":"12","country_code":"JM"}},{"type":"Feature","geometry":{"type":"Point","coordinates":[-77.46017,17.98503]},"properties":{"id":62837,"name":"Old England","state_code":"12","country_code":"JM"}},{"type":"Feature","geometry":{"type":"Point","coordinates":[-77.42134,18.07912]},"properties":{"id":62856,"name":"Part Of Banana Ground","state_code":"12","country_code":"JM"}},{"type":"Feature","geometry":{"type":"Point","coordinates":[-77.57903,18.00642]},"properties":{"id":62857,"name":"Part Of Gutters","state_code":"12","country_code":"JM"}},{"type":"Feature","geometry":{"type":"Point","coordinates":[-77.46627,18.15819]},"properties":{"id":62864,"name":"Part of Spaldings","state_code":"12","country_code":"JM"}},{"type":"Feature","geometry":{"type":"Point","coordinates":[-77.5379,18.23229]},"properties":{"id":62882,"name":"Pike","state_code":"12","country_code":"JM"}},{"type":"Feature","geometry":{"type":"Point","coordinates":[-77.53846,17.89178]},"properties":{"id":62887,"name":"Plowden","state_code":"12","country_code":"JM"}},{"type":"Feature","geometry":{"type":"Point","coordinates":[-77.41166,18.03535]},"properties":{"id":62900,"name":"Porus","state_code":"12","country_code":"JM"}},{"type":"Feature","geometry":{"type":"Point","coordinates":[-77.56775,17.98244]},"properties":{"id":62905,"name":"Prospect","state_code":"12","country_code":"JM"}},{"type":"Feature","geometry":{"type":"Point","coordinates":[-77.46337,18.0256]},"properties":{"id":62929,"name":"Richmond","state_code":"12","country_code":"JM"}},{"type":"Feature","geometry":{"type":"Point","coordinates":[-77.55007,18.20405]},"properties":{"id":62941,"name":"Robins Hall","state_code":"12","country_code":"JM"}},{"type":"Feature","geometry":{"type":"Point","coordinates":[-77.5234,17.92471]},"properties":{"id":62953,"name":"Rose Hill","state_code":"12","country_code":"JM"}},{"type":"Feature","geometry":{"type":"Point","coordinates":[-77.4683,18.04965]},"properties":{"id":62958,"name":"Royal Flat","state_code":"12","country_code":"JM"}},{"type":"Feature","geometry":{"type":"Point","coordinates":[-77.3982,17.9992]},"properties":{"id":62978,"name":"Scotts Pass","state_code":"12","country_code":"JM"}},{"type":"Feature","geometry":{"type":"Point","coordinates":[-77.49137,17.94198]},"properties":{"id":63000,"name":"Snowdon","state_code":"12","country_code":"JM"}},{"type":"Feature","geometry":{"type":"Point","coordinates":[-77.54306,18.08036]},"properties":{"id":63002,"name":"Somerset","state_code":"12","country_code":"JM"}},{"type":"Feature","geometry":{"type":"Point","coordinates":[-77.47977,18.16233]},"properties":{"id":63014,"name":"Spring Ground","state_code":"12","country_code":"JM"}},{"type":"Feature","geometry":{"type":"Point","coordinates":[-77.55664,18.0065]},"properties":{"id":63018,"name":"Spur Tree","state_code":"12","country_code":"JM"}},{"type":"Feature","geometry":{"type":"Point","coordinates":[-77.612,18.13144]},"properties":{"id":63025,"name":"St. Paul's","state_code":"12","country_code":"JM"}},{"type":"Feature","geometry":{"type":"Point","coordinates":[-77.53326,17.98608]},"properties":{"id":63043,"name":"Swaby's Hope","state_code":"12","country_code":"JM"}},{"type":"Feature","geometry":{"type":"Point","coordinates":[-77.50344,18.11622]},"properties":{"id":63055,"name":"Top Hill","state_code":"12","country_code":"JM"}},{"type":"Feature","geometry":{"type":"Point","coordinates":[-77.37795,17.90472]},"properties":{"id":63076,"name":"Victoria Town","state_code":"12","country_code":"JM"}},{"type":"Feature","geometry":{"type":"Point","coordinates":[-77.48614,18.11637]},"properties":{"id":63080,"name":"Walderston","state_code":"12","country_code":"JM"}},{"type":"Feature","geometry":{"type":"Point","coordinates":[-77.51873,18.00675]},"properties":{"id":63092,"name":"Watham","state_code":"12","country_code":"JM"}},{"type":"Feature","geometry":{"type":"Point","coordinates":[-77.46582,18.06664]},"properties":{"id":63107,"name":"Williamsfield","state_code":"12","country_code":"JM"}}]}