{"type":"FeatureCollection","features":[{"type":"Feature","geometry":{"type":"Point","coordinates":[-77.67932,18.20508]},"properties":{"id":62290,"name":"Aberdeen","state_code":"11","country_code":"JM"}},{"type":"Feature","geometry":{"type":"Point","coordinates":[-77.74816,18.22985]},"properties":{"id":62293,"name":"Accompong","state_code":"11","country_code":"JM"}},{"type":"Feature","geometry":{"type":"Point","coordinates":[-77.56769,17.86932]},"properties":{"id":62303,"name":"Alligator Pond","state_code":"11","country_code":"JM"}},{"type":"Feature","geometry":{"type":"Point","coordinates":[-77.64375,18.17228]},"properties":{"id":62326,"name":"Balaclava","state_code":"11","country_code":"JM"}},{"type":"Feature","geometry":{"type":"Point","coordinates":[-77.63086,17.87949]},"properties":{"id":62328,"name":"Ballards Valley","state_code":"11","country_code":"JM"}},{"type":"Feature","geometry":{"type":"Point","coordinates":[-77.77961,17.968]},"properties":{"id":62333,"name":"Barbary Hall","state_code":"11","country_code":"JM"}},{"type":"Feature","geometry":{"type":"Point","coordinates":[-77.71897,17.93338]},"properties":{"id":62360,"name":"Bigwoods","state_code":"11","country_code":"JM"}},{"type":"Feature","geometry":{"type":"Point","coordinates":[-77.84873,18.02636]},"properties":{"id":62363,"name":"Black River","state_code":"11","country_code":"JM"}},{"type":"Feature","geometry":{"type":"Point","coordinates":[-77.6697,18.13619]},"properties":{"id":62371,"name":"Bogue","state_code":"11","country_code":"JM"}},{"type":"Feature","geometry":{"type":"Point","coordinates":[-77.66487,18.09351]},"properties":{"id":62381,"name":"Braes River","state_code":"11","country_code":"JM"}},{"type":"Feature","geometry":{"type":"Point","coordinates":[-77.85604,18.14836]},"properties":{"id":62390,"name":"Brighton","state_code":"11","country_code":"JM"}},{"type":"Feature","geometry":{"type":"Point","coordinates":[-77.88821,18.06795]},"properties":{"id":62393,"name":"Brompton","state_code":"11","country_code":"JM"}},{"type":"Feature","geometry":{"type":"Point","coordinates":[-77.59022,17.88678]},"properties":{"id":62401,"name":"Bull Savanna","state_code":"11","country_code":"JM"}},{"type":"Feature","geometry":{"type":"Point","coordinates":[-77.59,17.88056]},"properties":{"id":62402,"name":"Bull Savannah","state_code":"11","country_code":"JM"}},{"type":"Feature","geometry":{"type":"Point","coordinates":[-77.74936,18.03177]},"properties":{"id":62405,"name":"Burnt Savannah","state_code":"11","country_code":"JM"}},{"type":"Feature","geometry":{"type":"Point","coordinates":[-77.77367,18.14742]},"properties":{"id":62419,"name":"Carisbrook","state_code":"11","country_code":"JM"}},{"type":"Feature","geometry":{"type":"Point","coordinates":[-77.91553,18.09492]},"properties":{"id":62483,"name":"Cotterwood","state_code":"11","country_code":"JM"}},{"type":"Feature","geometry":{"type":"Point","coordinates":[-77.91596,18.0506]},"properties":{"id":62487,"name":"Crawford","state_code":"11","country_code":"JM"}},{"type":"Feature","geometry":{"type":"Point","coordinates":[-77.79381,18.22416]},"properties":{"id":62534,"name":"Elderslie","state_code":"11","country_code":"JM"}},{"type":"Feature","geometry":{"type":"Point","coordinates":[-77.77572,18.01527]},"properties":{"id":62577,"name":"Fullerswood","state_code":"11","country_code":"JM"}},{"type":"Feature","geometry":{"type":"Point","coordinates":[-77.86764,18.09702]},"properties":{"id":62584,"name":"Giddy Hall","state_code":"11","country_code":"JM"}},{"type":"Feature","geometry":{"type":"Point","coordinates":[-77.84867,18.1918]},"properties":{"id":62586,"name":"Ginger Hill","state_code":"11","country_code":"JM"}},{"type":"Feature","geometry":{"type":"Point","coordinates":[-77.64136,18.04964]},"properties":{"id":62599,"name":"Goshen","state_code":"11","country_code":"JM"}},{"type":"Feature","geometry":{"type":"Point","coordinates":[-77.80164,18.10358]},"properties":{"id":62651,"name":"Holland","state_code":"11","country_code":"JM"}},{"type":"Feature","geometry":{"type":"Point","coordinates":[-77.66239,17.95626]},"properties":{"id":62655,"name":"Hopeton","state_code":"11","country_code":"JM"}},{"type":"Feature","geometry":{"type":"Point","coordinates":[-77.59894,17.91467]},"properties":{"id":62682,"name":"Junction","state_code":"11","country_code":"JM"}},{"type":"Feature","geometry":{"type":"Point","coordinates":[-77.7535,18.08844]},"properties":{"id":62699,"name":"Lacovia","state_code":"11","country_code":"JM"}},{"type":"Feature","geometry":{"type":"Point","coordinates":[-77.68374,18.01399]},"properties":{"id":62705,"name":"Leeds","state_code":"11","country_code":"JM"}},{"type":"Feature","geometry":{"type":"Point","coordinates":[-77.59511,17.94033]},"properties":{"id":62717,"name":"Lititz","state_code":"11","country_code":"JM"}},{"type":"Feature","geometry":{"type":"Point","coordinates":[-77.76681,18.17343]},"properties":{"id":62739,"name":"Maggotty","state_code":"11","country_code":"JM"}},{"type":"Feature","geometry":{"type":"Point","coordinates":[-77.7,17.96667]},"properties":{"id":62743,"name":"Malvern","state_code":"11","country_code":"JM"}},{"type":"Feature","geometry":{"type":"Point","coordinates":[-77.83773,18.21793]},"properties":{"id":62770,"name":"Merrywood","state_code":"11","country_code":"JM"}},{"type":"Feature","geometry":{"type":"Point","coordinates":[-77.83808,18.11455]},"properties":{"id":62771,"name":"Middle Quarters","state_code":"11","country_code":"JM"}},{"type":"Feature","geometry":{"type":"Point","coordinates":[-77.74786,17.98077]},"properties":{"id":62805,"name":"Mountainside","state_code":"11","country_code":"JM"}},{"type":"Feature","geometry":{"type":"Point","coordinates":[-77.82018,18.21164]},"properties":{"id":62806,"name":"Mulgrave","state_code":"11","country_code":"JM"}},{"type":"Feature","geometry":{"type":"Point","coordinates":[-77.62425,17.99699]},"properties":{"id":62807,"name":"Myersville","state_code":"11","country_code":"JM"}},{"type":"Feature","geometry":{"type":"Point","coordinates":[-77.60528,17.96526]},"properties":{"id":62809,"name":"Nain","state_code":"11","country_code":"JM"}},{"type":"Feature","geometry":{"type":"Point","coordinates":[-77.90962,18.15362]},"properties":{"id":62818,"name":"New Market","state_code":"11","country_code":"JM"}},{"type":"Feature","geometry":{"type":"Point","coordinates":[-77.74653,17.92103]},"properties":{"id":62823,"name":"Newell","state_code":"11","country_code":"JM"}},{"type":"Feature","geometry":{"type":"Point","coordinates":[-77.72352,18.11095]},"properties":{"id":62826,"name":"Newton","state_code":"11","country_code":"JM"}},{"type":"Feature","geometry":{"type":"Point","coordinates":[-77.81774,17.96174]},"properties":{"id":62854,"name":"Parottee","state_code":"11","country_code":"JM"}},{"type":"Feature","geometry":{"type":"Point","coordinates":[-77.71337,17.88569]},"properties":{"id":62872,"name":"Pedro Plains","state_code":"11","country_code":"JM"}},{"type":"Feature","geometry":{"type":"Point","coordinates":[-77.61284,18.02105]},"properties":{"id":62877,"name":"Pepper","state_code":"11","country_code":"JM"}},{"type":"Feature","geometry":{"type":"Point","coordinates":[-77.88671,18.19605]},"properties":{"id":62884,"name":"Pisgah","state_code":"11","country_code":"JM"}},{"type":"Feature","geometry":{"type":"Point","coordinates":[-77.7945,17.98153]},"properties":{"id":62889,"name":"Pondside","state_code":"11","country_code":"JM"}},{"type":"Feature","geometry":{"type":"Point","coordinates":[-77.66869,17.91872]},"properties":{"id":62902,"name":"Potsdam","state_code":"11","country_code":"JM"}},{"type":"Feature","geometry":{"type":"Point","coordinates":[-77.67831,18.23281]},"properties":{"id":62909,"name":"Quick Step","state_code":"11","country_code":"JM"}},{"type":"Feature","geometry":{"type":"Point","coordinates":[-77.62585,17.93776]},"properties":{"id":62915,"name":"Red Bank","state_code":"11","country_code":"JM"}},{"type":"Feature","geometry":{"type":"Point","coordinates":[-77.76698,18.2074]},"properties":{"id":62923,"name":"Retirement","state_code":"11","country_code":"JM"}},{"type":"Feature","geometry":{"type":"Point","coordinates":[-77.64153,17.92654]},"properties":{"id":62951,"name":"Rose Hall","state_code":"11","country_code":"JM"}},{"type":"Feature","geometry":{"type":"Point","coordinates":[-77.65065,17.98638]},"properties":{"id":62960,"name":"Russels","state_code":"11","country_code":"JM"}},{"type":"Feature","geometry":{"type":"Point","coordinates":[-77.69836,18.05336]},"properties":{"id":62971,"name":"Santa Cruz","state_code":"11","country_code":"JM"}},{"type":"Feature","geometry":{"type":"Point","coordinates":[-77.71884,18.02375]},"properties":{"id":62976,"name":"Scholefield","state_code":"11","country_code":"JM"}},{"type":"Feature","geometry":{"type":"Point","coordinates":[-77.71061,18.16334]},"properties":{"id":62993,"name":"Siloah","state_code":"11","country_code":"JM"}},{"type":"Feature","geometry":{"type":"Point","coordinates":[-77.79687,18.0574]},"properties":{"id":62996,"name":"Slipe","state_code":"11","country_code":"JM"}},{"type":"Feature","geometry":{"type":"Point","coordinates":[-77.66988,17.88212]},"properties":{"id":63004,"name":"Southfield","state_code":"11","country_code":"JM"}},{"type":"Feature","geometry":{"type":"Point","coordinates":[-77.87392,18.17662]},"properties":{"id":63017,"name":"Springfield","state_code":"11","country_code":"JM"}},{"type":"Feature","geometry":{"type":"Point","coordinates":[-77.72246,18.19564]},"properties":{"id":63049,"name":"Thornton","state_code":"11","country_code":"JM"}},{"type":"Feature","geometry":{"type":"Point","coordinates":[-77.63793,17.89317]},"properties":{"id":63054,"name":"Top Hill","state_code":"11","country_code":"JM"}},{"type":"Feature","geometry":{"type":"Point","coordinates":[-77.76051,17.8955]},"properties":{"id":63062,"name":"Treasure Beach","state_code":"11","country_code":"JM"}},{"type":"Feature","geometry":{"type":"Point","coordinates":[-77.63956,17.96238]},"properties":{"id":63083,"name":"Warminister","state_code":"11","country_code":"JM"}},{"type":"Feature","geometry":{"type":"Point","coordinates":[-77.7725,17.93876]},"properties":{"id":63086,"name":"Watchwell","state_code":"11","country_code":"JM"}},{"type":"Feature","geometry":{"type":"Point","coordinates":[-77.81067,18.15646]},"properties":{"id":63100,"name":"White Hill","state_code":"11","country_code":"JM"}}]}