{"type":"FeatureCollection","features":[{"type":"Feature","geometry":{"type":"Point","coordinates":[-77.39851,18.21027]},"properties":{"id":62295,"name":"Aenon Town","state_code":"13","country_code":"JM"}},{"type":"Feature","geometry":{"type":"Point","coordinates":[-77.27085,17.79036]},"properties":{"id":62302,"name":"Alley","state_code":"13","country_code":"JM"}},{"type":"Feature","geometry":{"type":"Point","coordinates":[-77.43468,18.17639]},"properties":{"id":62307,"name":"Alston","state_code":"13","country_code":"JM"}},{"type":"Feature","geometry":{"type":"Point","coordinates":[-77.34019,18.0144]},"properties":{"id":62319,"name":"Ashley","state_code":"13","country_code":"JM"}},{"type":"Feature","geometry":{"type":"Point","coordinates":[-77.30731,17.83222]},"properties":{"id":62331,"name":"Banks","state_code":"13","country_code":"JM"}},{"type":"Feature","geometry":{"type":"Point","coordinates":[-77.32399,18.08545]},"properties":{"id":62344,"name":"Beckford Kraal","state_code":"13","country_code":"JM"}},{"type":"Feature","geometry":{"type":"Point","coordinates":[-77.23663,18.1511]},"properties":{"id":62387,"name":"Brandon Hill","state_code":"13","country_code":"JM"}},{"type":"Feature","geometry":{"type":"Point","coordinates":[-77.31744,18.02039]},"properties":{"id":62391,"name":"Brixton Hill","state_code":"13","country_code":"JM"}},{"type":"Feature","geometry":{"type":"Point","coordinates":[-77.23749,18.00619]},"properties":{"id":62397,"name":"Bucknor","state_code":"13","country_code":"JM"}},{"type":"Feature","geometry":{"type":"Point","coordinates":[-77.23846,17.98228]},"properties":{"id":62398,"name":"Bucks Common","state_code":"13","country_code":"JM"}},{"type":"Feature","geometry":{"type":"Point","coordinates":[-77.25135,17.98243]},"properties":{"id":62406,"name":"Bushy Park","state_code":"13","country_code":"JM"}},{"type":"Feature","geometry":{"type":"Point","coordinates":[-77.26667,18.08333]},"properties":{"id":62446,"name":"Chapelton","state_code":"13","country_code":"JM"}},{"type":"Feature","geometry":{"type":"Point","coordinates":[-77.18737,17.98972]},"properties":{"id":62449,"name":"Chateau","state_code":"13","country_code":"JM"}},{"type":"Feature","geometry":{"type":"Point","coordinates":[-77.15835,17.88872]},"properties":{"id":62462,"name":"Cockpit","state_code":"13","country_code":"JM"}},{"type":"Feature","geometry":{"type":"Point","coordinates":[-77.40648,18.13835]},"properties":{"id":62463,"name":"Coffee Piece","state_code":"13","country_code":"JM"}},{"type":"Feature","geometry":{"type":"Point","coordinates":[-77.2555,18.13525]},"properties":{"id":62466,"name":"Colonels Ridge","state_code":"13","country_code":"JM"}},{"type":"Feature","geometry":{"type":"Point","coordinates":[-77.23444,18.10272]},"properties":{"id":62485,"name":"Coxswain","state_code":"13","country_code":"JM"}},{"type":"Feature","geometry":{"type":"Point","coordinates":[-77.20507,18.13268]},"properties":{"id":62489,"name":"Crofts Hill","state_code":"13","country_code":"JM"}},{"type":"Feature","geometry":{"type":"Point","coordinates":[-77.3,18.14289]},"properties":{"id":62491,"name":"Crooked River","state_code":"13","country_code":"JM"}},{"type":"Feature","geometry":{"type":"Point","coordinates":[-77.41617,18.10522]},"properties":{"id":62496,"name":"Cumberland","state_code":"13","country_code":"JM"}},{"type":"Feature","geometry":{"type":"Point","coordinates":[-77.24836,17.93982]},"properties":{"id":62497,"name":"Curatoe Hill","state_code":"13","country_code":"JM"}},{"type":"Feature","geometry":{"type":"Point","coordinates":[-77.33303,18.0554]},"properties":{"id":62504,"name":"Dawkins","state_code":"13","country_code":"JM"}},{"type":"Feature","geometry":{"type":"Point","coordinates":[-77.2186,17.9927]},"properties":{"id":62533,"name":"Effortville","state_code":"13","country_code":"JM"}},{"type":"Feature","geometry":{"type":"Point","coordinates":[-77.29599,17.97089]},"properties":{"id":62565,"name":"Four Paths","state_code":"13","country_code":"JM"}},{"type":"Feature","geometry":{"type":"Point","coordinates":[-77.36498,18.14971]},"properties":{"id":62566,"name":"Frankfield","state_code":"13","country_code":"JM"}},{"type":"Feature","geometry":{"type":"Point","coordinates":[-77.14781,17.92192]},"properties":{"id":62570,"name":"Freetown","state_code":"13","country_code":"JM"}},{"type":"Feature","geometry":{"type":"Point","coordinates":[-77.28469,17.88946]},"properties":{"id":62585,"name":"Gimme-me-bit","state_code":"13","country_code":"JM"}},{"type":"Feature","geometry":{"type":"Point","coordinates":[-77.25394,17.96801]},"properties":{"id":62590,"name":"Glenmuir","state_code":"13","country_code":"JM"}},{"type":"Feature","geometry":{"type":"Point","coordinates":[-77.39643,18.15839]},"properties":{"id":62602,"name":"Grantham","state_code":"13","country_code":"JM"}},{"type":"Feature","geometry":{"type":"Point","coordinates":[-77.33354,17.90968]},"properties":{"id":62606,"name":"Gravel Hill","state_code":"13","country_code":"JM"}},{"type":"Feature","geometry":{"type":"Point","coordinates":[-77.23711,17.87569]},"properties":{"id":62638,"name":"Hayes","state_code":"13","country_code":"JM"}},{"type":"Feature","geometry":{"type":"Point","coordinates":[-77.23147,17.95382]},"properties":{"id":62640,"name":"Hazard","state_code":"13","country_code":"JM"}},{"type":"Feature","geometry":{"type":"Point","coordinates":[-77.19032,17.91195]},"properties":{"id":62661,"name":"Inverness","state_code":"13","country_code":"JM"}},{"type":"Feature","geometry":{"type":"Point","coordinates":[-77.337,18.1875]},"properties":{"id":62670,"name":"James Hill","state_code":"13","country_code":"JM"}},{"type":"Feature","geometry":{"type":"Point","coordinates":[-77.38063,18.18876]},"properties":{"id":62676,"name":"Johns Hall","state_code":"13","country_code":"JM"}},{"type":"Feature","geometry":{"type":"Point","coordinates":[-77.27049,18.16184]},"properties":{"id":62683,"name":"Kellits","state_code":"13","country_code":"JM"}},{"type":"Feature","geometry":{"type":"Point","coordinates":[-77.47121,18.15287]},"properties":{"id":62712,"name":"Limit","state_code":"13","country_code":"JM"}},{"type":"Feature","geometry":{"type":"Point","coordinates":[-77.24061,17.81007]},"properties":{"id":62715,"name":"Lionel Town","state_code":"13","country_code":"JM"}},{"type":"Feature","geometry":{"type":"Point","coordinates":[-77.15983,17.91188]},"properties":{"id":62727,"name":"Longville Park","state_code":"13","country_code":"JM"}},{"type":"Feature","geometry":{"type":"Point","coordinates":[-77.28728,17.80754]},"properties":{"id":62728,"name":"Longwood","state_code":"13","country_code":"JM"}},{"type":"Feature","geometry":{"type":"Point","coordinates":[-77.24515,17.96454]},"properties":{"id":62764,"name":"May Pen","state_code":"13","country_code":"JM"}},{"type":"Feature","geometry":{"type":"Point","coordinates":[-77.23911,17.97034]},"properties":{"id":62765,"name":"May Pen Proper","state_code":"13","country_code":"JM"}},{"type":"Feature","geometry":{"type":"Point","coordinates":[-77.35139,17.8756]},"properties":{"id":62776,"name":"Milk River","state_code":"13","country_code":"JM"}},{"type":"Feature","geometry":{"type":"Point","coordinates":[-77.23276,17.94183]},"properties":{"id":62777,"name":"Mineral Heights","state_code":"13","country_code":"JM"}},{"type":"Feature","geometry":{"type":"Point","coordinates":[-77.20531,17.81281]},"properties":{"id":62778,"name":"Mitchell Town","state_code":"13","country_code":"JM"}},{"type":"Feature","geometry":{"type":"Point","coordinates":[-77.1854,18.02926]},"properties":{"id":62788,"name":"Moores","state_code":"13","country_code":"JM"}},{"type":"Feature","geometry":{"type":"Point","coordinates":[-77.41021,18.19088]},"properties":{"id":62790,"name":"Morgans Forest","state_code":"13","country_code":"JM"}},{"type":"Feature","geometry":{"type":"Point","coordinates":[-77.27493,18.12123]},"properties":{"id":62791,"name":"Morgans Pass","state_code":"13","country_code":"JM"}},{"type":"Feature","geometry":{"type":"Point","coordinates":[-77.36357,18.01843]},"properties":{"id":62793,"name":"Mount Airy","state_code":"13","country_code":"JM"}},{"type":"Feature","geometry":{"type":"Point","coordinates":[-77.27104,17.98563]},"properties":{"id":62812,"name":"New Denbigh","state_code":"13","country_code":"JM"}},{"type":"Feature","geometry":{"type":"Point","coordinates":[-77.23048,18.03072]},"properties":{"id":62817,"name":"New Longsville","state_code":"13","country_code":"JM"}},{"type":"Feature","geometry":{"type":"Point","coordinates":[-77.26701,17.96116]},"properties":{"id":62836,"name":"Old Denbigh","state_code":"13","country_code":"JM"}},{"type":"Feature","geometry":{"type":"Point","coordinates":[-77.35942,18.11788]},"properties":{"id":62846,"name":"Orange Hill","state_code":"13","country_code":"JM"}},{"type":"Feature","geometry":{"type":"Point","coordinates":[-77.32827,17.95892]},"properties":{"id":62847,"name":"Osbourne Store","state_code":"13","country_code":"JM"}},{"type":"Feature","geometry":{"type":"Point","coordinates":[-77.22368,17.96293]},"properties":{"id":62848,"name":"Paisley","state_code":"13","country_code":"JM"}},{"type":"Feature","geometry":{"type":"Point","coordinates":[-77.20338,17.95]},"properties":{"id":62849,"name":"Palmers Cross","state_code":"13","country_code":"JM"}},{"type":"Feature","geometry":{"type":"Point","coordinates":[-77.40971,18.08022]},"properties":{"id":62858,"name":"Part of Banana Ground","state_code":"13","country_code":"JM"}},{"type":"Feature","geometry":{"type":"Point","coordinates":[-77.27538,18.18703]},"properties":{"id":62859,"name":"Part of Douglas Castle","state_code":"13","country_code":"JM"}},{"type":"Feature","geometry":{"type":"Point","coordinates":[-77.2512,18.17159]},"properties":{"id":62861,"name":"Part of Kellits","state_code":"13","country_code":"JM"}},{"type":"Feature","geometry":{"type":"Point","coordinates":[-77.39766,18.17147]},"properties":{"id":62871,"name":"Peckham","state_code":"13","country_code":"JM"}},{"type":"Feature","geometry":{"type":"Point","coordinates":[-77.31306,18.11025]},"properties":{"id":62875,"name":"Pennants","state_code":"13","country_code":"JM"}},{"type":"Feature","geometry":{"type":"Point","coordinates":[-77.29027,18.01101]},"properties":{"id":62886,"name":"Pleasant Valley","state_code":"13","country_code":"JM"}},{"type":"Feature","geometry":{"type":"Point","coordinates":[-77.18772,17.7462]},"properties":{"id":62897,"name":"Portland Cottage","state_code":"13","country_code":"JM"}},{"type":"Feature","geometry":{"type":"Point","coordinates":[-77.40007,18.05202]},"properties":{"id":62901,"name":"Porus","state_code":"13","country_code":"JM"}},{"type":"Feature","geometry":{"type":"Point","coordinates":[-77.28223,17.84019]},"properties":{"id":62910,"name":"Race Course","state_code":"13","country_code":"JM"}},{"type":"Feature","geometry":{"type":"Point","coordinates":[-77.37642,18.05172]},"properties":{"id":62930,"name":"Richmond Park","state_code":"13","country_code":"JM"}},{"type":"Feature","geometry":{"type":"Point","coordinates":[-77.42893,18.13904]},"properties":{"id":62934,"name":"Ritchies","state_code":"13","country_code":"JM"}},{"type":"Feature","geometry":{"type":"Point","coordinates":[-77.33702,17.99122]},"properties":{"id":62942,"name":"Rock","state_code":"13","country_code":"JM"}},{"type":"Feature","geometry":{"type":"Point","coordinates":[-77.19707,18.06548]},"properties":{"id":62944,"name":"Rock River","state_code":"13","country_code":"JM"}},{"type":"Feature","geometry":{"type":"Point","coordinates":[-77.24816,17.77695]},"properties":{"id":62946,"name":"Rocky Point","state_code":"13","country_code":"JM"}},{"type":"Feature","geometry":{"type":"Point","coordinates":[-77.17413,17.84143]},"properties":{"id":62964,"name":"Salt River","state_code":"13","country_code":"JM"}},{"type":"Feature","geometry":{"type":"Point","coordinates":[-77.16225,17.95105]},"properties":{"id":62969,"name":"Sandy Bay","state_code":"13","country_code":"JM"}},{"type":"Feature","geometry":{"type":"Point","coordinates":[-77.42938,18.15585]},"properties":{"id":62970,"name":"Sanguinetti","state_code":"13","country_code":"JM"}},{"type":"Feature","geometry":{"type":"Point","coordinates":[-77.32638,17.84753]},"properties":{"id":62984,"name":"Sedgepond","state_code":"13","country_code":"JM"}},{"type":"Feature","geometry":{"type":"Point","coordinates":[-77.45918,18.19152]},"properties":{"id":62992,"name":"Silent Hill","state_code":"13","country_code":"JM"}},{"type":"Feature","geometry":{"type":"Point","coordinates":[-77.38561,18.11977]},"properties":{"id":62998,"name":"Smithville","state_code":"13","country_code":"JM"}},{"type":"Feature","geometry":{"type":"Point","coordinates":[-77.45798,18.16875]},"properties":{"id":63006,"name":"Spaldings","state_code":"13","country_code":"JM"}},{"type":"Feature","geometry":{"type":"Point","coordinates":[-77.28429,18.09433]},"properties":{"id":63040,"name":"Summerfield","state_code":"13","country_code":"JM"}},{"type":"Feature","geometry":{"type":"Point","coordinates":[-77.37186,18.08968]},"properties":{"id":63048,"name":"Thompson Town","state_code":"13","country_code":"JM"}},{"type":"Feature","geometry":{"type":"Point","coordinates":[-77.36566,17.97195]},"properties":{"id":63053,"name":"Tollgate","state_code":"13","country_code":"JM"}},{"type":"Feature","geometry":{"type":"Point","coordinates":[-77.25531,17.99264]},"properties":{"id":63061,"name":"Treadlight","state_code":"13","country_code":"JM"}},{"type":"Feature","geometry":{"type":"Point","coordinates":[-77.33299,18.13779]},"properties":{"id":63067,"name":"Trout Hall","state_code":"13","country_code":"JM"}},{"type":"Feature","geometry":{"type":"Point","coordinates":[-77.23523,18.06647]},"properties":{"id":63071,"name":"Turners","state_code":"13","country_code":"JM"}},{"type":"Feature","geometry":{"type":"Point","coordinates":[-77.25946,17.82452]},"properties":{"id":63087,"name":"Water Lane","state_code":"13","country_code":"JM"}},{"type":"Feature","geometry":{"type":"Point","coordinates":[-77.27575,18.04757]},"properties":{"id":63119,"name":"Woodhall","state_code":"13","country_code":"JM"}},{"type":"Feature","geometry":{"type":"Point","coordinates":[-77.30002,17.92515]},"properties":{"id":63127,"name":"York Town","state_code":"13","country_code":"JM"}}]}