{"type":"FeatureCollection","features":[{"type":"Feature","geometry":{"type":"Point","coordinates":[36.17775,30.3184]},"properties":{"id":63131,"name":"Al Jafr","state_code":"MN","country_code":"JO"}},{"type":"Feature","geometry":{"type":"Point","coordinates":[35.3116,29.80045]},"properties":{"id":63139,"name":"Al Quwayrah","state_code":"MN","country_code":"JO"}},{"type":"Feature","geometry":{"type":"Point","coordinates":[35.57135,30.52134]},"properties":{"id":63147,"name":"Ash Shawbak","state_code":"MN","country_code":"JO"}},{"type":"Feature","geometry":{"type":"Point","coordinates":[35.4657,30.25125]},"properties":{"id":63150,"name":"Aţ Ţayyibah","state_code":"MN","country_code":"JO"}},{"type":"Feature","geometry":{"type":"Point","coordinates":[35.73405,30.19624]},"properties":{"id":63170,"name":"Ma'an","state_code":"MN","country_code":"JO"}},{"type":"Feature","geometry":{"type":"Point","coordinates":[35.47895,30.32096]},"properties":{"id":63174,"name":"Petra","state_code":"MN","country_code":"JO"}},{"type":"Feature","geometry":{"type":"Point","coordinates":[35.69999,31.18248]},"properties":{"id":63177,"name":"Qīr Moāv","state_code":"MN","country_code":"JO"}}]}