{"type":"FeatureCollection","features":[{"type":"Feature","geometry":{"type":"Point","coordinates":[140.2,36.03333]},"properties":{"id":63244,"name":"Ami","state_code":"08","country_code":"JP"}},{"type":"Feature","geometry":{"type":"Point","coordinates":[139.86705,36.06997]},"properties":{"id":63281,"name":"Bandō","state_code":"08","country_code":"JP"}},{"type":"Feature","geometry":{"type":"Point","coordinates":[139.88787,36.06384]},"properties":{"id":63282,"name":"Bandō-shi","state_code":"08","country_code":"JP"}},{"type":"Feature","geometry":{"type":"Point","coordinates":[139.98238,36.316]},"properties":{"id":63300,"name":"Chikusei","state_code":"08","country_code":"JP"}},{"type":"Feature","geometry":{"type":"Point","coordinates":[139.98692,36.28938]},"properties":{"id":63301,"name":"Chikusei-shi","state_code":"08","country_code":"JP"}},{"type":"Feature","geometry":{"type":"Point","coordinates":[140.35,36.76667]},"properties":{"id":63317,"name":"Daigo","state_code":"08","country_code":"JP"}},{"type":"Feature","geometry":{"type":"Point","coordinates":[140.31667,35.95]},"properties":{"id":63331,"name":"Edosaki","state_code":"08","country_code":"JP"}},{"type":"Feature","geometry":{"type":"Point","coordinates":[140.11667,35.91667]},"properties":{"id":63354,"name":"Fujishiro","state_code":"08","country_code":"JP"}},{"type":"Feature","geometry":{"type":"Point","coordinates":[140.56667,36.46667]},"properties":{"id":63376,"name":"Funaishikawa","state_code":"08","country_code":"JP"}},{"type":"Feature","geometry":{"type":"Point","coordinates":[140.65,36.6]},"properties":{"id":63504,"name":"Hitachi","state_code":"08","country_code":"JP"}},{"type":"Feature","geometry":{"type":"Point","coordinates":[140.53479,36.39659]},"properties":{"id":63505,"name":"Hitachi-Naka","state_code":"08","country_code":"JP"}},{"type":"Feature","geometry":{"type":"Point","coordinates":[140.52821,36.5513]},"properties":{"id":63506,"name":"Hitachi-ota","state_code":"08","country_code":"JP"}},{"type":"Feature","geometry":{"type":"Point","coordinates":[140.61876,36.62492]},"properties":{"id":63507,"name":"Hitachi-shi","state_code":"08","country_code":"JP"}},{"type":"Feature","geometry":{"type":"Point","coordinates":[140.55789,36.39596]},"properties":{"id":63508,"name":"Hitachinaka-shi","state_code":"08","country_code":"JP"}},{"type":"Feature","geometry":{"type":"Point","coordinates":[140.3399,36.61371]},"properties":{"id":63509,"name":"Hitachiōmiya-shi","state_code":"08","country_code":"JP"}},{"type":"Feature","geometry":{"type":"Point","coordinates":[140.50536,36.64836]},"properties":{"id":63510,"name":"Hitachiōta-shi","state_code":"08","country_code":"JP"}},{"type":"Feature","geometry":{"type":"Point","coordinates":[140.51993,36.17337]},"properties":{"id":63515,"name":"Hokota-shi","state_code":"08","country_code":"JP"}},{"type":"Feature","geometry":{"type":"Point","coordinates":[140.32356,35.95633]},"properties":{"id":63570,"name":"Inashiki","state_code":"08","country_code":"JP"}},{"type":"Feature","geometry":{"type":"Point","coordinates":[140.36889,35.94563]},"properties":{"id":63571,"name":"Inashiki-shi","state_code":"08","country_code":"JP"}},{"type":"Feature","geometry":{"type":"Point","coordinates":[139.96667,36.11667]},"properties":{"id":63592,"name":"Ishige","state_code":"08","country_code":"JP"}},{"type":"Feature","geometry":{"type":"Point","coordinates":[140.26667,36.18333]},"properties":{"id":63601,"name":"Ishioka","state_code":"08","country_code":"JP"}},{"type":"Feature","geometry":{"type":"Point","coordinates":[140.21786,36.22776]},"properties":{"id":63602,"name":"Ishioka-shi","state_code":"08","country_code":"JP"}},{"type":"Feature","geometry":{"type":"Point","coordinates":[140.55,35.93333]},"properties":{"id":63606,"name":"Itako","state_code":"08","country_code":"JP"}},{"type":"Feature","geometry":{"type":"Point","coordinates":[140.5621,35.961]},"properties":{"id":63607,"name":"Itako-shi","state_code":"08","country_code":"JP"}},{"type":"Feature","geometry":{"type":"Point","coordinates":[139.9,36.05]},"properties":{"id":63620,"name":"Iwai","state_code":"08","country_code":"JP"}},{"type":"Feature","geometry":{"type":"Point","coordinates":[140.1,36.35]},"properties":{"id":63631,"name":"Iwase","state_code":"08","country_code":"JP"}},{"type":"Feature","geometry":{"type":"Point","coordinates":[139.96397,36.06409]},"properties":{"id":63653,"name":"Jōsō-shi","state_code":"08","country_code":"JP"}},{"type":"Feature","geometry":{"type":"Point","coordinates":[140.71171,35.85126]},"properties":{"id":63698,"name":"Kamisu-shi","state_code":"08","country_code":"JP"}},{"type":"Feature","geometry":{"type":"Point","coordinates":[140.26667,36.38333]},"properties":{"id":63727,"name":"Kasama","state_code":"08","country_code":"JP"}},{"type":"Feature","geometry":{"type":"Point","coordinates":[140.26935,36.35651]},"properties":{"id":63728,"name":"Kasama-shi","state_code":"08","country_code":"JP"}},{"type":"Feature","geometry":{"type":"Point","coordinates":[140.64474,35.96536]},"properties":{"id":63738,"name":"Kashima-shi","state_code":"08","country_code":"JP"}},{"type":"Feature","geometry":{"type":"Point","coordinates":[140.24635,36.15326]},"properties":{"id":63749,"name":"Kasumigaura","state_code":"08","country_code":"JP"}},{"type":"Feature","geometry":{"type":"Point","coordinates":[140.30205,36.10937]},"properties":{"id":63750,"name":"Kasumigaura-shi","state_code":"08","country_code":"JP"}},{"type":"Feature","geometry":{"type":"Point","coordinates":[140.53333,36.38333]},"properties":{"id":63759,"name":"Katsuta","state_code":"08","country_code":"JP"}},{"type":"Feature","geometry":{"type":"Point","coordinates":[140.74901,36.78671]},"properties":{"id":63802,"name":"Kitaibaraki","state_code":"08","country_code":"JP"}},{"type":"Feature","geometry":{"type":"Point","coordinates":[140.68736,36.83987]},"properties":{"id":63803,"name":"Kitaibaraki-shi","state_code":"08","country_code":"JP"}},{"type":"Feature","geometry":{"type":"Point","coordinates":[139.71667,36.18333]},"properties":{"id":63824,"name":"Koga","state_code":"08","country_code":"JP"}},{"type":"Feature","geometry":{"type":"Point","coordinates":[139.77534,36.17975]},"properties":{"id":63826,"name":"Koga-shi","state_code":"08","country_code":"JP"}},{"type":"Feature","geometry":{"type":"Point","coordinates":[140.1,36.26667]},"properties":{"id":63914,"name":"Makabe","state_code":"08","country_code":"JP"}},{"type":"Feature","geometry":{"type":"Point","coordinates":[140.45,36.35]},"properties":{"id":63990,"name":"Mito","state_code":"08","country_code":"JP"}},{"type":"Feature","geometry":{"type":"Point","coordinates":[140.43559,36.37053]},"properties":{"id":63991,"name":"Mito-shi","state_code":"08","country_code":"JP"}},{"type":"Feature","geometry":{"type":"Point","coordinates":[139.98333,36.01667]},"properties":{"id":63993,"name":"Mitsukaidō","state_code":"08","country_code":"JP"}},{"type":"Feature","geometry":{"type":"Point","coordinates":[140,35.93333]},"properties":{"id":64032,"name":"Moriya","state_code":"08","country_code":"JP"}},{"type":"Feature","geometry":{"type":"Point","coordinates":[139.97539,35.9514]},"properties":{"id":64033,"name":"Moriya-shi","state_code":"08","country_code":"JP"}},{"type":"Feature","geometry":{"type":"Point","coordinates":[140.16667,36.05]},"properties":{"id":64081,"name":"Naka","state_code":"08","country_code":"JP"}},{"type":"Feature","geometry":{"type":"Point","coordinates":[140.47943,36.46934]},"properties":{"id":64082,"name":"Naka-gun","state_code":"08","country_code":"JP"}},{"type":"Feature","geometry":{"type":"Point","coordinates":[140.49623,36.00705]},"properties":{"id":64093,"name":"Namegata","state_code":"08","country_code":"JP"}},{"type":"Feature","geometry":{"type":"Point","coordinates":[140.47173,36.06526]},"properties":{"id":64094,"name":"Namegata-shi","state_code":"08","country_code":"JP"}},{"type":"Feature","geometry":{"type":"Point","coordinates":[140.58389,36.31409]},"properties":{"id":64714,"name":"Ōarai","state_code":"08","country_code":"JP"}},{"type":"Feature","geometry":{"type":"Point","coordinates":[140.41667,36.28333]},"properties":{"id":64202,"name":"Okunoya","state_code":"08","country_code":"JP"}},{"type":"Feature","geometry":{"type":"Point","coordinates":[140.3598,36.20403]},"properties":{"id":64205,"name":"Omitama-shi","state_code":"08","country_code":"JP"}},{"type":"Feature","geometry":{"type":"Point","coordinates":[140.41667,36.55]},"properties":{"id":64742,"name":"Ōmiya","state_code":"08","country_code":"JP"}},{"type":"Feature","geometry":{"type":"Point","coordinates":[140.18333,35.9]},"properties":{"id":64233,"name":"Ryūgasaki","state_code":"08","country_code":"JP"}},{"type":"Feature","geometry":{"type":"Point","coordinates":[140.18527,35.92249]},"properties":{"id":64234,"name":"Ryūgasaki-shi","state_code":"08","country_code":"JP"}},{"type":"Feature","geometry":{"type":"Point","coordinates":[139.8,36.1]},"properties":{"id":64255,"name":"Sakai","state_code":"08","country_code":"JP"}},{"type":"Feature","geometry":{"type":"Point","coordinates":[140.11565,36.25052]},"properties":{"id":64271,"name":"Sakuragawa","state_code":"08","country_code":"JP"}},{"type":"Feature","geometry":{"type":"Point","coordinates":[140.10792,36.32746]},"properties":{"id":64272,"name":"Sakuragawa-shi","state_code":"08","country_code":"JP"}},{"type":"Feature","geometry":{"type":"Point","coordinates":[139.98333,36.3]},"properties":{"id":64332,"name":"Shimodate","state_code":"08","country_code":"JP"}},{"type":"Feature","geometry":{"type":"Point","coordinates":[139.96642,36.18743]},"properties":{"id":64337,"name":"Shimotsuma-shi","state_code":"08","country_code":"JP"}},{"type":"Feature","geometry":{"type":"Point","coordinates":[140.71667,36.71667]},"properties":{"id":64419,"name":"Takahagi","state_code":"08","country_code":"JP"}},{"type":"Feature","geometry":{"type":"Point","coordinates":[140.3,36.35]},"properties":{"id":64510,"name":"Tomobe","state_code":"08","country_code":"JP"}},{"type":"Feature","geometry":{"type":"Point","coordinates":[140.08333,35.9]},"properties":{"id":64515,"name":"Toride","state_code":"08","country_code":"JP"}},{"type":"Feature","geometry":{"type":"Point","coordinates":[140.08009,35.91286]},"properties":{"id":64516,"name":"Toride-shi","state_code":"08","country_code":"JP"}},{"type":"Feature","geometry":{"type":"Point","coordinates":[140.2,36.08333]},"properties":{"id":64540,"name":"Tsuchiura-shi","state_code":"08","country_code":"JP"}},{"type":"Feature","geometry":{"type":"Point","coordinates":[140.1,36.2]},"properties":{"id":64545,"name":"Tsukuba","state_code":"08","country_code":"JP"}},{"type":"Feature","geometry":{"type":"Point","coordinates":[140.08174,36.10532]},"properties":{"id":64546,"name":"Tsukuba-shi","state_code":"08","country_code":"JP"}},{"type":"Feature","geometry":{"type":"Point","coordinates":[140.00929,35.98411]},"properties":{"id":64547,"name":"Tsukubamirai","state_code":"08","country_code":"JP"}},{"type":"Feature","geometry":{"type":"Point","coordinates":[140.03812,35.98201]},"properties":{"id":64548,"name":"Tsukubamirai-shi","state_code":"08","country_code":"JP"}},{"type":"Feature","geometry":{"type":"Point","coordinates":[140.13333,35.96667]},"properties":{"id":64603,"name":"Ushiku","state_code":"08","country_code":"JP"}},{"type":"Feature","geometry":{"type":"Point","coordinates":[140.18578,35.97175]},"properties":{"id":64604,"name":"Ushiku-shi","state_code":"08","country_code":"JP"}},{"type":"Feature","geometry":{"type":"Point","coordinates":[139.88333,36.3]},"properties":{"id":64706,"name":"Yūki","state_code":"08","country_code":"JP"}},{"type":"Feature","geometry":{"type":"Point","coordinates":[139.86403,36.26127]},"properties":{"id":64707,"name":"Yūki-shi","state_code":"08","country_code":"JP"}}]}