{"type":"FeatureCollection","features":[{"type":"Feature","geometry":{"type":"Point","coordinates":[135.7,34.35]},"properties":{"id":63389,"name":"Gojō","state_code":"29","country_code":"JP"}},{"type":"Feature","geometry":{"type":"Point","coordinates":[135.69489,34.35081]},"properties":{"id":63390,"name":"Gojō-shi","state_code":"29","country_code":"JP"}},{"type":"Feature","geometry":{"type":"Point","coordinates":[135.73333,34.45]},"properties":{"id":63391,"name":"Gose","state_code":"29","country_code":"JP"}},{"type":"Feature","geometry":{"type":"Point","coordinates":[135.95,34.53333]},"properties":{"id":63415,"name":"Haibara-akanedai","state_code":"29","country_code":"JP"}},{"type":"Feature","geometry":{"type":"Point","coordinates":[135.73754,34.61234]},"properties":{"id":63530,"name":"Hōryūji","state_code":"29","country_code":"JP"}},{"type":"Feature","geometry":{"type":"Point","coordinates":[135.7,34.68333]},"properties":{"id":63558,"name":"Ikoma","state_code":"29","country_code":"JP"}},{"type":"Feature","geometry":{"type":"Point","coordinates":[135.70057,34.69187]},"properties":{"id":63559,"name":"Ikoma-shi","state_code":"29","country_code":"JP"}},{"type":"Feature","geometry":{"type":"Point","coordinates":[135.69918,34.54107]},"properties":{"id":63733,"name":"Kashiba-shi","state_code":"29","country_code":"JP"}},{"type":"Feature","geometry":{"type":"Point","coordinates":[135.78986,34.50352]},"properties":{"id":63735,"name":"Kashihara-shi","state_code":"29","country_code":"JP"}},{"type":"Feature","geometry":{"type":"Point","coordinates":[135.69698,34.48562]},"properties":{"id":63755,"name":"Katsuragi","state_code":"29","country_code":"JP"}},{"type":"Feature","geometry":{"type":"Point","coordinates":[135.70464,34.49682]},"properties":{"id":63756,"name":"Katsuragi Shi","state_code":"29","country_code":"JP"}},{"type":"Feature","geometry":{"type":"Point","coordinates":[135.80485,34.68506]},"properties":{"id":64106,"name":"Nara-shi","state_code":"29","country_code":"JP"}},{"type":"Feature","geometry":{"type":"Point","coordinates":[135.85,34.5]},"properties":{"id":64273,"name":"Sakurai","state_code":"29","country_code":"JP"}},{"type":"Feature","geometry":{"type":"Point","coordinates":[135.8432,34.51816]},"properties":{"id":64274,"name":"Sakurai-shi","state_code":"29","country_code":"JP"}},{"type":"Feature","geometry":{"type":"Point","coordinates":[135.79297,34.5542]},"properties":{"id":64479,"name":"Tawaramoto","state_code":"29","country_code":"JP"}},{"type":"Feature","geometry":{"type":"Point","coordinates":[135.83333,34.58333]},"properties":{"id":64483,"name":"Tenri","state_code":"29","country_code":"JP"}},{"type":"Feature","geometry":{"type":"Point","coordinates":[135.83736,34.59619]},"properties":{"id":64484,"name":"Tenri-shi","state_code":"29","country_code":"JP"}},{"type":"Feature","geometry":{"type":"Point","coordinates":[135.99787,34.52035]},"properties":{"id":64577,"name":"Uda Shi","state_code":"29","country_code":"JP"}},{"type":"Feature","geometry":{"type":"Point","coordinates":[135.78278,34.64917]},"properties":{"id":64645,"name":"Yamatokōriyama-shi","state_code":"29","country_code":"JP"}},{"type":"Feature","geometry":{"type":"Point","coordinates":[135.7366,34.5149]},"properties":{"id":64646,"name":"Yamatotakada-shi","state_code":"29","country_code":"JP"}},{"type":"Feature","geometry":{"type":"Point","coordinates":[135.85768,34.39611]},"properties":{"id":64687,"name":"Yoshino-chō","state_code":"29","country_code":"JP"}}]}