{"type":"FeatureCollection","features":[{"type":"Feature","geometry":{"type":"Point","coordinates":[137.7475,35.44388889]},"properties":{"id":148287,"name":"Achi","state_code":"39","country_code":"JP"}},{"type":"Feature","geometry":{"type":"Point","coordinates":[137.69416667,35.78388889]},"properties":{"id":148214,"name":"Agematsu","state_code":"39","country_code":"JP"}},{"type":"Feature","geometry":{"type":"Point","coordinates":[133.90722222,33.5025]},"properties":{"id":148213,"name":"Aki","state_code":"39","country_code":"JP"}},{"type":"Feature","geometry":{"type":"Point","coordinates":[137.81611111,35.32361111]},"properties":{"id":148279,"name":"Anan","state_code":"39","country_code":"JP"}},{"type":"Feature","geometry":{"type":"Point","coordinates":[138.12861111,36.37]},"properties":{"id":148259,"name":"Aoki","state_code":"39","country_code":"JP"}},{"type":"Feature","geometry":{"type":"Point","coordinates":[137.86638889,36.12361111]},"properties":{"id":148261,"name":"Asahi","state_code":"39","country_code":"JP"}},{"type":"Feature","geometry":{"type":"Point","coordinates":[137.90555556,36.30388889]},"properties":{"id":148299,"name":"Azumino","state_code":"39","country_code":"JP"}},{"type":"Feature","geometry":{"type":"Point","coordinates":[138.04011,36.4212]},"properties":{"id":148293,"name":"Chikuhoku","state_code":"39","country_code":"JP"}},{"type":"Feature","geometry":{"type":"Point","coordinates":[138.15888889,35.99555556]},"properties":{"id":148304,"name":"Chino","state_code":"39","country_code":"JP"}},{"type":"Feature","geometry":{"type":"Point","coordinates":[138.24083333,35.91472222]},"properties":{"id":148225,"name":"Fujimi","state_code":"39","country_code":"JP"}},{"type":"Feature","geometry":{"type":"Point","coordinates":[133.80916667,33.52694444]},"properties":{"id":148257,"name":"Geisei","state_code":"39","country_code":"JP"}},{"type":"Feature","geometry":{"type":"Point","coordinates":[137.86666667,36.7]},"properties":{"id":148269,"name":"Hakuba","state_code":"39","country_code":"JP"}},{"type":"Feature","geometry":{"type":"Point","coordinates":[138.2175,35.96444444]},"properties":{"id":148274,"name":"Hara","state_code":"39","country_code":"JP"}},{"type":"Feature","geometry":{"type":"Point","coordinates":[133.37333333,33.53472222]},"properties":{"id":148276,"name":"Hidaka","state_code":"39","country_code":"JP"}},{"type":"Feature","geometry":{"type":"Point","coordinates":[137.63027778,35.32333333]},"properties":{"id":148286,"name":"Hiraya","state_code":"39","country_code":"JP"}},{"type":"Feature","geometry":{"type":"Point","coordinates":[137.82194444,35.51472222]},"properties":{"id":148315,"name":"Iida","state_code":"39","country_code":"JP"}},{"type":"Feature","geometry":{"type":"Point","coordinates":[137.91944444,35.67638889]},"properties":{"id":148236,"name":"Iijima","state_code":"39","country_code":"JP"}},{"type":"Feature","geometry":{"type":"Point","coordinates":[138.36555556,36.85166667]},"properties":{"id":148312,"name":"Iiyama","state_code":"39","country_code":"JP"}},{"type":"Feature","geometry":{"type":"Point","coordinates":[138.23555556,36.755]},"properties":{"id":148290,"name":"Iizuna","state_code":"39","country_code":"JP"}},{"type":"Feature","geometry":{"type":"Point","coordinates":[137.87472222,36.42138889]},"properties":{"id":148284,"name":"Ikeda","state_code":"39","country_code":"JP"}},{"type":"Feature","geometry":{"type":"Point","coordinates":[137.9275,36.42527778]},"properties":{"id":148267,"name":"Ikusaka","state_code":"39","country_code":"JP"}},{"type":"Feature","geometry":{"type":"Point","coordinates":[137.95388889,35.8275]},"properties":{"id":148313,"name":"Ina","state_code":"39","country_code":"JP"}},{"type":"Feature","geometry":{"type":"Point","coordinates":[133.43333333,33.55]},"properties":{"id":148305,"name":"Ino","state_code":"39","country_code":"JP"}},{"type":"Feature","geometry":{"type":"Point","coordinates":[138.59694444,36.34833333]},"properties":{"id":148237,"name":"Karuizawa","state_code":"39","country_code":"JP"}},{"type":"Feature","geometry":{"type":"Point","coordinates":[138.57833333,35.97555556]},"properties":{"id":148288,"name":"Kawakami","state_code":"39","country_code":"JP"}},{"type":"Feature","geometry":{"type":"Point","coordinates":[138.40666667,36.85861111]},"properties":{"id":148264,"name":"Kijimadaira","state_code":"39","country_code":"JP"}},{"type":"Feature","geometry":{"type":"Point","coordinates":[137.78305556,35.93638889]},"properties":{"id":148217,"name":"Kiso","state_code":"39","country_code":"JP"}},{"type":"Feature","geometry":{"type":"Point","coordinates":[138.55111111,36.05916667]},"properties":{"id":148281,"name":"Kitaaiki","state_code":"39","country_code":"JP"}},{"type":"Feature","geometry":{"type":"Point","coordinates":[134.04222222,33.44777778]},"properties":{"id":148289,"name":"Kitagawa","state_code":"39","country_code":"JP"}},{"type":"Feature","geometry":{"type":"Point","coordinates":[133.53138889,33.55888889]},"properties":{"id":148317,"name":"Kōchi","state_code":"39","country_code":"JP"}},{"type":"Feature","geometry":{"type":"Point","coordinates":[138.42583333,36.3275]},"properties":{"id":148306,"name":"Komoro","state_code":"39","country_code":"JP"}},{"type":"Feature","geometry":{"type":"Point","coordinates":[133.70055556,33.56416667]},"properties":{"id":148300,"name":"Kōnan","state_code":"39","country_code":"JP"}},{"type":"Feature","geometry":{"type":"Point","coordinates":[133.01083333,33.025]},"properties":{"id":148280,"name":"Kuroshio","state_code":"39","country_code":"JP"}},{"type":"Feature","geometry":{"type":"Point","coordinates":[137.90972222,35.59722222]},"properties":{"id":148252,"name":"Matsukawa","state_code":"39","country_code":"JP"}},{"type":"Feature","geometry":{"type":"Point","coordinates":[137.97194444,36.23805556]},"properties":{"id":148292,"name":"Matsumoto","state_code":"39","country_code":"JP"}},{"type":"Feature","geometry":{"type":"Point","coordinates":[132.84722222,32.90611111]},"properties":{"id":148227,"name":"Mihara","state_code":"39","country_code":"JP"}},{"type":"Feature","geometry":{"type":"Point","coordinates":[138.54694444,36.03611111]},"properties":{"id":148256,"name":"Minamiaiki","state_code":"39","country_code":"JP"}},{"type":"Feature","geometry":{"type":"Point","coordinates":[138.49222222,36.02083333]},"properties":{"id":148228,"name":"Minamimaki","state_code":"39","country_code":"JP"}},{"type":"Feature","geometry":{"type":"Point","coordinates":[137.97527778,35.87277778]},"properties":{"id":148235,"name":"Minamiminowa","state_code":"39","country_code":"JP"}},{"type":"Feature","geometry":{"type":"Point","coordinates":[137.98194444,35.915]},"properties":{"id":148254,"name":"Minowa","state_code":"39","country_code":"JP"}},{"type":"Feature","geometry":{"type":"Point","coordinates":[137.852137,35.275251]},"properties":{"id":148247,"name":"Mitsushima","state_code":"39","country_code":"JP"}},{"type":"Feature","geometry":{"type":"Point","coordinates":[137.94422222,35.76888889]},"properties":{"id":148265,"name":"Miyada","state_code":"39","country_code":"JP"}},{"type":"Feature","geometry":{"type":"Point","coordinates":[138.50888889,36.32138889]},"properties":{"id":148291,"name":"Miyota","state_code":"39","country_code":"JP"}},{"type":"Feature","geometry":{"type":"Point","coordinates":[136.96361111,35.16402778]},"properties":{"id":148215,"name":"Motoyama","state_code":"39","country_code":"JP"}},{"type":"Feature","geometry":{"type":"Point","coordinates":[134.15194444,33.29]},"properties":{"id":148314,"name":"Muroto","state_code":"39","country_code":"JP"}},{"type":"Feature","geometry":{"type":"Point","coordinates":[138.19277778,36.64861111]},"properties":{"id":148310,"name":"Nagano","state_code":"39","country_code":"JP"}},{"type":"Feature","geometry":{"type":"Point","coordinates":[138.26777778,36.25611111]},"properties":{"id":148238,"name":"Nagawa","state_code":"39","country_code":"JP"}},{"type":"Feature","geometry":{"type":"Point","coordinates":[137.60888889,35.60361111]},"properties":{"id":148263,"name":"Nagiso","state_code":"39","country_code":"JP"}},{"type":"Feature","geometry":{"type":"Point","coordinates":[134.02111111,33.42416667]},"properties":{"id":148270,"name":"Nahari","state_code":"39","country_code":"JP"}},{"type":"Feature","geometry":{"type":"Point","coordinates":[137.94611111,35.63444444]},"properties":{"id":148224,"name":"Nakagawa","state_code":"39","country_code":"JP"}},{"type":"Feature","geometry":{"type":"Point","coordinates":[138.03652778,36.61222222]},"properties":{"id":148243,"name":"Nakajō","state_code":"39","country_code":"JP"}},{"type":"Feature","geometry":{"type":"Point","coordinates":[132.93375,32.99138889]},"properties":{"id":148245,"name":"Nakamura","state_code":"39","country_code":"JP"}},{"type":"Feature","geometry":{"type":"Point","coordinates":[138.36944444,36.74194444]},"properties":{"id":148249,"name":"Nakano","state_code":"39","country_code":"JP"}},{"type":"Feature","geometry":{"type":"Point","coordinates":[133.22833333,33.3275]},"properties":{"id":148231,"name":"Nakatosa","state_code":"39","country_code":"JP"}},{"type":"Feature","geometry":{"type":"Point","coordinates":[133.64138889,33.57555556]},"properties":{"id":148302,"name":"Nankoku","state_code":"39","country_code":"JP"}},{"type":"Feature","geometry":{"type":"Point","coordinates":[137.58111111,35.25305556]},"properties":{"id":148297,"name":"Neba","state_code":"39","country_code":"JP"}},{"type":"Feature","geometry":{"type":"Point","coordinates":[133.16833333,33.57527778]},"properties":{"id":148271,"name":"Niyodogawa","state_code":"39","country_code":"JP"}},{"type":"Feature","geometry":{"type":"Point","coordinates":[138.44055556,36.92277778]},"properties":{"id":148240,"name":"Nozawaonsen","state_code":"39","country_code":"JP"}},{"type":"Feature","geometry":{"type":"Point","coordinates":[138.31222222,36.69777778]},"properties":{"id":148233,"name":"Obuse","state_code":"39","country_code":"JP"}},{"type":"Feature","geometry":{"type":"Point","coordinates":[133.25194444,33.53277778]},"properties":{"id":148266,"name":"Ochi","state_code":"39","country_code":"JP"}},{"type":"Feature","geometry":{"type":"Point","coordinates":[137.97444444,36.61694444]},"properties":{"id":148303,"name":"Ogawa","state_code":"39","country_code":"JP"}},{"type":"Feature","geometry":{"type":"Point","coordinates":[133.46666667,33.78361111]},"properties":{"id":148262,"name":"Ōkawa","state_code":"39","country_code":"JP"}},{"type":"Feature","geometry":{"type":"Point","coordinates":[138.04944444,36.06694444]},"properties":{"id":148307,"name":"Okaya","state_code":"39","country_code":"JP"}},{"type":"Feature","geometry":{"type":"Point","coordinates":[137.665,35.68277778]},"properties":{"id":148251,"name":"Ōkuwa","state_code":"39","country_code":"JP"}},{"type":"Feature","geometry":{"type":"Point","coordinates":[137.85,36.5]},"properties":{"id":148321,"name":"Ōmachi","state_code":"39","country_code":"JP"}},{"type":"Feature","geometry":{"type":"Point","coordinates":[138.04527778,36.45611111]},"properties":{"id":148241,"name":"Omi","state_code":"39","country_code":"JP"}},{"type":"Feature","geometry":{"type":"Point","coordinates":[138.03416667,35.57833333]},"properties":{"id":148260,"name":"Ōshika","state_code":"39","country_code":"JP"}},{"type":"Feature","geometry":{"type":"Point","coordinates":[137.55111111,35.80944444]},"properties":{"id":148250,"name":"Ōtaki","state_code":"39","country_code":"JP"}},{"type":"Feature","geometry":{"type":"Point","coordinates":[137.90833333,36.77916667]},"properties":{"id":148242,"name":"Otari","state_code":"39","country_code":"JP"}},{"type":"Feature","geometry":{"type":"Point","coordinates":[133.66416667,33.76416667]},"properties":{"id":148218,"name":"Ōtoyo","state_code":"39","country_code":"JP"}},{"type":"Feature","geometry":{"type":"Point","coordinates":[132.70694444,32.84138889]},"properties":{"id":148223,"name":"Ōtsuki","state_code":"39","country_code":"JP"}},{"type":"Feature","geometry":{"type":"Point","coordinates":[138.5775,36.9875]},"properties":{"id":148275,"name":"Sakae","state_code":"39","country_code":"JP"}},{"type":"Feature","geometry":{"type":"Point","coordinates":[138.18027778,36.46194444]},"properties":{"id":148216,"name":"Sakaki","state_code":"39","country_code":"JP"}},{"type":"Feature","geometry":{"type":"Point","coordinates":[133.28666667,33.50083333]},"properties":{"id":148255,"name":"Sakawa","state_code":"39","country_code":"JP"}},{"type":"Feature","geometry":{"type":"Point","coordinates":[138.47694444,36.24888889]},"properties":{"id":148316,"name":"Saku","state_code":"39","country_code":"JP"}},{"type":"Feature","geometry":{"type":"Point","coordinates":[138.48333333,36.16111111]},"properties":{"id":148239,"name":"Sakuho","state_code":"39","country_code":"JP"}},{"type":"Feature","geometry":{"type":"Point","coordinates":[138.30361111,36.44088889]},"properties":{"id":148294,"name":"Sanada","state_code":"39","country_code":"JP"}},{"type":"Feature","geometry":{"type":"Point","coordinates":[133.13555556,33.20833333]},"properties":{"id":148273,"name":"Shimanto","state_code":"39","country_code":"JP"}},{"type":"Feature","geometry":{"type":"Point","coordinates":[137.78611111,35.3975]},"properties":{"id":148277,"name":"Shimojō","state_code":"39","country_code":"JP"}},{"type":"Feature","geometry":{"type":"Point","coordinates":[138.08027778,36.06972222]},"properties":{"id":148272,"name":"Shimosuwa","state_code":"39","country_code":"JP"}},{"type":"Feature","geometry":{"type":"Point","coordinates":[138.20694444,36.80638889]},"properties":{"id":148278,"name":"Shinano","state_code":"39","country_code":"JP"}},{"type":"Feature","geometry":{"type":"Point","coordinates":[137.95,36.11666667]},"properties":{"id":148301,"name":"Shiojiri","state_code":"39","country_code":"JP"}},{"type":"Feature","geometry":{"type":"Point","coordinates":[132.72611111,32.93888889]},"properties":{"id":148308,"name":"Sukumo","state_code":"39","country_code":"JP"}},{"type":"Feature","geometry":{"type":"Point","coordinates":[133.28305556,33.40083333]},"properties":{"id":148318,"name":"Susaki","state_code":"39","country_code":"JP"}},{"type":"Feature","geometry":{"type":"Point","coordinates":[138.11416667,36.03916667]},"properties":{"id":148309,"name":"Suwa","state_code":"39","country_code":"JP"}},{"type":"Feature","geometry":{"type":"Point","coordinates":[137.87388889,35.51388889]},"properties":{"id":148226,"name":"Takagi","state_code":"39","country_code":"JP"}},{"type":"Feature","geometry":{"type":"Point","coordinates":[137.87861111,35.55138889]},"properties":{"id":148222,"name":"Takamori","state_code":"39","country_code":"JP"}},{"type":"Feature","geometry":{"type":"Point","coordinates":[138.36305556,36.67972222]},"properties":{"id":148283,"name":"Takayama","state_code":"39","country_code":"JP"}},{"type":"Feature","geometry":{"type":"Point","coordinates":[134.00833333,33.42777778]},"properties":{"id":148232,"name":"Tano","state_code":"39","country_code":"JP"}},{"type":"Feature","geometry":{"type":"Point","coordinates":[138.31611111,36.27194444]},"properties":{"id":148285,"name":"Tateshina","state_code":"39","country_code":"JP"}},{"type":"Feature","geometry":{"type":"Point","coordinates":[137.9875,35.9825]},"properties":{"id":148295,"name":"Tatsuno","state_code":"39","country_code":"JP"}},{"type":"Feature","geometry":{"type":"Point","coordinates":[138.38333333,36.91666667]},"properties":{"id":148244,"name":"Togari","state_code":"39","country_code":"JP"}},{"type":"Feature","geometry":{"type":"Point","coordinates":[138.33055556,36.35944444]},"properties":{"id":148212,"name":"Tōmi","state_code":"39","country_code":"JP"}},{"type":"Feature","geometry":{"type":"Point","coordinates":[133.42527778,33.49611111]},"properties":{"id":148320,"name":"Tosa","state_code":"39","country_code":"JP"}},{"type":"Feature","geometry":{"type":"Point","coordinates":[132.955,32.78138889]},"properties":{"id":148319,"name":"Tosashimizu","state_code":"39","country_code":"JP"}},{"type":"Feature","geometry":{"type":"Point","coordinates":[134.28,33.52805556]},"properties":{"id":148296,"name":"Tōyō","state_code":"39","country_code":"JP"}},{"type":"Feature","geometry":{"type":"Point","coordinates":[137.89583333,35.55138889]},"properties":{"id":148268,"name":"Toyooka","state_code":"39","country_code":"JP"}},{"type":"Feature","geometry":{"type":"Point","coordinates":[133.19944444,33.44666667]},"properties":{"id":148221,"name":"Tsuno","state_code":"39","country_code":"JP"}},{"type":"Feature","geometry":{"type":"Point","coordinates":[138.24916667,36.40194444]},"properties":{"id":148246,"name":"Ueda","state_code":"39","country_code":"JP"}},{"type":"Feature","geometry":{"type":"Point","coordinates":[134.04805556,33.55527778]},"properties":{"id":148258,"name":"Umaji","state_code":"39","country_code":"JP"}},{"type":"Feature","geometry":{"type":"Point","coordinates":[137.71111111,35.27111111]},"properties":{"id":148220,"name":"Urugi","state_code":"39","country_code":"JP"}},{"type":"Feature","geometry":{"type":"Point","coordinates":[133.43711111,33.44936111]},"properties":{"id":148248,"name":"Usa","state_code":"39","country_code":"JP"}},{"type":"Feature","geometry":{"type":"Point","coordinates":[137.87888889,36.16805556]},"properties":{"id":148219,"name":"Yamagata","state_code":"39","country_code":"JP"}},{"type":"Feature","geometry":{"type":"Point","coordinates":[138.4125,36.74472222]},"properties":{"id":148234,"name":"Yamanouchi","state_code":"39","country_code":"JP"}},{"type":"Feature","geometry":{"type":"Point","coordinates":[133.98111111,33.43833333]},"properties":{"id":148282,"name":"Yasuda","state_code":"39","country_code":"JP"}},{"type":"Feature","geometry":{"type":"Point","coordinates":[137.84583333,35.37722222]},"properties":{"id":148229,"name":"Yasuoka","state_code":"39","country_code":"JP"}},{"type":"Feature","geometry":{"type":"Point","coordinates":[138.1,36.51666667]},"properties":{"id":148253,"name":"Yawata","state_code":"39","country_code":"JP"}},{"type":"Feature","geometry":{"type":"Point","coordinates":[132.92694444,33.39194444]},"properties":{"id":148230,"name":"Yusuhara","state_code":"39","country_code":"JP"}}]}