{"type":"FeatureCollection","features":[{"type":"Feature","geometry":{"type":"Point","coordinates":[34.11169,0.46005]},"properties":{"id":64777,"name":"Busia","state_code":"04","country_code":"KE"}},{"type":"Feature","geometry":{"type":"Point","coordinates":[34.07146,0.31354]},"properties":{"id":64821,"name":"Luanda","state_code":"04","country_code":"KE"}},{"type":"Feature","geometry":{"type":"Point","coordinates":[34.30399,0.39337]},"properties":{"id":64822,"name":"Lugulu","state_code":"04","country_code":"KE"}},{"type":"Feature","geometry":{"type":"Point","coordinates":[34.28165,0.63513]},"properties":{"id":64826,"name":"Malaba","state_code":"04","country_code":"KE"}},{"type":"Feature","geometry":{"type":"Point","coordinates":[34.25353,0.45813]},"properties":{"id":64848,"name":"Nambare","state_code":"04","country_code":"KE"}},{"type":"Feature","geometry":{"type":"Point","coordinates":[33.97248,0.09809]},"properties":{"id":64861,"name":"Port Victoria","state_code":"04","country_code":"KE"}}]}