{"type":"FeatureCollection","features":[{"type":"Feature","geometry":{"type":"Point","coordinates":[35.50806,0.67028]},"properties":{"id":64789,"name":"Iten","state_code":"14","country_code":"KE"}},{"type":"Feature","geometry":{"type":"Point","coordinates":[35.55854,0.9789]},"properties":{"id":64797,"name":"Kapsowar","state_code":"14","country_code":"KE"}},{"type":"Feature","geometry":{"type":"Point","coordinates":[39.84992,-3.63045]},"properties":{"id":64806,"name":"Kilifi","state_code":"14","country_code":"KE"}},{"type":"Feature","geometry":{"type":"Point","coordinates":[40.11692,-3.21799]},"properties":{"id":64828,"name":"Malindi","state_code":"14","country_code":"KE"}},{"type":"Feature","geometry":{"type":"Point","coordinates":[39.47458,-3.86261]},"properties":{"id":64832,"name":"Mariakani","state_code":"14","country_code":"KE"}},{"type":"Feature","geometry":{"type":"Point","coordinates":[39.85687,-3.6835]},"properties":{"id":64872,"name":"Takaungu","state_code":"14","country_code":"KE"}}]}