{"type":"FeatureCollection","features":[{"type":"Feature","geometry":{"type":"Point","coordinates":[37.62405,-1.80388]},"properties":{"id":64825,"name":"Makueni Boma","state_code":"23","country_code":"KE"}},{"type":"Feature","geometry":{"type":"Point","coordinates":[38.16687,-2.68987]},"properties":{"id":64840,"name":"Mtito Andei","state_code":"23","country_code":"KE"}},{"type":"Feature","geometry":{"type":"Point","coordinates":[37.62882,-1.78079]},"properties":{"id":64879,"name":"Wote","state_code":"23","country_code":"KE"}}]}