{"type":"FeatureCollection","features":[{"type":"Feature","geometry":{"type":"Point","coordinates":[34.28086,0.23522]},"properties":{"id":64775,"name":"Bondo","state_code":"38","country_code":"KE"}},{"type":"Feature","geometry":{"type":"Point","coordinates":[34.28806,0.0607]},"properties":{"id":64869,"name":"Siaya","state_code":"38","country_code":"KE"}},{"type":"Feature","geometry":{"type":"Point","coordinates":[34.53602,0.09438]},"properties":{"id":64881,"name":"Yala","state_code":"38","country_code":"KE"}}]}