{"type":"FeatureCollection","features":[{"type":"Feature","geometry":{"type":"Point","coordinates":[35.20365,1.30583]},"properties":{"id":64779,"name":"Chepareria","state_code":"47","country_code":"KE"}},{"type":"Feature","geometry":{"type":"Point","coordinates":[35.11194,1.23889]},"properties":{"id":64795,"name":"Kapenguria","state_code":"47","country_code":"KE"}},{"type":"Feature","geometry":{"type":"Point","coordinates":[37.68336,-3.39879]},"properties":{"id":64873,"name":"Taveta","state_code":"47","country_code":"KE"}},{"type":"Feature","geometry":{"type":"Point","coordinates":[38.55609,-3.39605]},"properties":{"id":64875,"name":"Voi","state_code":"47","country_code":"KE"}},{"type":"Feature","geometry":{"type":"Point","coordinates":[38.35729,-3.39642]},"properties":{"id":64880,"name":"Wundanyi","state_code":"47","country_code":"KE"}}]}