{"type":"FeatureCollection","features":[{"type":"Feature","geometry":{"type":"Point","coordinates":[34.7,0.1167]},"properties":{"id":154634,"name":"Chavakali","state_code":"45","country_code":"KE"}},{"type":"Feature","geometry":{"type":"Point","coordinates":[34.6167,0.0167]},"properties":{"id":154641,"name":"Esabalu","state_code":"45","country_code":"KE"}},{"type":"Feature","geometry":{"type":"Point","coordinates":[34.8,0.0833]},"properties":{"id":154640,"name":"Gambogi","state_code":"45","country_code":"KE"}},{"type":"Feature","geometry":{"type":"Point","coordinates":[34.6667,0.0833]},"properties":{"id":154639,"name":"Kilingili","state_code":"45","country_code":"KE"}},{"type":"Feature","geometry":{"type":"Point","coordinates":[34.597,0.0043]},"properties":{"id":154633,"name":"Luanda","state_code":"45","country_code":"KE"}},{"type":"Feature","geometry":{"type":"Point","coordinates":[34.6167,0.1]},"properties":{"id":154635,"name":"Majengo","state_code":"45","country_code":"KE"}},{"type":"Feature","geometry":{"type":"Point","coordinates":[34.6,0]},"properties":{"id":154636,"name":"Maseno","state_code":"45","country_code":"KE"}},{"type":"Feature","geometry":{"type":"Point","coordinates":[34.7242,0.0708]},"properties":{"id":154632,"name":"Mbale","state_code":"45","country_code":"KE"}},{"type":"Feature","geometry":{"type":"Point","coordinates":[34.75,0.1333]},"properties":{"id":154637,"name":"Mudete","state_code":"45","country_code":"KE"}},{"type":"Feature","geometry":{"type":"Point","coordinates":[34.8833,0.0833]},"properties":{"id":154638,"name":"Serem","state_code":"45","country_code":"KE"}}]}