{"type":"FeatureCollection","features":[{"type":"Feature","geometry":{"type":"Point","coordinates":[71.46306,41.40806]},"properties":{"id":64883,"name":"Ala-Buka","state_code":"J","country_code":"KG"}},{"type":"Feature","geometry":{"type":"Point","coordinates":[72.74586,41.0376]},"properties":{"id":64889,"name":"Bazar-Korgon","state_code":"J","country_code":"KG"}},{"type":"Feature","geometry":{"type":"Point","coordinates":[73,40.93333]},"properties":{"id":64899,"name":"Jalal-Abad","state_code":"J","country_code":"KG"}},{"type":"Feature","geometry":{"type":"Point","coordinates":[74.037,41.405]},"properties":{"id":64910,"name":"Kazarman","state_code":"J","country_code":"KG"}},{"type":"Feature","geometry":{"type":"Point","coordinates":[71.75826,41.49399]},"properties":{"id":64912,"name":"Kerben","state_code":"J","country_code":"KG"}},{"type":"Feature","geometry":{"type":"Point","coordinates":[72.4832,41.03709]},"properties":{"id":64913,"name":"Kochkor-Ata","state_code":"J","country_code":"KG"}},{"type":"Feature","geometry":{"type":"Point","coordinates":[72.90481,40.8982]},"properties":{"id":64924,"name":"Suzak","state_code":"J","country_code":"KG"}},{"type":"Feature","geometry":{"type":"Point","coordinates":[72.21707,41.34612]},"properties":{"id":64927,"name":"Tash-Kumyr","state_code":"J","country_code":"KG"}},{"type":"Feature","geometry":{"type":"Point","coordinates":[72.94192,41.87442]},"properties":{"id":64929,"name":"Toktogul","state_code":"J","country_code":"KG"}},{"type":"Feature","geometry":{"type":"Point","coordinates":[73,41.75]},"properties":{"id":64930,"name":"Toktogul District","state_code":"J","country_code":"KG"}}]}