{"type":"FeatureCollection","features":[{"type":"Feature","geometry":{"type":"Point","coordinates":[71.41667,42.5]},"properties":{"id":64907,"name":"Kara-Buurinskiy Rayon","state_code":"T","country_code":"KG"}},{"type":"Feature","geometry":{"type":"Point","coordinates":[72.24274,42.52277]},"properties":{"id":64925,"name":"Talas","state_code":"T","country_code":"KG"}},{"type":"Feature","geometry":{"type":"Point","coordinates":[72.69408,42.18647]},"properties":{"id":64926,"name":"Talasskiy Rayon","state_code":"T","country_code":"KG"}}]}