{"type":"FeatureCollection","features":[{"type":"Feature","geometry":{"type":"Point","coordinates":[78.52702,42.49948]},"properties":{"id":64882,"name":"Ak-Suu","state_code":"Y","country_code":"KG"}},{"type":"Feature","geometry":{"type":"Point","coordinates":[76.18709,42.46017]},"properties":{"id":64887,"name":"Balykchy","state_code":"Y","country_code":"KG"}},{"type":"Feature","geometry":{"type":"Point","coordinates":[77.08225,42.64944]},"properties":{"id":64892,"name":"Cholpon-Ata","state_code":"Y","country_code":"KG"}},{"type":"Feature","geometry":{"type":"Point","coordinates":[77.17848,42.14107]},"properties":{"id":64901,"name":"Kadzhi-Say","state_code":"Y","country_code":"KG"}},{"type":"Feature","geometry":{"type":"Point","coordinates":[78.39362,42.49068]},"properties":{"id":64908,"name":"Karakol","state_code":"Y","country_code":"KG"}},{"type":"Feature","geometry":{"type":"Point","coordinates":[78.00644,42.34211]},"properties":{"id":64916,"name":"Kyzyl-Suu","state_code":"Y","country_code":"KG"}},{"type":"Feature","geometry":{"type":"Point","coordinates":[78.36476,42.7276]},"properties":{"id":64931,"name":"Tyup","state_code":"Y","country_code":"KG"}}]}