{"type":"FeatureCollection","features":[{"type":"Feature","geometry":{"type":"Point","coordinates":[102.99186,13.45531]},"properties":{"id":64967,"name":"Mongkol Borei","state_code":"1","country_code":"KH"}},{"type":"Feature","geometry":{"type":"Point","coordinates":[102.56365,13.65805]},"properties":{"id":64969,"name":"Paoy Paet","state_code":"1","country_code":"KH"}},{"type":"Feature","geometry":{"type":"Point","coordinates":[102.97369,13.58588]},"properties":{"id":64981,"name":"Sisophon","state_code":"1","country_code":"KH"}},{"type":"Feature","geometry":{"type":"Point","coordinates":[102.60164,13.49902]},"properties":{"id":65009,"name":"Srŏk Malai","state_code":"1","country_code":"KH"}},{"type":"Feature","geometry":{"type":"Point","coordinates":[102.95269,13.81305]},"properties":{"id":65022,"name":"Srŏk Svay Chék","state_code":"1","country_code":"KH"}}]}