{"type":"FeatureCollection","features":[{"type":"Feature","geometry":{"type":"Point","coordinates":[107.15525,12.5048]},"properties":{"id":64964,"name":"Krŏng Sênmônoŭrôm","state_code":"11","country_code":"KH"}},{"type":"Feature","geometry":{"type":"Point","coordinates":[107.18811,12.45583]},"properties":{"id":64978,"name":"Sen Monorom","state_code":"11","country_code":"KH"}},{"type":"Feature","geometry":{"type":"Point","coordinates":[106.77025,12.41722]},"properties":{"id":65002,"name":"Srŏk Kaev Seima","state_code":"11","country_code":"KH"}},{"type":"Feature","geometry":{"type":"Point","coordinates":[107.0948,12.7278]},"properties":{"id":65014,"name":"Srŏk Pech Chreada","state_code":"11","country_code":"KH"}}]}