{"type":"FeatureCollection","features":[{"type":"Feature","geometry":{"type":"Point","coordinates":[103.79,12.78]},"properties":{"id":64936,"name":"Bakan","state_code":"15","country_code":"KH"}},{"type":"Feature","geometry":{"type":"Point","coordinates":[104.19,12.48]},"properties":{"id":64959,"name":"Krakor","state_code":"15","country_code":"KH"}},{"type":"Feature","geometry":{"type":"Point","coordinates":[103.9192,12.53878]},"properties":{"id":64973,"name":"Pursat","state_code":"15","country_code":"KH"}},{"type":"Feature","geometry":{"type":"Point","coordinates":[103.91817,12.47055]},"properties":{"id":64975,"name":"Sampov Meas","state_code":"15","country_code":"KH"}},{"type":"Feature","geometry":{"type":"Point","coordinates":[104.02592,12.71245]},"properties":{"id":65007,"name":"Srŏk Kândiĕng","state_code":"15","country_code":"KH"}},{"type":"Feature","geometry":{"type":"Point","coordinates":[103.13444,12.2423]},"properties":{"id":65027,"name":"Srŏk Véal Vêng","state_code":"15","country_code":"KH"}}]}