{"type":"FeatureCollection","features":[{"type":"Feature","geometry":{"type":"Point","coordinates":[103.19822,13.10271]},"properties":{"id":64940,"name":"Battambang","state_code":"2","country_code":"KH"}},{"type":"Feature","geometry":{"type":"Point","coordinates":[103.45894,13.23621]},"properties":{"id":65028,"name":"Srŏk Âk Phnŭm","state_code":"2","country_code":"KH"}},{"type":"Feature","geometry":{"type":"Point","coordinates":[103.04742,12.97067]},"properties":{"id":64988,"name":"Srŏk Banăn","state_code":"2","country_code":"KH"}},{"type":"Feature","geometry":{"type":"Point","coordinates":[102.8291,13.23601]},"properties":{"id":64995,"name":"Srŏk Bâvĭl","state_code":"2","country_code":"KH"}},{"type":"Feature","geometry":{"type":"Point","coordinates":[102.887,12.84048]},"properties":{"id":65017,"name":"Srŏk Rotanak Mondol","state_code":"2","country_code":"KH"}}]}