{"type":"FeatureCollection","features":[{"type":"Feature","geometry":{"type":"Point","coordinates":[105.07,12.1]},"properties":{"id":64941,"name":"Cheung Prey","state_code":"3","country_code":"KH"}},{"type":"Feature","geometry":{"type":"Point","coordinates":[105.445,11.98]},"properties":{"id":64944,"name":"Kampong Cham","state_code":"3","country_code":"KH"}},{"type":"Feature","geometry":{"type":"Point","coordinates":[104.93171,12.02986]},"properties":{"id":64990,"name":"Srŏk Bathéay","state_code":"3","country_code":"KH"}}]}