{"type":"FeatureCollection","features":[{"type":"Feature","geometry":{"type":"Point","coordinates":[104.52085,11.45332]},"properties":{"id":64946,"name":"Kampong Speu","state_code":"5","country_code":"KH"}},{"type":"Feature","geometry":{"type":"Point","coordinates":[104.50655,11.47091]},"properties":{"id":64962,"name":"Krŏng Chbar Mon","state_code":"5","country_code":"KH"}},{"type":"Feature","geometry":{"type":"Point","coordinates":[104.53584,11.18432]},"properties":{"id":64989,"name":"Srŏk Basedth","state_code":"5","country_code":"KH"}},{"type":"Feature","geometry":{"type":"Point","coordinates":[104.65992,11.31648]},"properties":{"id":65008,"name":"Srŏk Kông Pĭsei","state_code":"5","country_code":"KH"}},{"type":"Feature","geometry":{"type":"Point","coordinates":[104.61224,11.66845]},"properties":{"id":65032,"name":"Srŏk Ŏdŏngk","state_code":"5","country_code":"KH"}}]}