{"type":"FeatureCollection","features":[{"type":"Feature","geometry":{"type":"Point","coordinates":[102.9838,11.61531]},"properties":{"id":64957,"name":"Koh Kong","state_code":"9","country_code":"KH"}},{"type":"Feature","geometry":{"type":"Point","coordinates":[103.03569,11.54665]},"properties":{"id":64982,"name":"Smach Mean Chey","state_code":"9","country_code":"KH"}},{"type":"Feature","geometry":{"type":"Point","coordinates":[103.76226,11.10968]},"properties":{"id":64984,"name":"Srae Ambel","state_code":"9","country_code":"KH"}},{"type":"Feature","geometry":{"type":"Point","coordinates":[103.38993,11.11465]},"properties":{"id":64991,"name":"Srŏk Batum Sakôr","state_code":"9","country_code":"KH"}},{"type":"Feature","geometry":{"type":"Point","coordinates":[103.01159,11.81292]},"properties":{"id":65011,"name":"Srŏk Môndôl Seima","state_code":"9","country_code":"KH"}}]}