{"type":"FeatureCollection","features":[{"type":"Feature","geometry":{"type":"Point","coordinates":[127.44522,38.24391]},"properties":{"id":65293,"name":"Cheorwon-gun","state_code":"42","country_code":"KR"}},{"type":"Feature","geometry":{"type":"Point","coordinates":[127.73417,37.87472]},"properties":{"id":65297,"name":"Chuncheon","state_code":"42","country_code":"KR"}},{"type":"Feature","geometry":{"type":"Point","coordinates":[127.72776,37.88048]},"properties":{"id":65298,"name":"Chuncheon-si","state_code":"42","country_code":"KR"}},{"type":"Feature","geometry":{"type":"Point","coordinates":[129.11357,37.52345]},"properties":{"id":65311,"name":"Donghae-si","state_code":"42","country_code":"KR"}},{"type":"Feature","geometry":{"type":"Point","coordinates":[128.87239,37.75266]},"properties":{"id":65322,"name":"Gangneung","state_code":"42","country_code":"KR"}},{"type":"Feature","geometry":{"type":"Point","coordinates":[128.87825,37.7519]},"properties":{"id":65323,"name":"Gangneung-si","state_code":"42","country_code":"KR"}},{"type":"Feature","geometry":{"type":"Point","coordinates":[128.46755,38.37945]},"properties":{"id":65349,"name":"Goseong-gun","state_code":"42","country_code":"KR"}},{"type":"Feature","geometry":{"type":"Point","coordinates":[127.9857,37.48817]},"properties":{"id":65383,"name":"Hoengseong-gun","state_code":"42","country_code":"KR"}},{"type":"Feature","geometry":{"type":"Point","coordinates":[127.8857,37.6918]},"properties":{"id":65385,"name":"Hongch’ŏn","state_code":"42","country_code":"KR"}},{"type":"Feature","geometry":{"type":"Point","coordinates":[128.02823,37.76058]},"properties":{"id":65384,"name":"Hongcheon-gun","state_code":"42","country_code":"KR"}},{"type":"Feature","geometry":{"type":"Point","coordinates":[127.70632,38.10705]},"properties":{"id":65388,"name":"Hwacheon","state_code":"42","country_code":"KR"}},{"type":"Feature","geometry":{"type":"Point","coordinates":[127.67615,38.14212]},"properties":{"id":65389,"name":"Hwacheon-gun","state_code":"42","country_code":"KR"}},{"type":"Feature","geometry":{"type":"Point","coordinates":[128.27876,38.04416]},"properties":{"id":65401,"name":"Inje-gun","state_code":"42","country_code":"KR"}},{"type":"Feature","geometry":{"type":"Point","coordinates":[128.72995,37.38911]},"properties":{"id":65411,"name":"Jeongseon-gun","state_code":"42","country_code":"KR"}},{"type":"Feature","geometry":{"type":"Point","coordinates":[128.4676,38.37881]},"properties":{"id":65430,"name":"Kosong","state_code":"42","country_code":"KR"}},{"type":"Feature","geometry":{"type":"Point","coordinates":[128.46821,37.18447]},"properties":{"id":65459,"name":"Neietsu","state_code":"42","country_code":"KR"}},{"type":"Feature","geometry":{"type":"Point","coordinates":[128.39306,37.37028]},"properties":{"id":65473,"name":"Pyeongchang","state_code":"42","country_code":"KR"}},{"type":"Feature","geometry":{"type":"Point","coordinates":[128.3955,37.3682]},"properties":{"id":65474,"name":"Pyeongchang-gun","state_code":"42","country_code":"KR"}},{"type":"Feature","geometry":{"type":"Point","coordinates":[129.16626,37.45013]},"properties":{"id":65478,"name":"Samcheok-si","state_code":"42","country_code":"KR"}},{"type":"Feature","geometry":{"type":"Point","coordinates":[129.17083,37.44056]},"properties":{"id":65481,"name":"Santyoku","state_code":"42","country_code":"KR"}},{"type":"Feature","geometry":{"type":"Point","coordinates":[128.59181,38.20701]},"properties":{"id":65504,"name":"Sokcho","state_code":"42","country_code":"KR"}},{"type":"Feature","geometry":{"type":"Point","coordinates":[128.59275,38.20725]},"properties":{"id":65505,"name":"Sokcho-si","state_code":"42","country_code":"KR"}},{"type":"Feature","geometry":{"type":"Point","coordinates":[128.9889,37.1759]},"properties":{"id":65519,"name":"T’aebaek","state_code":"42","country_code":"KR"}},{"type":"Feature","geometry":{"type":"Point","coordinates":[128.9857,37.1652]},"properties":{"id":65515,"name":"Taebaek-si","state_code":"42","country_code":"KR"}},{"type":"Feature","geometry":{"type":"Point","coordinates":[129.10694,37.54389]},"properties":{"id":65518,"name":"Tonghae","state_code":"42","country_code":"KR"}},{"type":"Feature","geometry":{"type":"Point","coordinates":[127.94528,37.35139]},"properties":{"id":65534,"name":"Wŏnju","state_code":"42","country_code":"KR"}},{"type":"Feature","geometry":{"type":"Point","coordinates":[127.92132,37.32104]},"properties":{"id":65533,"name":"Wonju-si","state_code":"42","country_code":"KR"}},{"type":"Feature","geometry":{"type":"Point","coordinates":[127.98944,38.10583]},"properties":{"id":65536,"name":"Yanggu","state_code":"42","country_code":"KR"}},{"type":"Feature","geometry":{"type":"Point","coordinates":[127.98555,38.1016]},"properties":{"id":65537,"name":"Yanggu-gun","state_code":"42","country_code":"KR"}},{"type":"Feature","geometry":{"type":"Point","coordinates":[128.61471,38.06215]},"properties":{"id":65543,"name":"Yangyang-gun","state_code":"42","country_code":"KR"}}]}