{"type":"FeatureCollection","features":[{"type":"Feature","geometry":{"type":"Point","coordinates":[128.72275,36.56636]},"properties":{"id":65260,"name":"Andong","state_code":"47","country_code":"KR"}},{"type":"Feature","geometry":{"type":"Point","coordinates":[128.71667,36.56667]},"properties":{"id":65261,"name":"Andong-si","state_code":"47","country_code":"KR"}},{"type":"Feature","geometry":{"type":"Point","coordinates":[128.73573,36.88951]},"properties":{"id":65269,"name":"Bonghwa-gun","state_code":"47","country_code":"KR"}},{"type":"Feature","geometry":{"type":"Point","coordinates":[128.78509,35.67166]},"properties":{"id":65288,"name":"Cheongdo-gun","state_code":"47","country_code":"KR"}},{"type":"Feature","geometry":{"type":"Point","coordinates":[129.057,36.43351]},"properties":{"id":65290,"name":"Cheongsong gun","state_code":"47","country_code":"KR"}},{"type":"Feature","geometry":{"type":"Point","coordinates":[128.46138,36.01512]},"properties":{"id":65294,"name":"Chilgok-gun","state_code":"47","country_code":"KR"}},{"type":"Feature","geometry":{"type":"Point","coordinates":[128.63083,36.82167]},"properties":{"id":65314,"name":"Eisen","state_code":"47","country_code":"KR"}},{"type":"Feature","geometry":{"type":"Point","coordinates":[128.11981,36.12176]},"properties":{"id":65335,"name":"Gimcheon","state_code":"47","country_code":"KR"}},{"type":"Feature","geometry":{"type":"Point","coordinates":[128.11157,36.14481]},"properties":{"id":65336,"name":"Gimcheon-si","state_code":"47","country_code":"KR"}},{"type":"Feature","geometry":{"type":"Point","coordinates":[128.29707,35.74959]},"properties":{"id":65346,"name":"Goryeong-gun","state_code":"47","country_code":"KR"}},{"type":"Feature","geometry":{"type":"Point","coordinates":[128.35442,36.21009]},"properties":{"id":65351,"name":"Gumi-si","state_code":"47","country_code":"KR"}},{"type":"Feature","geometry":{"type":"Point","coordinates":[128.64705,36.16995]},"properties":{"id":65355,"name":"Gunwi-gun","state_code":"47","country_code":"KR"}},{"type":"Feature","geometry":{"type":"Point","coordinates":[129.21167,35.84278]},"properties":{"id":65369,"name":"Gyeongju","state_code":"47","country_code":"KR"}},{"type":"Feature","geometry":{"type":"Point","coordinates":[128.8,35.83333]},"properties":{"id":65370,"name":"Gyeongsan-si","state_code":"47","country_code":"KR"}},{"type":"Feature","geometry":{"type":"Point","coordinates":[128.82,35.91333]},"properties":{"id":65381,"name":"Hayang","state_code":"47","country_code":"KR"}},{"type":"Feature","geometry":{"type":"Point","coordinates":[129.34517,36.10945]},"properties":{"id":65382,"name":"Heunghae","state_code":"47","country_code":"KR"}},{"type":"Feature","geometry":{"type":"Point","coordinates":[128.2975,36.24083]},"properties":{"id":65408,"name":"Jenzan","state_code":"47","country_code":"KR"}},{"type":"Feature","geometry":{"type":"Point","coordinates":[128.57278,36.23472]},"properties":{"id":65431,"name":"Kunwi","state_code":"47","country_code":"KR"}},{"type":"Feature","geometry":{"type":"Point","coordinates":[128.19946,36.59458]},"properties":{"id":65446,"name":"Mungyeong","state_code":"47","country_code":"KR"}},{"type":"Feature","geometry":{"type":"Point","coordinates":[128.18624,36.58755]},"properties":{"id":65447,"name":"Mungyeong-si","state_code":"47","country_code":"KR"}},{"type":"Feature","geometry":{"type":"Point","coordinates":[129.36481,36.02917]},"properties":{"id":65469,"name":"Pohang","state_code":"47","country_code":"KR"}},{"type":"Feature","geometry":{"type":"Point","coordinates":[129.36667,36.08333]},"properties":{"id":65470,"name":"Pohang-si","state_code":"47","country_code":"KR"}},{"type":"Feature","geometry":{"type":"Point","coordinates":[128.16056,36.41528]},"properties":{"id":65480,"name":"Sangju","state_code":"47","country_code":"KR"}},{"type":"Feature","geometry":{"type":"Point","coordinates":[128.28838,35.91888]},"properties":{"id":65494,"name":"Seongju-gun","state_code":"47","country_code":"KR"}},{"type":"Feature","geometry":{"type":"Point","coordinates":[128.61517,36.36122]},"properties":{"id":65522,"name":"Uiseong-gun","state_code":"47","country_code":"KR"}},{"type":"Feature","geometry":{"type":"Point","coordinates":[129.31966,36.91968]},"properties":{"id":65524,"name":"Uljin-gun","state_code":"47","country_code":"KR"}},{"type":"Feature","geometry":{"type":"Point","coordinates":[130.86084,37.50442]},"properties":{"id":65526,"name":"Ulleung-gun","state_code":"47","country_code":"KR"}},{"type":"Feature","geometry":{"type":"Point","coordinates":[128.39785,35.99251]},"properties":{"id":65530,"name":"Waegwan","state_code":"47","country_code":"KR"}},{"type":"Feature","geometry":{"type":"Point","coordinates":[128.43007,36.65272]},"properties":{"id":65544,"name":"Yecheon-gun","state_code":"47","country_code":"KR"}},{"type":"Feature","geometry":{"type":"Point","coordinates":[129,36]},"properties":{"id":65549,"name":"Yeongcheon-si","state_code":"47","country_code":"KR"}},{"type":"Feature","geometry":{"type":"Point","coordinates":[129.31078,36.48125]},"properties":{"id":65550,"name":"Yeongdeok-gun","state_code":"47","country_code":"KR"}},{"type":"Feature","geometry":{"type":"Point","coordinates":[128.58631,36.87459]},"properties":{"id":65557,"name":"Yeongju-si","state_code":"47","country_code":"KR"}},{"type":"Feature","geometry":{"type":"Point","coordinates":[129.14196,36.69592]},"properties":{"id":65558,"name":"Yeongyang-gun","state_code":"47","country_code":"KR"}},{"type":"Feature","geometry":{"type":"Point","coordinates":[129.35162,35.99526]},"properties":{"id":65559,"name":"Yeonil","state_code":"47","country_code":"KR"}}]}