{"type":"FeatureCollection","features":[{"type":"Feature","geometry":{"type":"Point","coordinates":[48.00139,29.365]},"properties":{"id":65571,"name":"Ad Dasmah","state_code":"KU","country_code":"KW"}},{"type":"Feature","geometry":{"type":"Point","coordinates":[47.93306,29.295]},"properties":{"id":65584,"name":"Ar Rābiyah","state_code":"KU","country_code":"KW"}},{"type":"Feature","geometry":{"type":"Point","coordinates":[47.96167,29.34722]},"properties":{"id":65586,"name":"Ash Shāmīyah","state_code":"KU","country_code":"KW"}},{"type":"Feature","geometry":{"type":"Point","coordinates":[48.27472,29.4425]},"properties":{"id":65587,"name":"Az Zawr","state_code":"KU","country_code":"KW"}},{"type":"Feature","geometry":{"type":"Point","coordinates":[47.97833,29.36972]},"properties":{"id":65590,"name":"Kuwait City","state_code":"KU","country_code":"KW"}}]}