{"type":"FeatureCollection","features":[{"type":"Feature","geometry":{"type":"Point","coordinates":[70.94704,51.99374]},"properties":{"id":65596,"name":"Akkol","state_code":"11","country_code":"KZ"}},{"type":"Feature","geometry":{"type":"Point","coordinates":[69.59997,53.29617]},"properties":{"id":65597,"name":"Akkol’","state_code":"11","country_code":"KZ"}},{"type":"Feature","geometry":{"type":"Point","coordinates":[71.95761,52.44422]},"properties":{"id":65600,"name":"Aksu","state_code":"11","country_code":"KZ"}},{"type":"Feature","geometry":{"type":"Point","coordinates":[69.79684,51.53092]},"properties":{"id":65619,"name":"Astrakhan","state_code":"11","country_code":"KZ"}},{"type":"Feature","geometry":{"type":"Point","coordinates":[68.35996,51.80652]},"properties":{"id":65624,"name":"Atbasar","state_code":"11","country_code":"KZ"}},{"type":"Feature","geometry":{"type":"Point","coordinates":[68.7516,52.51779]},"properties":{"id":65632,"name":"Balkashino","state_code":"11","country_code":"KZ"}},{"type":"Feature","geometry":{"type":"Point","coordinates":[73.09592,52.49795]},"properties":{"id":65647,"name":"Bestobe","state_code":"11","country_code":"KZ"}},{"type":"Feature","geometry":{"type":"Point","coordinates":[66.31557,51.09922]},"properties":{"id":65665,"name":"Derzhavīnsk","state_code":"11","country_code":"KZ"}},{"type":"Feature","geometry":{"type":"Point","coordinates":[69.47928,51.05412]},"properties":{"id":65672,"name":"Egindiköl","state_code":"11","country_code":"KZ"}},{"type":"Feature","geometry":{"type":"Point","coordinates":[66.40841,51.95495]},"properties":{"id":65676,"name":"Esil","state_code":"11","country_code":"KZ"}},{"type":"Feature","geometry":{"type":"Point","coordinates":[69.4,53.28333]},"properties":{"id":65698,"name":"Kokshetau","state_code":"11","country_code":"KZ"}},{"type":"Feature","geometry":{"type":"Point","coordinates":[66.52081,52.2456]},"properties":{"id":65703,"name":"Krasnogorskiy","state_code":"11","country_code":"KZ"}},{"type":"Feature","geometry":{"type":"Point","coordinates":[70.41911,52.6329]},"properties":{"id":65720,"name":"Makinsk","state_code":"11","country_code":"KZ"}},{"type":"Feature","geometry":{"type":"Point","coordinates":[68.17475,52.45376]},"properties":{"id":65781,"name":"Shantobe","state_code":"11","country_code":"KZ"}},{"type":"Feature","geometry":{"type":"Point","coordinates":[70.18895,52.93592]},"properties":{"id":65784,"name":"Shchuchinsk","state_code":"11","country_code":"KZ"}},{"type":"Feature","geometry":{"type":"Point","coordinates":[70.99457,51.69946]},"properties":{"id":65787,"name":"Shortandy","state_code":"11","country_code":"KZ"}},{"type":"Feature","geometry":{"type":"Point","coordinates":[71.88161,52.35062]},"properties":{"id":65796,"name":"Stepnogorsk","state_code":"11","country_code":"KZ"}},{"type":"Feature","geometry":{"type":"Point","coordinates":[70.78861,52.83489]},"properties":{"id":65797,"name":"Stepnyak","state_code":"11","country_code":"KZ"}},{"type":"Feature","geometry":{"type":"Point","coordinates":[73.10265,51.62364]},"properties":{"id":65830,"name":"Yermentau","state_code":"11","country_code":"KZ"}},{"type":"Feature","geometry":{"type":"Point","coordinates":[72.01514,52.47031]},"properties":{"id":65832,"name":"Zavodskoy","state_code":"11","country_code":"KZ"}},{"type":"Feature","geometry":{"type":"Point","coordinates":[67.31665,51.91058]},"properties":{"id":65840,"name":"Zhaqsy","state_code":"11","country_code":"KZ"}},{"type":"Feature","geometry":{"type":"Point","coordinates":[71.71245,51.74211]},"properties":{"id":65847,"name":"Zholymbet","state_code":"11","country_code":"KZ"}}]}