{"type":"FeatureCollection","features":[{"type":"Feature","geometry":{"type":"Point","coordinates":[61.66667,46.8]},"properties":{"id":65615,"name":"Aral","state_code":"43","country_code":"KZ"}},{"type":"Feature","geometry":{"type":"Point","coordinates":[62.15264,45.84607]},"properties":{"id":65629,"name":"Ayteke Bi","state_code":"43","country_code":"KZ"}},{"type":"Feature","geometry":{"type":"Point","coordinates":[65.58796,44.81162]},"properties":{"id":65642,"name":"Belköl","state_code":"43","country_code":"KZ"}},{"type":"Feature","geometry":{"type":"Point","coordinates":[64.66667,45.08333]},"properties":{"id":65669,"name":"Dzhalagash","state_code":"43","country_code":"KZ"}},{"type":"Feature","geometry":{"type":"Point","coordinates":[65.50917,44.85278]},"properties":{"id":65708,"name":"Kyzylorda","state_code":"43","country_code":"KZ"}},{"type":"Feature","geometry":{"type":"Point","coordinates":[62.1075,45.76278]},"properties":{"id":65757,"name":"Qazaly","state_code":"43","country_code":"KZ"}},{"type":"Feature","geometry":{"type":"Point","coordinates":[61.15194,47.09]},"properties":{"id":65773,"name":"Sekseūil","state_code":"43","country_code":"KZ"}},{"type":"Feature","geometry":{"type":"Point","coordinates":[67.41062,44.00947]},"properties":{"id":65780,"name":"Shalqīya","state_code":"43","country_code":"KZ"}},{"type":"Feature","geometry":{"type":"Point","coordinates":[66.73887,44.16882]},"properties":{"id":65792,"name":"Shīeli","state_code":"43","country_code":"KZ"}},{"type":"Feature","geometry":{"type":"Point","coordinates":[65.55227,44.77384]},"properties":{"id":65804,"name":"Tasböget","state_code":"43","country_code":"KZ"}},{"type":"Feature","geometry":{"type":"Point","coordinates":[64.98395,45.05053]},"properties":{"id":65811,"name":"Terenozek","state_code":"43","country_code":"KZ"}},{"type":"Feature","geometry":{"type":"Point","coordinates":[67.24637,43.90652]},"properties":{"id":65827,"name":"Yanykurgan","state_code":"43","country_code":"KZ"}},{"type":"Feature","geometry":{"type":"Point","coordinates":[64.07806,45.48778]},"properties":{"id":65848,"name":"Zhosaly","state_code":"43","country_code":"KZ"}}]}