{"type":"FeatureCollection","features":[{"type":"Feature","geometry":{"type":"Point","coordinates":[105.77051,15.54626]},"properties":{"id":65875,"name":"Muang Khôngxédôn","state_code":"SL","country_code":"LA"}},{"type":"Feature","geometry":{"type":"Point","coordinates":[105.59745,15.83308]},"properties":{"id":65876,"name":"Muang Lakhonphéng","state_code":"SL","country_code":"LA"}},{"type":"Feature","geometry":{"type":"Point","coordinates":[106.14111,15.47745]},"properties":{"id":65878,"name":"Muang Laongam","state_code":"SL","country_code":"LA"}},{"type":"Feature","geometry":{"type":"Point","coordinates":[106.8748,16.35868]},"properties":{"id":65896,"name":"Muang Samouay","state_code":"SL","country_code":"LA"}},{"type":"Feature","geometry":{"type":"Point","coordinates":[106.36158,15.71587]},"properties":{"id":65899,"name":"Muang Saravan","state_code":"SL","country_code":"LA"}},{"type":"Feature","geometry":{"type":"Point","coordinates":[106.70304,16.07765]},"properties":{"id":65902,"name":"Muang Ta-Ôy","state_code":"SL","country_code":"LA"}},{"type":"Feature","geometry":{"type":"Point","coordinates":[106.23837,16.02236]},"properties":{"id":65907,"name":"Muang Toumlan","state_code":"SL","country_code":"LA"}},{"type":"Feature","geometry":{"type":"Point","coordinates":[105.95529,15.75005]},"properties":{"id":65909,"name":"Muang Vapi","state_code":"SL","country_code":"LA"}},{"type":"Feature","geometry":{"type":"Point","coordinates":[106.41744,15.71652]},"properties":{"id":65922,"name":"Salavan","state_code":"SL","country_code":"LA"}}]}