{"type":"FeatureCollection","features":[{"type":"Feature","geometry":{"type":"Point","coordinates":[35.65806,34.25528]},"properties":{"id":65934,"name":"Batroûn","state_code":"AS","country_code":"LB"}},{"type":"Feature","geometry":{"type":"Point","coordinates":[36.01056,34.25083]},"properties":{"id":65935,"name":"Bcharré","state_code":"AS","country_code":"LB"}},{"type":"Feature","geometry":{"type":"Point","coordinates":[35.84415,34.43352]},"properties":{"id":65953,"name":"Tripoli","state_code":"AS","country_code":"LB"}}]}