{"type":"FeatureCollection","features":[{"type":"Feature","geometry":{"type":"Point","coordinates":[-60.97767,14.0194]},"properties":{"id":65956,"name":"Active Hill","state_code":"02","country_code":"LC"}},{"type":"Feature","geometry":{"type":"Point","coordinates":[-60.96462,14.00768]},"properties":{"id":65957,"name":"Agard Lands/Morne Dudon","state_code":"02","country_code":"LC"}},{"type":"Feature","geometry":{"type":"Point","coordinates":[-60.96162,14.01848]},"properties":{"id":65958,"name":"Almondale","state_code":"02","country_code":"LC"}},{"type":"Feature","geometry":{"type":"Point","coordinates":[-60.9867,14.00069]},"properties":{"id":65972,"name":"Aurendel Hill","state_code":"02","country_code":"LC"}},{"type":"Feature","geometry":{"type":"Point","coordinates":[-60.9464,14.00535]},"properties":{"id":65973,"name":"Babonneau Proper","state_code":"02","country_code":"LC"}},{"type":"Feature","geometry":{"type":"Point","coordinates":[-60.98156,13.99797]},"properties":{"id":65974,"name":"Bagatelle","state_code":"02","country_code":"LC"}},{"type":"Feature","geometry":{"type":"Point","coordinates":[-60.95167,14.01471]},"properties":{"id":65975,"name":"Balata","state_code":"02","country_code":"LC"}},{"type":"Feature","geometry":{"type":"Point","coordinates":[-61.00135,14.01087]},"properties":{"id":65979,"name":"Banannes Bay","state_code":"02","country_code":"LC"}},{"type":"Feature","geometry":{"type":"Point","coordinates":[-60.98924,14.01423]},"properties":{"id":65983,"name":"Barnard Hill","state_code":"02","country_code":"LC"}},{"type":"Feature","geometry":{"type":"Point","coordinates":[-60.99073,13.96809]},"properties":{"id":65985,"name":"Barre Denis","state_code":"02","country_code":"LC"}},{"type":"Feature","geometry":{"type":"Point","coordinates":[-60.99678,13.9619]},"properties":{"id":65986,"name":"Barre Duchaussee","state_code":"02","country_code":"LC"}},{"type":"Feature","geometry":{"type":"Point","coordinates":[-61.01829,13.97247]},"properties":{"id":65987,"name":"Barre St.Joseph","state_code":"02","country_code":"LC"}},{"type":"Feature","geometry":{"type":"Point","coordinates":[-60.99747,13.95283]},"properties":{"id":65996,"name":"Belair","state_code":"02","country_code":"LC"}},{"type":"Feature","geometry":{"type":"Point","coordinates":[-60.99628,14.00777]},"properties":{"id":65998,"name":"Bella Rosa","state_code":"02","country_code":"LC"}},{"type":"Feature","geometry":{"type":"Point","coordinates":[-60.97497,13.96077]},"properties":{"id":66008,"name":"Bexon","state_code":"02","country_code":"LC"}},{"type":"Feature","geometry":{"type":"Point","coordinates":[-60.97445,14.02429]},"properties":{"id":66009,"name":"Bisee","state_code":"02","country_code":"LC"}},{"type":"Feature","geometry":{"type":"Point","coordinates":[-60.98498,14.00019]},"properties":{"id":66010,"name":"Bishop'S Gap","state_code":"02","country_code":"LC"}},{"type":"Feature","geometry":{"type":"Point","coordinates":[-60.97489,14.02255]},"properties":{"id":66011,"name":"Bissee","state_code":"02","country_code":"LC"}},{"type":"Feature","geometry":{"type":"Point","coordinates":[-60.98811,14.00457]},"properties":{"id":66013,"name":"Black Mallet","state_code":"02","country_code":"LC"}},{"type":"Feature","geometry":{"type":"Point","coordinates":[-60.96954,14.00199]},"properties":{"id":66015,"name":"Bocage","state_code":"02","country_code":"LC"}},{"type":"Feature","geometry":{"type":"Point","coordinates":[-60.99437,14.00399]},"properties":{"id":66018,"name":"Bois Catchet","state_code":"02","country_code":"LC"}},{"type":"Feature","geometry":{"type":"Point","coordinates":[-60.98214,14.00892]},"properties":{"id":66025,"name":"Bois Patat","state_code":"02","country_code":"LC"}},{"type":"Feature","geometry":{"type":"Point","coordinates":[-60.95432,14.00583]},"properties":{"id":66033,"name":"Cabiche/Babonneau","state_code":"02","country_code":"LC"}},{"type":"Feature","geometry":{"type":"Point","coordinates":[-60.95113,13.98875]},"properties":{"id":66035,"name":"Cacoa/Babonneau","state_code":"02","country_code":"LC"}},{"type":"Feature","geometry":{"type":"Point","coordinates":[-60.98664,14.01391]},"properties":{"id":66038,"name":"Calvary","state_code":"02","country_code":"LC"}},{"type":"Feature","geometry":{"type":"Point","coordinates":[-60.99097,13.99307]},"properties":{"id":66052,"name":"Capital Hill","state_code":"02","country_code":"LC"}},{"type":"Feature","geometry":{"type":"Point","coordinates":[-60.96851,14.01889]},"properties":{"id":66053,"name":"Carellie","state_code":"02","country_code":"LC"}},{"type":"Feature","geometry":{"type":"Point","coordinates":[-61.00614,13.9957]},"properties":{"id":66056,"name":"Castries","state_code":"02","country_code":"LC"}},{"type":"Feature","geometry":{"type":"Point","coordinates":[-60.98232,14.00601]},"properties":{"id":66060,"name":"Cedars","state_code":"02","country_code":"LC"}},{"type":"Feature","geometry":{"type":"Point","coordinates":[-60.97395,14.01481]},"properties":{"id":66065,"name":"Chase Gardens","state_code":"02","country_code":"LC"}},{"type":"Feature","geometry":{"type":"Point","coordinates":[-60.92187,13.991]},"properties":{"id":66066,"name":"Chassin/Babonneau","state_code":"02","country_code":"LC"}},{"type":"Feature","geometry":{"type":"Point","coordinates":[-60.98624,13.95597]},"properties":{"id":66070,"name":"Choppin Ridge/Sarot","state_code":"02","country_code":"LC"}},{"type":"Feature","geometry":{"type":"Point","coordinates":[-61.00878,13.99296]},"properties":{"id":66072,"name":"Ciceron","state_code":"02","country_code":"LC"}},{"type":"Feature","geometry":{"type":"Point","coordinates":[-60.99027,14.00946]},"properties":{"id":66073,"name":"City","state_code":"02","country_code":"LC"}},{"type":"Feature","geometry":{"type":"Point","coordinates":[-60.98149,14.02124]},"properties":{"id":66074,"name":"City Gate/La Clery","state_code":"02","country_code":"LC"}},{"type":"Feature","geometry":{"type":"Point","coordinates":[-60.99055,14.01389]},"properties":{"id":66078,"name":"Conway/Waterfront","state_code":"02","country_code":"LC"}},{"type":"Feature","geometry":{"type":"Point","coordinates":[-61.01437,13.95684]},"properties":{"id":66080,"name":"Coolie Town","state_code":"02","country_code":"LC"}},{"type":"Feature","geometry":{"type":"Point","coordinates":[-61.00919,14.00223]},"properties":{"id":66085,"name":"Coubaril","state_code":"02","country_code":"LC"}},{"type":"Feature","geometry":{"type":"Point","coordinates":[-60.9715,13.95174]},"properties":{"id":66087,"name":"Crownlands/Marc","state_code":"02","country_code":"LC"}},{"type":"Feature","geometry":{"type":"Point","coordinates":[-61.00645,13.98084]},"properties":{"id":66088,"name":"Cul De Sac","state_code":"02","country_code":"LC"}},{"type":"Feature","geometry":{"type":"Point","coordinates":[-60.98779,14.01355]},"properties":{"id":66091,"name":"Darling Road","state_code":"02","country_code":"LC"}},{"type":"Feature","geometry":{"type":"Point","coordinates":[-60.97329,13.97727]},"properties":{"id":66095,"name":"Deglos","state_code":"02","country_code":"LC"}},{"type":"Feature","geometry":{"type":"Point","coordinates":[-60.98513,13.99474]},"properties":{"id":66106,"name":"Derierre Fort/Old Victoria Road","state_code":"02","country_code":"LC"}},{"type":"Feature","geometry":{"type":"Point","coordinates":[-60.97154,13.98382]},"properties":{"id":66124,"name":"Dubrassay","state_code":"02","country_code":"LC"}},{"type":"Feature","geometry":{"type":"Point","coordinates":[-60.94099,13.98853]},"properties":{"id":66131,"name":"En Pois Doux/Babonneau","state_code":"02","country_code":"LC"}},{"type":"Feature","geometry":{"type":"Point","coordinates":[-60.97953,13.99978]},"properties":{"id":66133,"name":"Entrepot","state_code":"02","country_code":"LC"}},{"type":"Feature","geometry":{"type":"Point","coordinates":[-60.99558,14.00878]},"properties":{"id":66139,"name":"Faux A Chaud","state_code":"02","country_code":"LC"}},{"type":"Feature","geometry":{"type":"Point","coordinates":[-60.98494,13.98684]},"properties":{"id":66140,"name":"Ferrand","state_code":"02","country_code":"LC"}},{"type":"Feature","geometry":{"type":"Point","coordinates":[-60.9588,13.96283]},"properties":{"id":66141,"name":"Floissac/Marc","state_code":"02","country_code":"LC"}},{"type":"Feature","geometry":{"type":"Point","coordinates":[-60.93626,13.99491]},"properties":{"id":66142,"name":"Fond Assau/Babonneau","state_code":"02","country_code":"LC"}},{"type":"Feature","geometry":{"type":"Point","coordinates":[-60.95954,13.99195]},"properties":{"id":66146,"name":"Fond Canie","state_code":"02","country_code":"LC"}},{"type":"Feature","geometry":{"type":"Point","coordinates":[-60.95766,13.97775]},"properties":{"id":66154,"name":"Forestiere","state_code":"02","country_code":"LC"}},{"type":"Feature","geometry":{"type":"Point","coordinates":[-60.98673,14.00499]},"properties":{"id":66160,"name":"George Charles Boulevard","state_code":"02","country_code":"LC"}},{"type":"Feature","geometry":{"type":"Point","coordinates":[-60.9596,14.00004]},"properties":{"id":66162,"name":"Girard","state_code":"02","country_code":"LC"}},{"type":"Feature","geometry":{"type":"Point","coordinates":[-60.98446,14.01311]},"properties":{"id":66164,"name":"Goergeville","state_code":"02","country_code":"LC"}},{"type":"Feature","geometry":{"type":"Point","coordinates":[-60.9984,13.99121]},"properties":{"id":66166,"name":"Goodlands","state_code":"02","country_code":"LC"}},{"type":"Feature","geometry":{"type":"Point","coordinates":[-60.98763,14.00706]},"properties":{"id":66182,"name":"Grass Street","state_code":"02","country_code":"LC"}},{"type":"Feature","geometry":{"type":"Point","coordinates":[-60.95284,13.99603]},"properties":{"id":66183,"name":"Green Gold","state_code":"02","country_code":"LC"}},{"type":"Feature","geometry":{"type":"Point","coordinates":[-60.96486,13.99084]},"properties":{"id":66187,"name":"Guesneau","state_code":"02","country_code":"LC"}},{"type":"Feature","geometry":{"type":"Point","coordinates":[-60.94988,13.99941]},"properties":{"id":66190,"name":"Hill 20/Babonneau","state_code":"02","country_code":"LC"}},{"type":"Feature","geometry":{"type":"Point","coordinates":[-60.97083,14.01115]},"properties":{"id":66191,"name":"Hillcrest Gardens","state_code":"02","country_code":"LC"}},{"type":"Feature","geometry":{"type":"Point","coordinates":[-60.99906,14.00914]},"properties":{"id":66194,"name":"Hospital Road","state_code":"02","country_code":"LC"}},{"type":"Feature","geometry":{"type":"Point","coordinates":[-60.97879,14.00199]},"properties":{"id":66195,"name":"Independence City","state_code":"02","country_code":"LC"}},{"type":"Feature","geometry":{"type":"Point","coordinates":[-60.9911,14.01909]},"properties":{"id":66201,"name":"John Compton Highway","state_code":"02","country_code":"LC"}},{"type":"Feature","geometry":{"type":"Point","coordinates":[-60.98799,14.01875]},"properties":{"id":66204,"name":"L'Anse Road","state_code":"02","country_code":"LC"}},{"type":"Feature","geometry":{"type":"Point","coordinates":[-60.98723,14.01806]},"properties":{"id":66207,"name":"La Carierre","state_code":"02","country_code":"LC"}},{"type":"Feature","geometry":{"type":"Point","coordinates":[-60.98422,14.01846]},"properties":{"id":66209,"name":"La Clery","state_code":"02","country_code":"LC"}},{"type":"Feature","geometry":{"type":"Point","coordinates":[-61.00582,13.96569]},"properties":{"id":66212,"name":"La Croix Maingot","state_code":"02","country_code":"LC"}},{"type":"Feature","geometry":{"type":"Point","coordinates":[-60.98187,14.01368]},"properties":{"id":66218,"name":"La Pansee","state_code":"02","country_code":"LC"}},{"type":"Feature","geometry":{"type":"Point","coordinates":[-61.00404,14.00824]},"properties":{"id":66229,"name":"La Toc","state_code":"02","country_code":"LC"}},{"type":"Feature","geometry":{"type":"Point","coordinates":[-60.97316,13.94044]},"properties":{"id":66232,"name":"Labayee","state_code":"02","country_code":"LC"}},{"type":"Feature","geometry":{"type":"Point","coordinates":[-60.98321,14.00755]},"properties":{"id":66235,"name":"Lastic Hill","state_code":"02","country_code":"LC"}},{"type":"Feature","geometry":{"type":"Point","coordinates":[-60.98674,14.00752]},"properties":{"id":66238,"name":"Leslie Land","state_code":"02","country_code":"LC"}},{"type":"Feature","geometry":{"type":"Point","coordinates":[-60.95724,13.95688]},"properties":{"id":66250,"name":"Marc","state_code":"02","country_code":"LC"}},{"type":"Feature","geometry":{"type":"Point","coordinates":[-60.98532,14.00415]},"properties":{"id":66251,"name":"Marchand","state_code":"02","country_code":"LC"}},{"type":"Feature","geometry":{"type":"Point","coordinates":[-61.02205,13.96212]},"properties":{"id":66252,"name":"Marigot","state_code":"02","country_code":"LC"}},{"type":"Feature","geometry":{"type":"Point","coordinates":[-60.98966,14.00314]},"properties":{"id":66262,"name":"Maynard Hill","state_code":"02","country_code":"LC"}},{"type":"Feature","geometry":{"type":"Point","coordinates":[-60.96945,13.92295]},"properties":{"id":66263,"name":"Miami/Bexon","state_code":"02","country_code":"LC"}},{"type":"Feature","geometry":{"type":"Point","coordinates":[-61.00615,13.98885]},"properties":{"id":66288,"name":"Monkey Town Ciceron","state_code":"02","country_code":"LC"}},{"type":"Feature","geometry":{"type":"Point","coordinates":[-60.93241,13.99079]},"properties":{"id":66291,"name":"Morne Assau/Babonneau","state_code":"02","country_code":"LC"}},{"type":"Feature","geometry":{"type":"Point","coordinates":[-60.96378,14.01194]},"properties":{"id":66297,"name":"Morne Dudon","state_code":"02","country_code":"LC"}},{"type":"Feature","geometry":{"type":"Point","coordinates":[-60.99693,14.00544]},"properties":{"id":66304,"name":"Morne Road","state_code":"02","country_code":"LC"}},{"type":"Feature","geometry":{"type":"Point","coordinates":[-60.96972,13.95838]},"properties":{"id":66305,"name":"Morne Rouge/Marc","state_code":"02","country_code":"LC"}},{"type":"Feature","geometry":{"type":"Point","coordinates":[-60.98576,14.01494]},"properties":{"id":66311,"name":"Mount Pleasant","state_code":"02","country_code":"LC"}},{"type":"Feature","geometry":{"type":"Point","coordinates":[-60.98456,14.01104]},"properties":{"id":66316,"name":"New Village","state_code":"02","country_code":"LC"}},{"type":"Feature","geometry":{"type":"Point","coordinates":[-60.98319,13.97479]},"properties":{"id":66318,"name":"Odsan","state_code":"02","country_code":"LC"}},{"type":"Feature","geometry":{"type":"Point","coordinates":[-60.99049,14.00378]},"properties":{"id":66325,"name":"Parker'S Hill","state_code":"02","country_code":"LC"}},{"type":"Feature","geometry":{"type":"Point","coordinates":[-60.98473,14.00655]},"properties":{"id":66327,"name":"Patterson'S Gap","state_code":"02","country_code":"LC"}},{"type":"Feature","geometry":{"type":"Point","coordinates":[-60.99191,14.00282]},"properties":{"id":66328,"name":"Pavee","state_code":"02","country_code":"LC"}},{"type":"Feature","geometry":{"type":"Point","coordinates":[-60.98598,14.01035]},"properties":{"id":66329,"name":"Peart'S Gap","state_code":"02","country_code":"LC"}},{"type":"Feature","geometry":{"type":"Point","coordinates":[-61.00726,13.9596]},"properties":{"id":66330,"name":"Perou","state_code":"02","country_code":"LC"}},{"type":"Feature","geometry":{"type":"Point","coordinates":[-60.99305,14.01575]},"properties":{"id":66338,"name":"Pointe Seraphine","state_code":"02","country_code":"LC"}},{"type":"Feature","geometry":{"type":"Point","coordinates":[-60.9763,13.99136]},"properties":{"id":66342,"name":"Quarte Chemins","state_code":"02","country_code":"LC"}},{"type":"Feature","geometry":{"type":"Point","coordinates":[-60.97617,14.00051]},"properties":{"id":66346,"name":"Ravine Chabot","state_code":"02","country_code":"LC"}},{"type":"Feature","geometry":{"type":"Point","coordinates":[-60.96849,13.93156]},"properties":{"id":66348,"name":"Ravine Poisson","state_code":"02","country_code":"LC"}},{"type":"Feature","geometry":{"type":"Point","coordinates":[-60.98806,14.00325]},"properties":{"id":66349,"name":"Ravine Touterelle","state_code":"02","country_code":"LC"}},{"type":"Feature","geometry":{"type":"Point","coordinates":[-60.942,14.00289]},"properties":{"id":66353,"name":"Resinard/Babonneau","state_code":"02","country_code":"LC"}},{"type":"Feature","geometry":{"type":"Point","coordinates":[-60.98928,14.00009]},"properties":{"id":66361,"name":"Rock Hall","state_code":"02","country_code":"LC"}},{"type":"Feature","geometry":{"type":"Point","coordinates":[-60.9856,14.00816]},"properties":{"id":66364,"name":"Rose Hill","state_code":"02","country_code":"LC"}},{"type":"Feature","geometry":{"type":"Point","coordinates":[-60.98985,14.01695]},"properties":{"id":66369,"name":"San Soucis","state_code":"02","country_code":"LC"}},{"type":"Feature","geometry":{"type":"Point","coordinates":[-60.98026,13.92781]},"properties":{"id":66370,"name":"Sand De Feu","state_code":"02","country_code":"LC"}},{"type":"Feature","geometry":{"type":"Point","coordinates":[-60.98489,13.94212]},"properties":{"id":66372,"name":"Sarot","state_code":"02","country_code":"LC"}},{"type":"Feature","geometry":{"type":"Point","coordinates":[-60.97644,14.02582]},"properties":{"id":66387,"name":"Summersdale","state_code":"02","country_code":"LC"}},{"type":"Feature","geometry":{"type":"Point","coordinates":[-60.97922,14.00561]},"properties":{"id":66388,"name":"Sunbilt","state_code":"02","country_code":"LC"}},{"type":"Feature","geometry":{"type":"Point","coordinates":[-60.97361,14.0281]},"properties":{"id":66389,"name":"Sunny Acres","state_code":"02","country_code":"LC"}},{"type":"Feature","geometry":{"type":"Point","coordinates":[-60.9441,13.99578]},"properties":{"id":66390,"name":"Talvern","state_code":"02","country_code":"LC"}},{"type":"Feature","geometry":{"type":"Point","coordinates":[-61.00489,14.01383]},"properties":{"id":66391,"name":"Tapion","state_code":"02","country_code":"LC"}},{"type":"Feature","geometry":{"type":"Point","coordinates":[-60.9962,13.99778]},"properties":{"id":66396,"name":"The Morne","state_code":"02","country_code":"LC"}},{"type":"Feature","geometry":{"type":"Point","coordinates":[-61.00229,13.97071]},"properties":{"id":66399,"name":"Ti Colon","state_code":"02","country_code":"LC"}},{"type":"Feature","geometry":{"type":"Point","coordinates":[-60.9711,13.9949]},"properties":{"id":66402,"name":"Ti Rocher","state_code":"02","country_code":"LC"}},{"type":"Feature","geometry":{"type":"Point","coordinates":[-60.97259,13.9889]},"properties":{"id":66407,"name":"Trois Piton","state_code":"02","country_code":"LC"}},{"type":"Feature","geometry":{"type":"Point","coordinates":[-60.96199,13.9422]},"properties":{"id":66408,"name":"Trou Cochan/Marc","state_code":"02","country_code":"LC"}},{"type":"Feature","geometry":{"type":"Point","coordinates":[-60.95382,13.94525]},"properties":{"id":66409,"name":"Trou Florent/Marc","state_code":"02","country_code":"LC"}},{"type":"Feature","geometry":{"type":"Point","coordinates":[-60.9895,14.00602]},"properties":{"id":66410,"name":"Trou Rouge","state_code":"02","country_code":"LC"}},{"type":"Feature","geometry":{"type":"Point","coordinates":[-60.98066,14.02439]},"properties":{"id":66419,"name":"Vide Bouteille","state_code":"02","country_code":"LC"}},{"type":"Feature","geometry":{"type":"Point","coordinates":[-60.99611,14.02053]},"properties":{"id":66423,"name":"Vigie","state_code":"02","country_code":"LC"}},{"type":"Feature","geometry":{"type":"Point","coordinates":[-60.97635,14.00498]},"properties":{"id":66432,"name":"Waterworks","state_code":"02","country_code":"LC"}},{"type":"Feature","geometry":{"type":"Point","coordinates":[-60.98639,14.00968]},"properties":{"id":66434,"name":"Wilton'S Yard/Grave Yard","state_code":"02","country_code":"LC"}},{"type":"Feature","geometry":{"type":"Point","coordinates":[-60.97919,14.01694]},"properties":{"id":66435,"name":"Yorke Hill","state_code":"02","country_code":"LC"}}]}