{"type":"FeatureCollection","features":[{"type":"Feature","geometry":{"type":"Point","coordinates":[79.87116,6.84019]},"properties":{"id":66464,"name":"Dehiwala-Mount Lavinia","state_code":"11","country_code":"LK"}},{"type":"Feature","geometry":{"type":"Point","coordinates":[80.004673,6.84879896]},"properties":{"id":66479,"name":"Homagama","state_code":"11","country_code":"LK"}},{"type":"Feature","geometry":{"type":"Point","coordinates":[79.9794422,6.9310626]},"properties":{"id":146181,"name":"Kaduwela","state_code":"11","country_code":"LK"}},{"type":"Feature","geometry":{"type":"Point","coordinates":[79.94665276,6.78425894]},"properties":{"id":146180,"name":"Kesbewa","state_code":"11","country_code":"LK"}},{"type":"Feature","geometry":{"type":"Point","coordinates":[79.89495168,6.92893463]},"properties":{"id":66499,"name":"Kolonnawa","state_code":"11","country_code":"LK"}},{"type":"Feature","geometry":{"type":"Point","coordinates":[79.90359501,6.88932048]},"properties":{"id":146176,"name":"Kotte","state_code":"11","country_code":"LK"}},{"type":"Feature","geometry":{"type":"Point","coordinates":[79.92507313,6.84954886]},"properties":{"id":66504,"name":"Maharagama","state_code":"11","country_code":"LK"}},{"type":"Feature","geometry":{"type":"Point","coordinates":[79.88347117,6.78149272]},"properties":{"id":66514,"name":"Moratuwa","state_code":"11","country_code":"LK"}},{"type":"Feature","geometry":{"type":"Point","coordinates":[80.10153292,6.8479468]},"properties":{"id":146179,"name":"Padukka","state_code":"11","country_code":"LK"}},{"type":"Feature","geometry":{"type":"Point","coordinates":[79.88023083,6.82105987]},"properties":{"id":146178,"name":"Ratmalana","state_code":"11","country_code":"LK"}},{"type":"Feature","geometry":{"type":"Point","coordinates":[80.14979867,6.92959912]},"properties":{"id":146177,"name":"Seethawaka","state_code":"11","country_code":"LK"}},{"type":"Feature","geometry":{"type":"Point","coordinates":[79.86957578,6.90214217]},"properties":{"id":146175,"name":"Thimbirigasyaya","state_code":"11","country_code":"LK"}}]}