{"type":"FeatureCollection","features":[{"type":"Feature","geometry":{"type":"Point","coordinates":[81.68202,7.29754]},"properties":{"id":66449,"name":"Ampara","state_code":"5","country_code":"LK"}},{"type":"Feature","geometry":{"type":"Point","coordinates":[81.75,7.0833]},"properties":{"id":66450,"name":"Ampara District","state_code":"5","country_code":"LK"}},{"type":"Feature","geometry":{"type":"Point","coordinates":[81.6924,7.7102]},"properties":{"id":66456,"name":"Batticaloa","state_code":"5","country_code":"LK"}},{"type":"Feature","geometry":{"type":"Point","coordinates":[81.4997,7.75]},"properties":{"id":66457,"name":"Batticaloa District","state_code":"5","country_code":"LK"}},{"type":"Feature","geometry":{"type":"Point","coordinates":[81.6038,7.7782]},"properties":{"id":66467,"name":"Eravur Town","state_code":"5","country_code":"LK"}},{"type":"Feature","geometry":{"type":"Point","coordinates":[81.83472,7.40902]},"properties":{"id":66486,"name":"Kalmunai","state_code":"5","country_code":"LK"}},{"type":"Feature","geometry":{"type":"Point","coordinates":[81.2289,8.5778]},"properties":{"id":66534,"name":"Trincomalee","state_code":"5","country_code":"LK"}},{"type":"Feature","geometry":{"type":"Point","coordinates":[81.08333,8.58333]},"properties":{"id":66535,"name":"Trincomalee District","state_code":"5","country_code":"LK"}},{"type":"Feature","geometry":{"type":"Point","coordinates":[81.43333,8.13333]},"properties":{"id":66537,"name":"Vakarai","state_code":"5","country_code":"LK"}}]}