{"type":"FeatureCollection","features":[{"type":"Feature","geometry":{"type":"Point","coordinates":[80.41306,8.31223]},"properties":{"id":66451,"name":"Anuradhapura","state_code":"7","country_code":"LK"}},{"type":"Feature","geometry":{"type":"Point","coordinates":[80.5,8.33333]},"properties":{"id":66452,"name":"Anuradhapura District","state_code":"7","country_code":"LK"}},{"type":"Feature","geometry":{"type":"Point","coordinates":[80.5103,8.3593]},"properties":{"id":66509,"name":"Mihintale","state_code":"7","country_code":"LK"}},{"type":"Feature","geometry":{"type":"Point","coordinates":[81.00274,7.93965]},"properties":{"id":66523,"name":"Polonnaruwa","state_code":"7","country_code":"LK"}},{"type":"Feature","geometry":{"type":"Point","coordinates":[81,8]},"properties":{"id":66524,"name":"Polonnaruwa District","state_code":"7","country_code":"LK"}}]}