{"type":"FeatureCollection","features":[{"type":"Feature","geometry":{"type":"Point","coordinates":[23.82411,54.8964]},"properties":{"id":66576,"name":"Akademija (Kaunas)","state_code":"15","country_code":"LT"}},{"type":"Feature","geometry":{"type":"Point","coordinates":[23.90842,54.88037]},"properties":{"id":66579,"name":"Aleksotas","state_code":"15","country_code":"LT"}},{"type":"Feature","geometry":{"type":"Point","coordinates":[23.477,55.262]},"properties":{"id":66584,"name":"Ariogala","state_code":"15","country_code":"LT"}},{"type":"Feature","geometry":{"type":"Point","coordinates":[24.03333,54.61667]},"properties":{"id":66588,"name":"Birštonas","state_code":"15","country_code":"LT"}},{"type":"Feature","geometry":{"type":"Point","coordinates":[23.96831,54.91525]},"properties":{"id":66591,"name":"Dainava (Kaunas)","state_code":"15","country_code":"LT"}},{"type":"Feature","geometry":{"type":"Point","coordinates":[23.93243,54.93133]},"properties":{"id":66595,"name":"Eiguliai","state_code":"15","country_code":"LT"}},{"type":"Feature","geometry":{"type":"Point","coordinates":[23.60396,54.88315]},"properties":{"id":66598,"name":"Ežerėlis","state_code":"15","country_code":"LT"}},{"type":"Feature","geometry":{"type":"Point","coordinates":[23.8713,54.82139]},"properties":{"id":66601,"name":"Garliava","state_code":"15","country_code":"LT"}},{"type":"Feature","geometry":{"type":"Point","coordinates":[24.17593,54.59937]},"properties":{"id":66605,"name":"Jieznas","state_code":"15","country_code":"LT"}},{"type":"Feature","geometry":{"type":"Point","coordinates":[24.28333,55.08333]},"properties":{"id":66606,"name":"Jonava","state_code":"15","country_code":"LT"}},{"type":"Feature","geometry":{"type":"Point","coordinates":[24.45,54.86667]},"properties":{"id":66611,"name":"Kaišiadorys","state_code":"15","country_code":"LT"}},{"type":"Feature","geometry":{"type":"Point","coordinates":[24.06182,54.97055]},"properties":{"id":66614,"name":"Karmėlava","state_code":"15","country_code":"LT"}},{"type":"Feature","geometry":{"type":"Point","coordinates":[23.90961,54.90272]},"properties":{"id":66615,"name":"Kaunas","state_code":"15","country_code":"LT"}},{"type":"Feature","geometry":{"type":"Point","coordinates":[23.96667,55.28333]},"properties":{"id":66629,"name":"Kėdainiai","state_code":"15","country_code":"LT"}},{"type":"Feature","geometry":{"type":"Point","coordinates":[23.64218,54.94212]},"properties":{"id":66624,"name":"Kulautuva","state_code":"15","country_code":"LT"}},{"type":"Feature","geometry":{"type":"Point","coordinates":[23.84462,54.81998]},"properties":{"id":66636,"name":"Mastaiciai","state_code":"15","country_code":"LT"}},{"type":"Feature","geometry":{"type":"Point","coordinates":[23.95,54.63333]},"properties":{"id":66661,"name":"Prienai","state_code":"15","country_code":"LT"}},{"type":"Feature","geometry":{"type":"Point","coordinates":[24.0305,54.9483]},"properties":{"id":66664,"name":"Ramučiai","state_code":"15","country_code":"LT"}},{"type":"Feature","geometry":{"type":"Point","coordinates":[23.11667,55.36667]},"properties":{"id":66666,"name":"Raseiniai","state_code":"15","country_code":"LT"}},{"type":"Feature","geometry":{"type":"Point","coordinates":[23.88316,54.94933]},"properties":{"id":66674,"name":"Sargėnai","state_code":"15","country_code":"LT"}},{"type":"Feature","geometry":{"type":"Point","coordinates":[23.88599,54.92911]},"properties":{"id":66714,"name":"Šilainiai","state_code":"15","country_code":"LT"}},{"type":"Feature","geometry":{"type":"Point","coordinates":[23.58552,55.04609]},"properties":{"id":66701,"name":"Vilkija","state_code":"15","country_code":"LT"}},{"type":"Feature","geometry":{"type":"Point","coordinates":[24.44073,54.80725]},"properties":{"id":66723,"name":"Žiežmariai","state_code":"15","country_code":"LT"}}]}