{"type":"FeatureCollection","features":[{"type":"Feature","geometry":{"type":"Point","coordinates":[22.33333,56.31667]},"properties":{"id":66637,"name":"Mazeikiai","state_code":"51","country_code":"LT"}},{"type":"Feature","geometry":{"type":"Point","coordinates":[21.81615,56.04657]},"properties":{"id":66657,"name":"Plateliai","state_code":"51","country_code":"LT"}},{"type":"Feature","geometry":{"type":"Point","coordinates":[21.84417,55.91139]},"properties":{"id":66658,"name":"Plunge","state_code":"51","country_code":"LT"}},{"type":"Feature","geometry":{"type":"Point","coordinates":[21.93266,55.72375]},"properties":{"id":66668,"name":"Rietavas","state_code":"51","country_code":"LT"}},{"type":"Feature","geometry":{"type":"Point","coordinates":[22.09071,56.16854]},"properties":{"id":66675,"name":"Seda","state_code":"51","country_code":"LT"}},{"type":"Feature","geometry":{"type":"Point","coordinates":[22.24722,55.98139]},"properties":{"id":66685,"name":"Telsiai","state_code":"51","country_code":"LT"}},{"type":"Feature","geometry":{"type":"Point","coordinates":[22.37251,55.74435]},"properties":{"id":66693,"name":"Varniai","state_code":"51","country_code":"LT"}},{"type":"Feature","geometry":{"type":"Point","coordinates":[22.51667,56.23598]},"properties":{"id":66697,"name":"Viekšniai","state_code":"51","country_code":"LT"}}]}