{"type":"FeatureCollection","features":[{"type":"Feature","geometry":{"type":"Point","coordinates":[6.32917,49.55389]},"properties":{"id":66744,"name":"Bous","state_code":"RM","country_code":"LU"}},{"type":"Feature","geometry":{"type":"Point","coordinates":[6.25972,49.54083]},"properties":{"id":66756,"name":"Dalheim","state_code":"RM","country_code":"LU"}},{"type":"Feature","geometry":{"type":"Point","coordinates":[6.36806,49.59861]},"properties":{"id":66797,"name":"Lenningen","state_code":"RM","country_code":"LU"}},{"type":"Feature","geometry":{"type":"Point","coordinates":[6.28111,49.505]},"properties":{"id":66810,"name":"Mondorf-les-Bains","state_code":"RM","country_code":"LU"}},{"type":"Feature","geometry":{"type":"Point","coordinates":[6.36694,49.545]},"properties":{"id":66827,"name":"Remich","state_code":"RM","country_code":"LU"}},{"type":"Feature","geometry":{"type":"Point","coordinates":[6.362,49.47]},"properties":{"id":66836,"name":"Schengen","state_code":"RM","country_code":"LU"}},{"type":"Feature","geometry":{"type":"Point","coordinates":[6.36444,49.56278]},"properties":{"id":66844,"name":"Stadtbredimus","state_code":"RM","country_code":"LU"}},{"type":"Feature","geometry":{"type":"Point","coordinates":[6.28789,49.55676]},"properties":{"id":66857,"name":"Waldbredimus","state_code":"RM","country_code":"LU"}}]}