{"type":"FeatureCollection","features":[{"type":"Feature","geometry":{"type":"Point","coordinates":[21.55938,56.98194]},"properties":{"id":66874,"name":"Alsunga","state_code":"050","country_code":"LV"}},{"type":"Feature","geometry":{"type":"Point","coordinates":[21.95721,56.97399]},"properties":{"id":66916,"name":"Kuldīga","state_code":"050","country_code":"LV"}},{"type":"Feature","geometry":{"type":"Point","coordinates":[22.01649,56.67749]},"properties":{"id":66962,"name":"Skrunda","state_code":"050","country_code":"LV"}}]}