{"type":"FeatureCollection","features":[{"type":"Feature","geometry":{"type":"Point","coordinates":[25.25534,56.60477]},"properties":{"id":66870,"name":"Aizkraukle","state_code":"002","country_code":"LV"}},{"type":"Feature","geometry":{"type":"Point","coordinates":[25.08316,56.61319]},"properties":{"id":66904,"name":"Jaunjelgava","state_code":"002","country_code":"LV"}},{"type":"Feature","geometry":{"type":"Point","coordinates":[25.43637,56.65163]},"properties":{"id":66913,"name":"Koknese","state_code":"002","country_code":"LV"}},{"type":"Feature","geometry":{"type":"Point","coordinates":[25.30752,56.20279]},"properties":{"id":66933,"name":"Nereta","state_code":"002","country_code":"LV"}},{"type":"Feature","geometry":{"type":"Point","coordinates":[25.72552,56.6178]},"properties":{"id":66945,"name":"Pļaviņas","state_code":"002","country_code":"LV"}},{"type":"Feature","geometry":{"type":"Point","coordinates":[25.12058,56.645]},"properties":{"id":66963,"name":"Skrīveri","state_code":"002","country_code":"LV"}}]}