{"type":"FeatureCollection","features":[{"type":"Feature","geometry":{"type":"Point","coordinates":[24.6863,57.09867]},"properties":{"id":66901,"name":"Inčukalns","state_code":"091","country_code":"LV"}},{"type":"Feature","geometry":{"type":"Point","coordinates":[24.95783,57.0101]},"properties":{"id":66929,"name":"Mālpils","state_code":"091","country_code":"LV"}},{"type":"Feature","geometry":{"type":"Point","coordinates":[24.85953,57.15375]},"properties":{"id":66961,"name":"Sigulda","state_code":"091","country_code":"LV"}}]}