{"type":"FeatureCollection","features":[{"type":"Feature","geometry":{"type":"Point","coordinates":[24.19443,56.40794]},"properties":{"id":66882,"name":"Bauska","state_code":"016","country_code":"LV"}},{"type":"Feature","geometry":{"type":"Point","coordinates":[24.20763,56.59766]},"properties":{"id":66898,"name":"Iecava","state_code":"016","country_code":"LV"}},{"type":"Feature","geometry":{"type":"Point","coordinates":[24.01625,56.41812]},"properties":{"id":66938,"name":"Pilsrundāle","state_code":"016","country_code":"LV"}},{"type":"Feature","geometry":{"type":"Point","coordinates":[24.52232,56.60608]},"properties":{"id":66982,"name":"Vecumnieki","state_code":"016","country_code":"LV"}}]}