{"type":"FeatureCollection","features":[{"type":"Feature","geometry":{"type":"Point","coordinates":[24.41951,57.04486]},"properties":{"id":66895,"name":"Garkalne","state_code":"080","country_code":"LV"}},{"type":"Feature","geometry":{"type":"Point","coordinates":[24.63295,56.9747]},"properties":{"id":66950,"name":"Ropaži","state_code":"080","country_code":"LV"}},{"type":"Feature","geometry":{"type":"Point","coordinates":[24.30387,56.9363]},"properties":{"id":66974,"name":"Ulbroka","state_code":"080","country_code":"LV"}},{"type":"Feature","geometry":{"type":"Point","coordinates":[24.54468,57.09358]},"properties":{"id":66979,"name":"Vangaži","state_code":"080","country_code":"LV"}}]}