{"type":"FeatureCollection","features":[{"type":"Feature","geometry":{"type":"Point","coordinates":[25.27456,57.31188]},"properties":{"id":66888,"name":"Cēsis","state_code":"022","country_code":"LV"}},{"type":"Feature","geometry":{"type":"Point","coordinates":[25.04059,57.23429]},"properties":{"id":66924,"name":"Līgatne","state_code":"022","country_code":"LV"}},{"type":"Feature","geometry":{"type":"Point","coordinates":[25.36147,57.315]},"properties":{"id":66943,"name":"Priekuļi","state_code":"022","country_code":"LV"}},{"type":"Feature","geometry":{"type":"Point","coordinates":[25.03106,57.37065]},"properties":{"id":66967,"name":"Stalbe","state_code":"022","country_code":"LV"}},{"type":"Feature","geometry":{"type":"Point","coordinates":[25.81624,57.0609]},"properties":{"id":66981,"name":"Vecpiebalga","state_code":"022","country_code":"LV"}}]}