{"type":"FeatureCollection","features":[{"type":"Feature","geometry":{"type":"Point","coordinates":[22.35041,57.50498]},"properties":{"id":66893,"name":"Dundaga","state_code":"097","country_code":"LV"}},{"type":"Feature","geometry":{"type":"Point","coordinates":[22.80881,57.50146]},"properties":{"id":66949,"name":"Roja","state_code":"097","country_code":"LV"}},{"type":"Feature","geometry":{"type":"Point","coordinates":[22.57261,57.04577]},"properties":{"id":66955,"name":"Sabile","state_code":"097","country_code":"LV"}},{"type":"Feature","geometry":{"type":"Point","coordinates":[22.53482,57.14497]},"properties":{"id":66968,"name":"Stende","state_code":"097","country_code":"LV"}},{"type":"Feature","geometry":{"type":"Point","coordinates":[22.58137,57.24562]},"properties":{"id":66970,"name":"Talsi","state_code":"097","country_code":"LV"}},{"type":"Feature","geometry":{"type":"Point","coordinates":[22.59188,57.37068]},"properties":{"id":66976,"name":"Valdemārpils","state_code":"097","country_code":"LV"}}]}