{"type":"FeatureCollection","features":[{"type":"Feature","geometry":{"type":"Point","coordinates":[25.075,31.76]},"properties":{"id":160044,"name":"Bardia","state_code":"BU","country_code":"LY"}},{"type":"Feature","geometry":{"type":"Point","coordinates":[24.51694444,29.7425]},"properties":{"id":160045,"name":"Jaghbub","state_code":"BU","country_code":"LY"}},{"type":"Feature","geometry":{"type":"Point","coordinates":[23.96138889,32.07611111]},"properties":{"id":160043,"name":"Tobruk","state_code":"BU","country_code":"LY"}}]}