{"type":"FeatureCollection","features":[{"type":"Feature","geometry":{"type":"Point","coordinates":[20.59653,32.19]},"properties":{"id":66994,"name":"Al Abyār","state_code":"MJ","country_code":"LY"}},{"type":"Feature","geometry":{"type":"Point","coordinates":[20.82909,32.49257]},"properties":{"id":67001,"name":"Al Marj","state_code":"MJ","country_code":"LY"}},{"type":"Feature","geometry":{"type":"Point","coordinates":[20.57911,32.53414]},"properties":{"id":67033,"name":"Tūkrah","state_code":"MJ","country_code":"LY"}}]}