{"type":"FeatureCollection","features":[{"type":"Feature","geometry":{"type":"Point","coordinates":[12.37633,32.75718]},"properties":{"id":66995,"name":"Al Ajaylat","state_code":"NQ","country_code":"LY"}},{"type":"Feature","geometry":{"type":"Point","coordinates":[11.86668,32.94699]},"properties":{"id":67037,"name":"Zalţan","state_code":"NQ","country_code":"LY"}},{"type":"Feature","geometry":{"type":"Point","coordinates":[12.08199,32.9312]},"properties":{"id":67041,"name":"Zuwārah","state_code":"NQ","country_code":"LY"}}]}