{"type":"FeatureCollection","features":[{"type":"Feature","geometry":{"type":"Point","coordinates":[20.22625,30.75545]},"properties":{"id":66993,"name":"Ajdabiya","state_code":"WA","country_code":"LY"}},{"type":"Feature","geometry":{"type":"Point","coordinates":[19.57386,30.40624]},"properties":{"id":66997,"name":"Al Burayqah","state_code":"WA","country_code":"LY"}},{"type":"Feature","geometry":{"type":"Point","coordinates":[21.28694,29.10806]},"properties":{"id":67006,"name":"Awjilah","state_code":"WA","country_code":"LY"}},{"type":"Feature","geometry":{"type":"Point","coordinates":[20.12022,30.9522]},"properties":{"id":67007,"name":"Az Zuwaytīnah","state_code":"WA","country_code":"LY"}},{"type":"Feature","geometry":{"type":"Point","coordinates":[21.55,29.03333]},"properties":{"id":67017,"name":"Gialo","state_code":"WA","country_code":"LY"}},{"type":"Feature","geometry":{"type":"Point","coordinates":[19.20454,29.22054]},"properties":{"id":67020,"name":"Marādah","state_code":"WA","country_code":"LY"}}]}