{"type":"FeatureCollection","features":[{"type":"Feature","geometry":{"type":"Point","coordinates":[-2.10027,34.95368]},"properties":{"id":67051,"name":"Ahfir","state_code":"02","country_code":"MA"}},{"type":"Feature","geometry":{"type":"Point","coordinates":[-2.03238,34.0097]},"properties":{"id":67075,"name":"Aïn Beni Mathar","state_code":"02","country_code":"MA"}},{"type":"Feature","geometry":{"type":"Point","coordinates":[-3.00938,35.0109]},"properties":{"id":67054,"name":"Al Aaroui","state_code":"02","country_code":"MA"}},{"type":"Feature","geometry":{"type":"Point","coordinates":[-2.57,34.61]},"properties":{"id":67080,"name":"Berkane","state_code":"02","country_code":"MA"}},{"type":"Feature","geometry":{"type":"Point","coordinates":[-1.96209,32.53379]},"properties":{"id":67087,"name":"Bouarfa","state_code":"02","country_code":"MA"}},{"type":"Feature","geometry":{"type":"Point","coordinates":[-3.04263,33.98228]},"properties":{"id":67104,"name":"Debdou","state_code":"02","country_code":"MA"}},{"type":"Feature","geometry":{"type":"Point","coordinates":[-3.38842,34.9767]},"properties":{"id":67107,"name":"Driouch","state_code":"02","country_code":"MA"}},{"type":"Feature","geometry":{"type":"Point","coordinates":[-2.50612,34.58319]},"properties":{"id":67108,"name":"El Aïoun","state_code":"02","country_code":"MA"}},{"type":"Feature","geometry":{"type":"Point","coordinates":[-2.25,32.83333]},"properties":{"id":67119,"name":"Figuig","state_code":"02","country_code":"MA"}},{"type":"Feature","geometry":{"type":"Point","coordinates":[-3.32542,34.25041]},"properties":{"id":67129,"name":"Guercif","state_code":"02","country_code":"MA"}},{"type":"Feature","geometry":{"type":"Point","coordinates":[-2.04284,34.23662]},"properties":{"id":67141,"name":"Jerada","state_code":"02","country_code":"MA"}},{"type":"Feature","geometry":{"type":"Point","coordinates":[-2.33701,35.01032]},"properties":{"id":67157,"name":"Madagh","state_code":"02","country_code":"MA"}},{"type":"Feature","geometry":{"type":"Point","coordinates":[-3.53311,34.94025]},"properties":{"id":67166,"name":"Midar","state_code":"02","country_code":"MA"}},{"type":"Feature","geometry":{"type":"Point","coordinates":[-3,35]},"properties":{"id":67173,"name":"Nador","state_code":"02","country_code":"MA"}},{"type":"Feature","geometry":{"type":"Point","coordinates":[-2.294,34.236]},"properties":{"id":67186,"name":"Oujda-Angad","state_code":"02","country_code":"MA"}},{"type":"Feature","geometry":{"type":"Point","coordinates":[-2.22897,35.08195]},"properties":{"id":67198,"name":"Saidia","state_code":"02","country_code":"MA"}},{"type":"Feature","geometry":{"type":"Point","coordinates":[-2.9423,35.07313]},"properties":{"id":67201,"name":"Selouane","state_code":"02","country_code":"MA"}},{"type":"Feature","geometry":{"type":"Point","coordinates":[-2.89732,34.40731]},"properties":{"id":67238,"name":"Taourirt","state_code":"02","country_code":"MA"}},{"type":"Feature","geometry":{"type":"Point","coordinates":[-3.15273,34.97159]},"properties":{"id":67260,"name":"Tiztoutine","state_code":"02","country_code":"MA"}},{"type":"Feature","geometry":{"type":"Point","coordinates":[-2.7329,34.94282]},"properties":{"id":67267,"name":"Zaïo","state_code":"02","country_code":"MA"}}]}