{"type":"FeatureCollection","features":[{"type":"Feature","geometry":{"type":"Point","coordinates":[-12.05157,28.09455]},"properties":{"id":67052,"name":"Akhfennir","state_code":"11","country_code":"MA"}},{"type":"Feature","geometry":{"type":"Point","coordinates":[-13.68419,25.66172]},"properties":{"id":67089,"name":"Boujdour","state_code":"11","country_code":"MA"}},{"type":"Feature","geometry":{"type":"Point","coordinates":[-11,27.75]},"properties":{"id":67115,"name":"Es-Semara","state_code":"11","country_code":"MA"}},{"type":"Feature","geometry":{"type":"Point","coordinates":[-12.37168,25.14276]},"properties":{"id":67127,"name":"Gueltat Zemmour","state_code":"11","country_code":"MA"}},{"type":"Feature","geometry":{"type":"Point","coordinates":[-12.33333,27.83333]},"properties":{"id":67154,"name":"Laayoune","state_code":"11","country_code":"MA"}},{"type":"Feature","geometry":{"type":"Point","coordinates":[-11.67194,26.73841]},"properties":{"id":67220,"name":"Smara","state_code":"11","country_code":"MA"}},{"type":"Feature","geometry":{"type":"Point","coordinates":[-12.92082,27.93901]},"properties":{"id":67239,"name":"Tarfaya","state_code":"11","country_code":"MA"}}]}