{"type":"FeatureCollection","features":[{"type":"Feature","geometry":{"type":"Point","coordinates":[-9.41667,28.16667]},"properties":{"id":67070,"name":"Assa-Zag","state_code":"10","country_code":"MA"}},{"type":"Feature","geometry":{"type":"Point","coordinates":[-10,28.75]},"properties":{"id":67126,"name":"Guelmim","state_code":"10","country_code":"MA"}},{"type":"Feature","geometry":{"type":"Point","coordinates":[-10.17111,29.37719]},"properties":{"id":67209,"name":"Sidi Ifni","state_code":"10","country_code":"MA"}},{"type":"Feature","geometry":{"type":"Point","coordinates":[-11.08333,28.08333]},"properties":{"id":67232,"name":"Tan-Tan","state_code":"10","country_code":"MA"}}]}