{"type":"FeatureCollection","features":[{"type":"Feature","geometry":{"type":"Point","coordinates":[-9.59815,30.42018]},"properties":{"id":67046,"name":"Agadir","state_code":"ASZ","country_code":"MA"}},{"type":"Feature","geometry":{"type":"Point","coordinates":[-7.79601,30.22492]},"properties":{"id":67047,"name":"Agadir Melloul","state_code":"ASZ","country_code":"MA"}},{"type":"Feature","geometry":{"type":"Point","coordinates":[-9.5,30.58333]},"properties":{"id":67048,"name":"Agadir-Ida-ou-Tnan","state_code":"ASZ","country_code":"MA"}},{"type":"Feature","geometry":{"type":"Point","coordinates":[-8.18087,30.67307]},"properties":{"id":67062,"name":"Aoulouz","state_code":"ASZ","country_code":"MA"}},{"type":"Feature","geometry":{"type":"Point","coordinates":[-9.6355,30.49238]},"properties":{"id":67063,"name":"Aourir","state_code":"ASZ","country_code":"MA"}},{"type":"Feature","geometry":{"type":"Point","coordinates":[-8.60637,30.50346]},"properties":{"id":67065,"name":"Arazane","state_code":"ASZ","country_code":"MA"}},{"type":"Feature","geometry":{"type":"Point","coordinates":[-9.11968,30.7825]},"properties":{"id":67068,"name":"Argana","state_code":"ASZ","country_code":"MA"}},{"type":"Feature","geometry":{"type":"Point","coordinates":[-9.21097,30.72376]},"properties":{"id":67084,"name":"Bigoudine","state_code":"ASZ","country_code":"MA"}},{"type":"Feature","geometry":{"type":"Point","coordinates":[-9.30909,30.02948]},"properties":{"id":67102,"name":"Chtouka-Ait-Baha","state_code":"ASZ","country_code":"MA"}},{"type":"Feature","geometry":{"type":"Point","coordinates":[-9.53639,30.35535]},"properties":{"id":67136,"name":"Inezgane","state_code":"ASZ","country_code":"MA"}},{"type":"Feature","geometry":{"type":"Point","coordinates":[-9.03333,30.1]},"properties":{"id":67137,"name":"Inezgane-Ait Melloul","state_code":"ASZ","country_code":"MA"}},{"type":"Feature","geometry":{"type":"Point","coordinates":[-9.53959,29.62777]},"properties":{"id":67185,"name":"Ouijjane","state_code":"ASZ","country_code":"MA"}},{"type":"Feature","geometry":{"type":"Point","coordinates":[-9.20897,30.39467]},"properties":{"id":67190,"name":"Oulad Teïma","state_code":"ASZ","country_code":"MA"}},{"type":"Feature","geometry":{"type":"Point","coordinates":[-9.70086,29.58016]},"properties":{"id":67194,"name":"Reggada","state_code":"ASZ","country_code":"MA"}},{"type":"Feature","geometry":{"type":"Point","coordinates":[-10.17299,29.37975]},"properties":{"id":67208,"name":"Sidi Ifni","state_code":"ASZ","country_code":"MA"}},{"type":"Feature","geometry":{"type":"Point","coordinates":[-9.45951,30.77477]},"properties":{"id":67223,"name":"Tadrart","state_code":"ASZ","country_code":"MA"}},{"type":"Feature","geometry":{"type":"Point","coordinates":[-8.9747,29.72449]},"properties":{"id":67224,"name":"Tafraout","state_code":"ASZ","country_code":"MA"}},{"type":"Feature","geometry":{"type":"Point","coordinates":[-9.71115,30.54259]},"properties":{"id":67225,"name":"Taghazout","state_code":"ASZ","country_code":"MA"}},{"type":"Feature","geometry":{"type":"Point","coordinates":[-7.91262,30.52917]},"properties":{"id":67227,"name":"Taliouine","state_code":"ASZ","country_code":"MA"}},{"type":"Feature","geometry":{"type":"Point","coordinates":[-9.82972,30.69602]},"properties":{"id":67231,"name":"Tamri","state_code":"ASZ","country_code":"MA"}},{"type":"Feature","geometry":{"type":"Point","coordinates":[-9.16796,29.77548]},"properties":{"id":67233,"name":"Tanalt","state_code":"ASZ","country_code":"MA"}},{"type":"Feature","geometry":{"type":"Point","coordinates":[-8.41667,30.5]},"properties":{"id":67241,"name":"Taroudannt","state_code":"ASZ","country_code":"MA"}},{"type":"Feature","geometry":{"type":"Point","coordinates":[-8.87695,30.47028]},"properties":{"id":67242,"name":"Taroudant","state_code":"ASZ","country_code":"MA"}},{"type":"Feature","geometry":{"type":"Point","coordinates":[-9.02664,29.58153]},"properties":{"id":67243,"name":"Tarsouat","state_code":"ASZ","country_code":"MA"}},{"type":"Feature","geometry":{"type":"Point","coordinates":[-7.83333,29.66667]},"properties":{"id":67244,"name":"Tata","state_code":"ASZ","country_code":"MA"}},{"type":"Feature","geometry":{"type":"Point","coordinates":[-9.5,29.58333]},"properties":{"id":67259,"name":"Tiznit","state_code":"ASZ","country_code":"MA"}}]}