{"type":"FeatureCollection","features":[{"type":"Feature","geometry":{"type":"Point","coordinates":[-5.94871,34.90239]},"properties":{"id":67066,"name":"Arbaoua","state_code":"KEN","country_code":"MA"}},{"type":"Feature","geometry":{"type":"Point","coordinates":[-5.7404,34.61588]},"properties":{"id":67130,"name":"Had Kourt","state_code":"KEN","country_code":"MA"}},{"type":"Feature","geometry":{"type":"Point","coordinates":[-6.5802,34.26101]},"properties":{"id":67146,"name":"Kenitra","state_code":"KEN","country_code":"MA"}},{"type":"Feature","geometry":{"type":"Point","coordinates":[-6.33333,34.58333]},"properties":{"id":67147,"name":"Kenitra Province","state_code":"KEN","country_code":"MA"}},{"type":"Feature","geometry":{"type":"Point","coordinates":[-6.25,33.66667]},"properties":{"id":67149,"name":"Khemisset","state_code":"KEN","country_code":"MA"}},{"type":"Feature","geometry":{"type":"Point","coordinates":[-5.95585,34.57373]},"properties":{"id":67161,"name":"Mechraa Bel Ksiri","state_code":"KEN","country_code":"MA"}},{"type":"Feature","geometry":{"type":"Point","coordinates":[-6.00137,33.42585]},"properties":{"id":67191,"name":"Oulmes","state_code":"KEN","country_code":"MA"}},{"type":"Feature","geometry":{"type":"Point","coordinates":[-6.83255,34.01325]},"properties":{"id":67193,"name":"Rabat","state_code":"KEN","country_code":"MA"}},{"type":"Feature","geometry":{"type":"Point","coordinates":[-6.79846,34.0531]},"properties":{"id":67199,"name":"Sale","state_code":"KEN","country_code":"MA"}},{"type":"Feature","geometry":{"type":"Point","coordinates":[-5.36208,34.56283]},"properties":{"id":67207,"name":"Sidi Bousber","state_code":"KEN","country_code":"MA"}},{"type":"Feature","geometry":{"type":"Point","coordinates":[-5.70775,34.22149]},"properties":{"id":67211,"name":"Sidi Qacem","state_code":"KEN","country_code":"MA"}},{"type":"Feature","geometry":{"type":"Point","coordinates":[-5.44538,34.68692]},"properties":{"id":67213,"name":"Sidi Redouane","state_code":"KEN","country_code":"MA"}},{"type":"Feature","geometry":{"type":"Point","coordinates":[-5.92598,34.26479]},"properties":{"id":67214,"name":"Sidi Slimane","state_code":"KEN","country_code":"MA"}},{"type":"Feature","geometry":{"type":"Point","coordinates":[-6.30404,34.30494]},"properties":{"id":67216,"name":"Sidi Yahia El Gharb","state_code":"KEN","country_code":"MA"}},{"type":"Feature","geometry":{"type":"Point","coordinates":[-5.75,34.58333]},"properties":{"id":67217,"name":"Sidi-Kacem","state_code":"KEN","country_code":"MA"}},{"type":"Feature","geometry":{"type":"Point","coordinates":[-7.03171,33.8527]},"properties":{"id":67218,"name":"Skhirate","state_code":"KEN","country_code":"MA"}},{"type":"Feature","geometry":{"type":"Point","coordinates":[-6.87,33.77]},"properties":{"id":67219,"name":"Skhirate-Temara","state_code":"KEN","country_code":"MA"}},{"type":"Feature","geometry":{"type":"Point","coordinates":[-6.00272,34.68664]},"properties":{"id":67222,"name":"Souq Larb’a al Gharb","state_code":"KEN","country_code":"MA"}},{"type":"Feature","geometry":{"type":"Point","coordinates":[-6.90656,33.92866]},"properties":{"id":67248,"name":"Temara","state_code":"KEN","country_code":"MA"}},{"type":"Feature","geometry":{"type":"Point","coordinates":[-5.27331,34.67452]},"properties":{"id":67249,"name":"Teroual","state_code":"KEN","country_code":"MA"}},{"type":"Feature","geometry":{"type":"Point","coordinates":[-6.30649,33.89469]},"properties":{"id":67252,"name":"Tiflet","state_code":"KEN","country_code":"MA"}}]}