{"type":"FeatureCollection","features":[{"type":"Feature","geometry":{"type":"Point","coordinates":[28.69899,48.03233]},"properties":{"id":67282,"name":"Camenca","state_code":"SN","country_code":"MD"}},{"type":"Feature","geometry":{"type":"Point","coordinates":[29.80403,46.64844]},"properties":{"id":67291,"name":"Crasnoe","state_code":"SN","country_code":"MD"}},{"type":"Feature","geometry":{"type":"Point","coordinates":[29.91926,46.6164]},"properties":{"id":67297,"name":"Dnestrovsc","state_code":"SN","country_code":"MD"}},{"type":"Feature","geometry":{"type":"Point","coordinates":[29.16667,47.26562]},"properties":{"id":67300,"name":"Dubăsari","state_code":"SN","country_code":"MD"}},{"type":"Feature","geometry":{"type":"Point","coordinates":[29.30008,47.15413]},"properties":{"id":67307,"name":"Hryhoriopol","state_code":"SN","country_code":"MD"}},{"type":"Feature","geometry":{"type":"Point","coordinates":[29.38498,47.23727]},"properties":{"id":67311,"name":"Maiac","state_code":"SN","country_code":"MD"}},{"type":"Feature","geometry":{"type":"Point","coordinates":[29.9617,46.73253]},"properties":{"id":67318,"name":"Pervomaisc","state_code":"SN","country_code":"MD"}},{"type":"Feature","geometry":{"type":"Point","coordinates":[29.01,47.76817]},"properties":{"id":67320,"name":"Rîbniţa","state_code":"SN","country_code":"MD"}},{"type":"Feature","geometry":{"type":"Point","coordinates":[29.70446,46.72927]},"properties":{"id":67323,"name":"Slobozia","state_code":"SN","country_code":"MD"}},{"type":"Feature","geometry":{"type":"Point","coordinates":[29.62909,46.84274]},"properties":{"id":67331,"name":"Tiraspol","state_code":"SN","country_code":"MD"}},{"type":"Feature","geometry":{"type":"Point","coordinates":[29.52174,46.82874]},"properties":{"id":67332,"name":"Tiraspolul Nou","state_code":"SN","country_code":"MD"}}]}