{"type":"FeatureCollection","features":[{"type":"Feature","geometry":{"type":"Point","coordinates":[18.65972,42.44778]},"properties":{"id":160067,"name":"Bijela","state_code":"08","country_code":"ME"}},{"type":"Feature","geometry":{"type":"Point","coordinates":[18.53722,42.45306]},"properties":{"id":160064,"name":"Herceg Novi","state_code":"08","country_code":"ME"}},{"type":"Feature","geometry":{"type":"Point","coordinates":[18.51667,42.45583]},"properties":{"id":160065,"name":"Igalo","state_code":"08","country_code":"ME"}},{"type":"Feature","geometry":{"type":"Point","coordinates":[18.68806,42.46167]},"properties":{"id":160066,"name":"Kamenari","state_code":"08","country_code":"ME"}}]}