{"type":"FeatureCollection","features":[{"type":"Feature","geometry":{"type":"Point","coordinates":[19.38333,42.38333]},"properties":{"id":160068,"name":"Dinoša","state_code":"24","country_code":"ME"}},{"type":"Feature","geometry":{"type":"Point","coordinates":[19.41667,42.35]},"properties":{"id":67356,"name":"Mataguži","state_code":"24","country_code":"ME"}},{"type":"Feature","geometry":{"type":"Point","coordinates":[19.4,42.36667]},"properties":{"id":67372,"name":"Tuzi","state_code":"24","country_code":"ME"}}]}