{"type":"FeatureCollection","features":[{"type":"Feature","geometry":{"type":"Point","coordinates":[21.73475,41.68583]},"properties":{"id":67430,"name":"Gorno Orizari","state_code":"101","country_code":"MK"}},{"type":"Feature","geometry":{"type":"Point","coordinates":[21.82028,41.84889]},"properties":{"id":67442,"name":"Ivankovci","state_code":"101","country_code":"MK"}},{"type":"Feature","geometry":{"type":"Point","coordinates":[21.77556,41.71556]},"properties":{"id":67551,"name":"Veles","state_code":"101","country_code":"MK"}}]}