{"type":"FeatureCollection","features":[{"type":"Feature","geometry":{"type":"Point","coordinates":[20.83556,41.17444]},"properties":{"id":67456,"name":"Kosel","state_code":"310","country_code":"MK"}},{"type":"Feature","geometry":{"type":"Point","coordinates":[20.80194,41.11722]},"properties":{"id":67496,"name":"Ohrid","state_code":"310","country_code":"MK"}},{"type":"Feature","geometry":{"type":"Point","coordinates":[20.83333,41.16667]},"properties":{"id":67497,"name":"Ohrid Opština","state_code":"310","country_code":"MK"}}]}