{"type":"FeatureCollection","features":[{"type":"Feature","geometry":{"type":"Point","coordinates":[22.51333,41.62583]},"properties":{"id":67499,"name":"Oraovica","state_code":"409","country_code":"MK"}},{"type":"Feature","geometry":{"type":"Point","coordinates":[22.54222,41.61389]},"properties":{"id":67507,"name":"Podareš","state_code":"409","country_code":"MK"}},{"type":"Feature","geometry":{"type":"Point","coordinates":[22.46472,41.63833]},"properties":{"id":67514,"name":"Radovis","state_code":"409","country_code":"MK"}}]}