{"type":"FeatureCollection","features":[{"type":"Feature","geometry":{"type":"Point","coordinates":[21.05333,41.01722]},"properties":{"id":67437,"name":"Grnčari","state_code":"509","country_code":"MK"}},{"type":"Feature","geometry":{"type":"Point","coordinates":[21.01139,41.11028]},"properties":{"id":67444,"name":"Jankovec","state_code":"509","country_code":"MK"}},{"type":"Feature","geometry":{"type":"Point","coordinates":[21.10911,40.93934]},"properties":{"id":67457,"name":"Krani","state_code":"509","country_code":"MK"}},{"type":"Feature","geometry":{"type":"Point","coordinates":[21.01092,41.08934]},"properties":{"id":67515,"name":"Resen","state_code":"509","country_code":"MK"}}]}