{"type":"FeatureCollection","features":[{"type":"Feature","geometry":{"type":"Point","coordinates":[-6.57171,13.07489]},"properties":{"id":67590,"name":"Baroueli","state_code":"4","country_code":"ML"}},{"type":"Feature","geometry":{"type":"Point","coordinates":[-5.01617,13.17895]},"properties":{"id":67594,"name":"Cercle de San","state_code":"4","country_code":"ML"}},{"type":"Feature","geometry":{"type":"Point","coordinates":[-5.35791,13.9641]},"properties":{"id":67618,"name":"Ké-Macina","state_code":"4","country_code":"ML"}},{"type":"Feature","geometry":{"type":"Point","coordinates":[-4.9245,12.84217]},"properties":{"id":67610,"name":"Kinmparana","state_code":"4","country_code":"ML"}},{"type":"Feature","geometry":{"type":"Point","coordinates":[-6.0659,13.7021]},"properties":{"id":67619,"name":"Markala","state_code":"4","country_code":"ML"}},{"type":"Feature","geometry":{"type":"Point","coordinates":[-4.89562,13.30335]},"properties":{"id":67624,"name":"San","state_code":"4","country_code":"ML"}},{"type":"Feature","geometry":{"type":"Point","coordinates":[-6.2157,13.4317]},"properties":{"id":67627,"name":"Ségou","state_code":"4","country_code":"ML"}},{"type":"Feature","geometry":{"type":"Point","coordinates":[-6.1219,14.7328]},"properties":{"id":67626,"name":"Sokolo","state_code":"4","country_code":"ML"}}]}