{"type":"FeatureCollection","features":[{"type":"Feature","geometry":{"type":"Point","coordinates":[-3.61038,14.35005]},"properties":{"id":67589,"name":"Bandiagara","state_code":"5","country_code":"ML"}},{"type":"Feature","geometry":{"type":"Point","coordinates":[-4.55332,13.90608]},"properties":{"id":67598,"name":"Djénné","state_code":"5","country_code":"ML"}},{"type":"Feature","geometry":{"type":"Point","coordinates":[-2.94978,15.00155]},"properties":{"id":67599,"name":"Douentza","state_code":"5","country_code":"ML"}},{"type":"Feature","geometry":{"type":"Point","coordinates":[-2.40875,15.06947]},"properties":{"id":67600,"name":"Douentza Cercle","state_code":"5","country_code":"ML"}},{"type":"Feature","geometry":{"type":"Point","coordinates":[-4.18296,14.4843]},"properties":{"id":67620,"name":"Mopti","state_code":"5","country_code":"ML"}},{"type":"Feature","geometry":{"type":"Point","coordinates":[-4.9169,14.45722]},"properties":{"id":67629,"name":"Ténenkou","state_code":"5","country_code":"ML"}}]}