{"type":"FeatureCollection","features":[{"type":"Feature","geometry":{"type":"Point","coordinates":[97.91773,16.04072]},"properties":{"id":67636,"name":"Dellok","state_code":"13","country_code":"MM"}},{"type":"Feature","geometry":{"type":"Point","coordinates":[97.63482,16.88953]},"properties":{"id":67640,"name":"Hpa-An","state_code":"13","country_code":"MM"}},{"type":"Feature","geometry":{"type":"Point","coordinates":[98.4325,15.95411]},"properties":{"id":67644,"name":"Klonhtoug","state_code":"13","country_code":"MM"}},{"type":"Feature","geometry":{"type":"Point","coordinates":[98.25257,15.82288]},"properties":{"id":67648,"name":"Kyain Seikgyi Township","state_code":"13","country_code":"MM"}},{"type":"Feature","geometry":{"type":"Point","coordinates":[98.42721,15.95846]},"properties":{"id":67661,"name":"Mikenaungea","state_code":"13","country_code":"MM"}},{"type":"Feature","geometry":{"type":"Point","coordinates":[98.50893,16.68911]},"properties":{"id":67667,"name":"Myawadi","state_code":"13","country_code":"MM"}},{"type":"Feature","geometry":{"type":"Point","coordinates":[97.8828,16.06243]},"properties":{"id":67679,"name":"Pulei","state_code":"13","country_code":"MM"}},{"type":"Feature","geometry":{"type":"Point","coordinates":[97.90694,16.0675]},"properties":{"id":67690,"name":"Tagondaing","state_code":"13","country_code":"MM"}},{"type":"Feature","geometry":{"type":"Point","coordinates":[97.91458,16.03447]},"properties":{"id":67691,"name":"Tamoowoug","state_code":"13","country_code":"MM"}}]}