{"type":"FeatureCollection","features":[{"type":"Feature","geometry":{"type":"Point","coordinates":[-13.3979534,17.9795514]},"properties":{"id":153945,"name":"Moudjeria","state_code":"09","country_code":"MR"}},{"type":"Feature","geometry":{"type":"Point","coordinates":[-12.1219935,18.4968626]},"properties":{"id":153946,"name":"Tichit","state_code":"09","country_code":"MR"}},{"type":"Feature","geometry":{"type":"Point","coordinates":[-12.9826476,18.5164787]},"properties":{"id":153947,"name":"Tijigja","state_code":"09","country_code":"MR"}}]}