{"type":"FeatureCollection","features":[{"type":"Feature","geometry":{"type":"Point","coordinates":[-15.96666667,18.03333333]},"properties":{"id":150085,"name":"Dar-Naim","state_code":"14","country_code":"MR"}},{"type":"Feature","geometry":{"type":"Point","coordinates":[-15.9377834,18.1289572]},"properties":{"id":150086,"name":"Teyarett","state_code":"14","country_code":"MR"}},{"type":"Feature","geometry":{"type":"Point","coordinates":[-15.90311,18.07169]},"properties":{"id":150087,"name":"Toujouonine","state_code":"14","country_code":"MR"}}]}