{"type":"FeatureCollection","features":[{"type":"Feature","geometry":{"type":"Point","coordinates":[14.453725,35.938787]},"properties":{"id":153726,"name":"Baħar iċ-Ċagħaq","state_code":"38","country_code":"MT"}},{"type":"Feature","geometry":{"type":"Point","coordinates":[14.44,35.945]},"properties":{"id":153736,"name":"Magħtab","state_code":"38","country_code":"MT"}},{"type":"Feature","geometry":{"type":"Point","coordinates":[14.44361,35.91361]},"properties":{"id":67793,"name":"Naxxar","state_code":"38","country_code":"MT"}},{"type":"Feature","geometry":{"type":"Point","coordinates":[14.424444,35.945556]},"properties":{"id":153741,"name":"Salina","state_code":"38","country_code":"MT"}}]}