{"type":"FeatureCollection","features":[{"type":"Feature","geometry":{"type":"Point","coordinates":[14.411667,35.949167]},"properties":{"id":153731,"name":"Buġibba","state_code":"51","country_code":"MT"}},{"type":"Feature","geometry":{"type":"Point","coordinates":[14.4143,35.9349]},"properties":{"id":153732,"name":"Burmarrad","state_code":"51","country_code":"MT"}},{"type":"Feature","geometry":{"type":"Point","coordinates":[14.42556,35.90917]},"properties":{"id":67788,"name":"Mosta","state_code":"51","country_code":"MT"}},{"type":"Feature","geometry":{"type":"Point","coordinates":[14.42,35.954167]},"properties":{"id":153739,"name":"Qawra","state_code":"51","country_code":"MT"}},{"type":"Feature","geometry":{"type":"Point","coordinates":[14.21722,36.04306]},"properties":{"id":67802,"name":"Santa Luċija","state_code":"51","country_code":"MT"}},{"type":"Feature","geometry":{"type":"Point","coordinates":[14.5075,35.86278]},"properties":{"id":67807,"name":"Santa Luċija, Gozo","state_code":"51","country_code":"MT"}},{"type":"Feature","geometry":{"type":"Point","coordinates":[14.392542,35.937958]},"properties":{"id":153743,"name":"Wardija","state_code":"51","country_code":"MT"}},{"type":"Feature","geometry":{"type":"Point","coordinates":[14.385833,35.950556]},"properties":{"id":153744,"name":"Xemxija","state_code":"51","country_code":"MT"}}]}