{"type":"FeatureCollection","features":[{"type":"Feature","geometry":{"type":"Point","coordinates":[57.754987,-20.258493]},"properties":{"id":153436,"name":"Bel Air","state_code":"FL","country_code":"MU"}},{"type":"Feature","geometry":{"type":"Point","coordinates":[57.74976,-20.25777]},"properties":{"id":67834,"name":"Bel Air Rivière Sèche","state_code":"FL","country_code":"MU"}},{"type":"Feature","geometry":{"type":"Point","coordinates":[57.65639,-20.17083]},"properties":{"id":67836,"name":"Bon Accueil","state_code":"FL","country_code":"MU"}},{"type":"Feature","geometry":{"type":"Point","coordinates":[57.73768,-20.212979]},"properties":{"id":153443,"name":"Bramsthan","state_code":"FL","country_code":"MU"}},{"type":"Feature","geometry":{"type":"Point","coordinates":[57.64667,-20.16389]},"properties":{"id":67837,"name":"Brisée Verdière","state_code":"FL","country_code":"MU"}},{"type":"Feature","geometry":{"type":"Point","coordinates":[57.66333,-20.23694]},"properties":{"id":67842,"name":"Camp de Masque","state_code":"FL","country_code":"MU"}},{"type":"Feature","geometry":{"type":"Point","coordinates":[57.67997,-20.250063]},"properties":{"id":153437,"name":"Camp De Masque Pave","state_code":"FL","country_code":"MU"}},{"type":"Feature","geometry":{"type":"Point","coordinates":[57.74556,-20.21583]},"properties":{"id":67840,"name":"Camp Ithier","state_code":"FL","country_code":"MU"}},{"type":"Feature","geometry":{"type":"Point","coordinates":[57.71444,-20.18972]},"properties":{"id":67846,"name":"Centre de Flacq","state_code":"FL","country_code":"MU"}},{"type":"Feature","geometry":{"type":"Point","coordinates":[57.70611,-20.26389]},"properties":{"id":67850,"name":"Clémencia","state_code":"FL","country_code":"MU"}},{"type":"Feature","geometry":{"type":"Point","coordinates":[57.73611,-20.22611]},"properties":{"id":67858,"name":"Ecroignard","state_code":"FL","country_code":"MU"}},{"type":"Feature","geometry":{"type":"Point","coordinates":[57.694616,-20.165077]},"properties":{"id":153444,"name":"Grande Retraite","state_code":"FL","country_code":"MU"}},{"type":"Feature","geometry":{"type":"Point","coordinates":[57.77583,-20.28611]},"properties":{"id":67868,"name":"Grande Rivière Sud Est","state_code":"FL","country_code":"MU"}},{"type":"Feature","geometry":{"type":"Point","coordinates":[57.66111,-20.18972]},"properties":{"id":67870,"name":"Lalmatie","state_code":"FL","country_code":"MU"}},{"type":"Feature","geometry":{"type":"Point","coordinates":[57.67667,-20.14583]},"properties":{"id":67871,"name":"Laventure","state_code":"FL","country_code":"MU"}},{"type":"Feature","geometry":{"type":"Point","coordinates":[57.74944,-20.19806]},"properties":{"id":67876,"name":"Mare La Chaux","state_code":"FL","country_code":"MU"}},{"type":"Feature","geometry":{"type":"Point","coordinates":[57.647035,-20.243958]},"properties":{"id":153441,"name":"Medine Camp De Masque","state_code":"FL","country_code":"MU"}},{"type":"Feature","geometry":{"type":"Point","coordinates":[57.73097,-20.28778]},"properties":{"id":67884,"name":"Olivia","state_code":"FL","country_code":"MU"}},{"type":"Feature","geometry":{"type":"Point","coordinates":[57.73056,-20.16306]},"properties":{"id":67897,"name":"Poste de Flacq","state_code":"FL","country_code":"MU"}},{"type":"Feature","geometry":{"type":"Point","coordinates":[57.77448,-20.20151]},"properties":{"id":67901,"name":"Quatre Cocos","state_code":"FL","country_code":"MU"}},{"type":"Feature","geometry":{"type":"Point","coordinates":[57.77056,-20.29917]},"properties":{"id":67902,"name":"Quatre Soeurs","state_code":"FL","country_code":"MU"}},{"type":"Feature","geometry":{"type":"Point","coordinates":[57.7075,-20.22]},"properties":{"id":67903,"name":"Queen Victoria","state_code":"FL","country_code":"MU"}},{"type":"Feature","geometry":{"type":"Point","coordinates":[57.63639,-20.22639]},"properties":{"id":67911,"name":"Saint Julien","state_code":"FL","country_code":"MU"}},{"type":"Feature","geometry":{"type":"Point","coordinates":[57.68779,-20.2907]},"properties":{"id":67913,"name":"Sebastopol","state_code":"FL","country_code":"MU"}},{"type":"Feature","geometry":{"type":"Point","coordinates":[57.794861,-20.234586]},"properties":{"id":153442,"name":"Trou D'Eau Douce","state_code":"FL","country_code":"MU"}}]}