{"type":"FeatureCollection","features":[{"type":"Feature","geometry":{"type":"Point","coordinates":[57.378815,-20.486644]},"properties":{"id":153402,"name":"Baie Du Cap","state_code":"SA","country_code":"MU"}},{"type":"Feature","geometry":{"type":"Point","coordinates":[57.425507,-20.501919]},"properties":{"id":153406,"name":"Bel Ombre","state_code":"SA","country_code":"MU"}},{"type":"Feature","geometry":{"type":"Point","coordinates":[57.588717,-20.484407]},"properties":{"id":153407,"name":"Benares","state_code":"SA","country_code":"MU"}},{"type":"Feature","geometry":{"type":"Point","coordinates":[57.534252,-20.426671]},"properties":{"id":153403,"name":"Bois Cheri","state_code":"SA","country_code":"MU"}},{"type":"Feature","geometry":{"type":"Point","coordinates":[57.563407,-20.448655]},"properties":{"id":153408,"name":"Britannia","state_code":"SA","country_code":"MU"}},{"type":"Feature","geometry":{"type":"Point","coordinates":[57.57889,-20.46278]},"properties":{"id":67839,"name":"Camp Diable","state_code":"SA","country_code":"MU"}},{"type":"Feature","geometry":{"type":"Point","coordinates":[57.46611,-20.48222]},"properties":{"id":67847,"name":"Chamouny","state_code":"SA","country_code":"MU"}},{"type":"Feature","geometry":{"type":"Point","coordinates":[57.46556,-20.48722]},"properties":{"id":67848,"name":"Chemin Grenier","state_code":"SA","country_code":"MU"}},{"type":"Feature","geometry":{"type":"Point","coordinates":[57.54417,-20.41889]},"properties":{"id":67864,"name":"Grand Bois","state_code":"SA","country_code":"MU"}},{"type":"Feature","geometry":{"type":"Point","coordinates":[57.618676,-20.473335]},"properties":{"id":153409,"name":"L'Escalier","state_code":"SA","country_code":"MU"}},{"type":"Feature","geometry":{"type":"Point","coordinates":[57.560487,-20.410005]},"properties":{"id":153411,"name":"La Flora","state_code":"SA","country_code":"MU"}},{"type":"Feature","geometry":{"type":"Point","coordinates":[57.55083,-20.48528]},"properties":{"id":67904,"name":"Rivière des Anguilles","state_code":"SA","country_code":"MU"}},{"type":"Feature","geometry":{"type":"Point","coordinates":[57.573681,-20.428662]},"properties":{"id":153405,"name":"Rivière Du Poste","state_code":"SA","country_code":"MU"}},{"type":"Feature","geometry":{"type":"Point","coordinates":[57.55,-20.496]},"properties":{"id":67909,"name":"Saint Aubin","state_code":"SA","country_code":"MU"}},{"type":"Feature","geometry":{"type":"Point","coordinates":[57.51667,-20.51667]},"properties":{"id":67914,"name":"Souillac","state_code":"SA","country_code":"MU"}},{"type":"Feature","geometry":{"type":"Point","coordinates":[57.550335,-20.494446]},"properties":{"id":153410,"name":"St Aubin","state_code":"SA","country_code":"MU"}},{"type":"Feature","geometry":{"type":"Point","coordinates":[57.50528,-20.50972]},"properties":{"id":67915,"name":"Surinam","state_code":"SA","country_code":"MU"}}]}