{"type":"FeatureCollection","features":[{"type":"Feature","geometry":{"type":"Point","coordinates":[33.26969,-9.70237]},"properties":{"id":67953,"name":"Chitipa","state_code":"N","country_code":"MW"}},{"type":"Feature","geometry":{"type":"Point","coordinates":[33.42541,-9.92727]},"properties":{"id":67954,"name":"Chitipa District","state_code":"N","country_code":"MW"}},{"type":"Feature","geometry":{"type":"Point","coordinates":[33.93333,-9.93333]},"properties":{"id":67959,"name":"Karonga","state_code":"N","country_code":"MW"}},{"type":"Feature","geometry":{"type":"Point","coordinates":[33.88151,-10.11153]},"properties":{"id":67960,"name":"Karonga District","state_code":"N","country_code":"MW"}},{"type":"Feature","geometry":{"type":"Point","coordinates":[34.73608,-12.06065]},"properties":{"id":67963,"name":"Likoma","state_code":"N","country_code":"MW"}},{"type":"Feature","geometry":{"type":"Point","coordinates":[34.10628,-10.60602]},"properties":{"id":67966,"name":"Livingstonia","state_code":"N","country_code":"MW"}},{"type":"Feature","geometry":{"type":"Point","coordinates":[33.6,-11.9]},"properties":{"id":67981,"name":"Mzimba","state_code":"N","country_code":"MW"}},{"type":"Feature","geometry":{"type":"Point","coordinates":[33.60778,-11.85428]},"properties":{"id":67982,"name":"Mzimba District","state_code":"N","country_code":"MW"}},{"type":"Feature","geometry":{"type":"Point","coordinates":[34.02071,-11.46556]},"properties":{"id":67983,"name":"Mzuzu","state_code":"N","country_code":"MW"}},{"type":"Feature","geometry":{"type":"Point","coordinates":[34.29073,-11.60659]},"properties":{"id":67985,"name":"Nkhata Bay","state_code":"N","country_code":"MW"}},{"type":"Feature","geometry":{"type":"Point","coordinates":[34.05322,-11.65304]},"properties":{"id":67986,"name":"Nkhata Bay District","state_code":"N","country_code":"MW"}},{"type":"Feature","geometry":{"type":"Point","coordinates":[33.85746,-11.01863]},"properties":{"id":67997,"name":"Rumphi","state_code":"N","country_code":"MW"}},{"type":"Feature","geometry":{"type":"Point","coordinates":[33.80524,-10.80292]},"properties":{"id":67998,"name":"Rumphi District","state_code":"N","country_code":"MW"}}]}