{"type":"FeatureCollection","features":[{"type":"Feature","geometry":{"type":"Point","coordinates":[-98.59656,20.96254]},"properties":{"id":68025,"name":"Acahuasco","state_code":"HID","country_code":"MX"}},{"type":"Feature","geometry":{"type":"Point","coordinates":[-98.27373,20.95367]},"properties":{"id":68043,"name":"Acatepec","state_code":"HID","country_code":"MX"}},{"type":"Feature","geometry":{"type":"Point","coordinates":[-98.43959,20.14562]},"properties":{"id":68047,"name":"Acatlán","state_code":"HID","country_code":"MX"}},{"type":"Feature","geometry":{"type":"Point","coordinates":[-98.18971,20.16674]},"properties":{"id":68055,"name":"Acaxochitlán","state_code":"HID","country_code":"MX"}},{"type":"Feature","geometry":{"type":"Point","coordinates":[-98.8411,20.02567]},"properties":{"id":68057,"name":"Acayuca","state_code":"HID","country_code":"MX"}},{"type":"Feature","geometry":{"type":"Point","coordinates":[-98.48701,21.12116]},"properties":{"id":68062,"name":"Acoapa","state_code":"HID","country_code":"MX"}},{"type":"Feature","geometry":{"type":"Point","coordinates":[-98.77793,20.97343]},"properties":{"id":68067,"name":"Acoxcatlán","state_code":"HID","country_code":"MX"}},{"type":"Feature","geometry":{"type":"Point","coordinates":[-98.77729,21.12551]},"properties":{"id":68068,"name":"Acoyotla","state_code":"HID","country_code":"MX"}},{"type":"Feature","geometry":{"type":"Point","coordinates":[-98.91525,20.28451]},"properties":{"id":68073,"name":"Actopan","state_code":"HID","country_code":"MX"}},{"type":"Feature","geometry":{"type":"Point","coordinates":[-98.66594,21.16495]},"properties":{"id":68148,"name":"Ahuatitla","state_code":"HID","country_code":"MX"}},{"type":"Feature","geometry":{"type":"Point","coordinates":[-98.41667,20.08444]},"properties":{"id":68154,"name":"Ahuehuetitla","state_code":"HID","country_code":"MX"}},{"type":"Feature","geometry":{"type":"Point","coordinates":[-99.06141,20.14326]},"properties":{"id":68163,"name":"Ajacuba","state_code":"HID","country_code":"MX"}},{"type":"Feature","geometry":{"type":"Point","coordinates":[-99.38388,20.41183]},"properties":{"id":68190,"name":"Alfajayucan","state_code":"HID","country_code":"MX"}},{"type":"Feature","geometry":{"type":"Point","coordinates":[-98.33939,19.74335]},"properties":{"id":68214,"name":"Almoloya","state_code":"HID","country_code":"MX"}},{"type":"Feature","geometry":{"type":"Point","coordinates":[-99.37323,20.70662]},"properties":{"id":76396,"name":"Álvaro Obregón","state_code":"HID","country_code":"MX"}},{"type":"Feature","geometry":{"type":"Point","coordinates":[-98.45086,19.71128]},"properties":{"id":68288,"name":"Apan","state_code":"HID","country_code":"MX"}},{"type":"Feature","geometry":{"type":"Point","coordinates":[-99.32714,20.17526]},"properties":{"id":68399,"name":"Atengo","state_code":"HID","country_code":"MX"}},{"type":"Feature","geometry":{"type":"Point","coordinates":[-99.21779,20.05691]},"properties":{"id":68406,"name":"Atitalaquia","state_code":"HID","country_code":"MX"}},{"type":"Feature","geometry":{"type":"Point","coordinates":[-98.36834,21.02507]},"properties":{"id":68416,"name":"Atlapexco","state_code":"HID","country_code":"MX"}},{"type":"Feature","geometry":{"type":"Point","coordinates":[-99.23866,19.97025]},"properties":{"id":68431,"name":"Atotonilco de Tula","state_code":"HID","country_code":"MX"}},{"type":"Feature","geometry":{"type":"Point","coordinates":[-98.6685,20.28632]},"properties":{"id":68432,"name":"Atotonilco el Grande","state_code":"HID","country_code":"MX"}},{"type":"Feature","geometry":{"type":"Point","coordinates":[-99.14901,20.48277]},"properties":{"id":68515,"name":"Bangandhó","state_code":"HID","country_code":"MX"}},{"type":"Feature","geometry":{"type":"Point","coordinates":[-98.08553,20.46562]},"properties":{"id":68524,"name":"Barrio Aztlán","state_code":"HID","country_code":"MX"}},{"type":"Feature","geometry":{"type":"Point","coordinates":[-98.82606,20.16047]},"properties":{"id":68590,"name":"Benito Juárez","state_code":"HID","country_code":"MX"}},{"type":"Feature","geometry":{"type":"Point","coordinates":[-99.66679,20.51542]},"properties":{"id":68632,"name":"Bomanxotha","state_code":"HID","country_code":"MX"}},{"type":"Feature","geometry":{"type":"Point","coordinates":[-99.27277,20.014]},"properties":{"id":68633,"name":"Bomintzha","state_code":"HID","country_code":"MX"}},{"type":"Feature","geometry":{"type":"Point","coordinates":[-99.70022,20.44395]},"properties":{"id":68634,"name":"Bondojito","state_code":"HID","country_code":"MX"}},{"type":"Feature","geometry":{"type":"Point","coordinates":[-98.57029,20.90221]},"properties":{"id":68744,"name":"Calnali","state_code":"HID","country_code":"MX"}},{"type":"Feature","geometry":{"type":"Point","coordinates":[-99.37,20.53672]},"properties":{"id":68748,"name":"Caltimacan","state_code":"HID","country_code":"MX"}},{"type":"Feature","geometry":{"type":"Point","coordinates":[-98.72222,20.14917]},"properties":{"id":68761,"name":"Camelia (Barrio la Camelia)","state_code":"HID","country_code":"MX"}},{"type":"Feature","geometry":{"type":"Point","coordinates":[-98.70722,20.10167]},"properties":{"id":68773,"name":"Campestre Villas del Álamo","state_code":"HID","country_code":"MX"}},{"type":"Feature","geometry":{"type":"Point","coordinates":[-99.23947,19.99798]},"properties":{"id":68873,"name":"Cañada","state_code":"HID","country_code":"MX"}},{"type":"Feature","geometry":{"type":"Point","coordinates":[-99.39389,19.96528]},"properties":{"id":68878,"name":"Cañada de Madero","state_code":"HID","country_code":"MX"}},{"type":"Feature","geometry":{"type":"Point","coordinates":[-99.30917,19.84083]},"properties":{"id":68795,"name":"Cantera de Villagrán","state_code":"HID","country_code":"MX"}},{"type":"Feature","geometry":{"type":"Point","coordinates":[-99.21028,20.45778]},"properties":{"id":68796,"name":"Cantinela","state_code":"HID","country_code":"MX"}},{"type":"Feature","geometry":{"type":"Point","coordinates":[-98.70528,20.09]},"properties":{"id":68819,"name":"Carboneras","state_code":"HID","country_code":"MX"}},{"type":"Feature","geometry":{"type":"Point","coordinates":[-99.23025,20.05689]},"properties":{"id":68821,"name":"Cardonal","state_code":"HID","country_code":"MX"}},{"type":"Feature","geometry":{"type":"Point","coordinates":[-98.53964,20.58606]},"properties":{"id":68832,"name":"Carpinteros","state_code":"HID","country_code":"MX"}},{"type":"Feature","geometry":{"type":"Point","coordinates":[-98.99067,20.30522]},"properties":{"id":68870,"name":"Caxuxi","state_code":"HID","country_code":"MX"}},{"type":"Feature","geometry":{"type":"Point","coordinates":[-99.01222,20.35306]},"properties":{"id":68917,"name":"Cerritos","state_code":"HID","country_code":"MX"}},{"type":"Feature","geometry":{"type":"Point","coordinates":[-98.13261,20.20182]},"properties":{"id":68948,"name":"Chachahuantla","state_code":"HID","country_code":"MX"}},{"type":"Feature","geometry":{"type":"Point","coordinates":[-98.36429,21.15088]},"properties":{"id":68954,"name":"Chalahuiyapa","state_code":"HID","country_code":"MX"}},{"type":"Feature","geometry":{"type":"Point","coordinates":[-99.41319,20.28635]},"properties":{"id":68981,"name":"Chapantongo","state_code":"HID","country_code":"MX"}},{"type":"Feature","geometry":{"type":"Point","coordinates":[-98.90361,21.15731]},"properties":{"id":68988,"name":"Chapulhuacán","state_code":"HID","country_code":"MX"}},{"type":"Feature","geometry":{"type":"Point","coordinates":[-98.67016,21.20911]},"properties":{"id":68987,"name":"Chapulhuacanito","state_code":"HID","country_code":"MX"}},{"type":"Feature","geometry":{"type":"Point","coordinates":[-98.52731,21.02006]},"properties":{"id":68999,"name":"Chatipán","state_code":"HID","country_code":"MX"}},{"type":"Feature","geometry":{"type":"Point","coordinates":[-98.95386,20.19715]},"properties":{"id":69018,"name":"Chicavasco","state_code":"HID","country_code":"MX"}},{"type":"Feature","geometry":{"type":"Point","coordinates":[-98.62946,20.95833]},"properties":{"id":69020,"name":"Chichatla","state_code":"HID","country_code":"MX"}},{"type":"Feature","geometry":{"type":"Point","coordinates":[-99.23117,20.33059]},"properties":{"id":69069,"name":"Chilcuautla","state_code":"HID","country_code":"MX"}},{"type":"Feature","geometry":{"type":"Point","coordinates":[-98.43556,21.13444]},"properties":{"id":69070,"name":"Chililico","state_code":"HID","country_code":"MX"}},{"type":"Feature","geometry":{"type":"Point","coordinates":[-98.16,20.18806]},"properties":{"id":69076,"name":"Chimalapa","state_code":"HID","country_code":"MX"}},{"type":"Feature","geometry":{"type":"Point","coordinates":[-98.51224,19.66522]},"properties":{"id":69078,"name":"Chimalpa y Tlalayote","state_code":"HID","country_code":"MX"}},{"type":"Feature","geometry":{"type":"Point","coordinates":[-98.7675,20.05889]},"properties":{"id":69138,"name":"Cipreses","state_code":"HID","country_code":"MX"}},{"type":"Feature","geometry":{"type":"Point","coordinates":[-98.57471,19.77557]},"properties":{"id":69178,"name":"Ciudad Sahagun","state_code":"HID","country_code":"MX"}},{"type":"Feature","geometry":{"type":"Point","coordinates":[-98.58643,21.10377]},"properties":{"id":69211,"name":"Coacuilco","state_code":"HID","country_code":"MX"}},{"type":"Feature","geometry":{"type":"Point","coordinates":[-98.72667,20.07833]},"properties":{"id":69257,"name":"Colinas de Plata","state_code":"HID","country_code":"MX"}},{"type":"Feature","geometry":{"type":"Point","coordinates":[-98.39,20.16611]},"properties":{"id":69267,"name":"Colonia 28 de Mayo (Santa Rosa)","state_code":"HID","country_code":"MX"}},{"type":"Feature","geometry":{"type":"Point","coordinates":[-98.80661,19.88985]},"properties":{"id":69285,"name":"Colonia Benito Juárez","state_code":"HID","country_code":"MX"}},{"type":"Feature","geometry":{"type":"Point","coordinates":[-98.41861,20.05417]},"properties":{"id":69301,"name":"Colonia Felipe Ángeles","state_code":"HID","country_code":"MX"}},{"type":"Feature","geometry":{"type":"Point","coordinates":[-98.76556,19.93917]},"properties":{"id":69305,"name":"Colonia Guadalupe","state_code":"HID","country_code":"MX"}},{"type":"Feature","geometry":{"type":"Point","coordinates":[-98.70306,20.11139]},"properties":{"id":69330,"name":"Colonia Militar","state_code":"HID","country_code":"MX"}},{"type":"Feature","geometry":{"type":"Point","coordinates":[-98.81667,19.89056]},"properties":{"id":69334,"name":"Colonia Morelos","state_code":"HID","country_code":"MX"}},{"type":"Feature","geometry":{"type":"Point","coordinates":[-99.14111,20.225]},"properties":{"id":69335,"name":"Colonia Morelos (El Nueve)","state_code":"HID","country_code":"MX"}},{"type":"Feature","geometry":{"type":"Point","coordinates":[-99.28278,20.19028]},"properties":{"id":69365,"name":"Colonia San Juan","state_code":"HID","country_code":"MX"}},{"type":"Feature","geometry":{"type":"Point","coordinates":[-99.34583,20.00528]},"properties":{"id":69370,"name":"Colonia Sesenta y Dos","state_code":"HID","country_code":"MX"}},{"type":"Feature","geometry":{"type":"Point","coordinates":[-99.17866,20.19291]},"properties":{"id":69372,"name":"Colonia Teñhe","state_code":"HID","country_code":"MX"}},{"type":"Feature","geometry":{"type":"Point","coordinates":[-99.24337,19.9757]},"properties":{"id":69449,"name":"Conejos","state_code":"HID","country_code":"MX"}},{"type":"Feature","geometry":{"type":"Point","coordinates":[-99.15817,19.9998]},"properties":{"id":69523,"name":"Coyotillos","state_code":"HID","country_code":"MX"}},{"type":"Feature","geometry":{"type":"Point","coordinates":[-98.55264,21.13292]},"properties":{"id":69560,"name":"Cuapaxtitla","state_code":"HID","country_code":"MX"}},{"type":"Feature","geometry":{"type":"Point","coordinates":[-98.82563,21.11967]},"properties":{"id":69567,"name":"Cuatolol","state_code":"HID","country_code":"MX"}},{"type":"Feature","geometry":{"type":"Point","coordinates":[-98.31015,20.03557]},"properties":{"id":69588,"name":"Cuautepec de Hinojosa","state_code":"HID","country_code":"MX"}},{"type":"Feature","geometry":{"type":"Point","coordinates":[-98.88691,21.01637]},"properties":{"id":69601,"name":"Cuazahuatl","state_code":"HID","country_code":"MX"}},{"type":"Feature","geometry":{"type":"Point","coordinates":[-98.94006,20.31114]},"properties":{"id":69664,"name":"Dajiedi","state_code":"HID","country_code":"MX"}},{"type":"Feature","geometry":{"type":"Point","coordinates":[-99.58587,20.43934]},"properties":{"id":69667,"name":"Dantzibojay","state_code":"HID","country_code":"MX"}},{"type":"Feature","geometry":{"type":"Point","coordinates":[-98.97964,20.27994]},"properties":{"id":69669,"name":"Daxtha","state_code":"HID","country_code":"MX"}},{"type":"Feature","geometry":{"type":"Point","coordinates":[-99.12098,20.27211]},"properties":{"id":69678,"name":"Dengantzha","state_code":"HID","country_code":"MX"}},{"type":"Feature","geometry":{"type":"Point","coordinates":[-99.02389,20.32528]},"properties":{"id":69751,"name":"Déxtho de Victoria","state_code":"HID","country_code":"MX"}},{"type":"Feature","geometry":{"type":"Point","coordinates":[-99.20132,20.46469]},"properties":{"id":69687,"name":"Dios Padre","state_code":"HID","country_code":"MX"}},{"type":"Feature","geometry":{"type":"Point","coordinates":[-98.93472,19.87444]},"properties":{"id":69709,"name":"Don Antonio","state_code":"HID","country_code":"MX"}},{"type":"Feature","geometry":{"type":"Point","coordinates":[-99.24362,20.09169]},"properties":{"id":69724,"name":"Doxey","state_code":"HID","country_code":"MX"}},{"type":"Feature","geometry":{"type":"Point","coordinates":[-98.90957,20.22258]},"properties":{"id":69833,"name":"El Arenal","state_code":"HID","country_code":"MX"}},{"type":"Feature","geometry":{"type":"Point","coordinates":[-99.19083,20.45028]},"properties":{"id":69840,"name":"El Barrido","state_code":"HID","country_code":"MX"}},{"type":"Feature","geometry":{"type":"Point","coordinates":[-99.14315,20.59296]},"properties":{"id":69845,"name":"El Bingú","state_code":"HID","country_code":"MX"}},{"type":"Feature","geometry":{"type":"Point","coordinates":[-98.97417,20.25972]},"properties":{"id":69850,"name":"El Boxtha","state_code":"HID","country_code":"MX"}},{"type":"Feature","geometry":{"type":"Point","coordinates":[-98.27613,20.00898]},"properties":{"id":69863,"name":"El Capulín","state_code":"HID","country_code":"MX"}},{"type":"Feature","geometry":{"type":"Point","coordinates":[-98.92694,19.86722]},"properties":{"id":69904,"name":"El Cid","state_code":"HID","country_code":"MX"}},{"type":"Feature","geometry":{"type":"Point","coordinates":[-99.00222,20.21528]},"properties":{"id":69913,"name":"El Colorado","state_code":"HID","country_code":"MX"}},{"type":"Feature","geometry":{"type":"Point","coordinates":[-98.96222,20.23444]},"properties":{"id":69987,"name":"El Huaxtho","state_code":"HID","country_code":"MX"}},{"type":"Feature","geometry":{"type":"Point","coordinates":[-98.81972,20.07569]},"properties":{"id":69991,"name":"El Huixmí","state_code":"HID","country_code":"MX"}},{"type":"Feature","geometry":{"type":"Point","coordinates":[-99.61516,20.24691]},"properties":{"id":69998,"name":"El Jagüey","state_code":"HID","country_code":"MX"}},{"type":"Feature","geometry":{"type":"Point","coordinates":[-98.92815,20.24842]},"properties":{"id":70003,"name":"El Jiadi","state_code":"HID","country_code":"MX"}},{"type":"Feature","geometry":{"type":"Point","coordinates":[-99.31976,20.06537]},"properties":{"id":70021,"name":"El Llano","state_code":"HID","country_code":"MX"}},{"type":"Feature","geometry":{"type":"Point","coordinates":[-98.81056,20.03]},"properties":{"id":70040,"name":"El Mirador","state_code":"HID","country_code":"MX"}},{"type":"Feature","geometry":{"type":"Point","coordinates":[-99.17361,20.30139]},"properties":{"id":70050,"name":"El Moreno (San Miguel Moreno)","state_code":"HID","country_code":"MX"}},{"type":"Feature","geometry":{"type":"Point","coordinates":[-99.19194,20.48778]},"properties":{"id":70065,"name":"El Nith","state_code":"HID","country_code":"MX"}},{"type":"Feature","geometry":{"type":"Point","coordinates":[-99.02556,20.27]},"properties":{"id":70072,"name":"El Olvera","state_code":"HID","country_code":"MX"}},{"type":"Feature","geometry":{"type":"Point","coordinates":[-98.25224,19.86686]},"properties":{"id":70094,"name":"El Paredón","state_code":"HID","country_code":"MX"}},{"type":"Feature","geometry":{"type":"Point","coordinates":[-98.41284,21.15932]},"properties":{"id":70106,"name":"El Pintor","state_code":"HID","country_code":"MX"}},{"type":"Feature","geometry":{"type":"Point","coordinates":[-99.18835,20.0048]},"properties":{"id":70150,"name":"El Refugio","state_code":"HID","country_code":"MX"}},{"type":"Feature","geometry":{"type":"Point","coordinates":[-98.90431,20.27334]},"properties":{"id":70160,"name":"El Rincón","state_code":"HID","country_code":"MX"}},{"type":"Feature","geometry":{"type":"Point","coordinates":[-98.75833,20.05806]},"properties":{"id":70167,"name":"El Roble","state_code":"HID","country_code":"MX"}},{"type":"Feature","geometry":{"type":"Point","coordinates":[-99.02539,20.24842]},"properties":{"id":70172,"name":"El Rosario","state_code":"HID","country_code":"MX"}},{"type":"Feature","geometry":{"type":"Point","coordinates":[-98.73722,20.07694]},"properties":{"id":70197,"name":"El Saucillo","state_code":"HID","country_code":"MX"}},{"type":"Feature","geometry":{"type":"Point","coordinates":[-98.73194,20.06778]},"properties":{"id":70198,"name":"El Saucillo (Fraccionamiento)","state_code":"HID","country_code":"MX"}},{"type":"Feature","geometry":{"type":"Point","coordinates":[-98.49303,20.05905]},"properties":{"id":70209,"name":"El Susto","state_code":"HID","country_code":"MX"}},{"type":"Feature","geometry":{"type":"Point","coordinates":[-98.31063,20.05073]},"properties":{"id":70219,"name":"El Tepeyac","state_code":"HID","country_code":"MX"}},{"type":"Feature","geometry":{"type":"Point","coordinates":[-99.175,20.44861]},"properties":{"id":70220,"name":"El Tephé","state_code":"HID","country_code":"MX"}},{"type":"Feature","geometry":{"type":"Point","coordinates":[-98.76018,20.06291]},"properties":{"id":70252,"name":"El Venado","state_code":"HID","country_code":"MX"}},{"type":"Feature","geometry":{"type":"Point","coordinates":[-98.87693,20.72703]},"properties":{"id":70272,"name":"Eloxochitlán","state_code":"HID","country_code":"MX"}},{"type":"Feature","geometry":{"type":"Point","coordinates":[-98.54497,19.6549]},"properties":{"id":70278,"name":"Emiliano Zapata","state_code":"HID","country_code":"MX"}},{"type":"Feature","geometry":{"type":"Point","coordinates":[-98.63802,20.02654]},"properties":{"id":70310,"name":"Epazoyucan","state_code":"HID","country_code":"MX"}},{"type":"Feature","geometry":{"type":"Point","coordinates":[-98.3475,20.28611]},"properties":{"id":70359,"name":"Estación de Apulco","state_code":"HID","country_code":"MX"}},{"type":"Feature","geometry":{"type":"Point","coordinates":[-98.87164,20.48853]},"properties":{"id":70408,"name":"Fontezuelas","state_code":"HID","country_code":"MX"}},{"type":"Feature","geometry":{"type":"Point","coordinates":[-98.76333,20.055]},"properties":{"id":70409,"name":"Forjadores de Pachuca","state_code":"HID","country_code":"MX"}},{"type":"Feature","geometry":{"type":"Point","coordinates":[-98.43028,20.11028]},"properties":{"id":70412,"name":"Fraccionamiento Carlos Salinas de Gortari","state_code":"HID","country_code":"MX"}},{"type":"Feature","geometry":{"type":"Point","coordinates":[-98.39972,20.07639]},"properties":{"id":70448,"name":"Fraccionamiento del Magisterio Tulancinguense","state_code":"HID","country_code":"MX"}},{"type":"Feature","geometry":{"type":"Point","coordinates":[-99.68737,20.54525]},"properties":{"id":70518,"name":"Gandhó","state_code":"HID","country_code":"MX"}},{"type":"Feature","geometry":{"type":"Point","coordinates":[-98.92611,19.8975]},"properties":{"id":70532,"name":"General Felipe Ángeles (Los Ángeles)","state_code":"HID","country_code":"MX"}},{"type":"Feature","geometry":{"type":"Point","coordinates":[-99.348,20.156]},"properties":{"id":70544,"name":"General Pedro María Anaya","state_code":"HID","country_code":"MX"}},{"type":"Feature","geometry":{"type":"Point","coordinates":[-98.71389,20.12583]},"properties":{"id":70587,"name":"Guadalupe Minerva","state_code":"HID","country_code":"MX"}},{"type":"Feature","geometry":{"type":"Point","coordinates":[-98.26864,20.03748]},"properties":{"id":70597,"name":"Guadalupe Victoria","state_code":"HID","country_code":"MX"}},{"type":"Feature","geometry":{"type":"Point","coordinates":[-98.83688,20.70877]},"properties":{"id":70726,"name":"Hualula","state_code":"HID","country_code":"MX"}},{"type":"Feature","geometry":{"type":"Point","coordinates":[-98.57603,20.20357]},"properties":{"id":70739,"name":"Huasca de Ocampo","state_code":"HID","country_code":"MX"}},{"type":"Feature","geometry":{"type":"Point","coordinates":[-98.28685,21.03105]},"properties":{"id":70746,"name":"Huautla","state_code":"HID","country_code":"MX"}},{"type":"Feature","geometry":{"type":"Point","coordinates":[-98.03311,20.53204]},"properties":{"id":70757,"name":"Huehuetla","state_code":"HID","country_code":"MX"}},{"type":"Feature","geometry":{"type":"Point","coordinates":[-98.41944,21.14]},"properties":{"id":70767,"name":"Huejutla de Reyes","state_code":"HID","country_code":"MX"}},{"type":"Feature","geometry":{"type":"Point","coordinates":[-98.68871,21.08506]},"properties":{"id":70773,"name":"Hueyapa","state_code":"HID","country_code":"MX"}},{"type":"Feature","geometry":{"type":"Point","coordinates":[-99.64869,20.37593]},"properties":{"id":70788,"name":"Huichapan","state_code":"HID","country_code":"MX"}},{"type":"Feature","geometry":{"type":"Point","coordinates":[-99.2786,20.16707]},"properties":{"id":70799,"name":"Huitel","state_code":"HID","country_code":"MX"}},{"type":"Feature","geometry":{"type":"Point","coordinates":[-98.72291,21.05451]},"properties":{"id":70800,"name":"Huitepec","state_code":"HID","country_code":"MX"}},{"type":"Feature","geometry":{"type":"Point","coordinates":[-98.95583,19.81137]},"properties":{"id":70804,"name":"Huitzila","state_code":"HID","country_code":"MX"}},{"type":"Feature","geometry":{"type":"Point","coordinates":[-98.65693,21.17295]},"properties":{"id":70812,"name":"Huitzitzilingo","state_code":"HID","country_code":"MX"}},{"type":"Feature","geometry":{"type":"Point","coordinates":[-99.32101,20.01574]},"properties":{"id":70847,"name":"Ignacio Zaragoza","state_code":"HID","country_code":"MX"}},{"type":"Feature","geometry":{"type":"Point","coordinates":[-98.59641,19.73452]},"properties":{"id":70879,"name":"Irolo","state_code":"HID","country_code":"MX"}},{"type":"Feature","geometry":{"type":"Point","coordinates":[-98.53468,21.08134]},"properties":{"id":70907,"name":"Ixcatlán","state_code":"HID","country_code":"MX"}},{"type":"Feature","geometry":{"type":"Point","coordinates":[-98.9398,20.11091]},"properties":{"id":70908,"name":"Ixcuinquitlapilco","state_code":"HID","country_code":"MX"}},{"type":"Feature","geometry":{"type":"Point","coordinates":[-99.21697,20.47841]},"properties":{"id":70918,"name":"Ixmiquilpan","state_code":"HID","country_code":"MX"}},{"type":"Feature","geometry":{"type":"Point","coordinates":[-98.70379,20.88368]},"properties":{"id":70937,"name":"Ixtlahuaca","state_code":"HID","country_code":"MX"}},{"type":"Feature","geometry":{"type":"Point","coordinates":[-99.19134,21.00952]},"properties":{"id":70957,"name":"Jacala","state_code":"HID","country_code":"MX"}},{"type":"Feature","geometry":{"type":"Point","coordinates":[-99.15222,20.27639]},"properties":{"id":70961,"name":"Jagüey Blanco","state_code":"HID","country_code":"MX"}},{"type":"Feature","geometry":{"type":"Point","coordinates":[-98.78833,19.98056]},"properties":{"id":70962,"name":"Jagüey de Téllez (Estación Téllez)","state_code":"HID","country_code":"MX"}},{"type":"Feature","geometry":{"type":"Point","coordinates":[-98.71313,21.10908]},"properties":{"id":70975,"name":"Jalpa","state_code":"HID","country_code":"MX"}},{"type":"Feature","geometry":{"type":"Point","coordinates":[-98.41712,20.11552]},"properties":{"id":70986,"name":"Jaltepec","state_code":"HID","country_code":"MX"}},{"type":"Feature","geometry":{"type":"Point","coordinates":[-98.53898,21.13284]},"properties":{"id":70990,"name":"Jaltocan","state_code":"HID","country_code":"MX"}},{"type":"Feature","geometry":{"type":"Point","coordinates":[-98.41778,20.06972]},"properties":{"id":71014,"name":"Javier Rojo Gómez","state_code":"HID","country_code":"MX"}},{"type":"Feature","geometry":{"type":"Point","coordinates":[-99.53306,20.43358]},"properties":{"id":71078,"name":"Jonacapa","state_code":"HID","country_code":"MX"}},{"type":"Feature","geometry":{"type":"Point","coordinates":[-98.57639,19.6825]},"properties":{"id":71103,"name":"José María Morelos (San José)","state_code":"HID","country_code":"MX"}},{"type":"Feature","geometry":{"type":"Point","coordinates":[-99.42111,20.24722]},"properties":{"id":71110,"name":"José María Pino Suárez","state_code":"HID","country_code":"MX"}},{"type":"Feature","geometry":{"type":"Point","coordinates":[-99.10431,20.39645]},"properties":{"id":71138,"name":"Julián Villagrán","state_code":"HID","country_code":"MX"}},{"type":"Feature","geometry":{"type":"Point","coordinates":[-99.32028,20.00833]},"properties":{"id":71172,"name":"La Amistad","state_code":"HID","country_code":"MX"}},{"type":"Feature","geometry":{"type":"Point","coordinates":[-98.12468,20.12496]},"properties":{"id":71185,"name":"La Boveda","state_code":"HID","country_code":"MX"}},{"type":"Feature","geometry":{"type":"Point","coordinates":[-98.77028,20.05472]},"properties":{"id":71219,"name":"La Colonia","state_code":"HID","country_code":"MX"}},{"type":"Feature","geometry":{"type":"Point","coordinates":[-99.24156,20.17603]},"properties":{"id":71247,"name":"La Cruz","state_code":"HID","country_code":"MX"}},{"type":"Feature","geometry":{"type":"Point","coordinates":[-99.7077,20.54712]},"properties":{"id":71278,"name":"La Esquina","state_code":"HID","country_code":"MX"}},{"type":"Feature","geometry":{"type":"Point","coordinates":[-98.68944,20.29889]},"properties":{"id":71282,"name":"La Estancia","state_code":"HID","country_code":"MX"}},{"type":"Feature","geometry":{"type":"Point","coordinates":[-98.75703,20.17828]},"properties":{"id":71286,"name":"La Estanzuela","state_code":"HID","country_code":"MX"}},{"type":"Feature","geometry":{"type":"Point","coordinates":[-98.49989,19.73447]},"properties":{"id":71342,"name":"La Laguna","state_code":"HID","country_code":"MX"}},{"type":"Feature","geometry":{"type":"Point","coordinates":[-98.47801,20.06787]},"properties":{"id":71348,"name":"La Lagunilla","state_code":"HID","country_code":"MX"}},{"type":"Feature","geometry":{"type":"Point","coordinates":[-99.37882,20.16959]},"properties":{"id":71363,"name":"La Loma","state_code":"HID","country_code":"MX"}},{"type":"Feature","geometry":{"type":"Point","coordinates":[-99.67676,20.48949]},"properties":{"id":71394,"name":"La Mesilla","state_code":"HID","country_code":"MX"}},{"type":"Feature","geometry":{"type":"Point","coordinates":[-98.71722,20.06417]},"properties":{"id":71465,"name":"La Providencia Siglo XXI","state_code":"HID","country_code":"MX"}},{"type":"Feature","geometry":{"type":"Point","coordinates":[-98.87057,21.07327]},"properties":{"id":71472,"name":"La Reforma","state_code":"HID","country_code":"MX"}},{"type":"Feature","geometry":{"type":"Point","coordinates":[-99.63423,20.36286]},"properties":{"id":71482,"name":"La Sabinita","state_code":"HID","country_code":"MX"}},{"type":"Feature","geometry":{"type":"Point","coordinates":[-98.8725,20.20722]},"properties":{"id":71483,"name":"La Sala (La Caliente)","state_code":"HID","country_code":"MX"}},{"type":"Feature","geometry":{"type":"Point","coordinates":[-98.70942,19.95975]},"properties":{"id":71507,"name":"La Trinidad","state_code":"HID","country_code":"MX"}},{"type":"Feature","geometry":{"type":"Point","coordinates":[-99.02737,20.34306]},"properties":{"id":71561,"name":"Lagunilla","state_code":"HID","country_code":"MX"}},{"type":"Feature","geometry":{"type":"Point","coordinates":[-98.47166,19.64032]},"properties":{"id":71885,"name":"Lázaro Cárdenas","state_code":"HID","country_code":"MX"}},{"type":"Feature","geometry":{"type":"Point","coordinates":[-98.79778,20.02611]},"properties":{"id":71681,"name":"Lindavista","state_code":"HID","country_code":"MX"}},{"type":"Feature","geometry":{"type":"Point","coordinates":[-99.76556,20.30111]},"properties":{"id":71688,"name":"Llano Largo","state_code":"HID","country_code":"MX"}},{"type":"Feature","geometry":{"type":"Point","coordinates":[-98.73116,21.00922]},"properties":{"id":71707,"name":"Lolotla","state_code":"HID","country_code":"MX"}},{"type":"Feature","geometry":{"type":"Point","coordinates":[-98.5187,19.80439]},"properties":{"id":71790,"name":"Los Cides","state_code":"HID","country_code":"MX"}},{"type":"Feature","geometry":{"type":"Point","coordinates":[-98.16424,20.15529]},"properties":{"id":71845,"name":"Los Reyes","state_code":"HID","country_code":"MX"}},{"type":"Feature","geometry":{"type":"Point","coordinates":[-98.41496,20.02976]},"properties":{"id":71856,"name":"Los Romeros","state_code":"HID","country_code":"MX"}},{"type":"Feature","geometry":{"type":"Point","coordinates":[-98.64862,20.31535]},"properties":{"id":71857,"name":"Los Sabinos","state_code":"HID","country_code":"MX"}},{"type":"Feature","geometry":{"type":"Point","coordinates":[-98.75639,20.05389]},"properties":{"id":71866,"name":"Los Tuzos","state_code":"HID","country_code":"MX"}},{"type":"Feature","geometry":{"type":"Point","coordinates":[-98.49445,21.05946]},"properties":{"id":71905,"name":"Machetla","state_code":"HID","country_code":"MX"}},{"type":"Feature","geometry":{"type":"Point","coordinates":[-98.76889,20.05694]},"properties":{"id":71936,"name":"Magisterio Digno","state_code":"HID","country_code":"MX"}},{"type":"Feature","geometry":{"type":"Point","coordinates":[-99.17032,20.42357]},"properties":{"id":71938,"name":"Maguey Blanco","state_code":"HID","country_code":"MX"}},{"type":"Feature","geometry":{"type":"Point","coordinates":[-99.65797,20.41003]},"properties":{"id":71952,"name":"Mamithi","state_code":"HID","country_code":"MX"}},{"type":"Feature","geometry":{"type":"Point","coordinates":[-99.24799,20.18647]},"properties":{"id":71955,"name":"Mangas","state_code":"HID","country_code":"MX"}},{"type":"Feature","geometry":{"type":"Point","coordinates":[-98.70694,20.11194]},"properties":{"id":71967,"name":"Manuel Ávila Camacho","state_code":"HID","country_code":"MX"}},{"type":"Feature","geometry":{"type":"Point","coordinates":[-98.40305,20.93573]},"properties":{"id":72055,"name":"Mecatlán","state_code":"HID","country_code":"MX"}},{"type":"Feature","geometry":{"type":"Point","coordinates":[-99.28171,19.9454]},"properties":{"id":72067,"name":"Melchor Ocampo","state_code":"HID","country_code":"MX"}},{"type":"Feature","geometry":{"type":"Point","coordinates":[-98.34366,20.26375]},"properties":{"id":72090,"name":"Metepec","state_code":"HID","country_code":"MX"}},{"type":"Feature","geometry":{"type":"Point","coordinates":[-98.43222,20.14167]},"properties":{"id":72091,"name":"Metepec Primero","state_code":"HID","country_code":"MX"}},{"type":"Feature","geometry":{"type":"Point","coordinates":[-98.79696,20.56753]},"properties":{"id":72096,"name":"Metztitlán","state_code":"HID","country_code":"MX"}},{"type":"Feature","geometry":{"type":"Point","coordinates":[-98.63749,20.53307]},"properties":{"id":72112,"name":"Mezquititlán","state_code":"HID","country_code":"MX"}},{"type":"Feature","geometry":{"type":"Point","coordinates":[-99.39885,20.09151]},"properties":{"id":72120,"name":"Michimaloya","state_code":"HID","country_code":"MX"}},{"type":"Feature","geometry":{"type":"Point","coordinates":[-98.67364,20.1383]},"properties":{"id":72149,"name":"Mineral del Monte","state_code":"HID","country_code":"MX"}},{"type":"Feature","geometry":{"type":"Point","coordinates":[-99.21396,20.23031]},"properties":{"id":72166,"name":"Mixquiahuala de Juarez","state_code":"HID","country_code":"MX"}},{"type":"Feature","geometry":{"type":"Point","coordinates":[-98.72878,20.78693]},"properties":{"id":72181,"name":"Molango","state_code":"HID","country_code":"MX"}},{"type":"Feature","geometry":{"type":"Point","coordinates":[-99.34139,19.9825]},"properties":{"id":72195,"name":"Monte Alegre","state_code":"HID","country_code":"MX"}},{"type":"Feature","geometry":{"type":"Point","coordinates":[-99.20514,20.18377]},"properties":{"id":72240,"name":"Motovatha","state_code":"HID","country_code":"MX"}},{"type":"Feature","geometry":{"type":"Point","coordinates":[-99.19948,20.12858]},"properties":{"id":72255,"name":"Munitepec de Madero","state_code":"HID","country_code":"MX"}},{"type":"Feature","geometry":{"type":"Point","coordinates":[-99.36856,20.05317]},"properties":{"id":72277,"name":"Nantzha","state_code":"HID","country_code":"MX"}},{"type":"Feature","geometry":{"type":"Point","coordinates":[-99.64541,20.25198]},"properties":{"id":72345,"name":"Nopala de Villagran","state_code":"HID","country_code":"MX"}},{"type":"Feature","geometry":{"type":"Point","coordinates":[-98.73944,20.07028]},"properties":{"id":72382,"name":"Nuevo Centro de Población Agrícola el Chacón","state_code":"HID","country_code":"MX"}},{"type":"Feature","geometry":{"type":"Point","coordinates":[-99.23926,20.00896]},"properties":{"id":72437,"name":"Ocampo","state_code":"HID","country_code":"MX"}},{"type":"Feature","geometry":{"type":"Point","coordinates":[-98.26197,20.89308]},"properties":{"id":72477,"name":"Ohuatipa","state_code":"HID","country_code":"MX"}},{"type":"Feature","geometry":{"type":"Point","coordinates":[-99.44498,19.97635]},"properties":{"id":72487,"name":"Ojo de Agua","state_code":"HID","country_code":"MX"}},{"type":"Feature","geometry":{"type":"Point","coordinates":[-98.64842,20.1698]},"properties":{"id":72507,"name":"Omitlán de Juárez","state_code":"HID","country_code":"MX"}},{"type":"Feature","geometry":{"type":"Point","coordinates":[-99.03167,19.98528]},"properties":{"id":72520,"name":"Oriental de Zapata","state_code":"HID","country_code":"MX"}},{"type":"Feature","geometry":{"type":"Point","coordinates":[-99.20874,20.58338]},"properties":{"id":72529,"name":"Orizabita","state_code":"HID","country_code":"MX"}},{"type":"Feature","geometry":{"type":"Point","coordinates":[-98.32556,20.91889]},"properties":{"id":72548,"name":"Oxeloco","state_code":"HID","country_code":"MX"}},{"type":"Feature","geometry":{"type":"Point","coordinates":[-98.33478,20.84608]},"properties":{"id":72566,"name":"Pachiquita","state_code":"HID","country_code":"MX"}},{"type":"Feature","geometry":{"type":"Point","coordinates":[-98.73329,20.11697]},"properties":{"id":72569,"name":"Pachuca de Soto","state_code":"HID","country_code":"MX"}},{"type":"Feature","geometry":{"type":"Point","coordinates":[-98.69572,20.07099]},"properties":{"id":72570,"name":"Pachuquilla","state_code":"HID","country_code":"MX"}},{"type":"Feature","geometry":{"type":"Point","coordinates":[-98.35634,20.9744]},"properties":{"id":72573,"name":"Pahactla","state_code":"HID","country_code":"MX"}},{"type":"Feature","geometry":{"type":"Point","coordinates":[-98.47667,21.0694]},"properties":{"id":72575,"name":"Pahuatlán","state_code":"HID","country_code":"MX"}},{"type":"Feature","geometry":{"type":"Point","coordinates":[-99.1984,20.21859]},"properties":{"id":72598,"name":"Palmillas","state_code":"HID","country_code":"MX"}},{"type":"Feature","geometry":{"type":"Point","coordinates":[-99.26674,20.46965]},"properties":{"id":72620,"name":"Panales","state_code":"HID","country_code":"MX"}},{"type":"Feature","geometry":{"type":"Point","coordinates":[-99.69667,20.52167]},"properties":{"id":72717,"name":"Pañhé","state_code":"HID","country_code":"MX"}},{"type":"Feature","geometry":{"type":"Point","coordinates":[-99.27083,20.195]},"properties":{"id":72630,"name":"Panuaya","state_code":"HID","country_code":"MX"}},{"type":"Feature","geometry":{"type":"Point","coordinates":[-98.45192,20.90154]},"properties":{"id":72637,"name":"Papatlatla","state_code":"HID","country_code":"MX"}},{"type":"Feature","geometry":{"type":"Point","coordinates":[-98.38611,21.15194]},"properties":{"id":72659,"name":"Parque de Poblamiento Solidaridad","state_code":"HID","country_code":"MX"}},{"type":"Feature","geometry":{"type":"Point","coordinates":[-98.34083,20.14278]},"properties":{"id":72658,"name":"Parque Urbano Napateco","state_code":"HID","country_code":"MX"}},{"type":"Feature","geometry":{"type":"Point","coordinates":[-99.23806,19.89111]},"properties":{"id":72670,"name":"Paseos de la Pradera","state_code":"HID","country_code":"MX"}},{"type":"Feature","geometry":{"type":"Point","coordinates":[-99.05172,20.37151]},"properties":{"id":72710,"name":"Patria Nueva","state_code":"HID","country_code":"MX"}},{"type":"Feature","geometry":{"type":"Point","coordinates":[-98.43139,20.05278]},"properties":{"id":72715,"name":"Paxtepec","state_code":"HID","country_code":"MX"}},{"type":"Feature","geometry":{"type":"Point","coordinates":[-98.40703,20.06616]},"properties":{"id":72721,"name":"Pedregal de San José","state_code":"HID","country_code":"MX"}},{"type":"Feature","geometry":{"type":"Point","coordinates":[-99.42107,20.24577]},"properties":{"id":72779,"name":"Pino Suárez","state_code":"HID","country_code":"MX"}},{"type":"Feature","geometry":{"type":"Point","coordinates":[-99.00551,21.19417]},"properties":{"id":72785,"name":"Pisaflores","state_code":"HID","country_code":"MX"}},{"type":"Feature","geometry":{"type":"Point","coordinates":[-99.3061,20.48687]},"properties":{"id":72855,"name":"Portezuelo","state_code":"HID","country_code":"MX"}},{"type":"Feature","geometry":{"type":"Point","coordinates":[-99.05974,20.49271]},"properties":{"id":72876,"name":"Pozuelos","state_code":"HID","country_code":"MX"}},{"type":"Feature","geometry":{"type":"Point","coordinates":[-99.23028,19.88472]},"properties":{"id":72879,"name":"Praderas del Potrero","state_code":"HID","country_code":"MX"}},{"type":"Feature","geometry":{"type":"Point","coordinates":[-99.25242,20.15946]},"properties":{"id":72890,"name":"Presas","state_code":"HID","country_code":"MX"}},{"type":"Feature","geometry":{"type":"Point","coordinates":[-98.73694,20.08139]},"properties":{"id":72561,"name":"PRI Chacón","state_code":"HID","country_code":"MX"}},{"type":"Feature","geometry":{"type":"Point","coordinates":[-98.70028,20.09833]},"properties":{"id":72905,"name":"Privada del Álamo","state_code":"HID","country_code":"MX"}},{"type":"Feature","geometry":{"type":"Point","coordinates":[-99.23861,20.01972]},"properties":{"id":72914,"name":"Progreso","state_code":"HID","country_code":"MX"}},{"type":"Feature","geometry":{"type":"Point","coordinates":[-99.18988,20.24929]},"properties":{"id":72918,"name":"Progreso de Alvaro Obregon","state_code":"HID","country_code":"MX"}},{"type":"Feature","geometry":{"type":"Point","coordinates":[-98.67817,21.11447]},"properties":{"id":72931,"name":"Pueblo Hidalgo","state_code":"HID","country_code":"MX"}},{"type":"Feature","geometry":{"type":"Point","coordinates":[-99.16652,20.45511]},"properties":{"id":72940,"name":"Pueblo Nuevo","state_code":"HID","country_code":"MX"}},{"type":"Feature","geometry":{"type":"Point","coordinates":[-99.30167,20.06444]},"properties":{"id":73097,"name":"Residencial Arboledas","state_code":"HID","country_code":"MX"}},{"type":"Feature","geometry":{"type":"Point","coordinates":[-98.71139,20.02611]},"properties":{"id":73113,"name":"Rinconada de los Ángeles","state_code":"HID","country_code":"MX"}},{"type":"Feature","geometry":{"type":"Point","coordinates":[-98.76806,20.06611]},"properties":{"id":73114,"name":"Rinconadas de San Francisco","state_code":"HID","country_code":"MX"}},{"type":"Feature","geometry":{"type":"Point","coordinates":[-98.76333,20.06361]},"properties":{"id":73116,"name":"Rinconadas del Venado I","state_code":"HID","country_code":"MX"}},{"type":"Feature","geometry":{"type":"Point","coordinates":[-98.40167,20.12]},"properties":{"id":73117,"name":"Rincones de la Hacienda","state_code":"HID","country_code":"MX"}},{"type":"Feature","geometry":{"type":"Point","coordinates":[-98.71194,20.115]},"properties":{"id":73140,"name":"Rio de la Soledad","state_code":"HID","country_code":"MX"}},{"type":"Feature","geometry":{"type":"Point","coordinates":[-98.50077,20.21094]},"properties":{"id":73184,"name":"Río Seco Puente de Doria","state_code":"HID","country_code":"MX"}},{"type":"Feature","geometry":{"type":"Point","coordinates":[-99.21594,19.82937]},"properties":{"id":73219,"name":"Salitrillo","state_code":"HID","country_code":"MX"}},{"type":"Feature","geometry":{"type":"Point","coordinates":[-98.8864,20.1151]},"properties":{"id":73255,"name":"San Agustín Tlaxiaca","state_code":"HID","country_code":"MX"}},{"type":"Feature","geometry":{"type":"Point","coordinates":[-98.71426,19.8755]},"properties":{"id":73257,"name":"San Agustín Zapotlán","state_code":"HID","country_code":"MX"}},{"type":"Feature","geometry":{"type":"Point","coordinates":[-99.38008,20.05446]},"properties":{"id":73265,"name":"San Andrés","state_code":"HID","country_code":"MX"}},{"type":"Feature","geometry":{"type":"Point","coordinates":[-98.56333,20.92667]},"properties":{"id":73268,"name":"San Andrés (San Andrés Chichayotla)","state_code":"HID","country_code":"MX"}},{"type":"Feature","geometry":{"type":"Point","coordinates":[-99.71038,20.53204]},"properties":{"id":73314,"name":"San Antonio","state_code":"HID","country_code":"MX"}},{"type":"Feature","geometry":{"type":"Point","coordinates":[-98.03484,20.45683]},"properties":{"id":73384,"name":"San Antonio el Grande","state_code":"HID","country_code":"MX"}},{"type":"Feature","geometry":{"type":"Point","coordinates":[-98.61611,20.14722]},"properties":{"id":73386,"name":"San Antonio el Paso","state_code":"HID","country_code":"MX"}},{"type":"Feature","geometry":{"type":"Point","coordinates":[-98.99828,20.25497]},"properties":{"id":73363,"name":"San Antonio Zaragoza","state_code":"HID","country_code":"MX"}},{"type":"Feature","geometry":{"type":"Point","coordinates":[-99.48906,20.22336]},"properties":{"id":73408,"name":"San Bartolo Ozocalpan","state_code":"HID","country_code":"MX"}},{"type":"Feature","geometry":{"type":"Point","coordinates":[-98.2008,20.39841]},"properties":{"id":73409,"name":"San Bartolo Tutotepec","state_code":"HID","country_code":"MX"}},{"type":"Feature","geometry":{"type":"Point","coordinates":[-99.32209,19.82083]},"properties":{"id":73448,"name":"San Buenaventura","state_code":"HID","country_code":"MX"}},{"type":"Feature","geometry":{"type":"Point","coordinates":[-98.73278,20.08028]},"properties":{"id":73477,"name":"San Cristóbal Chacón","state_code":"HID","country_code":"MX"}},{"type":"Feature","geometry":{"type":"Point","coordinates":[-98.06004,20.54452]},"properties":{"id":73506,"name":"San Esteban","state_code":"HID","country_code":"MX"}},{"type":"Feature","geometry":{"type":"Point","coordinates":[-98.60744,21.17109]},"properties":{"id":73518,"name":"San Felipe Orizatlán","state_code":"HID","country_code":"MX"}},{"type":"Feature","geometry":{"type":"Point","coordinates":[-98.48699,21.01819]},"properties":{"id":73539,"name":"San Francisco","state_code":"HID","country_code":"MX"}},{"type":"Feature","geometry":{"type":"Point","coordinates":[-98.15167,20.19472]},"properties":{"id":73550,"name":"San Francisco Atotonilco","state_code":"HID","country_code":"MX"}},{"type":"Feature","geometry":{"type":"Point","coordinates":[-99.33502,20.17154]},"properties":{"id":73624,"name":"San Gabriel","state_code":"HID","country_code":"MX"}},{"type":"Feature","geometry":{"type":"Point","coordinates":[-98.6161,19.88039]},"properties":{"id":73626,"name":"San Gabriel Azteca","state_code":"HID","country_code":"MX"}},{"type":"Feature","geometry":{"type":"Point","coordinates":[-98.01809,20.49808]},"properties":{"id":73638,"name":"San Gregorio","state_code":"HID","country_code":"MX"}},{"type":"Feature","geometry":{"type":"Point","coordinates":[-99.34556,19.83528]},"properties":{"id":73652,"name":"San Ignacio Nopala","state_code":"HID","country_code":"MX"}},{"type":"Feature","geometry":{"type":"Point","coordinates":[-99.37193,19.99629]},"properties":{"id":73658,"name":"San Ildefonso","state_code":"HID","country_code":"MX"}},{"type":"Feature","geometry":{"type":"Point","coordinates":[-98.59141,19.78927]},"properties":{"id":73664,"name":"San Isidro","state_code":"HID","country_code":"MX"}},{"type":"Feature","geometry":{"type":"Point","coordinates":[-99.776,20.50542]},"properties":{"id":73728,"name":"San Joaquín","state_code":"HID","country_code":"MX"}},{"type":"Feature","geometry":{"type":"Point","coordinates":[-98.59444,21.06917]},"properties":{"id":73738,"name":"San José","state_code":"HID","country_code":"MX"}},{"type":"Feature","geometry":{"type":"Point","coordinates":[-99.67396,20.33833]},"properties":{"id":73742,"name":"San José Atlán","state_code":"HID","country_code":"MX"}},{"type":"Feature","geometry":{"type":"Point","coordinates":[-99.10085,20.26236]},"properties":{"id":73748,"name":"San José Boxay","state_code":"HID","country_code":"MX"}},{"type":"Feature","geometry":{"type":"Point","coordinates":[-98.17811,19.90884]},"properties":{"id":73760,"name":"San José Corral Blanco","state_code":"HID","country_code":"MX"}},{"type":"Feature","geometry":{"type":"Point","coordinates":[-98.61306,20.20687]},"properties":{"id":73777,"name":"San José Ocotillos","state_code":"HID","country_code":"MX"}},{"type":"Feature","geometry":{"type":"Point","coordinates":[-99.31462,20.17868]},"properties":{"id":73860,"name":"San Juan Achichilco","state_code":"HID","country_code":"MX"}},{"type":"Feature","geometry":{"type":"Point","coordinates":[-98.90694,21.04167]},"properties":{"id":73862,"name":"San Juan Ahuehueco","state_code":"HID","country_code":"MX"}},{"type":"Feature","geometry":{"type":"Point","coordinates":[-98.28194,20.03]},"properties":{"id":73896,"name":"San Juan Hueyapan","state_code":"HID","country_code":"MX"}},{"type":"Feature","geometry":{"type":"Point","coordinates":[-98.93147,20.1583]},"properties":{"id":73925,"name":"San Juan Solís","state_code":"HID","country_code":"MX"}},{"type":"Feature","geometry":{"type":"Point","coordinates":[-99.06592,20.21579]},"properties":{"id":73932,"name":"San Juan Tepa","state_code":"HID","country_code":"MX"}},{"type":"Feature","geometry":{"type":"Point","coordinates":[-98.80112,20.15873]},"properties":{"id":73940,"name":"San Juan Tilcuautla","state_code":"HID","country_code":"MX"}},{"type":"Feature","geometry":{"type":"Point","coordinates":[-98.6654,20.05073]},"properties":{"id":73941,"name":"San Juan Tizahuapán","state_code":"HID","country_code":"MX"}},{"type":"Feature","geometry":{"type":"Point","coordinates":[-98.06876,20.59732]},"properties":{"id":73995,"name":"San Lorenzo Achiotepec","state_code":"HID","country_code":"MX"}},{"type":"Feature","geometry":{"type":"Point","coordinates":[-98.29774,19.98921]},"properties":{"id":74010,"name":"San Lorenzo Sayula","state_code":"HID","country_code":"MX"}},{"type":"Feature","geometry":{"type":"Point","coordinates":[-98.88868,19.76736]},"properties":{"id":74055,"name":"San Luis Tecuhautitlán","state_code":"HID","country_code":"MX"}},{"type":"Feature","geometry":{"type":"Point","coordinates":[-99.33547,20.03056]},"properties":{"id":74064,"name":"San Marcos","state_code":"HID","country_code":"MX"}},{"type":"Feature","geometry":{"type":"Point","coordinates":[-98.62866,19.59853]},"properties":{"id":74071,"name":"San Marcos Guaquilpan","state_code":"HID","country_code":"MX"}},{"type":"Feature","geometry":{"type":"Point","coordinates":[-98.24657,20.18267]},"properties":{"id":74115,"name":"San Mateo","state_code":"HID","country_code":"MX"}},{"type":"Feature","geometry":{"type":"Point","coordinates":[-98.72853,20.15909]},"properties":{"id":74170,"name":"San Miguel Cerezo (El Cerezo)","state_code":"HID","country_code":"MX"}},{"type":"Feature","geometry":{"type":"Point","coordinates":[-99.31782,19.99447]},"properties":{"id":74220,"name":"San Miguel Vindho","state_code":"HID","country_code":"MX"}},{"type":"Feature","geometry":{"type":"Point","coordinates":[-98.18781,20.32218]},"properties":{"id":74247,"name":"San Nicolás","state_code":"HID","country_code":"MX"}},{"type":"Feature","geometry":{"type":"Point","coordinates":[-98.38776,20.0958]},"properties":{"id":74276,"name":"San Nicolás el Chico","state_code":"HID","country_code":"MX"}},{"type":"Feature","geometry":{"type":"Point","coordinates":[-99.03639,20.17944]},"properties":{"id":74262,"name":"San Nicolás Tecomatlán","state_code":"HID","country_code":"MX"}},{"type":"Feature","geometry":{"type":"Point","coordinates":[-98.15999,20.36127]},"properties":{"id":74308,"name":"San Pablo el Grande","state_code":"HID","country_code":"MX"}},{"type":"Feature","geometry":{"type":"Point","coordinates":[-98.26415,20.16109]},"properties":{"id":74384,"name":"San Pedro Tlachichilco","state_code":"HID","country_code":"MX"}},{"type":"Feature","geometry":{"type":"Point","coordinates":[-98.75293,19.94514]},"properties":{"id":74390,"name":"San Pedro Tlaquilpan","state_code":"HID","country_code":"MX"}},{"type":"Feature","geometry":{"type":"Point","coordinates":[-99.01457,20.28583]},"properties":{"id":74444,"name":"San Salvador","state_code":"HID","country_code":"MX"}},{"type":"Feature","geometry":{"type":"Point","coordinates":[-99.68879,20.27988]},"properties":{"id":74469,"name":"San Sebastián Tenochtitlán","state_code":"HID","country_code":"MX"}},{"type":"Feature","geometry":{"type":"Point","coordinates":[-99.34497,20.12288]},"properties":{"id":74526,"name":"Santa Ana Ahuehuepan","state_code":"HID","country_code":"MX"}},{"type":"Feature","geometry":{"type":"Point","coordinates":[-99.388,19.94325]},"properties":{"id":74528,"name":"Santa Ana Azcapotzaltongo","state_code":"HID","country_code":"MX"}},{"type":"Feature","geometry":{"type":"Point","coordinates":[-99.19186,20.37944]},"properties":{"id":74529,"name":"Santa Ana Batha","state_code":"HID","country_code":"MX"}},{"type":"Feature","geometry":{"type":"Point","coordinates":[-98.98606,21.12301]},"properties":{"id":74553,"name":"Santa Ana de Allende","state_code":"HID","country_code":"MX"}},{"type":"Feature","geometry":{"type":"Point","coordinates":[-98.31209,20.17484]},"properties":{"id":74534,"name":"Santa Ana Hueytlalpan","state_code":"HID","country_code":"MX"}},{"type":"Feature","geometry":{"type":"Point","coordinates":[-98.90885,19.76869]},"properties":{"id":74545,"name":"Santa Ana Tlachiahualpa","state_code":"HID","country_code":"MX"}},{"type":"Feature","geometry":{"type":"Point","coordinates":[-98.20403,20.19798]},"properties":{"id":74548,"name":"Santa Ana Tzacuala","state_code":"HID","country_code":"MX"}},{"type":"Feature","geometry":{"type":"Point","coordinates":[-98.5692,19.66666]},"properties":{"id":74564,"name":"Santa Bárbara","state_code":"HID","country_code":"MX"}},{"type":"Feature","geometry":{"type":"Point","coordinates":[-98.38077,21.10045]},"properties":{"id":74574,"name":"Santa Catarina","state_code":"HID","country_code":"MX"}},{"type":"Feature","geometry":{"type":"Point","coordinates":[-98.57778,19.69889]},"properties":{"id":74600,"name":"Santa Clara","state_code":"HID","country_code":"MX"}},{"type":"Feature","geometry":{"type":"Point","coordinates":[-98.49395,21.19813]},"properties":{"id":74606,"name":"Santa Cruz","state_code":"HID","country_code":"MX"}},{"type":"Feature","geometry":{"type":"Point","coordinates":[-98.24144,19.99805]},"properties":{"id":74656,"name":"Santa Elena Paliseca","state_code":"HID","country_code":"MX"}},{"type":"Feature","geometry":{"type":"Point","coordinates":[-98.74561,19.85547]},"properties":{"id":74706,"name":"Santa María Actipac","state_code":"HID","country_code":"MX"}},{"type":"Feature","geometry":{"type":"Point","coordinates":[-98.99833,20.22949]},"properties":{"id":74711,"name":"Santa María Amajac","state_code":"HID","country_code":"MX"}},{"type":"Feature","geometry":{"type":"Point","coordinates":[-99.54963,20.23771]},"properties":{"id":74694,"name":"Santa Maria Amealco","state_code":"HID","country_code":"MX"}},{"type":"Feature","geometry":{"type":"Point","coordinates":[-99.1868,19.95524]},"properties":{"id":74712,"name":"Santa María Apaxco","state_code":"HID","country_code":"MX"}},{"type":"Feature","geometry":{"type":"Point","coordinates":[-98.27037,20.15508]},"properties":{"id":74715,"name":"Santa María Asunción","state_code":"HID","country_code":"MX"}},{"type":"Feature","geometry":{"type":"Point","coordinates":[-99.25174,20.22413]},"properties":{"id":74720,"name":"Santa María Batha","state_code":"HID","country_code":"MX"}},{"type":"Feature","geometry":{"type":"Point","coordinates":[-99.33951,19.99222]},"properties":{"id":74745,"name":"Santa María Ilucan","state_code":"HID","country_code":"MX"}},{"type":"Feature","geometry":{"type":"Point","coordinates":[-98.71929,20.03072]},"properties":{"id":74823,"name":"Santa María la Calera","state_code":"HID","country_code":"MX"}},{"type":"Feature","geometry":{"type":"Point","coordinates":[-99.47544,20.13605]},"properties":{"id":74696,"name":"Santa Maria Macua","state_code":"HID","country_code":"MX"}},{"type":"Feature","geometry":{"type":"Point","coordinates":[-99.37387,19.97398]},"properties":{"id":74754,"name":"Santa María Magdalena","state_code":"HID","country_code":"MX"}},{"type":"Feature","geometry":{"type":"Point","coordinates":[-98.29535,20.03901]},"properties":{"id":74761,"name":"Santa María Nativitas","state_code":"HID","country_code":"MX"}},{"type":"Feature","geometry":{"type":"Point","coordinates":[-99.34773,19.85391]},"properties":{"id":74772,"name":"Santa María Quelites","state_code":"HID","country_code":"MX"}},{"type":"Feature","geometry":{"type":"Point","coordinates":[-99.345,20.46111]},"properties":{"id":74793,"name":"Santa María Xigui","state_code":"HID","country_code":"MX"}},{"type":"Feature","geometry":{"type":"Point","coordinates":[-98.62143,19.98363]},"properties":{"id":74825,"name":"Santa Mónica","state_code":"HID","country_code":"MX"}},{"type":"Feature","geometry":{"type":"Point","coordinates":[-98.3833,20.88989]},"properties":{"id":74856,"name":"Santa Teresa","state_code":"HID","country_code":"MX"}},{"type":"Feature","geometry":{"type":"Point","coordinates":[-98.10478,20.4203]},"properties":{"id":74863,"name":"Santa Úrsula","state_code":"HID","country_code":"MX"}},{"type":"Feature","geometry":{"type":"Point","coordinates":[-99.29534,20.19719]},"properties":{"id":74872,"name":"Santiago Acayutlán","state_code":"HID","country_code":"MX"}},{"type":"Feature","geometry":{"type":"Point","coordinates":[-98.64941,19.60136]},"properties":{"id":74896,"name":"Santiago Cuaula","state_code":"HID","country_code":"MX"}},{"type":"Feature","geometry":{"type":"Point","coordinates":[-98.96512,20.3841]},"properties":{"id":74982,"name":"Santiago de Anaya","state_code":"HID","country_code":"MX"}},{"type":"Feature","geometry":{"type":"Point","coordinates":[-98.71111,20.10972]},"properties":{"id":74910,"name":"Santiago Jaltepec","state_code":"HID","country_code":"MX"}},{"type":"Feature","geometry":{"type":"Point","coordinates":[-98.6697,19.84864]},"properties":{"id":74949,"name":"Santiago Tepeyahualco","state_code":"HID","country_code":"MX"}},{"type":"Feature","geometry":{"type":"Point","coordinates":[-99.09865,20.16217]},"properties":{"id":74955,"name":"Santiago Tezontlale","state_code":"HID","country_code":"MX"}},{"type":"Feature","geometry":{"type":"Point","coordinates":[-99.26046,19.88365]},"properties":{"id":74962,"name":"Santiago Tlaltepoxco","state_code":"HID","country_code":"MX"}},{"type":"Feature","geometry":{"type":"Point","coordinates":[-98.83037,20.10925]},"properties":{"id":74963,"name":"Santiago Tlapacoya","state_code":"HID","country_code":"MX"}},{"type":"Feature","geometry":{"type":"Point","coordinates":[-99.35083,19.87056]},"properties":{"id":74964,"name":"Santiago Tlapanaloya","state_code":"HID","country_code":"MX"}},{"type":"Feature","geometry":{"type":"Point","coordinates":[-99.36909,19.96222]},"properties":{"id":74965,"name":"Santiago Tlautla","state_code":"HID","country_code":"MX"}},{"type":"Feature","geometry":{"type":"Point","coordinates":[-98.35563,20.03618]},"properties":{"id":74967,"name":"Santiago Tulantepec","state_code":"HID","country_code":"MX"}},{"type":"Feature","geometry":{"type":"Point","coordinates":[-98.56882,19.90364]},"properties":{"id":75022,"name":"Santo Tomas","state_code":"HID","country_code":"MX"}},{"type":"Feature","geometry":{"type":"Point","coordinates":[-98.51923,19.98964]},"properties":{"id":75095,"name":"Singuilucan","state_code":"HID","country_code":"MX"}},{"type":"Feature","geometry":{"type":"Point","coordinates":[-98.62655,21.12025]},"properties":{"id":75173,"name":"Talol","state_code":"HID","country_code":"MX"}},{"type":"Feature","geometry":{"type":"Point","coordinates":[-98.43483,21.183]},"properties":{"id":75203,"name":"Tancazahuela","state_code":"HID","country_code":"MX"}},{"type":"Feature","geometry":{"type":"Point","coordinates":[-99.34562,20.54698]},"properties":{"id":75236,"name":"Tasquillo","state_code":"HID","country_code":"MX"}},{"type":"Feature","geometry":{"type":"Point","coordinates":[-99.14934,20.4333]},"properties":{"id":75244,"name":"Taxadho","state_code":"HID","country_code":"MX"}},{"type":"Feature","geometry":{"type":"Point","coordinates":[-98.85209,19.80561]},"properties":{"id":75253,"name":"Teacalco","state_code":"HID","country_code":"MX"}},{"type":"Feature","geometry":{"type":"Point","coordinates":[-98.33889,20.94133]},"properties":{"id":75258,"name":"Tecacahuaco","state_code":"HID","country_code":"MX"}},{"type":"Feature","geometry":{"type":"Point","coordinates":[-99.64662,20.53302]},"properties":{"id":75286,"name":"Tecozautla","state_code":"HID","country_code":"MX"}},{"type":"Feature","geometry":{"type":"Point","coordinates":[-98.50853,21.05337]},"properties":{"id":75297,"name":"Tehuetlán","state_code":"HID","country_code":"MX"}},{"type":"Feature","geometry":{"type":"Point","coordinates":[-99.20146,20.11527]},"properties":{"id":75323,"name":"Teltipán de Juárez","state_code":"HID","country_code":"MX"}},{"type":"Feature","geometry":{"type":"Point","coordinates":[-98.69051,21.13143]},"properties":{"id":75327,"name":"Temango","state_code":"HID","country_code":"MX"}},{"type":"Feature","geometry":{"type":"Point","coordinates":[-99.29068,20.22714]},"properties":{"id":75353,"name":"Tenango","state_code":"HID","country_code":"MX"}},{"type":"Feature","geometry":{"type":"Point","coordinates":[-98.22805,20.33828]},"properties":{"id":75355,"name":"Tenango de Doria","state_code":"HID","country_code":"MX"}},{"type":"Feature","geometry":{"type":"Point","coordinates":[-99.28289,20.08582]},"properties":{"id":75372,"name":"Teocalco","state_code":"HID","country_code":"MX"}},{"type":"Feature","geometry":{"type":"Point","coordinates":[-99.043,20.32284]},"properties":{"id":75375,"name":"Teofani","state_code":"HID","country_code":"MX"}},{"type":"Feature","geometry":{"type":"Point","coordinates":[-99.08981,20.24568]},"properties":{"id":75399,"name":"Tepatepec","state_code":"HID","country_code":"MX"}},{"type":"Feature","geometry":{"type":"Point","coordinates":[-98.50153,19.8047]},"properties":{"id":75404,"name":"Tepeapulco","state_code":"HID","country_code":"MX"}},{"type":"Feature","geometry":{"type":"Point","coordinates":[-98.84184,21.0135]},"properties":{"id":75408,"name":"Tepehuacán de Guerrero","state_code":"HID","country_code":"MX"}},{"type":"Feature","geometry":{"type":"Point","coordinates":[-99.29084,20.24123]},"properties":{"id":75410,"name":"Tepeitic","state_code":"HID","country_code":"MX"}},{"type":"Feature","geometry":{"type":"Point","coordinates":[-99.34379,19.90481]},"properties":{"id":75411,"name":"Tepeji del Río de Ocampo","state_code":"HID","country_code":"MX"}},{"type":"Feature","geometry":{"type":"Point","coordinates":[-98.17131,20.1344]},"properties":{"id":75414,"name":"Tepepa","state_code":"HID","country_code":"MX"}},{"type":"Feature","geometry":{"type":"Point","coordinates":[-98.384,20.9614]},"properties":{"id":75418,"name":"Tepetitla","state_code":"HID","country_code":"MX"}},{"type":"Feature","geometry":{"type":"Point","coordinates":[-99.38882,20.18301]},"properties":{"id":75420,"name":"Tepetitlán","state_code":"HID","country_code":"MX"}},{"type":"Feature","geometry":{"type":"Point","coordinates":[-98.44735,21.13205]},"properties":{"id":75440,"name":"Tepexititla","state_code":"HID","country_code":"MX"}},{"type":"Feature","geometry":{"type":"Point","coordinates":[-98.94759,19.8407]},"properties":{"id":75449,"name":"Tepojaco","state_code":"HID","country_code":"MX"}},{"type":"Feature","geometry":{"type":"Point","coordinates":[-99.15108,20.10168]},"properties":{"id":75485,"name":"Tetepango","state_code":"HID","country_code":"MX"}},{"type":"Feature","geometry":{"type":"Point","coordinates":[-98.61613,20.83982]},"properties":{"id":75501,"name":"Texcaco","state_code":"HID","country_code":"MX"}},{"type":"Feature","geometry":{"type":"Point","coordinates":[-98.32417,20.03028]},"properties":{"id":75505,"name":"Texcaltepec","state_code":"HID","country_code":"MX"}},{"type":"Feature","geometry":{"type":"Point","coordinates":[-98.85403,21.09228]},"properties":{"id":75510,"name":"Texcapa","state_code":"HID","country_code":"MX"}},{"type":"Feature","geometry":{"type":"Point","coordinates":[-99.25375,20.27655]},"properties":{"id":75512,"name":"Texcatepec","state_code":"HID","country_code":"MX"}},{"type":"Feature","geometry":{"type":"Point","coordinates":[-98.81242,21.17381]},"properties":{"id":75523,"name":"Tezapotla","state_code":"HID","country_code":"MX"}},{"type":"Feature","geometry":{"type":"Point","coordinates":[-98.81972,19.88063]},"properties":{"id":75529,"name":"Tezontepec","state_code":"HID","country_code":"MX"}},{"type":"Feature","geometry":{"type":"Point","coordinates":[-99.27429,20.19073]},"properties":{"id":75530,"name":"Tezontepec de Aldama","state_code":"HID","country_code":"MX"}},{"type":"Feature","geometry":{"type":"Point","coordinates":[-99.20472,20.05639]},"properties":{"id":75531,"name":"Tezoquipa","state_code":"HID","country_code":"MX"}},{"type":"Feature","geometry":{"type":"Point","coordinates":[-98.63209,20.72796]},"properties":{"id":75536,"name":"Tianguistengo","state_code":"HID","country_code":"MX"}},{"type":"Feature","geometry":{"type":"Point","coordinates":[-99.32583,19.91417]},"properties":{"id":75537,"name":"Tianguistengo (La Romera)","state_code":"HID","country_code":"MX"}},{"type":"Feature","geometry":{"type":"Point","coordinates":[-98.68288,20.31394]},"properties":{"id":75568,"name":"Tiltepec","state_code":"HID","country_code":"MX"}},{"type":"Feature","geometry":{"type":"Point","coordinates":[-99.36662,19.89739]},"properties":{"id":75573,"name":"Tinajas","state_code":"HID","country_code":"MX"}},{"type":"Feature","geometry":{"type":"Point","coordinates":[-98.97607,19.83721]},"properties":{"id":75595,"name":"Tizayuca","state_code":"HID","country_code":"MX"}},{"type":"Feature","geometry":{"type":"Point","coordinates":[-98.12027,20.15301]},"properties":{"id":75611,"name":"Tlacomulco","state_code":"HID","country_code":"MX"}},{"type":"Feature","geometry":{"type":"Point","coordinates":[-98.21694,20.14889]},"properties":{"id":75622,"name":"Tlacpac","state_code":"HID","country_code":"MX"}},{"type":"Feature","geometry":{"type":"Point","coordinates":[-99.22677,20.13087]},"properties":{"id":75630,"name":"Tlahuelilpan","state_code":"HID","country_code":"MX"}},{"type":"Feature","geometry":{"type":"Point","coordinates":[-98.57522,20.65082]},"properties":{"id":75631,"name":"Tlahuelompa (San Francisco Tlahuelompa)","state_code":"HID","country_code":"MX"}},{"type":"Feature","geometry":{"type":"Point","coordinates":[-98.96263,20.89805]},"properties":{"id":75632,"name":"Tlahuiltepa","state_code":"HID","country_code":"MX"}},{"type":"Feature","geometry":{"type":"Point","coordinates":[-98.39975,20.97086]},"properties":{"id":75636,"name":"Tlalchiyahualica","state_code":"HID","country_code":"MX"}},{"type":"Feature","geometry":{"type":"Point","coordinates":[-99.2222,20.07491]},"properties":{"id":75643,"name":"Tlalminulpa","state_code":"HID","country_code":"MX"}},{"type":"Feature","geometry":{"type":"Point","coordinates":[-99.22917,20.03472]},"properties":{"id":75661,"name":"Tlamaco (San Gerónimo Tlamaco)","state_code":"HID","country_code":"MX"}},{"type":"Feature","geometry":{"type":"Point","coordinates":[-98.59449,19.82525]},"properties":{"id":75668,"name":"Tlanalapa","state_code":"HID","country_code":"MX"}},{"type":"Feature","geometry":{"type":"Point","coordinates":[-98.64996,21.03005]},"properties":{"id":75670,"name":"Tlanchinol","state_code":"HID","country_code":"MX"}},{"type":"Feature","geometry":{"type":"Point","coordinates":[-99.81545,20.37731]},"properties":{"id":75695,"name":"Tlaxcalilla","state_code":"HID","country_code":"MX"}},{"type":"Feature","geometry":{"type":"Point","coordinates":[-99.22042,20.09163]},"properties":{"id":75700,"name":"Tlaxcoapan","state_code":"HID","country_code":"MX"}},{"type":"Feature","geometry":{"type":"Point","coordinates":[-98.49034,20.22895]},"properties":{"id":75703,"name":"Tlaxocoyucan","state_code":"HID","country_code":"MX"}},{"type":"Feature","geometry":{"type":"Point","coordinates":[-98.91908,19.94112]},"properties":{"id":75720,"name":"Tolcayuca","state_code":"HID","country_code":"MX"}},{"type":"Feature","geometry":{"type":"Point","coordinates":[-99.34397,20.05161]},"properties":{"id":75791,"name":"Tula de Allende","state_code":"HID","country_code":"MX"}},{"type":"Feature","geometry":{"type":"Point","coordinates":[-98.36288,20.08355]},"properties":{"id":75792,"name":"Tulancingo","state_code":"HID","country_code":"MX"}},{"type":"Feature","geometry":{"type":"Point","coordinates":[-98.36049,20.11983]},"properties":{"id":75793,"name":"Tulancingo de Bravo","state_code":"HID","country_code":"MX"}},{"type":"Feature","geometry":{"type":"Point","coordinates":[-98.76722,20.06028]},"properties":{"id":75801,"name":"Tulipanes","state_code":"HID","country_code":"MX"}},{"type":"Feature","geometry":{"type":"Point","coordinates":[-99.24433,20.24938]},"properties":{"id":75809,"name":"Tunititlán","state_code":"HID","country_code":"MX"}},{"type":"Feature","geometry":{"type":"Point","coordinates":[-99.24472,20.04389]},"properties":{"id":75871,"name":"Unidad Habitacional Antonio Osorio de León (Bojay)","state_code":"HID","country_code":"MX"}},{"type":"Feature","geometry":{"type":"Point","coordinates":[-98.72278,20.10472]},"properties":{"id":75876,"name":"Unidad Minera 11 de Julio","state_code":"HID","country_code":"MX"}},{"type":"Feature","geometry":{"type":"Point","coordinates":[-98.42056,20.06389]},"properties":{"id":75878,"name":"Unidades Habitacionales","state_code":"HID","country_code":"MX"}},{"type":"Feature","geometry":{"type":"Point","coordinates":[-98.33778,20.03361]},"properties":{"id":75957,"name":"Ventoquipa","state_code":"HID","country_code":"MX"}},{"type":"Feature","geometry":{"type":"Point","coordinates":[-99.05746,20.16567]},"properties":{"id":75972,"name":"Vicente Guerrero","state_code":"HID","country_code":"MX"}},{"type":"Feature","geometry":{"type":"Point","coordinates":[-98.90135,19.94991]},"properties":{"id":75980,"name":"Vicente Guerrero (San Javier)","state_code":"HID","country_code":"MX"}},{"type":"Feature","geometry":{"type":"Point","coordinates":[-99.19898,19.99014]},"properties":{"id":76099,"name":"Vito","state_code":"HID","country_code":"MX"}},{"type":"Feature","geometry":{"type":"Point","coordinates":[-98.44315,21.07803]},"properties":{"id":76147,"name":"Xiquila","state_code":"HID","country_code":"MX"}},{"type":"Feature","geometry":{"type":"Point","coordinates":[-99.38872,20.09728]},"properties":{"id":76148,"name":"Xiteje de Zapata","state_code":"HID","country_code":"MX"}},{"type":"Feature","geometry":{"type":"Point","coordinates":[-98.28206,20.85794]},"properties":{"id":76157,"name":"Xochiatipan","state_code":"HID","country_code":"MX"}},{"type":"Feature","geometry":{"type":"Point","coordinates":[-98.28556,20.8351]},"properties":{"id":76158,"name":"Xochiatipan de Castillo","state_code":"HID","country_code":"MX"}},{"type":"Feature","geometry":{"type":"Point","coordinates":[-98.63718,20.79715]},"properties":{"id":76160,"name":"Xochicoatlán","state_code":"HID","country_code":"MX"}},{"type":"Feature","geometry":{"type":"Point","coordinates":[-99.18741,20.29585]},"properties":{"id":76178,"name":"Xochitlán","state_code":"HID","country_code":"MX"}},{"type":"Feature","geometry":{"type":"Point","coordinates":[-98.63861,20.06639]},"properties":{"id":76191,"name":"Xolostitla de Morelos (Xolostitla)","state_code":"HID","country_code":"MX"}},{"type":"Feature","geometry":{"type":"Point","coordinates":[-98.42386,20.87574]},"properties":{"id":76202,"name":"Xoxolpa","state_code":"HID","country_code":"MX"}},{"type":"Feature","geometry":{"type":"Point","coordinates":[-98.37868,20.91485]},"properties":{"id":76210,"name":"Yahualica","state_code":"HID","country_code":"MX"}},{"type":"Feature","geometry":{"type":"Point","coordinates":[-99.07307,20.38767]},"properties":{"id":76241,"name":"Yolotepec","state_code":"HID","country_code":"MX"}},{"type":"Feature","geometry":{"type":"Point","coordinates":[-98.22887,20.215]},"properties":{"id":76254,"name":"Zacacuautla","state_code":"HID","country_code":"MX"}},{"type":"Feature","geometry":{"type":"Point","coordinates":[-99.25694,20.00583]},"properties":{"id":76258,"name":"Zacamulpa","state_code":"HID","country_code":"MX"}},{"type":"Feature","geometry":{"type":"Point","coordinates":[-98.65628,20.65002]},"properties":{"id":76290,"name":"Zacualtipán","state_code":"HID","country_code":"MX"}},{"type":"Feature","geometry":{"type":"Point","coordinates":[-98.79997,21.15407]},"properties":{"id":76289,"name":"Zacualtipanito","state_code":"HID","country_code":"MX"}},{"type":"Feature","geometry":{"type":"Point","coordinates":[-98.8642,19.97709]},"properties":{"id":76312,"name":"Zapotlán de Juárez","state_code":"HID","country_code":"MX"}},{"type":"Feature","geometry":{"type":"Point","coordinates":[-98.66871,19.9385]},"properties":{"id":76328,"name":"Zempoala","state_code":"HID","country_code":"MX"}},{"type":"Feature","geometry":{"type":"Point","coordinates":[-99.3818,20.73814]},"properties":{"id":76336,"name":"Zimapan","state_code":"HID","country_code":"MX"}},{"type":"Feature","geometry":{"type":"Point","coordinates":[-99.35742,20.4376]},"properties":{"id":76356,"name":"Zocea","state_code":"HID","country_code":"MX"}},{"type":"Feature","geometry":{"type":"Point","coordinates":[-98.43242,20.90902]},"properties":{"id":76371,"name":"Zoquitipán","state_code":"HID","country_code":"MX"}},{"type":"Feature","geometry":{"type":"Point","coordinates":[-99.71581,20.36959]},"properties":{"id":76374,"name":"Zothé","state_code":"HID","country_code":"MX"}},{"type":"Feature","geometry":{"type":"Point","coordinates":[-98.51094,19.61063]},"properties":{"id":76376,"name":"Zotoluca","state_code":"HID","country_code":"MX"}}]}