{"type":"FeatureCollection","features":[{"type":"Feature","geometry":{"type":"Point","coordinates":[100.19862,6.4414]},"properties":{"id":76478,"name":"Kangar","state_code":"09","country_code":"MY"}},{"type":"Feature","geometry":{"type":"Point","coordinates":[100.13333,6.4]},"properties":{"id":76498,"name":"Kuala Perlis","state_code":"09","country_code":"MY"}},{"type":"Feature","geometry":{"type":"Point","coordinates":[99.72786,6.29369]},"properties":{"id":76531,"name":"Pantai Cenang","state_code":"09","country_code":"MY"}}]}