{"type":"FeatureCollection","features":[{"type":"Feature","geometry":{"type":"Point","coordinates":[102.6527,2.0441]},"properties":{"id":76416,"name":"Bakri","state_code":"01","country_code":"MY"}},{"type":"Feature","geometry":{"type":"Point","coordinates":[102.9325,1.8548]},"properties":{"id":76424,"name":"Batu Pahat","state_code":"01","country_code":"MY"}},{"type":"Feature","geometry":{"type":"Point","coordinates":[102.764,2.5536]},"properties":{"id":76433,"name":"Buloh Kasap","state_code":"01","country_code":"MY"}},{"type":"Feature","geometry":{"type":"Point","coordinates":[103.048,2.249]},"properties":{"id":76435,"name":"Chaah","state_code":"01","country_code":"MY"}},{"type":"Feature","geometry":{"type":"Point","coordinates":[103,1.93333]},"properties":{"id":76437,"name":"Daerah Batu Pahat","state_code":"01","country_code":"MY"}},{"type":"Feature","geometry":{"type":"Point","coordinates":[103.6,1.65]},"properties":{"id":76438,"name":"Daerah Johor Baharu","state_code":"01","country_code":"MY"}},{"type":"Feature","geometry":{"type":"Point","coordinates":[103.33333,2.2]},"properties":{"id":76439,"name":"Daerah Keluang","state_code":"01","country_code":"MY"}},{"type":"Feature","geometry":{"type":"Point","coordinates":[103.96667,1.81667]},"properties":{"id":76440,"name":"Daerah Kota Tinggi","state_code":"01","country_code":"MY"}},{"type":"Feature","geometry":{"type":"Point","coordinates":[103.71667,2.31667]},"properties":{"id":76441,"name":"Daerah Mersing","state_code":"01","country_code":"MY"}},{"type":"Feature","geometry":{"type":"Point","coordinates":[102.75,2.25]},"properties":{"id":76442,"name":"Daerah Muar","state_code":"01","country_code":"MY"}},{"type":"Feature","geometry":{"type":"Point","coordinates":[103.5,1.5]},"properties":{"id":76443,"name":"Daerah Pontian","state_code":"01","country_code":"MY"}},{"type":"Feature","geometry":{"type":"Point","coordinates":[102.81667,2.6]},"properties":{"id":76444,"name":"Daerah Segamat","state_code":"01","country_code":"MY"}},{"type":"Feature","geometry":{"type":"Point","coordinates":[103.7578,1.4655]},"properties":{"id":76455,"name":"Johor Bahru","state_code":"01","country_code":"MY"}},{"type":"Feature","geometry":{"type":"Point","coordinates":[103.878,1.4726]},"properties":{"id":76473,"name":"Kampung Pasir Gudang Baru","state_code":"01","country_code":"MY"}},{"type":"Feature","geometry":{"type":"Point","coordinates":[103.3,1.8278]},"properties":{"id":76474,"name":"Kampung Simpang Renggam","state_code":"01","country_code":"MY"}},{"type":"Feature","geometry":{"type":"Point","coordinates":[103.5327,1.6698]},"properties":{"id":76480,"name":"Kelapa Sawit","state_code":"01","country_code":"MY"}},{"type":"Feature","geometry":{"type":"Point","coordinates":[103.31689,2.03046]},"properties":{"id":76487,"name":"Kluang","state_code":"01","country_code":"MY"}},{"type":"Feature","geometry":{"type":"Point","coordinates":[103.8999,1.7381]},"properties":{"id":76491,"name":"Kota Tinggi","state_code":"01","country_code":"MY"}},{"type":"Feature","geometry":{"type":"Point","coordinates":[103.6032,1.6561]},"properties":{"id":76508,"name":"Kulai","state_code":"01","country_code":"MY"}},{"type":"Feature","geometry":{"type":"Point","coordinates":[103.021,2.385]},"properties":{"id":76510,"name":"Labis","state_code":"01","country_code":"MY"}},{"type":"Feature","geometry":{"type":"Point","coordinates":[103.8405,2.4312]},"properties":{"id":76524,"name":"Mersing","state_code":"01","country_code":"MY"}},{"type":"Feature","geometry":{"type":"Point","coordinates":[102.5689,2.0442]},"properties":{"id":76526,"name":"Muar","state_code":"01","country_code":"MY"}},{"type":"Feature","geometry":{"type":"Point","coordinates":[103.1124,1.8681]},"properties":{"id":76535,"name":"Parit Raja","state_code":"01","country_code":"MY"}},{"type":"Feature","geometry":{"type":"Point","coordinates":[103.5141,1.51]},"properties":{"id":76538,"name":"Pekan Nenas","state_code":"01","country_code":"MY"}},{"type":"Feature","geometry":{"type":"Point","coordinates":[103.3896,1.4866]},"properties":{"id":76544,"name":"Pontian Kechil","state_code":"01","country_code":"MY"}},{"type":"Feature","geometry":{"type":"Point","coordinates":[102.8158,2.5148]},"properties":{"id":76556,"name":"Segamat","state_code":"01","country_code":"MY"}},{"type":"Feature","geometry":{"type":"Point","coordinates":[103.65779,1.53741]},"properties":{"id":76565,"name":"Skudai","state_code":"01","country_code":"MY"}},{"type":"Feature","geometry":{"type":"Point","coordinates":[103.6419,1.6006]},"properties":{"id":76573,"name":"Taman Senai","state_code":"01","country_code":"MY"}},{"type":"Feature","geometry":{"type":"Point","coordinates":[102.5453,2.2673]},"properties":{"id":76576,"name":"Tangkak","state_code":"01","country_code":"MY"}},{"type":"Feature","geometry":{"type":"Point","coordinates":[103.81667,1.6]},"properties":{"id":76586,"name":"Ulu Tiram","state_code":"01","country_code":"MY"}},{"type":"Feature","geometry":{"type":"Point","coordinates":[103.0659,2.0136]},"properties":{"id":76587,"name":"Yong Peng","state_code":"01","country_code":"MY"}}]}