{"type":"FeatureCollection","features":[{"type":"Feature","geometry":{"type":"Point","coordinates":[33.53056,-24.68667]},"properties":{"id":76592,"name":"Chibuto","state_code":"G","country_code":"MZ"}},{"type":"Feature","geometry":{"type":"Point","coordinates":[32.98333,-24.53333]},"properties":{"id":76596,"name":"Chokwé","state_code":"G","country_code":"MZ"}},{"type":"Feature","geometry":{"type":"Point","coordinates":[33.09889,-25.02694]},"properties":{"id":76604,"name":"Macia","state_code":"G","country_code":"MZ"}},{"type":"Feature","geometry":{"type":"Point","coordinates":[33.64417,-25.05194]},"properties":{"id":76625,"name":"Xai-Xai","state_code":"G","country_code":"MZ"}}]}