{"type":"FeatureCollection","features":[{"type":"Feature","geometry":{"type":"Point","coordinates":[19.11667,-24.13333]},"properties":{"id":76627,"name":"Aranos","state_code":"HA","country_code":"NA"}},{"type":"Feature","geometry":{"type":"Point","coordinates":[18.05,-23.91667]},"properties":{"id":76634,"name":"Hoachanas","state_code":"HA","country_code":"NA"}},{"type":"Feature","geometry":{"type":"Point","coordinates":[16.98333,-24.83333]},"properties":{"id":76643,"name":"Maltahöhe","state_code":"HA","country_code":"NA"}},{"type":"Feature","geometry":{"type":"Point","coordinates":[17.96667,-24.63333]},"properties":{"id":76644,"name":"Mariental","state_code":"HA","country_code":"NA"}},{"type":"Feature","geometry":{"type":"Point","coordinates":[17.09,-23.317]},"properties":{"id":76663,"name":"Rehoboth","state_code":"HA","country_code":"NA"}}]}