{"type":"FeatureCollection","features":[{"type":"Feature","geometry":{"type":"Point","coordinates":[13.24825,-17.00388]},"properties":{"id":76630,"name":"Epupa Constituency","state_code":"KU","country_code":"NA"}},{"type":"Feature","geometry":{"type":"Point","coordinates":[14.96667,-20.36667]},"properties":{"id":76640,"name":"Khorixas","state_code":"KU","country_code":"NA"}},{"type":"Feature","geometry":{"type":"Point","coordinates":[14.95996,-20.36792]},"properties":{"id":76641,"name":"Khorixas Constituency","state_code":"KU","country_code":"NA"}},{"type":"Feature","geometry":{"type":"Point","coordinates":[13.83998,-18.06068]},"properties":{"id":76653,"name":"Opuwo","state_code":"KU","country_code":"NA"}},{"type":"Feature","geometry":{"type":"Point","coordinates":[13.51617,-18.54247]},"properties":{"id":76654,"name":"Opuwo Constituency","state_code":"KU","country_code":"NA"}},{"type":"Feature","geometry":{"type":"Point","coordinates":[16.15,-20.11667]},"properties":{"id":76662,"name":"Outjo","state_code":"KU","country_code":"NA"}},{"type":"Feature","geometry":{"type":"Point","coordinates":[13.7653,-19.56106]},"properties":{"id":76665,"name":"Sesfontein Constituency","state_code":"KU","country_code":"NA"}}]}