{"type":"FeatureCollection","features":[{"type":"Feature","geometry":{"type":"Point","coordinates":[17.15,-26.48333]},"properties":{"id":76629,"name":"Bethanie","state_code":"KA","country_code":"NA"}},{"type":"Feature","geometry":{"type":"Point","coordinates":[18.75,-28.01667]},"properties":{"id":76635,"name":"Karasburg","state_code":"KA","country_code":"NA"}},{"type":"Feature","geometry":{"type":"Point","coordinates":[18.13333,-26.58333]},"properties":{"id":76639,"name":"Keetmanshoop","state_code":"KA","country_code":"NA"}},{"type":"Feature","geometry":{"type":"Point","coordinates":[15.15383,-26.64807]},"properties":{"id":76642,"name":"Lüderitz","state_code":"KA","country_code":"NA"}},{"type":"Feature","geometry":{"type":"Point","coordinates":[16.43333,-28.55]},"properties":{"id":76655,"name":"Oranjemund","state_code":"KA","country_code":"NA"}},{"type":"Feature","geometry":{"type":"Point","coordinates":[18,-25.88333]},"properties":{"id":76668,"name":"Tses","state_code":"KA","country_code":"NA"}},{"type":"Feature","geometry":{"type":"Point","coordinates":[18.73333,-28.45]},"properties":{"id":76672,"name":"Warmbad","state_code":"KA","country_code":"NA"}}]}