{"type":"FeatureCollection","features":[{"type":"Feature","geometry":{"type":"Point","coordinates":[165.4804,-21.5701]},"properties":{"id":153634,"name":"Bourail","state_code":"01","country_code":"NC"}},{"type":"Feature","geometry":{"type":"Point","coordinates":[166.45,-22.15]},"properties":{"id":153632,"name":"Dumbéa","state_code":"01","country_code":"NC"}},{"type":"Feature","geometry":{"type":"Point","coordinates":[166.4665,-22.2157]},"properties":{"id":153631,"name":"Le Mont-Dore","state_code":"01","country_code":"NC"}},{"type":"Feature","geometry":{"type":"Point","coordinates":[166.458,-22.2758]},"properties":{"id":153630,"name":"Nouméa","state_code":"01","country_code":"NC"}},{"type":"Feature","geometry":{"type":"Point","coordinates":[166.3505,-22.1337]},"properties":{"id":153633,"name":"Païta","state_code":"01","country_code":"NC"}}]}