{"type":"FeatureCollection","features":[{"type":"Feature","geometry":{"type":"Point","coordinates":[7.061,6.10045]},"properties":{"id":76759,"name":"Agulu","state_code":"AN","country_code":"NG"}},{"type":"Feature","geometry":{"type":"Point","coordinates":[6.74768,6.01277]},"properties":{"id":76781,"name":"Atani","state_code":"AN","country_code":"NG"}},{"type":"Feature","geometry":{"type":"Point","coordinates":[7.07199,6.21269]},"properties":{"id":76785,"name":"Awka","state_code":"AN","country_code":"NG"}},{"type":"Feature","geometry":{"type":"Point","coordinates":[7.00525,6.17146]},"properties":{"id":76863,"name":"Enugu-Ukwu","state_code":"AN","country_code":"NG"}},{"type":"Feature","geometry":{"type":"Point","coordinates":[7.02027,6.01798]},"properties":{"id":76920,"name":"Igbo-Ukwu","state_code":"AN","country_code":"NG"}},{"type":"Feature","geometry":{"type":"Point","coordinates":[6.85944,5.85475]},"properties":{"id":76924,"name":"Ihiala","state_code":"AN","country_code":"NG"}},{"type":"Feature","geometry":{"type":"Point","coordinates":[6.83042,6.15038]},"properties":{"id":77043,"name":"Nkpor","state_code":"AN","country_code":"NG"}},{"type":"Feature","geometry":{"type":"Point","coordinates":[6.91729,6.01962]},"properties":{"id":77044,"name":"Nnewi","state_code":"AN","country_code":"NG"}},{"type":"Feature","geometry":{"type":"Point","coordinates":[6.78569,6.14978]},"properties":{"id":77068,"name":"Onitsha","state_code":"AN","country_code":"NG"}},{"type":"Feature","geometry":{"type":"Point","coordinates":[6.85305,5.95753]},"properties":{"id":77083,"name":"Ozubulu","state_code":"AN","country_code":"NG"}},{"type":"Feature","geometry":{"type":"Point","coordinates":[7.0793,5.93576]},"properties":{"id":77120,"name":"Uga","state_code":"AN","country_code":"NG"}},{"type":"Feature","geometry":{"type":"Point","coordinates":[6.84312,5.90016]},"properties":{"id":77128,"name":"Uruobo-Okija","state_code":"AN","country_code":"NG"}}]}