{"type":"FeatureCollection","features":[{"type":"Feature","geometry":{"type":"Point","coordinates":[13.68952,11.52134]},"properties":{"id":76793,"name":"Bama","state_code":"BO","country_code":"NG"}},{"type":"Feature","geometry":{"type":"Point","coordinates":[12.49151,11.80919]},"properties":{"id":76801,"name":"Benisheikh","state_code":"BO","country_code":"NG"}},{"type":"Feature","geometry":{"type":"Point","coordinates":[12.19458,10.61285]},"properties":{"id":76808,"name":"Biu","state_code":"BO","country_code":"NG"}},{"type":"Feature","geometry":{"type":"Point","coordinates":[12.56856,12.27503]},"properties":{"id":76814,"name":"Bornu Yassu","state_code":"BO","country_code":"NG"}},{"type":"Feature","geometry":{"type":"Point","coordinates":[12.50854,13.10518]},"properties":{"id":76825,"name":"Damasak","state_code":"BO","country_code":"NG"}},{"type":"Feature","geometry":{"type":"Point","coordinates":[12.75638,11.15534]},"properties":{"id":76827,"name":"Damboa","state_code":"BO","country_code":"NG"}},{"type":"Feature","geometry":{"type":"Point","coordinates":[13.91815,12.03609]},"properties":{"id":76842,"name":"Dikwa","state_code":"BO","country_code":"NG"}},{"type":"Feature","geometry":{"type":"Point","coordinates":[14.2069,12.37299]},"properties":{"id":76874,"name":"Gamboru","state_code":"BO","country_code":"NG"}},{"type":"Feature","geometry":{"type":"Point","coordinates":[13.69595,11.08313]},"properties":{"id":76901,"name":"Gwoza","state_code":"BO","country_code":"NG"}},{"type":"Feature","geometry":{"type":"Point","coordinates":[13.56617,12.92475]},"properties":{"id":76991,"name":"Kukawa","state_code":"BO","country_code":"NG"}},{"type":"Feature","geometry":{"type":"Point","coordinates":[12.8262,12.11451]},"properties":{"id":77016,"name":"Magumeri","state_code":"BO","country_code":"NG"}},{"type":"Feature","geometry":{"type":"Point","coordinates":[13.15712,11.84692]},"properties":{"id":77018,"name":"Maiduguri","state_code":"BO","country_code":"NG"}},{"type":"Feature","geometry":{"type":"Point","coordinates":[13.8293,12.36532]},"properties":{"id":77024,"name":"Marte","state_code":"BO","country_code":"NG"}},{"type":"Feature","geometry":{"type":"Point","coordinates":[12.14626,10.73115]},"properties":{"id":77030,"name":"Miringa","state_code":"BO","country_code":"NG"}},{"type":"Feature","geometry":{"type":"Point","coordinates":[13.61224,12.67059]},"properties":{"id":77033,"name":"Monguno","state_code":"BO","country_code":"NG"}},{"type":"Feature","geometry":{"type":"Point","coordinates":[14.1867,12.34053]},"properties":{"id":77040,"name":"Ngala","state_code":"BO","country_code":"NG"}},{"type":"Feature","geometry":{"type":"Point","coordinates":[12.33315,10.50673]},"properties":{"id":77101,"name":"Shaffa","state_code":"BO","country_code":"NG"}},{"type":"Feature","geometry":{"type":"Point","coordinates":[12.06059,10.21824]},"properties":{"id":77103,"name":"Shani","state_code":"BO","country_code":"NG"}},{"type":"Feature","geometry":{"type":"Point","coordinates":[13.48783,11.22135]},"properties":{"id":77113,"name":"Tokombere","state_code":"BO","country_code":"NG"}},{"type":"Feature","geometry":{"type":"Point","coordinates":[13.22233,10.45509]},"properties":{"id":77117,"name":"Uba","state_code":"BO","country_code":"NG"}},{"type":"Feature","geometry":{"type":"Point","coordinates":[11.69678,10.38522]},"properties":{"id":77138,"name":"Wuyo","state_code":"BO","country_code":"NG"}},{"type":"Feature","geometry":{"type":"Point","coordinates":[12.71992,11.38623]},"properties":{"id":77139,"name":"Yajiwa","state_code":"BO","country_code":"NG"}}]}