{"type":"FeatureCollection","features":[{"type":"Feature","geometry":{"type":"Point","coordinates":[6.10915,4.97032]},"properties":{"id":76770,"name":"Amassoma","state_code":"BY","country_code":"NG"}},{"type":"Feature","geometry":{"type":"Point","coordinates":[6.24091,4.31231]},"properties":{"id":77116,"name":"Twon-Brass","state_code":"BY","country_code":"NG"}},{"type":"Feature","geometry":{"type":"Point","coordinates":[6.26764,4.92675]},"properties":{"id":77145,"name":"Yenagoa","state_code":"BY","country_code":"NG"}}]}