{"type":"FeatureCollection","features":[{"type":"Feature","geometry":{"type":"Point","coordinates":[7.01117,6.73971]},"properties":{"id":76750,"name":"Adani","state_code":"EN","country_code":"NG"}},{"type":"Feature","geometry":{"type":"Point","coordinates":[7.67615,5.91677]},"properties":{"id":76762,"name":"Ake-Eze","state_code":"EN","country_code":"NG"}},{"type":"Feature","geometry":{"type":"Point","coordinates":[7.31826,6.70902]},"properties":{"id":76764,"name":"Aku","state_code":"EN","country_code":"NG"}},{"type":"Feature","geometry":{"type":"Point","coordinates":[7.65247,6.33063]},"properties":{"id":76768,"name":"Amagunze","state_code":"EN","country_code":"NG"}},{"type":"Feature","geometry":{"type":"Point","coordinates":[7.47739,6.07278]},"properties":{"id":76784,"name":"Awgu","state_code":"EN","country_code":"NG"}},{"type":"Feature","geometry":{"type":"Point","coordinates":[7.75961,6.65915]},"properties":{"id":76855,"name":"Eha Amufu","state_code":"EN","country_code":"NG"}},{"type":"Feature","geometry":{"type":"Point","coordinates":[7.49883,6.44132]},"properties":{"id":76861,"name":"Enugu","state_code":"EN","country_code":"NG"}},{"type":"Feature","geometry":{"type":"Point","coordinates":[7.45534,6.9827]},"properties":{"id":76862,"name":"Enugu-Ezike","state_code":"EN","country_code":"NG"}},{"type":"Feature","geometry":{"type":"Point","coordinates":[7.45341,7.08956]},"properties":{"id":76866,"name":"Ete","state_code":"EN","country_code":"NG"}},{"type":"Feature","geometry":{"type":"Point","coordinates":[7.71484,6.77993]},"properties":{"id":76933,"name":"Ikem","state_code":"EN","country_code":"NG"}},{"type":"Feature","geometry":{"type":"Point","coordinates":[7.63017,6.1731]},"properties":{"id":77028,"name":"Mberubu","state_code":"EN","country_code":"NG"}},{"type":"Feature","geometry":{"type":"Point","coordinates":[7.39577,6.85783]},"properties":{"id":77045,"name":"Nsukka","state_code":"EN","country_code":"NG"}},{"type":"Feature","geometry":{"type":"Point","coordinates":[7.63333,6.88333]},"properties":{"id":77048,"name":"Obolo-Eke (1)","state_code":"EN","country_code":"NG"}},{"type":"Feature","geometry":{"type":"Point","coordinates":[7.43319,6.78223]},"properties":{"id":77069,"name":"Opi","state_code":"EN","country_code":"NG"}},{"type":"Feature","geometry":{"type":"Point","coordinates":[7.42086,6.31592]},"properties":{"id":77119,"name":"Udi","state_code":"EN","country_code":"NG"}}]}