{"type":"FeatureCollection","features":[{"type":"Feature","geometry":{"type":"Point","coordinates":[9.01525,12.77256]},"properties":{"id":76788,"name":"Babura","state_code":"JI","country_code":"NG"}},{"type":"Feature","geometry":{"type":"Point","coordinates":[9.47856,11.45207]},"properties":{"id":76806,"name":"Birnin Kudu","state_code":"JI","country_code":"NG"}},{"type":"Feature","geometry":{"type":"Point","coordinates":[10.23614,12.7907]},"properties":{"id":76807,"name":"Birniwa","state_code":"JI","country_code":"NG"}},{"type":"Feature","geometry":{"type":"Point","coordinates":[9.33896,11.75618]},"properties":{"id":76848,"name":"Dutse","state_code":"JI","country_code":"NG"}},{"type":"Feature","geometry":{"type":"Point","coordinates":[9.52881,12.40848]},"properties":{"id":76872,"name":"Gagarawa","state_code":"JI","country_code":"NG"}},{"type":"Feature","geometry":{"type":"Point","coordinates":[9.38807,12.6269]},"properties":{"id":76892,"name":"Gumel","state_code":"JI","country_code":"NG"}},{"type":"Feature","geometry":{"type":"Point","coordinates":[10.04115,12.45347]},"properties":{"id":76902,"name":"Hadejia","state_code":"JI","country_code":"NG"}},{"type":"Feature","geometry":{"type":"Point","coordinates":[9.91105,12.23933]},"properties":{"id":76969,"name":"Kafin Hausa","state_code":"JI","country_code":"NG"}},{"type":"Feature","geometry":{"type":"Point","coordinates":[8.41178,12.64846]},"properties":{"id":76981,"name":"Kazaure","state_code":"JI","country_code":"NG"}},{"type":"Feature","geometry":{"type":"Point","coordinates":[9.6069,11.78442]},"properties":{"id":76985,"name":"Kiyawa","state_code":"JI","country_code":"NG"}},{"type":"Feature","geometry":{"type":"Point","coordinates":[9.95727,12.56427]},"properties":{"id":77022,"name":"Mallammaduri","state_code":"JI","country_code":"NG"}},{"type":"Feature","geometry":{"type":"Point","coordinates":[9.16216,12.15143]},"properties":{"id":77091,"name":"Ringim","state_code":"JI","country_code":"NG"}},{"type":"Feature","geometry":{"type":"Point","coordinates":[9.63989,11.34873]},"properties":{"id":77097,"name":"Samamiya","state_code":"JI","country_code":"NG"}}]}