{"type":"FeatureCollection","features":[{"type":"Feature","geometry":{"type":"Point","coordinates":[8.15224,11.53485]},"properties":{"id":76828,"name":"Dan Gora","state_code":"KN","country_code":"NG"}},{"type":"Feature","geometry":{"type":"Point","coordinates":[9.0027,11.86064]},"properties":{"id":76880,"name":"Gaya","state_code":"KN","country_code":"NG"}},{"type":"Feature","geometry":{"type":"Point","coordinates":[8.51672,12.00012]},"properties":{"id":76977,"name":"Kano","state_code":"KN","country_code":"NG"}}]}