{"type":"FeatureCollection","features":[{"type":"Feature","geometry":{"type":"Point","coordinates":[7.56097,11.3771]},"properties":{"id":76831,"name":"Danja","state_code":"KT","country_code":"NG"}},{"type":"Feature","geometry":{"type":"Point","coordinates":[7.79492,13.29782]},"properties":{"id":76833,"name":"Dankama","state_code":"KT","country_code":"NG"}},{"type":"Feature","geometry":{"type":"Point","coordinates":[8.32351,13.03299]},"properties":{"id":76837,"name":"Daura","state_code":"KT","country_code":"NG"}},{"type":"Feature","geometry":{"type":"Point","coordinates":[7.49723,12.45392]},"properties":{"id":76850,"name":"Dutsin-Ma","state_code":"KT","country_code":"NG"}},{"type":"Feature","geometry":{"type":"Point","coordinates":[7.30699,11.47196]},"properties":{"id":76870,"name":"Funtua","state_code":"KT","country_code":"NG"}},{"type":"Feature","geometry":{"type":"Point","coordinates":[7.66531,11.91294]},"properties":{"id":76887,"name":"Gora","state_code":"KT","country_code":"NG"}},{"type":"Feature","geometry":{"type":"Point","coordinates":[7.22624,13.09378]},"properties":{"id":76960,"name":"Jibia","state_code":"KT","country_code":"NG"}},{"type":"Feature","geometry":{"type":"Point","coordinates":[7.77424,12.17328]},"properties":{"id":76961,"name":"Jikamshi","state_code":"KT","country_code":"NG"}},{"type":"Feature","geometry":{"type":"Point","coordinates":[7.41115,11.93114]},"properties":{"id":76976,"name":"Kankara","state_code":"KT","country_code":"NG"}},{"type":"Feature","geometry":{"type":"Point","coordinates":[7.60177,12.99082]},"properties":{"id":76979,"name":"Katsina","state_code":"KT","country_code":"NG"}},{"type":"Feature","geometry":{"type":"Point","coordinates":[7.94703,12.98044]},"properties":{"id":77026,"name":"Mashi","state_code":"KT","country_code":"NG"}},{"type":"Feature","geometry":{"type":"Point","coordinates":[7.23469,12.8626]},"properties":{"id":77093,"name":"Ruma","state_code":"KT","country_code":"NG"}},{"type":"Feature","geometry":{"type":"Point","coordinates":[7.30918,12.44788]},"properties":{"id":77094,"name":"Runka","state_code":"KT","country_code":"NG"}},{"type":"Feature","geometry":{"type":"Point","coordinates":[7.19579,12.68781]},"properties":{"id":77131,"name":"Wagini","state_code":"KT","country_code":"NG"}}]}