{"type":"FeatureCollection","features":[{"type":"Feature","geometry":{"type":"Point","coordinates":[7.34139,8.49056]},"properties":{"id":76815,"name":"Buga","state_code":"NA","country_code":"NG"}},{"type":"Feature","geometry":{"type":"Point","coordinates":[8.35544,8.39307]},"properties":{"id":76845,"name":"Doma","state_code":"NA","country_code":"NG"}},{"type":"Feature","geometry":{"type":"Point","coordinates":[7.87354,8.84651]},"properties":{"id":76982,"name":"Keffi","state_code":"NA","country_code":"NG"}},{"type":"Feature","geometry":{"type":"Point","coordinates":[8.51532,8.4939]},"properties":{"id":77000,"name":"Lafia","state_code":"NA","country_code":"NG"}},{"type":"Feature","geometry":{"type":"Point","coordinates":[7.70821,8.53895]},"properties":{"id":77038,"name":"Nasarawa","state_code":"NA","country_code":"NG"}},{"type":"Feature","geometry":{"type":"Point","coordinates":[8.60315,8.94153]},"properties":{"id":77132,"name":"Wamba","state_code":"NA","country_code":"NG"}}]}