{"type":"FeatureCollection","features":[{"type":"Feature","geometry":{"type":"Point","coordinates":[3.41667,8.5]},"properties":{"id":76758,"name":"Ago Are","state_code":"OY","country_code":"NG"}},{"type":"Feature","geometry":{"type":"Point","coordinates":[4.38333,8.61667]},"properties":{"id":76766,"name":"Alapa","state_code":"OY","country_code":"NG"}},{"type":"Feature","geometry":{"type":"Point","coordinates":[3.91722,7.71361]},"properties":{"id":76868,"name":"Fiditi","state_code":"OY","country_code":"NG"}},{"type":"Feature","geometry":{"type":"Point","coordinates":[3.90591,7.37756]},"properties":{"id":76906,"name":"Ibadan","state_code":"OY","country_code":"NG"}},{"type":"Feature","geometry":{"type":"Point","coordinates":[4.13113,8.74921]},"properties":{"id":76918,"name":"Igbeti","state_code":"OY","country_code":"NG"}},{"type":"Feature","geometry":{"type":"Point","coordinates":[3.28788,7.43383]},"properties":{"id":76919,"name":"Igbo-Ora","state_code":"OY","country_code":"NG"}},{"type":"Feature","geometry":{"type":"Point","coordinates":[3.75628,8.83784]},"properties":{"id":76921,"name":"Igboho","state_code":"OY","country_code":"NG"}},{"type":"Feature","geometry":{"type":"Point","coordinates":[3.85196,9.08297]},"properties":{"id":76984,"name":"Kisi","state_code":"OY","country_code":"NG"}},{"type":"Feature","geometry":{"type":"Point","coordinates":[4.06594,7.46791]},"properties":{"id":77004,"name":"Lalupon","state_code":"OY","country_code":"NG"}},{"type":"Feature","geometry":{"type":"Point","coordinates":[4.24014,8.13373]},"properties":{"id":77053,"name":"Ogbomoso","state_code":"OY","country_code":"NG"}},{"type":"Feature","geometry":{"type":"Point","coordinates":[3.34759,8.03386]},"properties":{"id":77060,"name":"Okeho","state_code":"OY","country_code":"NG"}},{"type":"Feature","geometry":{"type":"Point","coordinates":[3.43333,7.55]},"properties":{"id":77072,"name":"Orita Eruwa","state_code":"OY","country_code":"NG"}},{"type":"Feature","geometry":{"type":"Point","coordinates":[3.93125,7.85257]},"properties":{"id":77082,"name":"Oyo","state_code":"OY","country_code":"NG"}},{"type":"Feature","geometry":{"type":"Point","coordinates":[3.39393,8.66762]},"properties":{"id":77096,"name":"Saki","state_code":"OY","country_code":"NG"}}]}