{"type":"FeatureCollection","features":[{"type":"Feature","geometry":{"type":"Point","coordinates":[10.62444,7.23087]},"properties":{"id":76792,"name":"Baissa","state_code":"TA","country_code":"NG"}},{"type":"Feature","geometry":{"type":"Point","coordinates":[10.97187,7.85868]},"properties":{"id":76797,"name":"Beli","state_code":"TA","country_code":"NG"}},{"type":"Feature","geometry":{"type":"Point","coordinates":[10.44615,8.53535]},"properties":{"id":76879,"name":"Gassol","state_code":"TA","country_code":"NG"}},{"type":"Feature","geometry":{"type":"Point","coordinates":[11.25652,6.72556]},"properties":{"id":76883,"name":"Gembu","state_code":"TA","country_code":"NG"}},{"type":"Feature","geometry":{"type":"Point","coordinates":[9.74431,8.18122]},"properties":{"id":76908,"name":"Ibi","state_code":"TA","country_code":"NG"}},{"type":"Feature","geometry":{"type":"Point","coordinates":[11.3596,8.89367]},"properties":{"id":76957,"name":"Jalingo","state_code":"TA","country_code":"NG"}},{"type":"Feature","geometry":{"type":"Point","coordinates":[11.27541,9.20827]},"properties":{"id":77008,"name":"Lau","state_code":"TA","country_code":"NG"}},{"type":"Feature","geometry":{"type":"Point","coordinates":[10.77355,8.64138]},"properties":{"id":77036,"name":"Mutum Biyu","state_code":"TA","country_code":"NG"}},{"type":"Feature","geometry":{"type":"Point","coordinates":[9.61688,7.90844]},"properties":{"id":77092,"name":"Riti","state_code":"TA","country_code":"NG"}},{"type":"Feature","geometry":{"type":"Point","coordinates":[9.77786,7.87139]},"properties":{"id":77136,"name":"Wukari","state_code":"TA","country_code":"NG"}}]}