{"type":"FeatureCollection","features":[{"type":"Feature","geometry":{"type":"Point","coordinates":[-83.76353,12.01366]},"properties":{"id":77158,"name":"Bluefields","state_code":"AS","country_code":"NI"}},{"type":"Feature","geometry":{"type":"Point","coordinates":[-85.12269,12.78571]},"properties":{"id":77160,"name":"Bocana de Paiwas","state_code":"AS","country_code":"NI"}},{"type":"Feature","geometry":{"type":"Point","coordinates":[-83.06145,12.17575]},"properties":{"id":77173,"name":"Corn Island","state_code":"AS","country_code":"NI"}},{"type":"Feature","geometry":{"type":"Point","coordinates":[-84.21952,12.15965]},"properties":{"id":77185,"name":"El Rama","state_code":"AS","country_code":"NI"}},{"type":"Feature","geometry":{"type":"Point","coordinates":[-84.19629,12.82247]},"properties":{"id":77189,"name":"El Tortuguero","state_code":"AS","country_code":"NI"}},{"type":"Feature","geometry":{"type":"Point","coordinates":[-83.74517,12.24096]},"properties":{"id":77198,"name":"Kukrahill","state_code":"AS","country_code":"NI"}},{"type":"Feature","geometry":{"type":"Point","coordinates":[-84.18588,13.1129]},"properties":{"id":77203,"name":"La Cruz de Río Grande","state_code":"AS","country_code":"NI"}},{"type":"Feature","geometry":{"type":"Point","coordinates":[-83.67123,12.34294]},"properties":{"id":77208,"name":"Laguna de Perlas","state_code":"AS","country_code":"NI"}},{"type":"Feature","geometry":{"type":"Point","coordinates":[-84.53503,12.06999]},"properties":{"id":77221,"name":"Muelle de los Bueyes","state_code":"AS","country_code":"NI"}},{"type":"Feature","geometry":{"type":"Point","coordinates":[-84.45616,11.68758]},"properties":{"id":77244,"name":"Nueva Guinea","state_code":"AS","country_code":"NI"}}]}