{"type":"FeatureCollection","features":[{"type":"Feature","geometry":{"type":"Point","coordinates":[-87.02705,12.57758]},"properties":{"id":77165,"name":"Chichigalpa","state_code":"CI","country_code":"NI"}},{"type":"Feature","geometry":{"type":"Point","coordinates":[-87.13105,12.62937]},"properties":{"id":77166,"name":"Chinandega","state_code":"CI","country_code":"NI"}},{"type":"Feature","geometry":{"type":"Point","coordinates":[-86.86808,13.22956]},"properties":{"id":77167,"name":"Cinco Pinos","state_code":"CI","country_code":"NI"}},{"type":"Feature","geometry":{"type":"Point","coordinates":[-87.17304,12.4825]},"properties":{"id":77172,"name":"Corinto","state_code":"CI","country_code":"NI"}},{"type":"Feature","geometry":{"type":"Point","coordinates":[-87.16517,12.54333]},"properties":{"id":77186,"name":"El Realejo","state_code":"CI","country_code":"NI"}},{"type":"Feature","geometry":{"type":"Point","coordinates":[-87.16663,12.66348]},"properties":{"id":77190,"name":"El Viejo","state_code":"CI","country_code":"NI"}},{"type":"Feature","geometry":{"type":"Point","coordinates":[-87.4516,12.74593]},"properties":{"id":77196,"name":"Jiquilillo","state_code":"CI","country_code":"NI"}},{"type":"Feature","geometry":{"type":"Point","coordinates":[-86.77107,13.21187]},"properties":{"id":77232,"name":"Municipio de San Francisco del Norte","state_code":"CI","country_code":"NI"}},{"type":"Feature","geometry":{"type":"Point","coordinates":[-86.97982,12.54422]},"properties":{"id":77246,"name":"Posoltega","state_code":"CI","country_code":"NI"}},{"type":"Feature","geometry":{"type":"Point","coordinates":[-87.17167,12.85042]},"properties":{"id":77251,"name":"Puerto Morazán","state_code":"CI","country_code":"NI"}},{"type":"Feature","geometry":{"type":"Point","coordinates":[-86.92267,13.1861]},"properties":{"id":77278,"name":"Santo Tomás del Norte","state_code":"CI","country_code":"NI"}},{"type":"Feature","geometry":{"type":"Point","coordinates":[-86.90506,13.04387]},"properties":{"id":77280,"name":"Somotillo","state_code":"CI","country_code":"NI"}}]}