{"type":"FeatureCollection","features":[{"type":"Feature","geometry":{"type":"Point","coordinates":[-86.12402,12.73143]},"properties":{"id":77168,"name":"Ciudad Darío","state_code":"MT","country_code":"NI"}},{"type":"Feature","geometry":{"type":"Point","coordinates":[-85.91747,12.92559]},"properties":{"id":77217,"name":"Matagalpa","state_code":"MT","country_code":"NI"}},{"type":"Feature","geometry":{"type":"Point","coordinates":[-85.46218,12.83734]},"properties":{"id":77218,"name":"Matiguás","state_code":"MT","country_code":"NI"}},{"type":"Feature","geometry":{"type":"Point","coordinates":[-85.62915,12.76224]},"properties":{"id":77238,"name":"Muy Muy","state_code":"MT","country_code":"NI"}},{"type":"Feature","geometry":{"type":"Point","coordinates":[-85.22354,12.93435]},"properties":{"id":77254,"name":"Río Blanco","state_code":"MT","country_code":"NI"}},{"type":"Feature","geometry":{"type":"Point","coordinates":[-85.85018,12.76023]},"properties":{"id":77256,"name":"San Dionisio","state_code":"MT","country_code":"NI"}},{"type":"Feature","geometry":{"type":"Point","coordinates":[-85.83898,12.92344]},"properties":{"id":77271,"name":"San Ramón","state_code":"MT","country_code":"NI"}},{"type":"Feature","geometry":{"type":"Point","coordinates":[-85.96474,12.73028]},"properties":{"id":77284,"name":"Terrabona","state_code":"MT","country_code":"NI"}}]}