{"type":"FeatureCollection","features":[{"type":"Feature","geometry":{"type":"Point","coordinates":[-86.62184,13.34302]},"properties":{"id":77211,"name":"Las Sabanas","state_code":"MD","country_code":"NI"}},{"type":"Feature","geometry":{"type":"Point","coordinates":[-86.40622,13.45566]},"properties":{"id":77245,"name":"Palacagüina","state_code":"MD","country_code":"NI"}},{"type":"Feature","geometry":{"type":"Point","coordinates":[-86.65539,13.28841]},"properties":{"id":77259,"name":"San José de Cusmapa","state_code":"MD","country_code":"NI"}},{"type":"Feature","geometry":{"type":"Point","coordinates":[-86.16499,13.54476]},"properties":{"id":77263,"name":"San Juan de Río Coco","state_code":"MD","country_code":"NI"}},{"type":"Feature","geometry":{"type":"Point","coordinates":[-86.6111,13.4138]},"properties":{"id":77266,"name":"San Lucas","state_code":"MD","country_code":"NI"}},{"type":"Feature","geometry":{"type":"Point","coordinates":[-86.58208,13.48082]},"properties":{"id":77281,"name":"Somoto","state_code":"MD","country_code":"NI"}},{"type":"Feature","geometry":{"type":"Point","coordinates":[-86.2871,13.53151]},"properties":{"id":77283,"name":"Telpaneca","state_code":"MD","country_code":"NI"}},{"type":"Feature","geometry":{"type":"Point","coordinates":[-86.49254,13.56284]},"properties":{"id":77290,"name":"Totogalpa","state_code":"MD","country_code":"NI"}},{"type":"Feature","geometry":{"type":"Point","coordinates":[-86.49305,13.48383]},"properties":{"id":77296,"name":"Yalagüina","state_code":"MD","country_code":"NI"}}]}