{"type":"FeatureCollection","features":[{"type":"Feature","geometry":{"type":"Point","coordinates":[6.71806,52.79]},"properties":{"id":77306,"name":"Aalden","state_code":"DR","country_code":"NL"}},{"type":"Feature","geometry":{"type":"Point","coordinates":[6.92645,52.7809]},"properties":{"id":77344,"name":"Angelslo","state_code":"DR","country_code":"NL"}},{"type":"Feature","geometry":{"type":"Point","coordinates":[6.71944,53.0575]},"properties":{"id":77349,"name":"Annen","state_code":"DR","country_code":"NL"}},{"type":"Feature","geometry":{"type":"Point","coordinates":[6.5625,52.99667]},"properties":{"id":77357,"name":"Assen","state_code":"DR","country_code":"NL"}},{"type":"Feature","geometry":{"type":"Point","coordinates":[6.73299,52.67218]},"properties":{"id":77376,"name":"Ballast","state_code":"DR","country_code":"NL"}},{"type":"Feature","geometry":{"type":"Point","coordinates":[6.95833,52.77]},"properties":{"id":77380,"name":"Barger-Oosterveld","state_code":"DR","country_code":"NL"}},{"type":"Feature","geometry":{"type":"Point","coordinates":[6.88145,52.76152]},"properties":{"id":77381,"name":"Bargeres","state_code":"DR","country_code":"NL"}},{"type":"Feature","geometry":{"type":"Point","coordinates":[6.51389,52.86333]},"properties":{"id":77395,"name":"Beilen","state_code":"DR","country_code":"NL"}},{"type":"Feature","geometry":{"type":"Point","coordinates":[6.79306,52.92333]},"properties":{"id":77456,"name":"Borger","state_code":"DR","country_code":"NL"}},{"type":"Feature","geometry":{"type":"Point","coordinates":[6.74046,52.66103]},"properties":{"id":77519,"name":"Coevorden","state_code":"DR","country_code":"NL"}},{"type":"Feature","geometry":{"type":"Point","coordinates":[6.75556,52.69917]},"properties":{"id":77528,"name":"Dalen","state_code":"DR","country_code":"NL"}},{"type":"Feature","geometry":{"type":"Point","coordinates":[6.73967,52.67167]},"properties":{"id":77552,"name":"De Loo","state_code":"DR","country_code":"NL"}},{"type":"Feature","geometry":{"type":"Point","coordinates":[6.29028,52.67333]},"properties":{"id":77563,"name":"De Wijk","state_code":"DR","country_code":"NL"}},{"type":"Feature","geometry":{"type":"Point","coordinates":[6.31806,52.85417]},"properties":{"id":77581,"name":"Diever","state_code":"DR","country_code":"NL"}},{"type":"Feature","geometry":{"type":"Point","coordinates":[6.36944,52.83417]},"properties":{"id":77620,"name":"Dwingeloo","state_code":"DR","country_code":"NL"}},{"type":"Feature","geometry":{"type":"Point","coordinates":[6.5625,53.13583]},"properties":{"id":77628,"name":"Eelde","state_code":"DR","country_code":"NL"}},{"type":"Feature","geometry":{"type":"Point","coordinates":[6.73472,53.0175]},"properties":{"id":77634,"name":"Eext","state_code":"DR","country_code":"NL"}},{"type":"Feature","geometry":{"type":"Point","coordinates":[6.90694,52.77917]},"properties":{"id":77653,"name":"Emmen","state_code":"DR","country_code":"NL"}},{"type":"Feature","geometry":{"type":"Point","coordinates":[7.04722,52.81167]},"properties":{"id":77654,"name":"Emmer-Compascuum","state_code":"DR","country_code":"NL"}},{"type":"Feature","geometry":{"type":"Point","coordinates":[6.98889,52.80667]},"properties":{"id":77655,"name":"Emmer-Erfscheidenveen","state_code":"DR","country_code":"NL"}},{"type":"Feature","geometry":{"type":"Point","coordinates":[6.93881,52.78755]},"properties":{"id":77656,"name":"Emmerhout","state_code":"DR","country_code":"NL"}},{"type":"Feature","geometry":{"type":"Point","coordinates":[6.89315,52.80071]},"properties":{"id":77657,"name":"Emmermeer","state_code":"DR","country_code":"NL"}},{"type":"Feature","geometry":{"type":"Point","coordinates":[6.93889,52.80083]},"properties":{"id":77658,"name":"Emmerschans","state_code":"DR","country_code":"NL"}},{"type":"Feature","geometry":{"type":"Point","coordinates":[6.86389,52.8825]},"properties":{"id":77671,"name":"Exloo","state_code":"DR","country_code":"NL"}},{"type":"Feature","geometry":{"type":"Point","coordinates":[6.79444,52.97167]},"properties":{"id":77684,"name":"Gasselte","state_code":"DR","country_code":"NL"}},{"type":"Feature","geometry":{"type":"Point","coordinates":[6.85278,52.98833]},"properties":{"id":77685,"name":"Gasselternijveen","state_code":"DR","country_code":"NL"}},{"type":"Feature","geometry":{"type":"Point","coordinates":[6.76389,53.005]},"properties":{"id":78031,"name":"Gieten","state_code":"DR","country_code":"NL"}},{"type":"Feature","geometry":{"type":"Point","coordinates":[6.24015,52.76941]},"properties":{"id":78104,"name":"Havelte","state_code":"DR","country_code":"NL"}},{"type":"Feature","geometry":{"type":"Point","coordinates":[6.47639,52.7225]},"properties":{"id":78181,"name":"Hoogeveen","state_code":"DR","country_code":"NL"}},{"type":"Feature","geometry":{"type":"Point","coordinates":[6.99028,52.72417]},"properties":{"id":78235,"name":"Klazienaveen","state_code":"DR","country_code":"NL"}},{"type":"Feature","geometry":{"type":"Point","coordinates":[6.31667,52.69917]},"properties":{"id":78241,"name":"Koekange","state_code":"DR","country_code":"NL"}},{"type":"Feature","geometry":{"type":"Point","coordinates":[6.51146,52.72339]},"properties":{"id":78255,"name":"Krakeel","state_code":"DR","country_code":"NL"}},{"type":"Feature","geometry":{"type":"Point","coordinates":[6.58527,53.01766]},"properties":{"id":78354,"name":"Marsdijk","state_code":"DR","country_code":"NL"}},{"type":"Feature","geometry":{"type":"Point","coordinates":[6.19444,52.69583]},"properties":{"id":78381,"name":"Meppel","state_code":"DR","country_code":"NL"}},{"type":"Feature","geometry":{"type":"Point","coordinates":[6.95,52.9625]},"properties":{"id":78431,"name":"Nieuw-Buinen","state_code":"DR","country_code":"NL"}},{"type":"Feature","geometry":{"type":"Point","coordinates":[6.96806,52.74833]},"properties":{"id":78432,"name":"Nieuw-Dordrecht","state_code":"DR","country_code":"NL"}},{"type":"Feature","geometry":{"type":"Point","coordinates":[6.39722,53.13167]},"properties":{"id":78436,"name":"Nieuw-Roden","state_code":"DR","country_code":"NL"}},{"type":"Feature","geometry":{"type":"Point","coordinates":[6.88713,52.77237]},"properties":{"id":78463,"name":"Noordbarge","state_code":"DR","country_code":"NL"}},{"type":"Feature","geometry":{"type":"Point","coordinates":[6.45833,53.06667]},"properties":{"id":78473,"name":"Norg","state_code":"DR","country_code":"NL"}},{"type":"Feature","geometry":{"type":"Point","coordinates":[6.85139,52.84917]},"properties":{"id":78484,"name":"Odoorn","state_code":"DR","country_code":"NL"}},{"type":"Feature","geometry":{"type":"Point","coordinates":[6.72222,52.75417]},"properties":{"id":78516,"name":"Oosterhesselen","state_code":"DR","country_code":"NL"}},{"type":"Feature","geometry":{"type":"Point","coordinates":[6.56528,53.145]},"properties":{"id":78581,"name":"Paterswolde","state_code":"DR","country_code":"NL"}},{"type":"Feature","geometry":{"type":"Point","coordinates":[6.56208,53.01719]},"properties":{"id":78583,"name":"Peelo","state_code":"DR","country_code":"NL"}},{"type":"Feature","geometry":{"type":"Point","coordinates":[6.49722,53.14667]},"properties":{"id":78585,"name":"Peize","state_code":"DR","country_code":"NL"}},{"type":"Feature","geometry":{"type":"Point","coordinates":[6.42083,53.1375]},"properties":{"id":78633,"name":"Roden","state_code":"DR","country_code":"NL"}},{"type":"Feature","geometry":{"type":"Point","coordinates":[6.64861,52.98417]},"properties":{"id":78636,"name":"Rolde","state_code":"DR","country_code":"NL"}},{"type":"Feature","geometry":{"type":"Point","coordinates":[6.35417,52.7625]},"properties":{"id":78648,"name":"Ruinen","state_code":"DR","country_code":"NL"}},{"type":"Feature","geometry":{"type":"Point","coordinates":[6.24861,52.72333]},"properties":{"id":78649,"name":"Ruinerwold","state_code":"DR","country_code":"NL"}},{"type":"Feature","geometry":{"type":"Point","coordinates":[6.88472,52.6625]},"properties":{"id":78679,"name":"Schoonebeek","state_code":"DR","country_code":"NL"}},{"type":"Feature","geometry":{"type":"Point","coordinates":[6.75556,52.84583]},"properties":{"id":78681,"name":"Schoonoord","state_code":"DR","country_code":"NL"}},{"type":"Feature","geometry":{"type":"Point","coordinates":[6.80278,52.77167]},"properties":{"id":78709,"name":"Sleen","state_code":"DR","country_code":"NL"}},{"type":"Feature","geometry":{"type":"Point","coordinates":[6.93333,52.90917]},"properties":{"id":78796,"name":"Tweede Exloërmond","state_code":"DR","country_code":"NL"}},{"type":"Feature","geometry":{"type":"Point","coordinates":[6.61667,53.0775]},"properties":{"id":78802,"name":"Tynaarlo","state_code":"DR","country_code":"NL"}},{"type":"Feature","geometry":{"type":"Point","coordinates":[6.28056,52.79]},"properties":{"id":78809,"name":"Uffelte","state_code":"DR","country_code":"NL"}},{"type":"Feature","geometry":{"type":"Point","coordinates":[6.89444,52.84583]},"properties":{"id":78832,"name":"Valthe","state_code":"DR","country_code":"NL"}},{"type":"Feature","geometry":{"type":"Point","coordinates":[6.9625,52.88167]},"properties":{"id":78833,"name":"Valthermond","state_code":"DR","country_code":"NL"}},{"type":"Feature","geometry":{"type":"Point","coordinates":[6.84869,52.71087]},"properties":{"id":78838,"name":"Veenoord","state_code":"DR","country_code":"NL"}},{"type":"Feature","geometry":{"type":"Point","coordinates":[6.20833,52.85583]},"properties":{"id":78857,"name":"Vledder","state_code":"DR","country_code":"NL"}},{"type":"Feature","geometry":{"type":"Point","coordinates":[6.57778,53.07417]},"properties":{"id":78885,"name":"Vries","state_code":"DR","country_code":"NL"}},{"type":"Feature","geometry":{"type":"Point","coordinates":[6.9875,52.6725]},"properties":{"id":78917,"name":"Weiteveen","state_code":"DR","country_code":"NL"}},{"type":"Feature","geometry":{"type":"Point","coordinates":[6.60833,52.85]},"properties":{"id":78935,"name":"Westerbork","state_code":"DR","country_code":"NL"}},{"type":"Feature","geometry":{"type":"Point","coordinates":[6.66469,53.0848]},"properties":{"id":78943,"name":"Westlaren","state_code":"DR","country_code":"NL"}},{"type":"Feature","geometry":{"type":"Point","coordinates":[6.49881,52.71734]},"properties":{"id":78976,"name":"Wolfsbos","state_code":"DR","country_code":"NL"}},{"type":"Feature","geometry":{"type":"Point","coordinates":[6.68194,53.09417]},"properties":{"id":79028,"name":"Zuidlaren","state_code":"DR","country_code":"NL"}}]}