{"type":"FeatureCollection","features":[{"type":"Feature","geometry":{"type":"Point","coordinates":[5.83087,53.05024]},"properties":{"id":77321,"name":"Akkrum","state_code":"FR","country_code":"NL"}},{"type":"Feature","geometry":{"type":"Point","coordinates":[5.9,53.05]},"properties":{"id":77323,"name":"Aldeboarn","state_code":"FR","country_code":"NL"}},{"type":"Feature","geometry":{"type":"Point","coordinates":[5.82825,53.1886]},"properties":{"id":77324,"name":"Aldlân-Oost","state_code":"FR","country_code":"NL"}},{"type":"Feature","geometry":{"type":"Point","coordinates":[6.35053,52.95526]},"properties":{"id":77351,"name":"Appelscha","state_code":"FR","country_code":"NL"}},{"type":"Feature","geometry":{"type":"Point","coordinates":[6.1617,53.21785]},"properties":{"id":77359,"name":"Augustinusga","state_code":"FR","country_code":"NL"}},{"type":"Feature","geometry":{"type":"Point","coordinates":[5.45926,52.86975]},"properties":{"id":77373,"name":"Bakhuizen","state_code":"FR","country_code":"NL"}},{"type":"Feature","geometry":{"type":"Point","coordinates":[6.25671,53.08072]},"properties":{"id":77374,"name":"Bakkeveen","state_code":"FR","country_code":"NL"}},{"type":"Feature","geometry":{"type":"Point","coordinates":[5.57964,52.89756]},"properties":{"id":77375,"name":"Balk","state_code":"FR","country_code":"NL"}},{"type":"Feature","geometry":{"type":"Point","coordinates":[6.07711,53.05914]},"properties":{"id":77394,"name":"Beetsterzwaag","state_code":"FR","country_code":"NL"}},{"type":"Feature","geometry":{"type":"Point","coordinates":[5.65101,53.2437]},"properties":{"id":77420,"name":"Berltsum","state_code":"FR","country_code":"NL"}},{"type":"Feature","geometry":{"type":"Point","coordinates":[5.79574,53.21551]},"properties":{"id":77431,"name":"Bilgaard","state_code":"FR","country_code":"NL"}},{"type":"Feature","geometry":{"type":"Point","coordinates":[5.53176,53.06555]},"properties":{"id":77452,"name":"Bolsward","state_code":"FR","country_code":"NL"}},{"type":"Feature","geometry":{"type":"Point","coordinates":[6.04578,53.08284]},"properties":{"id":77453,"name":"Boornbergum","state_code":"FR","country_code":"NL"}},{"type":"Feature","geometry":{"type":"Point","coordinates":[5.99648,53.27466]},"properties":{"id":77487,"name":"Broeksterwâld","state_code":"FR","country_code":"NL"}},{"type":"Feature","geometry":{"type":"Point","coordinates":[6.14483,53.25166]},"properties":{"id":77501,"name":"Buitenpost","state_code":"FR","country_code":"NL"}},{"type":"Feature","geometry":{"type":"Point","coordinates":[5.87897,53.29421]},"properties":{"id":77505,"name":"Burdaard","state_code":"FR","country_code":"NL"}},{"type":"Feature","geometry":{"type":"Point","coordinates":[5.99009,53.19243]},"properties":{"id":77507,"name":"Burgum","state_code":"FR","country_code":"NL"}},{"type":"Feature","geometry":{"type":"Point","coordinates":[5.84318,53.20973]},"properties":{"id":77510,"name":"Camminghaburen","state_code":"FR","country_code":"NL"}},{"type":"Feature","geometry":{"type":"Point","coordinates":[5.99785,53.29046]},"properties":{"id":77530,"name":"Damwâld","state_code":"FR","country_code":"NL"}},{"type":"Feature","geometry":{"type":"Point","coordinates":[5.67716,53.03113]},"properties":{"id":77535,"name":"De Domp","state_code":"FR","country_code":"NL"}},{"type":"Feature","geometry":{"type":"Point","coordinates":[6.06791,53.09743]},"properties":{"id":77537,"name":"De Drait","state_code":"FR","country_code":"NL"}},{"type":"Feature","geometry":{"type":"Point","coordinates":[5.77246,52.96906]},"properties":{"id":77538,"name":"De Fryske Marren","state_code":"FR","country_code":"NL"}},{"type":"Feature","geometry":{"type":"Point","coordinates":[5.91366,52.9496]},"properties":{"id":77541,"name":"De Greiden","state_code":"FR","country_code":"NL"}},{"type":"Feature","geometry":{"type":"Point","coordinates":[5.97116,52.96829]},"properties":{"id":77548,"name":"De Knipe","state_code":"FR","country_code":"NL"}},{"type":"Feature","geometry":{"type":"Point","coordinates":[6.0363,53.25731]},"properties":{"id":77561,"name":"De Westereen","state_code":"FR","country_code":"NL"}},{"type":"Feature","geometry":{"type":"Point","coordinates":[5.99697,53.32224]},"properties":{"id":77588,"name":"Dokkum","state_code":"FR","country_code":"NL"}},{"type":"Feature","geometry":{"type":"Point","coordinates":[6.23927,53.01734]},"properties":{"id":77593,"name":"Donkerbroek","state_code":"FR","country_code":"NL"}},{"type":"Feature","geometry":{"type":"Point","coordinates":[6.0989,53.11254]},"properties":{"id":77602,"name":"Drachten","state_code":"FR","country_code":"NL"}},{"type":"Feature","geometry":{"type":"Point","coordinates":[6.14153,53.13462]},"properties":{"id":77603,"name":"Drachtstercompagnie","state_code":"FR","country_code":"NL"}},{"type":"Feature","geometry":{"type":"Point","coordinates":[6.11183,53.20213]},"properties":{"id":77610,"name":"Drogeham","state_code":"FR","country_code":"NL"}},{"type":"Feature","geometry":{"type":"Point","coordinates":[5.65,53.2]},"properties":{"id":77611,"name":"Dronryp","state_code":"FR","country_code":"NL"}},{"type":"Feature","geometry":{"type":"Point","coordinates":[6.05999,53.17466]},"properties":{"id":77621,"name":"Eastermar","state_code":"FR","country_code":"NL"}},{"type":"Feature","geometry":{"type":"Point","coordinates":[5.82147,52.87141]},"properties":{"id":77622,"name":"Echtenerbrug","state_code":"FR","country_code":"NL"}},{"type":"Feature","geometry":{"type":"Point","coordinates":[5.98832,53.23558]},"properties":{"id":77673,"name":"Feanwâlden","state_code":"FR","country_code":"NL"}},{"type":"Feature","geometry":{"type":"Point","coordinates":[5.82533,53.33784]},"properties":{"id":77675,"name":"Ferwert","state_code":"FR","country_code":"NL"}},{"type":"Feature","geometry":{"type":"Point","coordinates":[5.54123,53.18546]},"properties":{"id":77678,"name":"Franeker","state_code":"FR","country_code":"NL"}},{"type":"Feature","geometry":{"type":"Point","coordinates":[5.96667,53.16667]},"properties":{"id":77683,"name":"Garyp","state_code":"FR","country_code":"NL"}},{"type":"Feature","geometry":{"type":"Point","coordinates":[6.06402,53.00659]},"properties":{"id":78042,"name":"Gorredijk","state_code":"FR","country_code":"NL"}},{"type":"Feature","geometry":{"type":"Point","coordinates":[5.8037,53.17734]},"properties":{"id":78047,"name":"Goutum","state_code":"FR","country_code":"NL"}},{"type":"Feature","geometry":{"type":"Point","coordinates":[5.83745,53.09456]},"properties":{"id":78068,"name":"Grou","state_code":"FR","country_code":"NL"}},{"type":"Feature","geometry":{"type":"Point","coordinates":[5.89502,53.24293]},"properties":{"id":78073,"name":"Gytsjerk","state_code":"FR","country_code":"NL"}},{"type":"Feature","geometry":{"type":"Point","coordinates":[5.78379,53.30657]},"properties":{"id":78086,"name":"Hallum","state_code":"FR","country_code":"NL"}},{"type":"Feature","geometry":{"type":"Point","coordinates":[6.13333,53.18333]},"properties":{"id":78095,"name":"Harkema","state_code":"FR","country_code":"NL"}},{"type":"Feature","geometry":{"type":"Point","coordinates":[5.42244,53.17477]},"properties":{"id":78097,"name":"Harlingen","state_code":"FR","country_code":"NL"}},{"type":"Feature","geometry":{"type":"Point","coordinates":[6.33453,53.06468]},"properties":{"id":78103,"name":"Haulerwijk","state_code":"FR","country_code":"NL"}},{"type":"Feature","geometry":{"type":"Point","coordinates":[5.8225,53.20963]},"properties":{"id":78106,"name":"Heechterp","state_code":"FR","country_code":"NL"}},{"type":"Feature","geometry":{"type":"Point","coordinates":[5.61075,52.9686]},"properties":{"id":78107,"name":"Heeg","state_code":"FR","country_code":"NL"}},{"type":"Feature","geometry":{"type":"Point","coordinates":[5.91854,52.95929]},"properties":{"id":78114,"name":"Heerenveen","state_code":"FR","country_code":"NL"}},{"type":"Feature","geometry":{"type":"Point","coordinates":[5.80192,53.20455]},"properties":{"id":78162,"name":"Hoek","state_code":"FR","country_code":"NL"}},{"type":"Feature","geometry":{"type":"Point","coordinates":[5.63805,53.4394]},"properties":{"id":78170,"name":"Hollum","state_code":"FR","country_code":"NL"}},{"type":"Feature","geometry":{"type":"Point","coordinates":[5.90073,53.36815]},"properties":{"id":78172,"name":"Holwerd","state_code":"FR","country_code":"NL"}},{"type":"Feature","geometry":{"type":"Point","coordinates":[5.81119,53.1917]},"properties":{"id":78193,"name":"Huizum","state_code":"FR","country_code":"NL"}},{"type":"Feature","geometry":{"type":"Point","coordinates":[5.94137,53.21333]},"properties":{"id":78198,"name":"Hurdegaryp","state_code":"FR","country_code":"NL"}},{"type":"Feature","geometry":{"type":"Point","coordinates":[5.62312,53.01009]},"properties":{"id":78200,"name":"IJlst","state_code":"FR","country_code":"NL"}},{"type":"Feature","geometry":{"type":"Point","coordinates":[5.79254,53.07753]},"properties":{"id":78206,"name":"Jirnsum","state_code":"FR","country_code":"NL"}},{"type":"Feature","geometry":{"type":"Point","coordinates":[5.80301,52.9657]},"properties":{"id":78207,"name":"Joure","state_code":"FR","country_code":"NL"}},{"type":"Feature","geometry":{"type":"Point","coordinates":[6.12183,53.00396]},"properties":{"id":78208,"name":"Jubbega","state_code":"FR","country_code":"NL"}},{"type":"Feature","geometry":{"type":"Point","coordinates":[6.15293,53.27695]},"properties":{"id":78243,"name":"Kollum","state_code":"FR","country_code":"NL"}},{"type":"Feature","geometry":{"type":"Point","coordinates":[6.07544,53.26224]},"properties":{"id":78244,"name":"Kollumerzwaag","state_code":"FR","country_code":"NL"}},{"type":"Feature","geometry":{"type":"Point","coordinates":[6.09209,53.21261]},"properties":{"id":78247,"name":"Kootstertille","state_code":"FR","country_code":"NL"}},{"type":"Feature","geometry":{"type":"Point","coordinates":[5.44834,52.91551]},"properties":{"id":78254,"name":"Koudum","state_code":"FR","country_code":"NL"}},{"type":"Feature","geometry":{"type":"Point","coordinates":[5.72173,52.95836]},"properties":{"id":78272,"name":"Langweer","state_code":"FR","country_code":"NL"}},{"type":"Feature","geometry":{"type":"Point","coordinates":[5.80859,53.20139]},"properties":{"id":78283,"name":"Leeuwarden","state_code":"FR","country_code":"NL"}},{"type":"Feature","geometry":{"type":"Point","coordinates":[5.70912,52.84618]},"properties":{"id":78289,"name":"Lemmer","state_code":"FR","country_code":"NL"}},{"type":"Feature","geometry":{"type":"Point","coordinates":[5.40231,53.05458]},"properties":{"id":78343,"name":"Makkum","state_code":"FR","country_code":"NL"}},{"type":"Feature","geometry":{"type":"Point","coordinates":[5.71924,53.12865]},"properties":{"id":78347,"name":"Mantgum","state_code":"FR","country_code":"NL"}},{"type":"Feature","geometry":{"type":"Point","coordinates":[5.80198,53.32277]},"properties":{"id":78353,"name":"Marrum","state_code":"FR","country_code":"NL"}},{"type":"Feature","geometry":{"type":"Point","coordinates":[5.72637,53.2105]},"properties":{"id":78355,"name":"Marsum","state_code":"FR","country_code":"NL"}},{"type":"Feature","geometry":{"type":"Point","coordinates":[5.66124,53.21797]},"properties":{"id":78380,"name":"Menaam","state_code":"FR","country_code":"NL"}},{"type":"Feature","geometry":{"type":"Point","coordinates":[5.59513,53.25104]},"properties":{"id":78403,"name":"Minnertsga","state_code":"FR","country_code":"NL"}},{"type":"Feature","geometry":{"type":"Point","coordinates":[5.774,53.44502]},"properties":{"id":78427,"name":"Nes","state_code":"FR","country_code":"NL"}},{"type":"Feature","geometry":{"type":"Point","coordinates":[6.06342,52.95113]},"properties":{"id":78442,"name":"Nieuwehorne","state_code":"FR","country_code":"NL"}},{"type":"Feature","geometry":{"type":"Point","coordinates":[6.00523,53.22135]},"properties":{"id":78460,"name":"Noardburgum","state_code":"FR","country_code":"NL"}},{"type":"Feature","geometry":{"type":"Point","coordinates":[6.14153,52.88964]},"properties":{"id":78472,"name":"Noordwolde","state_code":"FR","country_code":"NL"}},{"type":"Feature","geometry":{"type":"Point","coordinates":[5.9,53.25]},"properties":{"id":78486,"name":"Oentsjerk","state_code":"FR","country_code":"NL"}},{"type":"Feature","geometry":{"type":"Point","coordinates":[6.13089,52.93788]},"properties":{"id":78493,"name":"Oldeberkoop","state_code":"FR","country_code":"NL"}},{"type":"Feature","geometry":{"type":"Point","coordinates":[5.07431,53.29703]},"properties":{"id":78507,"name":"Oost-Vlieland","state_code":"FR","country_code":"NL"}},{"type":"Feature","geometry":{"type":"Point","coordinates":[6.29096,52.99164]},"properties":{"id":78524,"name":"Oosterwolde","state_code":"FR","country_code":"NL"}},{"type":"Feature","geometry":{"type":"Point","coordinates":[6.05656,53.1341]},"properties":{"id":78533,"name":"Opeinde","state_code":"FR","country_code":"NL"}},{"type":"Feature","geometry":{"type":"Point","coordinates":[5.69495,53.01194]},"properties":{"id":78539,"name":"Oppenhuizen","state_code":"FR","country_code":"NL"}},{"type":"Feature","geometry":{"type":"Point","coordinates":[5.95038,52.94579]},"properties":{"id":78542,"name":"Oranjewoud","state_code":"FR","country_code":"NL"}},{"type":"Feature","geometry":{"type":"Point","coordinates":[5.99888,53.12504]},"properties":{"id":78560,"name":"Oudega","state_code":"FR","country_code":"NL"}},{"type":"Feature","geometry":{"type":"Point","coordinates":[5.87095,52.95709]},"properties":{"id":78561,"name":"Oudehaske","state_code":"FR","country_code":"NL"}},{"type":"Feature","geometry":{"type":"Point","coordinates":[5.53544,52.85019]},"properties":{"id":78562,"name":"Oudemirdum","state_code":"FR","country_code":"NL"}},{"type":"Feature","geometry":{"type":"Point","coordinates":[5.95579,52.93343]},"properties":{"id":78566,"name":"Oudeschoot","state_code":"FR","country_code":"NL"}},{"type":"Feature","geometry":{"type":"Point","coordinates":[6.10411,53.14523]},"properties":{"id":78643,"name":"Rottevalle","state_code":"FR","country_code":"NL"}},{"type":"Feature","geometry":{"type":"Point","coordinates":[5.67822,53.06051]},"properties":{"id":78661,"name":"Scharnegoutum","state_code":"FR","country_code":"NL"}},{"type":"Feature","geometry":{"type":"Point","coordinates":[6.15209,53.48025]},"properties":{"id":78670,"name":"Schiermonnikoog","state_code":"FR","country_code":"NL"}},{"type":"Feature","geometry":{"type":"Point","coordinates":[5.48402,53.21823]},"properties":{"id":78689,"name":"Sexbierum","state_code":"FR","country_code":"NL"}},{"type":"Feature","geometry":{"type":"Point","coordinates":[5.65727,53.2762]},"properties":{"id":78694,"name":"Sint Annaparochie","state_code":"FR","country_code":"NL"}},{"type":"Feature","geometry":{"type":"Point","coordinates":[5.60354,53.27291]},"properties":{"id":78696,"name":"Sint Jacobiparochie","state_code":"FR","country_code":"NL"}},{"type":"Feature","geometry":{"type":"Point","coordinates":[5.74242,52.92293]},"properties":{"id":78700,"name":"Sint Nicolaasga","state_code":"FR","country_code":"NL"}},{"type":"Feature","geometry":{"type":"Point","coordinates":[5.85588,52.93157]},"properties":{"id":78707,"name":"Sintjohannesga","state_code":"FR","country_code":"NL"}},{"type":"Feature","geometry":{"type":"Point","coordinates":[5.6589,53.03297]},"properties":{"id":78717,"name":"Sneek","state_code":"FR","country_code":"NL"}},{"type":"Feature","geometry":{"type":"Point","coordinates":[5.67844,53.03987]},"properties":{"id":78741,"name":"Stadsfenne","state_code":"FR","country_code":"NL"}},{"type":"Feature","geometry":{"type":"Point","coordinates":[5.75769,53.26234]},"properties":{"id":78759,"name":"Stiens","state_code":"FR","country_code":"NL"}},{"type":"Feature","geometry":{"type":"Point","coordinates":[5.5258,53.01056]},"properties":{"id":78766,"name":"Sûdwest Fryslân","state_code":"FR","country_code":"NL"}},{"type":"Feature","geometry":{"type":"Point","coordinates":[6.17031,53.18477]},"properties":{"id":78765,"name":"Surhuisterveen","state_code":"FR","country_code":"NL"}},{"type":"Feature","geometry":{"type":"Point","coordinates":[5.96523,53.38203]},"properties":{"id":78773,"name":"Ternaard","state_code":"FR","country_code":"NL"}},{"type":"Feature","geometry":{"type":"Point","coordinates":[5.99193,53.03058]},"properties":{"id":78785,"name":"Tijnje","state_code":"FR","country_code":"NL"}},{"type":"Feature","geometry":{"type":"Point","coordinates":[5.64575,53.02064]},"properties":{"id":78787,"name":"Tinga","state_code":"FR","country_code":"NL"}},{"type":"Feature","geometry":{"type":"Point","coordinates":[6.08952,53.23152]},"properties":{"id":78799,"name":"Twijzel","state_code":"FR","country_code":"NL"}},{"type":"Feature","geometry":{"type":"Point","coordinates":[6.04591,53.24015]},"properties":{"id":78800,"name":"Twijzelerheide","state_code":"FR","country_code":"NL"}},{"type":"Feature","geometry":{"type":"Point","coordinates":[5.90961,53.21343]},"properties":{"id":78803,"name":"Tytsjerk","state_code":"FR","country_code":"NL"}},{"type":"Feature","geometry":{"type":"Point","coordinates":[5.54612,53.23733]},"properties":{"id":78804,"name":"Tzummarum","state_code":"FR","country_code":"NL"}},{"type":"Feature","geometry":{"type":"Point","coordinates":[6.16718,53.09244]},"properties":{"id":78818,"name":"Ureterp","state_code":"FR","country_code":"NL"}},{"type":"Feature","geometry":{"type":"Point","coordinates":[5.50793,53.18947]},"properties":{"id":78890,"name":"Waadhoeke","state_code":"FR","country_code":"NL"}},{"type":"Feature","geometry":{"type":"Point","coordinates":[5.84404,53.15145]},"properties":{"id":78905,"name":"Warga","state_code":"FR","country_code":"NL"}},{"type":"Feature","geometry":{"type":"Point","coordinates":[5.21482,53.35911]},"properties":{"id":78930,"name":"West-Terschelling","state_code":"FR","country_code":"NL"}},{"type":"Feature","geometry":{"type":"Point","coordinates":[5.76812,53.20853]},"properties":{"id":78932,"name":"Westeinde","state_code":"FR","country_code":"NL"}},{"type":"Feature","geometry":{"type":"Point","coordinates":[6.2047,53.05814]},"properties":{"id":78957,"name":"Wijnjewoude","state_code":"FR","country_code":"NL"}},{"type":"Feature","geometry":{"type":"Point","coordinates":[5.80387,53.14893]},"properties":{"id":78966,"name":"Wirdum","state_code":"FR","country_code":"NL"}},{"type":"Feature","geometry":{"type":"Point","coordinates":[5.46902,53.10452]},"properties":{"id":78970,"name":"Witmarsum","state_code":"FR","country_code":"NL"}},{"type":"Feature","geometry":{"type":"Point","coordinates":[5.99691,52.87545]},"properties":{"id":78978,"name":"Wolvega","state_code":"FR","country_code":"NL"}},{"type":"Feature","geometry":{"type":"Point","coordinates":[5.58749,53.10883]},"properties":{"id":78979,"name":"Wommels","state_code":"FR","country_code":"NL"}},{"type":"Feature","geometry":{"type":"Point","coordinates":[5.4471,52.97969]},"properties":{"id":78982,"name":"Workum","state_code":"FR","country_code":"NL"}},{"type":"Feature","geometry":{"type":"Point","coordinates":[5.62843,52.94357]},"properties":{"id":78987,"name":"Woudsend","state_code":"FR","country_code":"NL"}},{"type":"Feature","geometry":{"type":"Point","coordinates":[5.84271,53.1734]},"properties":{"id":79026,"name":"Zuiderburen","state_code":"FR","country_code":"NL"}}]}