{"type":"FeatureCollection","features":[{"type":"Feature","geometry":{"type":"Point","coordinates":[6.45972,53.25667]},"properties":{"id":77318,"name":"Aduard","state_code":"GR","country_code":"NL"}},{"type":"Feature","geometry":{"type":"Point","coordinates":[6.85833,53.32167]},"properties":{"id":77352,"name":"Appingedam","state_code":"GR","country_code":"NL"}},{"type":"Feature","geometry":{"type":"Point","coordinates":[6.51389,53.3625]},"properties":{"id":77370,"name":"Baflo","state_code":"GR","country_code":"NL"}},{"type":"Feature","geometry":{"type":"Point","coordinates":[6.60278,53.30083]},"properties":{"id":77384,"name":"Bedum","state_code":"GR","country_code":"NL"}},{"type":"Feature","geometry":{"type":"Point","coordinates":[7.16528,53.11583]},"properties":{"id":77398,"name":"Bellingwolde","state_code":"GR","country_code":"NL"}},{"type":"Feature","geometry":{"type":"Point","coordinates":[7.07639,53.10917]},"properties":{"id":77441,"name":"Blijham","state_code":"GR","country_code":"NL"}},{"type":"Feature","geometry":{"type":"Point","coordinates":[6.58944,53.1941]},"properties":{"id":77517,"name":"Coendersborg","state_code":"GR","country_code":"NL"}},{"type":"Feature","geometry":{"type":"Point","coordinates":[6.57117,53.1945]},"properties":{"id":77562,"name":"De Wijert","state_code":"GR","country_code":"NL"}},{"type":"Feature","geometry":{"type":"Point","coordinates":[6.91806,53.33]},"properties":{"id":77569,"name":"Delfzijl","state_code":"GR","country_code":"NL"}},{"type":"Feature","geometry":{"type":"Point","coordinates":[6.45833,53.3625]},"properties":{"id":77629,"name":"Eenrum","state_code":"GR","country_code":"NL"}},{"type":"Feature","geometry":{"type":"Point","coordinates":[6.98344,53.16386]},"properties":{"id":77635,"name":"Eexta","state_code":"GR","country_code":"NL"}},{"type":"Feature","geometry":{"type":"Point","coordinates":[6.92639,53.32167]},"properties":{"id":77672,"name":"Farmsum","state_code":"GR","country_code":"NL"}},{"type":"Feature","geometry":{"type":"Point","coordinates":[6.84864,53.31926]},"properties":{"id":77712,"name":"Gemeente Appingedam","state_code":"GR","country_code":"NL"}},{"type":"Feature","geometry":{"type":"Point","coordinates":[6.93129,53.30019]},"properties":{"id":77760,"name":"Gemeente Delfzijl","state_code":"GR","country_code":"NL"}},{"type":"Feature","geometry":{"type":"Point","coordinates":[6.56479,53.22369]},"properties":{"id":77800,"name":"Gemeente Groningen","state_code":"GR","country_code":"NL"}},{"type":"Feature","geometry":{"type":"Point","coordinates":[6.72149,53.33849]},"properties":{"id":77863,"name":"Gemeente Loppersum","state_code":"GR","country_code":"NL"}},{"type":"Feature","geometry":{"type":"Point","coordinates":[7.04224,53.16859]},"properties":{"id":77694,"name":"Gemeente Oldambt","state_code":"GR","country_code":"NL"}},{"type":"Feature","geometry":{"type":"Point","coordinates":[6.9651,53.05969]},"properties":{"id":77910,"name":"Gemeente Pekela","state_code":"GR","country_code":"NL"}},{"type":"Feature","geometry":{"type":"Point","coordinates":[6.98906,53.00005]},"properties":{"id":77943,"name":"Gemeente Stadskanaal","state_code":"GR","country_code":"NL"}},{"type":"Feature","geometry":{"type":"Point","coordinates":[6.87923,53.08951]},"properties":{"id":77968,"name":"Gemeente Veendam","state_code":"GR","country_code":"NL"}},{"type":"Feature","geometry":{"type":"Point","coordinates":[6.62917,53.13917]},"properties":{"id":78035,"name":"Glimmen","state_code":"GR","country_code":"NL"}},{"type":"Feature","geometry":{"type":"Point","coordinates":[6.30833,53.2625]},"properties":{"id":78056,"name":"Grijpskerk","state_code":"GR","country_code":"NL"}},{"type":"Feature","geometry":{"type":"Point","coordinates":[6.56667,53.21917]},"properties":{"id":78063,"name":"Groningen","state_code":"GR","country_code":"NL"}},{"type":"Feature","geometry":{"type":"Point","coordinates":[6.27361,53.2125]},"properties":{"id":78067,"name":"Grootegast","state_code":"GR","country_code":"NL"}},{"type":"Feature","geometry":{"type":"Point","coordinates":[6.60931,53.17209]},"properties":{"id":78093,"name":"Haren","state_code":"GR","country_code":"NL"}},{"type":"Feature","geometry":{"type":"Point","coordinates":[6.69861,53.21333]},"properties":{"id":78096,"name":"Harkstede","state_code":"GR","country_code":"NL"}},{"type":"Feature","geometry":{"type":"Point","coordinates":[7.00972,53.15667]},"properties":{"id":78129,"name":"Heiligerlee","state_code":"GR","country_code":"NL"}},{"type":"Feature","geometry":{"type":"Point","coordinates":[6.57978,53.19794]},"properties":{"id":78136,"name":"Helpman","state_code":"GR","country_code":"NL"}},{"type":"Feature","geometry":{"type":"Point","coordinates":[6.76111,53.16167]},"properties":{"id":78182,"name":"Hoogezand","state_code":"GR","country_code":"NL"}},{"type":"Feature","geometry":{"type":"Point","coordinates":[6.56804,53.23235]},"properties":{"id":78250,"name":"Korrewegwijk","state_code":"GR","country_code":"NL"}},{"type":"Feature","geometry":{"type":"Point","coordinates":[6.37639,53.1625]},"properties":{"id":78276,"name":"Leek","state_code":"GR","country_code":"NL"}},{"type":"Feature","geometry":{"type":"Point","coordinates":[6.37917,53.36]},"properties":{"id":78278,"name":"Leens","state_code":"GR","country_code":"NL"}},{"type":"Feature","geometry":{"type":"Point","coordinates":[6.74722,53.33167]},"properties":{"id":78322,"name":"Loppersum","state_code":"GR","country_code":"NL"}},{"type":"Feature","geometry":{"type":"Point","coordinates":[6.2625,53.14417]},"properties":{"id":78356,"name":"Marum","state_code":"GR","country_code":"NL"}},{"type":"Feature","geometry":{"type":"Point","coordinates":[6.92639,53.14]},"properties":{"id":78366,"name":"Meeden","state_code":"GR","country_code":"NL"}},{"type":"Feature","geometry":{"type":"Point","coordinates":[6.64167,53.34667]},"properties":{"id":78392,"name":"Middelstum","state_code":"GR","country_code":"NL"}},{"type":"Feature","geometry":{"type":"Point","coordinates":[6.83313,53.15113]},"properties":{"id":78393,"name":"Midden-Groningen","state_code":"GR","country_code":"NL"}},{"type":"Feature","geometry":{"type":"Point","coordinates":[7.01389,53.195]},"properties":{"id":78396,"name":"Midwolda","state_code":"GR","country_code":"NL"}},{"type":"Feature","geometry":{"type":"Point","coordinates":[6.35278,53.225]},"properties":{"id":78428,"name":"Niekerk","state_code":"GR","country_code":"NL"}},{"type":"Feature","geometry":{"type":"Point","coordinates":[6.96528,53.07917]},"properties":{"id":78439,"name":"Nieuwe Pekela","state_code":"GR","country_code":"NL"}},{"type":"Feature","geometry":{"type":"Point","coordinates":[6.975,53.24417]},"properties":{"id":78447,"name":"Nieuwolda","state_code":"GR","country_code":"NL"}},{"type":"Feature","geometry":{"type":"Point","coordinates":[6.87361,53.195]},"properties":{"id":78464,"name":"Noordbroek","state_code":"GR","country_code":"NL"}},{"type":"Feature","geometry":{"type":"Point","coordinates":[6.39583,53.26167]},"properties":{"id":78469,"name":"Noordhorn","state_code":"GR","country_code":"NL"}},{"type":"Feature","geometry":{"type":"Point","coordinates":[6.51667,53.33333]},"properties":{"id":78480,"name":"Obergum","state_code":"GR","country_code":"NL"}},{"type":"Feature","geometry":{"type":"Point","coordinates":[6.39583,53.30333]},"properties":{"id":78495,"name":"Oldehove","state_code":"GR","country_code":"NL"}},{"type":"Feature","geometry":{"type":"Point","coordinates":[6.90556,53.08917]},"properties":{"id":78499,"name":"Ommelanderwijk","state_code":"GR","country_code":"NL"}},{"type":"Feature","geometry":{"type":"Point","coordinates":[7.04028,53.035]},"properties":{"id":78503,"name":"Onstwedde","state_code":"GR","country_code":"NL"}},{"type":"Feature","geometry":{"type":"Point","coordinates":[6.60141,53.22892]},"properties":{"id":78518,"name":"Oosterhoogebrug","state_code":"GR","country_code":"NL"}},{"type":"Feature","geometry":{"type":"Point","coordinates":[6.5853,53.2237]},"properties":{"id":78523,"name":"Oosterpark","state_code":"GR","country_code":"NL"}},{"type":"Feature","geometry":{"type":"Point","coordinates":[7.00972,53.10417]},"properties":{"id":78558,"name":"Oude Pekela","state_code":"GR","country_code":"NL"}},{"type":"Feature","geometry":{"type":"Point","coordinates":[6.51957,53.24252]},"properties":{"id":78612,"name":"Reitdiep","state_code":"GR","country_code":"NL"}},{"type":"Feature","geometry":{"type":"Point","coordinates":[6.79028,53.16417]},"properties":{"id":78652,"name":"Sappemeer","state_code":"GR","country_code":"NL"}},{"type":"Feature","geometry":{"type":"Point","coordinates":[6.97222,53.17333]},"properties":{"id":78662,"name":"Scheemda","state_code":"GR","country_code":"NL"}},{"type":"Feature","geometry":{"type":"Point","coordinates":[6.81566,53.23327]},"properties":{"id":78673,"name":"Schildwolde","state_code":"GR","country_code":"NL"}},{"type":"Feature","geometry":{"type":"Point","coordinates":[7.15139,52.94583]},"properties":{"id":78685,"name":"Sellingen","state_code":"GR","country_code":"NL"}},{"type":"Feature","geometry":{"type":"Point","coordinates":[6.5545,53.2352]},"properties":{"id":78686,"name":"Selwerd","state_code":"GR","country_code":"NL"}},{"type":"Feature","geometry":{"type":"Point","coordinates":[6.86806,53.25]},"properties":{"id":78691,"name":"Siddeburen","state_code":"GR","country_code":"NL"}},{"type":"Feature","geometry":{"type":"Point","coordinates":[6.80547,53.22078]},"properties":{"id":78712,"name":"Slochteren","state_code":"GR","country_code":"NL"}},{"type":"Feature","geometry":{"type":"Point","coordinates":[6.8375,53.39]},"properties":{"id":78732,"name":"Spijk","state_code":"GR","country_code":"NL"}},{"type":"Feature","geometry":{"type":"Point","coordinates":[6.9504,52.98947]},"properties":{"id":78742,"name":"Stadskanaal","state_code":"GR","country_code":"NL"}},{"type":"Feature","geometry":{"type":"Point","coordinates":[6.69444,53.27583]},"properties":{"id":78768,"name":"Ten Boer","state_code":"GR","country_code":"NL"}},{"type":"Feature","geometry":{"type":"Point","coordinates":[7.05972,52.87667]},"properties":{"id":78769,"name":"Ter Apel","state_code":"GR","country_code":"NL"}},{"type":"Feature","geometry":{"type":"Point","coordinates":[6.9,53.31667]},"properties":{"id":78793,"name":"Tuikwerd","state_code":"GR","country_code":"NL"}},{"type":"Feature","geometry":{"type":"Point","coordinates":[6.67083,53.4075]},"properties":{"id":78813,"name":"Uithuizen","state_code":"GR","country_code":"NL"}},{"type":"Feature","geometry":{"type":"Point","coordinates":[6.72361,53.41417]},"properties":{"id":78814,"name":"Uithuizermeeden","state_code":"GR","country_code":"NL"}},{"type":"Feature","geometry":{"type":"Point","coordinates":[6.33333,53.35917]},"properties":{"id":78816,"name":"Ulrum","state_code":"GR","country_code":"NL"}},{"type":"Feature","geometry":{"type":"Point","coordinates":[6.61111,53.4025]},"properties":{"id":78821,"name":"Usquert","state_code":"GR","country_code":"NL"}},{"type":"Feature","geometry":{"type":"Point","coordinates":[6.87917,53.10667]},"properties":{"id":78836,"name":"Veendam","state_code":"GR","country_code":"NL"}},{"type":"Feature","geometry":{"type":"Point","coordinates":[7.10833,53.0275]},"properties":{"id":78856,"name":"Vlagtwedde","state_code":"GR","country_code":"NL"}},{"type":"Feature","geometry":{"type":"Point","coordinates":[6.93333,53.25583]},"properties":{"id":78899,"name":"Wagenborgen","state_code":"GR","country_code":"NL"}},{"type":"Feature","geometry":{"type":"Point","coordinates":[6.55833,53.3925]},"properties":{"id":78904,"name":"Warffum","state_code":"GR","country_code":"NL"}},{"type":"Feature","geometry":{"type":"Point","coordinates":[6.9875,53.14583]},"properties":{"id":78938,"name":"Westerlee","state_code":"GR","country_code":"NL"}},{"type":"Feature","geometry":{"type":"Point","coordinates":[7.15671,53.028]},"properties":{"id":78940,"name":"Westerwolde","state_code":"GR","country_code":"NL"}},{"type":"Feature","geometry":{"type":"Point","coordinates":[6.8625,53.08083]},"properties":{"id":78958,"name":"Wildervank","state_code":"GR","country_code":"NL"}},{"type":"Feature","geometry":{"type":"Point","coordinates":[7.03472,53.14417]},"properties":{"id":78963,"name":"Winschoten","state_code":"GR","country_code":"NL"}},{"type":"Feature","geometry":{"type":"Point","coordinates":[6.52083,53.33]},"properties":{"id":78964,"name":"Winsum","state_code":"GR","country_code":"NL"}},{"type":"Feature","geometry":{"type":"Point","coordinates":[6.30417,53.33917]},"properties":{"id":79021,"name":"Zoutkamp","state_code":"GR","country_code":"NL"}},{"type":"Feature","geometry":{"type":"Point","coordinates":[6.86111,53.16333]},"properties":{"id":79025,"name":"Zuidbroek","state_code":"GR","country_code":"NL"}},{"type":"Feature","geometry":{"type":"Point","coordinates":[6.40278,53.24667]},"properties":{"id":79027,"name":"Zuidhorn","state_code":"GR","country_code":"NL"}}]}