{"type":"FeatureCollection","features":[{"type":"Feature","geometry":{"type":"Point","coordinates":[80.9745285,29.0675962]},"properties":{"id":153815,"name":"Achham","state_code":"P7","country_code":"NP"}},{"type":"Feature","geometry":{"type":"Point","coordinates":[80.245342,29.5083263]},"properties":{"id":153816,"name":"Baitadi","state_code":"P7","country_code":"NP"}},{"type":"Feature","geometry":{"type":"Point","coordinates":[80.4959142,29.722111]},"properties":{"id":153817,"name":"Bajhang","state_code":"P7","country_code":"NP"}},{"type":"Feature","geometry":{"type":"Point","coordinates":[80.8294802,29.6100812]},"properties":{"id":153818,"name":"Bajura","state_code":"P7","country_code":"NP"}},{"type":"Feature","geometry":{"type":"Point","coordinates":[80.1553646,29.2093409]},"properties":{"id":153819,"name":"Dadeldhura","state_code":"P7","country_code":"NP"}},{"type":"Feature","geometry":{"type":"Point","coordinates":[80.7937159,29.9127333]},"properties":{"id":153820,"name":"Darchula","state_code":"P7","country_code":"NP"}},{"type":"Feature","geometry":{"type":"Point","coordinates":[80.5268261,29.1883361]},"properties":{"id":153821,"name":"Doti","state_code":"P7","country_code":"NP"}},{"type":"Feature","geometry":{"type":"Point","coordinates":[80.2184777,28.7309061]},"properties":{"id":153822,"name":"Kailali","state_code":"P7","country_code":"NP"}},{"type":"Feature","geometry":{"type":"Point","coordinates":[80.2833071,28.8439451]},"properties":{"id":153823,"name":"Kanchanpur","state_code":"P7","country_code":"NP"}}]}