{"type":"FeatureCollection","features":[{"type":"Feature","geometry":{"type":"Point","coordinates":[83.5435353,28.2771164]},"properties":{"id":79706,"name":"Baglung","state_code":"P4","country_code":"NP"}},{"type":"Feature","geometry":{"type":"Point","coordinates":[84.148777,28.2734627]},"properties":{"id":79709,"name":"Gorkha","state_code":"P4","country_code":"NP"}},{"type":"Feature","geometry":{"type":"Point","coordinates":[83.6598731,28.3457236]},"properties":{"id":79711,"name":"Kaski","state_code":"P4","country_code":"NP"}},{"type":"Feature","geometry":{"type":"Point","coordinates":[84.1110312,28.2830567]},"properties":{"id":79720,"name":"Lamjung","state_code":"P4","country_code":"NP"}},{"type":"Feature","geometry":{"type":"Point","coordinates":[82.9968136,28.6687281]},"properties":{"id":79721,"name":"Manang","state_code":"P4","country_code":"NP"}},{"type":"Feature","geometry":{"type":"Point","coordinates":[82.6806739,28.9439987]},"properties":{"id":79730,"name":"Mustang","state_code":"P4","country_code":"NP"}},{"type":"Feature","geometry":{"type":"Point","coordinates":[83.1559775,28.5460986]},"properties":{"id":79731,"name":"Myagdi","state_code":"P4","country_code":"NP"}},{"type":"Feature","geometry":{"type":"Point","coordinates":[83.7244287,27.6531965]},"properties":{"id":79736,"name":"Nawalpur","state_code":"P4","country_code":"NP"}},{"type":"Feature","geometry":{"type":"Point","coordinates":[83.3612186,28.2027643]},"properties":{"id":79738,"name":"Parbat","state_code":"P4","country_code":"NP"}},{"type":"Feature","geometry":{"type":"Point","coordinates":[83.406127,28.0450971]},"properties":{"id":79739,"name":"Syangja","state_code":"P4","country_code":"NP"}},{"type":"Feature","geometry":{"type":"Point","coordinates":[83.9179311,27.9356556]},"properties":{"id":79744,"name":"Tanahun","state_code":"P4","country_code":"NP"}}]}