{"type":"FeatureCollection","features":[{"type":"Feature","geometry":{"type":"Point","coordinates":[85.403867,27.6774344]},"properties":{"id":79705,"name":"Bhaktapur","state_code":"P3","country_code":"NP"}},{"type":"Feature","geometry":{"type":"Point","coordinates":[84.027934,27.6195362]},"properties":{"id":79707,"name":"Chitwan","state_code":"P3","country_code":"NP"}},{"type":"Feature","geometry":{"type":"Point","coordinates":[84.2846417,28.0072584]},"properties":{"id":79713,"name":"Dhading","state_code":"P3","country_code":"NP"}},{"type":"Feature","geometry":{"type":"Point","coordinates":[85.5599189,27.823719]},"properties":{"id":79722,"name":"Dolakha","state_code":"P3","country_code":"NP"}},{"type":"Feature","geometry":{"type":"Point","coordinates":[85.2849327,27.7090302]},"properties":{"id":79726,"name":"Kathmandu","state_code":"P3","country_code":"NP"}},{"type":"Feature","geometry":{"type":"Point","coordinates":[85.3041673,27.5453981]},"properties":{"id":79728,"name":"Kavrepalanchok","state_code":"P3","country_code":"NP"}},{"type":"Feature","geometry":{"type":"Point","coordinates":[85.0420147,27.5482023]},"properties":{"id":79729,"name":"Lalitpur","state_code":"P3","country_code":"NP"}},{"type":"Feature","geometry":{"type":"Point","coordinates":[84.757804,27.4372082]},"properties":{"id":79732,"name":"Makwanpur","state_code":"P3","country_code":"NP"}},{"type":"Feature","geometry":{"type":"Point","coordinates":[84.0596846,27.9220549]},"properties":{"id":79733,"name":"Nuwakot","state_code":"P3","country_code":"NP"}},{"type":"Feature","geometry":{"type":"Point","coordinates":[85.855351,27.5374985]},"properties":{"id":79735,"name":"Ramechhap","state_code":"P3","country_code":"NP"}},{"type":"Feature","geometry":{"type":"Point","coordinates":[84.2782312,28.1717741]},"properties":{"id":79737,"name":"Rasuwa","state_code":"P3","country_code":"NP"}},{"type":"Feature","geometry":{"type":"Point","coordinates":[85.2443715,27.1846933]},"properties":{"id":79740,"name":"Sindhuli","state_code":"P3","country_code":"NP"}},{"type":"Feature","geometry":{"type":"Point","coordinates":[85.4236067,27.9071196]},"properties":{"id":79742,"name":"Sindhupalchok","state_code":"P3","country_code":"NP"}}]}