{"type":"FeatureCollection","features":[{"type":"Feature","geometry":{"type":"Point","coordinates":[174.76349,-36.84853]},"properties":{"id":79773,"name":"Auckland","state_code":"AUK","country_code":"NZ"}},{"type":"Feature","geometry":{"type":"Point","coordinates":[174.79875,-36.96807]},"properties":{"id":79823,"name":"Mangere","state_code":"AUK","country_code":"NZ"}},{"type":"Feature","geometry":{"type":"Point","coordinates":[174.87986,-36.99282]},"properties":{"id":79824,"name":"Manukau City","state_code":"AUK","country_code":"NZ"}},{"type":"Feature","geometry":{"type":"Point","coordinates":[174.45,-36.81667]},"properties":{"id":79833,"name":"Muriwai Beach","state_code":"AUK","country_code":"NZ"}},{"type":"Feature","geometry":{"type":"Point","coordinates":[174.75019,-36.72819]},"properties":{"id":79834,"name":"Murrays Bay","state_code":"AUK","country_code":"NZ"}},{"type":"Feature","geometry":{"type":"Point","coordinates":[174.75,-36.8]},"properties":{"id":79843,"name":"North Shore","state_code":"AUK","country_code":"NZ"}},{"type":"Feature","geometry":{"type":"Point","coordinates":[174.91667,-36.88333]},"properties":{"id":79852,"name":"Pakuranga","state_code":"AUK","country_code":"NZ"}},{"type":"Feature","geometry":{"type":"Point","coordinates":[174.94393,-37.06573]},"properties":{"id":79854,"name":"Papakura","state_code":"AUK","country_code":"NZ"}},{"type":"Feature","geometry":{"type":"Point","coordinates":[174.43333,-36.65]},"properties":{"id":79856,"name":"Parakai","state_code":"AUK","country_code":"NZ"}},{"type":"Feature","geometry":{"type":"Point","coordinates":[174.95,-37.2]},"properties":{"id":79865,"name":"Pukekohe East","state_code":"AUK","country_code":"NZ"}},{"type":"Feature","geometry":{"type":"Point","coordinates":[174.97019,-37.0582]},"properties":{"id":79869,"name":"Red Hill","state_code":"AUK","country_code":"NZ"}},{"type":"Feature","geometry":{"type":"Point","coordinates":[174.66991,-36.87495]},"properties":{"id":79873,"name":"Rosebank","state_code":"AUK","country_code":"NZ"}},{"type":"Feature","geometry":{"type":"Point","coordinates":[174.74064,-36.72602]},"properties":{"id":79874,"name":"Rothesay Bay","state_code":"AUK","country_code":"NZ"}},{"type":"Feature","geometry":{"type":"Point","coordinates":[174.90019,-37.0482]},"properties":{"id":79885,"name":"Takanini","state_code":"AUK","country_code":"NZ"}},{"type":"Feature","geometry":{"type":"Point","coordinates":[174.86019,-36.8882]},"properties":{"id":79886,"name":"Tamaki","state_code":"AUK","country_code":"NZ"}},{"type":"Feature","geometry":{"type":"Point","coordinates":[174.65584,-36.93754]},"properties":{"id":79896,"name":"Titirangi","state_code":"AUK","country_code":"NZ"}},{"type":"Feature","geometry":{"type":"Point","coordinates":[174.65773,-36.91754]},"properties":{"id":79907,"name":"Waitakere","state_code":"AUK","country_code":"NZ"}},{"type":"Feature","geometry":{"type":"Point","coordinates":[174.73489,-37.24806]},"properties":{"id":79910,"name":"Waiuku","state_code":"AUK","country_code":"NZ"}},{"type":"Feature","geometry":{"type":"Point","coordinates":[174.66667,-36.4]},"properties":{"id":79914,"name":"Warkworth","state_code":"AUK","country_code":"NZ"}},{"type":"Feature","geometry":{"type":"Point","coordinates":[174.51667,-36.28333]},"properties":{"id":79917,"name":"Wellsford","state_code":"AUK","country_code":"NZ"}},{"type":"Feature","geometry":{"type":"Point","coordinates":[174.86019,-36.9982]},"properties":{"id":79924,"name":"Wiri","state_code":"AUK","country_code":"NZ"}}]}