{"type":"FeatureCollection","features":[{"type":"Feature","geometry":{"type":"Point","coordinates":[176.83333,-37.98333]},"properties":{"id":79791,"name":"Edgecumbe","state_code":"BOP","country_code":"NZ"}},{"type":"Feature","geometry":{"type":"Point","coordinates":[175.91667,-37.55]},"properties":{"id":79809,"name":"Katikati","state_code":"BOP","country_code":"NZ"}},{"type":"Feature","geometry":{"type":"Point","coordinates":[176.7,-38.1]},"properties":{"id":79811,"name":"Kawerau","state_code":"BOP","country_code":"NZ"}},{"type":"Feature","geometry":{"type":"Point","coordinates":[176.45,-37.76667]},"properties":{"id":79821,"name":"Maketu","state_code":"BOP","country_code":"NZ"}},{"type":"Feature","geometry":{"type":"Point","coordinates":[176.7,-38.46667]},"properties":{"id":79835,"name":"Murupara","state_code":"BOP","country_code":"NZ"}},{"type":"Feature","geometry":{"type":"Point","coordinates":[177.28706,-38.00915]},"properties":{"id":79845,"name":"Opotiki","state_code":"BOP","country_code":"NZ"}},{"type":"Feature","geometry":{"type":"Point","coordinates":[176.24516,-38.13874]},"properties":{"id":79875,"name":"Rotorua","state_code":"BOP","country_code":"NZ"}},{"type":"Feature","geometry":{"type":"Point","coordinates":[176.16667,-37.68611]},"properties":{"id":79889,"name":"Tauranga","state_code":"BOP","country_code":"NZ"}},{"type":"Feature","geometry":{"type":"Point","coordinates":[175.93333,-37.4]},"properties":{"id":79901,"name":"Waihi Beach","state_code":"BOP","country_code":"NZ"}},{"type":"Feature","geometry":{"type":"Point","coordinates":[176.98545,-37.95855]},"properties":{"id":79919,"name":"Whakatane","state_code":"BOP","country_code":"NZ"}}]}