{"type":"FeatureCollection","features":[{"type":"Feature","geometry":{"type":"Point","coordinates":[174.76257,-41.30586]},"properties":{"id":79778,"name":"Brooklyn","state_code":"WGN","country_code":"NZ"}},{"type":"Feature","geometry":{"type":"Point","coordinates":[176.21667,-40.9]},"properties":{"id":79782,"name":"Castlepoint","state_code":"WGN","country_code":"NZ"}},{"type":"Feature","geometry":{"type":"Point","coordinates":[175.1469,-40.85682]},"properties":{"id":79808,"name":"Kapiti Coast","state_code":"WGN","country_code":"NZ"}},{"type":"Feature","geometry":{"type":"Point","coordinates":[174.76667,-41.28333]},"properties":{"id":79812,"name":"Kelburn","state_code":"WGN","country_code":"NZ"}},{"type":"Feature","geometry":{"type":"Point","coordinates":[174.79422,-41.245]},"properties":{"id":79814,"name":"Khandallah","state_code":"WGN","country_code":"NZ"}},{"type":"Feature","geometry":{"type":"Point","coordinates":[174.91667,-41.21667]},"properties":{"id":79819,"name":"Lower Hutt","state_code":"WGN","country_code":"NZ"}},{"type":"Feature","geometry":{"type":"Point","coordinates":[175.6575,-40.95972]},"properties":{"id":79826,"name":"Masterton","state_code":"WGN","country_code":"NZ"}},{"type":"Feature","geometry":{"type":"Point","coordinates":[175.15,-40.75833]},"properties":{"id":79847,"name":"Otaki","state_code":"WGN","country_code":"NZ"}},{"type":"Feature","geometry":{"type":"Point","coordinates":[175.01667,-40.91667]},"properties":{"id":79857,"name":"Paraparaumu","state_code":"WGN","country_code":"NZ"}},{"type":"Feature","geometry":{"type":"Point","coordinates":[174.87019,-41.22827]},"properties":{"id":79859,"name":"Petone","state_code":"WGN","country_code":"NZ"}},{"type":"Feature","geometry":{"type":"Point","coordinates":[174.85,-41.13333]},"properties":{"id":79862,"name":"Porirua","state_code":"WGN","country_code":"NZ"}},{"type":"Feature","geometry":{"type":"Point","coordinates":[175.38442,-41.26731]},"properties":{"id":79880,"name":"South Wairarapa","state_code":"WGN","country_code":"NZ"}},{"type":"Feature","geometry":{"type":"Point","coordinates":[175.0502,-41.13827]},"properties":{"id":79899,"name":"Upper Hutt","state_code":"WGN","country_code":"NZ"}},{"type":"Feature","geometry":{"type":"Point","coordinates":[175.51528,-41.41222]},"properties":{"id":79905,"name":"Waipawa","state_code":"WGN","country_code":"NZ"}},{"type":"Feature","geometry":{"type":"Point","coordinates":[174.77557,-41.28664]},"properties":{"id":79915,"name":"Wellington","state_code":"WGN","country_code":"NZ"}}]}