{"type":"FeatureCollection","features":[{"type":"Feature","geometry":{"type":"Point","coordinates":[171.2,-42.46667]},"properties":{"id":79798,"name":"Greymouth","state_code":"WTC","country_code":"NZ"}},{"type":"Feature","geometry":{"type":"Point","coordinates":[170.96667,-42.71667]},"properties":{"id":79802,"name":"Hokitika","state_code":"WTC","country_code":"NZ"}},{"type":"Feature","geometry":{"type":"Point","coordinates":[171.6037,-41.75262]},"properties":{"id":79918,"name":"Westport","state_code":"WTC","country_code":"NZ"}}]}