{"type":"FeatureCollection","features":[{"type":"Feature","geometry":{"type":"Point","coordinates":[-79.84551,8.84213]},"properties":{"id":79966,"name":"Alto del Espino","state_code":"10","country_code":"PA"}},{"type":"Feature","geometry":{"type":"Point","coordinates":[-79.79,8.86167]},"properties":{"id":79967,"name":"Altos de San Francisco","state_code":"10","country_code":"PA"}},{"type":"Feature","geometry":{"type":"Point","coordinates":[-79.95128,9.03978]},"properties":{"id":79971,"name":"Arenosa","state_code":"10","country_code":"PA"}},{"type":"Feature","geometry":{"type":"Point","coordinates":[-79.96641,8.97091]},"properties":{"id":79972,"name":"Arosemena","state_code":"10","country_code":"PA"}},{"type":"Feature","geometry":{"type":"Point","coordinates":[-79.66011,8.95187]},"properties":{"id":79973,"name":"Arraiján","state_code":"10","country_code":"PA"}},{"type":"Feature","geometry":{"type":"Point","coordinates":[-79.88988,8.60037]},"properties":{"id":79989,"name":"Bejuco","state_code":"10","country_code":"PA"}},{"type":"Feature","geometry":{"type":"Point","coordinates":[-79.87996,8.75636]},"properties":{"id":80033,"name":"Capira","state_code":"10","country_code":"PA"}},{"type":"Feature","geometry":{"type":"Point","coordinates":[-79.85299,8.74082]},"properties":{"id":80044,"name":"Cermeño","state_code":"10","country_code":"PA"}},{"type":"Feature","geometry":{"type":"Point","coordinates":[-79.90744,9.02802]},"properties":{"id":80047,"name":"Cerro Cama","state_code":"10","country_code":"PA"}},{"type":"Feature","geometry":{"type":"Point","coordinates":[-79.88595,8.57753]},"properties":{"id":80053,"name":"Chame","state_code":"10","country_code":"PA"}},{"type":"Feature","geometry":{"type":"Point","coordinates":[-80.09209,8.97206]},"properties":{"id":80069,"name":"Cirí de Los Sotos","state_code":"10","country_code":"PA"}},{"type":"Feature","geometry":{"type":"Point","coordinates":[-79.7,8.95]},"properties":{"id":80083,"name":"Distrito Arraiján","state_code":"10","country_code":"PA"}},{"type":"Feature","geometry":{"type":"Point","coordinates":[-79.88275,8.76228]},"properties":{"id":80097,"name":"Distrito de Capira","state_code":"10","country_code":"PA"}},{"type":"Feature","geometry":{"type":"Point","coordinates":[-79.91667,8.6]},"properties":{"id":80100,"name":"Distrito de Chame","state_code":"10","country_code":"PA"}},{"type":"Feature","geometry":{"type":"Point","coordinates":[-79.85,8.95]},"properties":{"id":80112,"name":"Distrito de La Chorrera","state_code":"10","country_code":"PA"}},{"type":"Feature","geometry":{"type":"Point","coordinates":[-80.06906,8.53196]},"properties":{"id":80135,"name":"Distrito de San Carlos","state_code":"10","country_code":"PA"}},{"type":"Feature","geometry":{"type":"Point","coordinates":[-80.01294,8.76134]},"properties":{"id":80151,"name":"El Cacao","state_code":"10","country_code":"PA"}},{"type":"Feature","geometry":{"type":"Point","coordinates":[-79.80415,8.87009]},"properties":{"id":80163,"name":"El Coco","state_code":"10","country_code":"PA"}},{"type":"Feature","geometry":{"type":"Point","coordinates":[-79.87584,8.66161]},"properties":{"id":80171,"name":"El Espavé","state_code":"10","country_code":"PA"}},{"type":"Feature","geometry":{"type":"Point","coordinates":[-79.84925,8.83795]},"properties":{"id":80172,"name":"El Espino","state_code":"10","country_code":"PA"}},{"type":"Feature","geometry":{"type":"Point","coordinates":[-80.03603,8.44731]},"properties":{"id":80178,"name":"El Higo","state_code":"10","country_code":"PA"}},{"type":"Feature","geometry":{"type":"Point","coordinates":[-79.83483,8.61685]},"properties":{"id":80179,"name":"El Líbano","state_code":"10","country_code":"PA"}},{"type":"Feature","geometry":{"type":"Point","coordinates":[-79.81408,8.85452]},"properties":{"id":80219,"name":"Guadalupe","state_code":"10","country_code":"PA"}},{"type":"Feature","geometry":{"type":"Point","coordinates":[-80.0135,8.54828]},"properties":{"id":80226,"name":"Guayabito","state_code":"10","country_code":"PA"}},{"type":"Feature","geometry":{"type":"Point","coordinates":[-79.73915,8.91938]},"properties":{"id":80232,"name":"Hato Montaña","state_code":"10","country_code":"PA"}},{"type":"Feature","geometry":{"type":"Point","coordinates":[-79.78333,8.88028]},"properties":{"id":80243,"name":"La Chorrera","state_code":"10","country_code":"PA"}},{"type":"Feature","geometry":{"type":"Point","coordinates":[-80.06835,8.45622]},"properties":{"id":80250,"name":"La Ermita","state_code":"10","country_code":"PA"}},{"type":"Feature","geometry":{"type":"Point","coordinates":[-79.80404,8.84848]},"properties":{"id":80257,"name":"La Herradura","state_code":"10","country_code":"PA"}},{"type":"Feature","geometry":{"type":"Point","coordinates":[-79.78648,8.84091]},"properties":{"id":80268,"name":"La Mitra","state_code":"10","country_code":"PA"}},{"type":"Feature","geometry":{"type":"Point","coordinates":[-79.82374,8.85073]},"properties":{"id":80273,"name":"La Pesa","state_code":"10","country_code":"PA"}},{"type":"Feature","geometry":{"type":"Point","coordinates":[-80.08333,8.55]},"properties":{"id":80286,"name":"Las Colinas","state_code":"10","country_code":"PA"}},{"type":"Feature","geometry":{"type":"Point","coordinates":[-80.00075,8.45937]},"properties":{"id":80308,"name":"Las Uvas","state_code":"10","country_code":"PA"}},{"type":"Feature","geometry":{"type":"Point","coordinates":[-80.09503,8.59787]},"properties":{"id":80336,"name":"Los Llanitos","state_code":"10","country_code":"PA"}},{"type":"Feature","geometry":{"type":"Point","coordinates":[-79.85073,9.01471]},"properties":{"id":80352,"name":"Mendoza","state_code":"10","country_code":"PA"}},{"type":"Feature","geometry":{"type":"Point","coordinates":[-79.99472,8.86944]},"properties":{"id":80371,"name":"Nueva Arenosa","state_code":"10","country_code":"PA"}},{"type":"Feature","geometry":{"type":"Point","coordinates":[-79.87547,8.55]},"properties":{"id":80373,"name":"Nueva Gorgona","state_code":"10","country_code":"PA"}},{"type":"Feature","geometry":{"type":"Point","coordinates":[-79.72004,8.92453]},"properties":{"id":80374,"name":"Nuevo Arraiján","state_code":"10","country_code":"PA"}},{"type":"Feature","geometry":{"type":"Point","coordinates":[-79.73141,9.00273]},"properties":{"id":80377,"name":"Nuevo Emperador","state_code":"10","country_code":"PA"}},{"type":"Feature","geometry":{"type":"Point","coordinates":[-79.77547,8.78389]},"properties":{"id":80416,"name":"Playa Leona","state_code":"10","country_code":"PA"}},{"type":"Feature","geometry":{"type":"Point","coordinates":[-79.82795,8.88051]},"properties":{"id":80426,"name":"Potrero Grande","state_code":"10","country_code":"PA"}},{"type":"Feature","geometry":{"type":"Point","coordinates":[-79.71423,8.87022]},"properties":{"id":80432,"name":"Puerto Caimito","state_code":"10","country_code":"PA"}},{"type":"Feature","geometry":{"type":"Point","coordinates":[-79.76105,8.96666]},"properties":{"id":80458,"name":"Río Congo","state_code":"10","country_code":"PA"}},{"type":"Feature","geometry":{"type":"Point","coordinates":[-79.96104,8.47323]},"properties":{"id":80474,"name":"San Carlos","state_code":"10","country_code":"PA"}},{"type":"Feature","geometry":{"type":"Point","coordinates":[-79.73333,8.93333]},"properties":{"id":80481,"name":"San José","state_code":"10","country_code":"PA"}},{"type":"Feature","geometry":{"type":"Point","coordinates":[-79.6736,8.91143]},"properties":{"id":80495,"name":"San Vicente de Bique","state_code":"10","country_code":"PA"}},{"type":"Feature","geometry":{"type":"Point","coordinates":[-79.75443,9.02875]},"properties":{"id":80497,"name":"Santa Clara","state_code":"10","country_code":"PA"}},{"type":"Feature","geometry":{"type":"Point","coordinates":[-79.87954,8.85681]},"properties":{"id":80505,"name":"Santa Rita","state_code":"10","country_code":"PA"}},{"type":"Feature","geometry":{"type":"Point","coordinates":[-80.00888,8.63191]},"properties":{"id":80518,"name":"Sorá","state_code":"10","country_code":"PA"}},{"type":"Feature","geometry":{"type":"Point","coordinates":[-79.62603,8.88988]},"properties":{"id":80540,"name":"Veracruz","state_code":"10","country_code":"PA"}},{"type":"Feature","geometry":{"type":"Point","coordinates":[-79.86929,8.79832]},"properties":{"id":80543,"name":"Villa Carmen","state_code":"10","country_code":"PA"}},{"type":"Feature","geometry":{"type":"Point","coordinates":[-79.87547,8.77379]},"properties":{"id":80545,"name":"Villa Rosario","state_code":"10","country_code":"PA"}},{"type":"Feature","geometry":{"type":"Point","coordinates":[-79.7028,8.92772]},"properties":{"id":80547,"name":"Vista Alegre","state_code":"10","country_code":"PA"}}]}