{"type":"FeatureCollection","features":[{"type":"Feature","geometry":{"type":"Point","coordinates":[-77.58978,8.03003]},"properties":{"id":79997,"name":"Boca de Cupé","state_code":"5","country_code":"PA"}},{"type":"Feature","geometry":{"type":"Point","coordinates":[-77.88682,8.04171]},"properties":{"id":80030,"name":"Camogantí","state_code":"5","country_code":"PA"}},{"type":"Feature","geometry":{"type":"Point","coordinates":[-78.25671,8.57508]},"properties":{"id":80079,"name":"Cucunatí","state_code":"5","country_code":"PA"}},{"type":"Feature","geometry":{"type":"Point","coordinates":[-77.8383,7.84374]},"properties":{"id":80102,"name":"Distrito de Chepigana","state_code":"5","country_code":"PA"}},{"type":"Feature","geometry":{"type":"Point","coordinates":[-77.52562,7.89343]},"properties":{"id":80129,"name":"Distrito de Pinogana","state_code":"5","country_code":"PA"}},{"type":"Feature","geometry":{"type":"Point","coordinates":[-78.36436,8.06684]},"properties":{"id":80212,"name":"Garachiné","state_code":"5","country_code":"PA"}},{"type":"Feature","geometry":{"type":"Point","coordinates":[-78.16343,7.51826]},"properties":{"id":80236,"name":"Jaqué","state_code":"5","country_code":"PA"}},{"type":"Feature","geometry":{"type":"Point","coordinates":[-77.97897,8.49909]},"properties":{"id":80353,"name":"Metetí","state_code":"5","country_code":"PA"}},{"type":"Feature","geometry":{"type":"Point","coordinates":[-77.97539,8.84246]},"properties":{"id":80362,"name":"Mortí","state_code":"5","country_code":"PA"}},{"type":"Feature","geometry":{"type":"Point","coordinates":[-77.48758,7.97876]},"properties":{"id":80442,"name":"Púcuro","state_code":"5","country_code":"PA"}},{"type":"Feature","geometry":{"type":"Point","coordinates":[-77.69276,8.15835]},"properties":{"id":80552,"name":"Yaviza","state_code":"5","country_code":"PA"}}]}