{"type":"FeatureCollection","features":[{"type":"Feature","geometry":{"type":"Point","coordinates":[-81.48412,8.26152]},"properties":{"id":79964,"name":"Alto de Jesús","state_code":"9","country_code":"PA"}},{"type":"Feature","geometry":{"type":"Point","coordinates":[-80.86268,7.36865]},"properties":{"id":79970,"name":"Arenas","state_code":"9","country_code":"PA"}},{"type":"Feature","geometry":{"type":"Point","coordinates":[-80.92528,8.04213]},"properties":{"id":79975,"name":"Atalaya","state_code":"9","country_code":"PA"}},{"type":"Feature","geometry":{"type":"Point","coordinates":[-80.77765,8.4046]},"properties":{"id":79981,"name":"Barnizal","state_code":"9","country_code":"PA"}},{"type":"Feature","geometry":{"type":"Point","coordinates":[-81.22092,8.18298]},"properties":{"id":79994,"name":"Bisvalles","state_code":"9","country_code":"PA"}},{"type":"Feature","geometry":{"type":"Point","coordinates":[-81.30071,8.16933]},"properties":{"id":80004,"name":"Boró","state_code":"9","country_code":"PA"}},{"type":"Feature","geometry":{"type":"Point","coordinates":[-81.08187,8.24817]},"properties":{"id":80022,"name":"Calabacito","state_code":"9","country_code":"PA"}},{"type":"Feature","geometry":{"type":"Point","coordinates":[-81.38633,7.95756]},"properties":{"id":80024,"name":"Calidonia","state_code":"9","country_code":"PA"}},{"type":"Feature","geometry":{"type":"Point","coordinates":[-80.84067,8.31886]},"properties":{"id":80025,"name":"Calobre","state_code":"9","country_code":"PA"}},{"type":"Feature","geometry":{"type":"Point","coordinates":[-81.21056,8.78703]},"properties":{"id":80026,"name":"Calovébora","state_code":"9","country_code":"PA"}},{"type":"Feature","geometry":{"type":"Point","coordinates":[-81.21152,8.32004]},"properties":{"id":80040,"name":"Cañazas","state_code":"9","country_code":"PA"}},{"type":"Feature","geometry":{"type":"Point","coordinates":[-80.96374,8.12472]},"properties":{"id":80031,"name":"Canto del Llano","state_code":"9","country_code":"PA"}},{"type":"Feature","geometry":{"type":"Point","coordinates":[-81.4399,8.07712]},"properties":{"id":80076,"name":"Corozal","state_code":"9","country_code":"PA"}},{"type":"Feature","geometry":{"type":"Point","coordinates":[-80.91739,8.02899]},"properties":{"id":80089,"name":"Distrito de Atalaya","state_code":"9","country_code":"PA"}},{"type":"Feature","geometry":{"type":"Point","coordinates":[-80.85124,8.39684]},"properties":{"id":80096,"name":"Distrito de Calobre","state_code":"9","country_code":"PA"}},{"type":"Feature","geometry":{"type":"Point","coordinates":[-81.28633,8.35596]},"properties":{"id":80098,"name":"Distrito de Cañazas","state_code":"9","country_code":"PA"}},{"type":"Feature","geometry":{"type":"Point","coordinates":[-81.17767,8.10976]},"properties":{"id":80113,"name":"Distrito de La Mesa","state_code":"9","country_code":"PA"}},{"type":"Feature","geometry":{"type":"Point","coordinates":[-81.42849,8.14532]},"properties":{"id":80116,"name":"Distrito de Las Palmas","state_code":"9","country_code":"PA"}},{"type":"Feature","geometry":{"type":"Point","coordinates":[-81.05301,7.95316]},"properties":{"id":80121,"name":"Distrito de Montijo","state_code":"9","country_code":"PA"}},{"type":"Feature","geometry":{"type":"Point","coordinates":[-81.16133,7.91438]},"properties":{"id":80134,"name":"Distrito de Río de Jesús","state_code":"9","country_code":"PA"}},{"type":"Feature","geometry":{"type":"Point","coordinates":[-81.00108,8.26965]},"properties":{"id":80136,"name":"Distrito de San Francisco","state_code":"9","country_code":"PA"}},{"type":"Feature","geometry":{"type":"Point","coordinates":[-80.95858,8.72063]},"properties":{"id":80139,"name":"Distrito de Santa Fé","state_code":"9","country_code":"PA"}},{"type":"Feature","geometry":{"type":"Point","coordinates":[-80.87827,8.12425]},"properties":{"id":80142,"name":"Distrito de Santiago","state_code":"9","country_code":"PA"}},{"type":"Feature","geometry":{"type":"Point","coordinates":[-81.36612,7.84378]},"properties":{"id":80143,"name":"Distrito de Soná","state_code":"9","country_code":"PA"}},{"type":"Feature","geometry":{"type":"Point","coordinates":[-81.03646,8.51191]},"properties":{"id":80149,"name":"El Alto","state_code":"9","country_code":"PA"}},{"type":"Feature","geometry":{"type":"Point","coordinates":[-80.94801,7.96059]},"properties":{"id":80150,"name":"El Barrito","state_code":"9","country_code":"PA"}},{"type":"Feature","geometry":{"type":"Point","coordinates":[-80.92069,8.32143]},"properties":{"id":80162,"name":"El Coclá","state_code":"9","country_code":"PA"}},{"type":"Feature","geometry":{"type":"Point","coordinates":[-80.8238,8.09286]},"properties":{"id":80173,"name":"El Espino de Santa Rosa","state_code":"9","country_code":"PA"}},{"type":"Feature","geometry":{"type":"Point","coordinates":[-81.21489,8.03582]},"properties":{"id":80182,"name":"El Marañón","state_code":"9","country_code":"PA"}},{"type":"Feature","geometry":{"type":"Point","coordinates":[-81.44384,8.02905]},"properties":{"id":80183,"name":"El María","state_code":"9","country_code":"PA"}},{"type":"Feature","geometry":{"type":"Point","coordinates":[-81.12154,7.95342]},"properties":{"id":80197,"name":"El Pájaro","state_code":"9","country_code":"PA"}},{"type":"Feature","geometry":{"type":"Point","coordinates":[-81.06941,8.53755]},"properties":{"id":80187,"name":"El Pantano","state_code":"9","country_code":"PA"}},{"type":"Feature","geometry":{"type":"Point","coordinates":[-80.9762,8.35]},"properties":{"id":80190,"name":"El Peñón","state_code":"9","country_code":"PA"}},{"type":"Feature","geometry":{"type":"Point","coordinates":[-81.25621,8.37803]},"properties":{"id":80191,"name":"El Picador","state_code":"9","country_code":"PA"}},{"type":"Feature","geometry":{"type":"Point","coordinates":[-80.79434,8.37692]},"properties":{"id":80194,"name":"El Potrero","state_code":"9","country_code":"PA"}},{"type":"Feature","geometry":{"type":"Point","coordinates":[-81.43333,8.18422]},"properties":{"id":80199,"name":"El Rincón","state_code":"9","country_code":"PA"}},{"type":"Feature","geometry":{"type":"Point","coordinates":[-80.98461,8.11648]},"properties":{"id":80205,"name":"El Uvito","state_code":"9","country_code":"PA"}},{"type":"Feature","geometry":{"type":"Point","coordinates":[-81.25904,7.79404]},"properties":{"id":80223,"name":"Guarumal","state_code":"9","country_code":"PA"}},{"type":"Feature","geometry":{"type":"Point","coordinates":[-81.01643,7.93708]},"properties":{"id":80255,"name":"La Garceana","state_code":"9","country_code":"PA"}},{"type":"Feature","geometry":{"type":"Point","coordinates":[-80.72949,8.33882]},"properties":{"id":80258,"name":"La Laguna","state_code":"9","country_code":"PA"}},{"type":"Feature","geometry":{"type":"Point","coordinates":[-80.89118,7.43708]},"properties":{"id":80261,"name":"La Loma","state_code":"9","country_code":"PA"}},{"type":"Feature","geometry":{"type":"Point","coordinates":[-80.86325,8.02487]},"properties":{"id":80269,"name":"La Montañuela","state_code":"9","country_code":"PA"}},{"type":"Feature","geometry":{"type":"Point","coordinates":[-81.02693,8.12784]},"properties":{"id":80274,"name":"La Peña","state_code":"9","country_code":"PA"}},{"type":"Feature","geometry":{"type":"Point","coordinates":[-80.82729,8.2163]},"properties":{"id":80276,"name":"La Raya de Calobre","state_code":"9","country_code":"PA"}},{"type":"Feature","geometry":{"type":"Point","coordinates":[-80.82143,8.16429]},"properties":{"id":80277,"name":"La Raya de Santa María","state_code":"9","country_code":"PA"}},{"type":"Feature","geometry":{"type":"Point","coordinates":[-80.85752,8.4306]},"properties":{"id":80281,"name":"La Yeguada","state_code":"9","country_code":"PA"}},{"type":"Feature","geometry":{"type":"Point","coordinates":[-80.75494,8.19451]},"properties":{"id":80291,"name":"Las Guías Abajo","state_code":"9","country_code":"PA"}},{"type":"Feature","geometry":{"type":"Point","coordinates":[-81.14056,7.90167]},"properties":{"id":80292,"name":"Las Huacas","state_code":"9","country_code":"PA"}},{"type":"Feature","geometry":{"type":"Point","coordinates":[-81.11556,7.75415]},"properties":{"id":80309,"name":"Leones Arriba","state_code":"9","country_code":"PA"}},{"type":"Feature","geometry":{"type":"Point","coordinates":[-81.47163,8.09326]},"properties":{"id":80324,"name":"Lolá","state_code":"9","country_code":"PA"}},{"type":"Feature","geometry":{"type":"Point","coordinates":[-81.01355,8.10898]},"properties":{"id":80326,"name":"Los Algarrobos","state_code":"9","country_code":"PA"}},{"type":"Feature","geometry":{"type":"Point","coordinates":[-81.11941,8.02326]},"properties":{"id":80331,"name":"Los Castillos","state_code":"9","country_code":"PA"}},{"type":"Feature","geometry":{"type":"Point","coordinates":[-80.86022,8.20553]},"properties":{"id":80335,"name":"Los Higos","state_code":"9","country_code":"PA"}},{"type":"Feature","geometry":{"type":"Point","coordinates":[-81.00409,7.6781]},"properties":{"id":80349,"name":"Mariato","state_code":"9","country_code":"PA"}},{"type":"Feature","geometry":{"type":"Point","coordinates":[-80.86667,8.36942]},"properties":{"id":80359,"name":"Monjarás","state_code":"9","country_code":"PA"}},{"type":"Feature","geometry":{"type":"Point","coordinates":[-81.05643,7.98858]},"properties":{"id":80361,"name":"Montijo","state_code":"9","country_code":"PA"}},{"type":"Feature","geometry":{"type":"Point","coordinates":[-80.91152,8.52419]},"properties":{"id":80411,"name":"Piedras Gordas","state_code":"9","country_code":"PA"}},{"type":"Feature","geometry":{"type":"Point","coordinates":[-80.9788,7.88245]},"properties":{"id":80421,"name":"Ponuga","state_code":"9","country_code":"PA"}},{"type":"Feature","geometry":{"type":"Point","coordinates":[-81.60499,8.04834]},"properties":{"id":80436,"name":"Puerto Vidal","state_code":"9","country_code":"PA"}},{"type":"Feature","geometry":{"type":"Point","coordinates":[-81.38692,8.03548]},"properties":{"id":80446,"name":"Quebrada de Oro","state_code":"9","country_code":"PA"}},{"type":"Feature","geometry":{"type":"Point","coordinates":[-81.16162,7.97882]},"properties":{"id":80466,"name":"Río de Jesús","state_code":"9","country_code":"PA"}},{"type":"Feature","geometry":{"type":"Point","coordinates":[-81.33423,7.71907]},"properties":{"id":80460,"name":"Río Grande","state_code":"9","country_code":"PA"}},{"type":"Feature","geometry":{"type":"Point","coordinates":[-81.31684,8.11205]},"properties":{"id":80454,"name":"Rodeo Viejo","state_code":"9","country_code":"PA"}},{"type":"Feature","geometry":{"type":"Point","coordinates":[-81.27572,8.21063]},"properties":{"id":80473,"name":"San Bartolo","state_code":"9","country_code":"PA"}},{"type":"Feature","geometry":{"type":"Point","coordinates":[-81.36667,8.06667]},"properties":{"id":80477,"name":"San Francisco","state_code":"9","country_code":"PA"}},{"type":"Feature","geometry":{"type":"Point","coordinates":[-81.01575,8.30311]},"properties":{"id":80484,"name":"San Juan","state_code":"9","country_code":"PA"}},{"type":"Feature","geometry":{"type":"Point","coordinates":[-81.15988,8.27252]},"properties":{"id":80488,"name":"San Marcelo","state_code":"9","country_code":"PA"}},{"type":"Feature","geometry":{"type":"Point","coordinates":[-81.08663,8.14011]},"properties":{"id":80493,"name":"San Pedro del Espino","state_code":"9","country_code":"PA"}},{"type":"Feature","geometry":{"type":"Point","coordinates":[-81.07802,8.51063]},"properties":{"id":80500,"name":"Santa Fé","state_code":"9","country_code":"PA"}},{"type":"Feature","geometry":{"type":"Point","coordinates":[-80.98333,8.1]},"properties":{"id":80508,"name":"Santiago de Veraguas","state_code":"9","country_code":"PA"}},{"type":"Feature","geometry":{"type":"Point","coordinates":[-81.32163,8.01223]},"properties":{"id":80516,"name":"Soná","state_code":"9","country_code":"PA"}},{"type":"Feature","geometry":{"type":"Point","coordinates":[-80.97825,7.71369]},"properties":{"id":80519,"name":"Tebario","state_code":"9","country_code":"PA"}},{"type":"Feature","geometry":{"type":"Point","coordinates":[-81.21777,7.97208]},"properties":{"id":80535,"name":"Utirá","state_code":"9","country_code":"PA"}},{"type":"Feature","geometry":{"type":"Point","coordinates":[-81.49823,8.33921]},"properties":{"id":80542,"name":"Viguí","state_code":"9","country_code":"PA"}},{"type":"Feature","geometry":{"type":"Point","coordinates":[-81.50653,8.00532]},"properties":{"id":80553,"name":"Zapotillo","state_code":"9","country_code":"PA"}}]}