{"type":"FeatureCollection","features":[{"type":"Feature","geometry":{"type":"Point","coordinates":[-77.98729,9.19827]},"properties":{"id":79954,"name":"Achutupo","state_code":"KY","country_code":"PA"}},{"type":"Feature","geometry":{"type":"Point","coordinates":[-78.02778,9.2281]},"properties":{"id":79958,"name":"Ailigandí","state_code":"KY","country_code":"PA"}},{"type":"Feature","geometry":{"type":"Point","coordinates":[-78.95931,9.4646]},"properties":{"id":80034,"name":"Cartí Sugdup","state_code":"KY","country_code":"PA"}},{"type":"Feature","geometry":{"type":"Point","coordinates":[-77.7508,8.94672]},"properties":{"id":80363,"name":"Mulatupo","state_code":"KY","country_code":"PA"}},{"type":"Feature","geometry":{"type":"Point","coordinates":[-78.58666,9.44394]},"properties":{"id":80365,"name":"Narganá","state_code":"KY","country_code":"PA"}},{"type":"Feature","geometry":{"type":"Point","coordinates":[-78.2327,9.31128]},"properties":{"id":80417,"name":"Playón Chico","state_code":"KY","country_code":"PA"}},{"type":"Feature","geometry":{"type":"Point","coordinates":[-77.41922,8.66632]},"properties":{"id":80434,"name":"Puerto Obaldía","state_code":"KY","country_code":"PA"}},{"type":"Feature","geometry":{"type":"Point","coordinates":[-78.15206,9.28905]},"properties":{"id":80479,"name":"San Ignacio de Tupile","state_code":"KY","country_code":"PA"}},{"type":"Feature","geometry":{"type":"Point","coordinates":[-79.03333,9.51667]},"properties":{"id":80530,"name":"Tubualá","state_code":"KY","country_code":"PA"}},{"type":"Feature","geometry":{"type":"Point","coordinates":[-77.9262,9.13112]},"properties":{"id":80534,"name":"Ustupo","state_code":"KY","country_code":"PA"}}]}