{"type":"FeatureCollection","features":[{"type":"Feature","geometry":{"type":"Point","coordinates":[-78.53333,-6.68333]},"properties":{"id":80573,"name":"Bambamarca","state_code":"CAJ","country_code":"PE"}},{"type":"Feature","geometry":{"type":"Point","coordinates":[-78.05,-7.61667]},"properties":{"id":80580,"name":"Cajabamba","state_code":"CAJ","country_code":"PE"}},{"type":"Feature","geometry":{"type":"Point","coordinates":[-78.50027,-7.16378]},"properties":{"id":80581,"name":"Cajamarca","state_code":"CAJ","country_code":"PE"}},{"type":"Feature","geometry":{"type":"Point","coordinates":[-78.14585,-6.8659]},"properties":{"id":80600,"name":"Celendín","state_code":"CAJ","country_code":"PE"}},{"type":"Feature","geometry":{"type":"Point","coordinates":[-78.65,-6.55]},"properties":{"id":80623,"name":"Chota","state_code":"CAJ","country_code":"PE"}},{"type":"Feature","geometry":{"type":"Point","coordinates":[-78.80785,-5.70729]},"properties":{"id":80678,"name":"Jaén","state_code":"CAJ","country_code":"PE"}},{"type":"Feature","geometry":{"type":"Point","coordinates":[-78.16667,-7.5]},"properties":{"id":80785,"name":"Provincia de Cajabamba","state_code":"CAJ","country_code":"PE"}},{"type":"Feature","geometry":{"type":"Point","coordinates":[-78.41667,-7.33333]},"properties":{"id":80786,"name":"Provincia de Cajamarca","state_code":"CAJ","country_code":"PE"}},{"type":"Feature","geometry":{"type":"Point","coordinates":[-78.25,-6.83333]},"properties":{"id":80802,"name":"Provincia de Celendín","state_code":"CAJ","country_code":"PE"}},{"type":"Feature","geometry":{"type":"Point","coordinates":[-79.18055,-6.38332]},"properties":{"id":80806,"name":"Provincia de Chota","state_code":"CAJ","country_code":"PE"}},{"type":"Feature","geometry":{"type":"Point","coordinates":[-78.91667,-7.33333]},"properties":{"id":80814,"name":"Provincia de Contumazá","state_code":"CAJ","country_code":"PE"}},{"type":"Feature","geometry":{"type":"Point","coordinates":[-78.85,-6.36667]},"properties":{"id":80819,"name":"Provincia de Cutervo","state_code":"CAJ","country_code":"PE"}},{"type":"Feature","geometry":{"type":"Point","coordinates":[-78.53,-6.68]},"properties":{"id":80826,"name":"Provincia de Hualgayoc","state_code":"CAJ","country_code":"PE"}},{"type":"Feature","geometry":{"type":"Point","coordinates":[-79.00438,-5.71074]},"properties":{"id":80847,"name":"Provincia de Jaén","state_code":"CAJ","country_code":"PE"}},{"type":"Feature","geometry":{"type":"Point","coordinates":[-79,-5.08333]},"properties":{"id":80886,"name":"Provincia de San Ignacio","state_code":"CAJ","country_code":"PE"}},{"type":"Feature","geometry":{"type":"Point","coordinates":[-79,-7]},"properties":{"id":80888,"name":"Provincia de San Miguel","state_code":"CAJ","country_code":"PE"}},{"type":"Feature","geometry":{"type":"Point","coordinates":[-79,-6.83333]},"properties":{"id":80891,"name":"Provincia de Santa Cruz","state_code":"CAJ","country_code":"PE"}},{"type":"Feature","geometry":{"type":"Point","coordinates":[-79.00139,-5.14583]},"properties":{"id":80944,"name":"San Ignacio","state_code":"CAJ","country_code":"PE"}}]}