{"type":"FeatureCollection","features":[{"type":"Feature","geometry":{"type":"Point","coordinates":[-76.4025,-2.9025]},"properties":{"id":147944,"name":"Andoas","state_code":"LOR","country_code":"PE"}},{"type":"Feature","geometry":{"type":"Point","coordinates":[-77.55,-4.43333333]},"properties":{"id":147941,"name":"Borja","state_code":"LOR","country_code":"PE"}},{"type":"Feature","geometry":{"type":"Point","coordinates":[-70.51638889,-3.90583333]},"properties":{"id":147949,"name":"Caballococha","state_code":"LOR","country_code":"PE"}},{"type":"Feature","geometry":{"type":"Point","coordinates":[-75.18144,-0.96435]},"properties":{"id":147947,"name":"Cape Pantoja","state_code":"LOR","country_code":"PE"}},{"type":"Feature","geometry":{"type":"Point","coordinates":[-73.048096,-3.501427]},"properties":{"id":147952,"name":"Indiana","state_code":"LOR","country_code":"PE"}},{"type":"Feature","geometry":{"type":"Point","coordinates":[-73.25,-3.73333333]},"properties":{"id":147940,"name":"Iquitos","state_code":"LOR","country_code":"PE"}},{"type":"Feature","geometry":{"type":"Point","coordinates":[-76.28333,-5.28333]},"properties":{"id":147945,"name":"Jeberos","state_code":"LOR","country_code":"PE"}},{"type":"Feature","geometry":{"type":"Point","coordinates":[-73.66779,-4.90741]},"properties":{"id":147946,"name":"Jenaro Herrera","state_code":"LOR","country_code":"PE"}},{"type":"Feature","geometry":{"type":"Point","coordinates":[-75.67528,-5.22694]},"properties":{"id":147948,"name":"Lagunas","state_code":"LOR","country_code":"PE"}},{"type":"Feature","geometry":{"type":"Point","coordinates":[-73.58333333,-4.50833333]},"properties":{"id":147942,"name":"Nauta","state_code":"LOR","country_code":"PE"}},{"type":"Feature","geometry":{"type":"Point","coordinates":[-73.23333333,-3.71666667]},"properties":{"id":147953,"name":"Punchana","state_code":"LOR","country_code":"PE"}},{"type":"Feature","geometry":{"type":"Point","coordinates":[-75.05491,-6.74797]},"properties":{"id":147954,"name":"Requena","state_code":"LOR","country_code":"PE"}},{"type":"Feature","geometry":{"type":"Point","coordinates":[-72.66896,-2.45012]},"properties":{"id":147955,"name":"San Antonio del Estrecho","state_code":"LOR","country_code":"PE"}},{"type":"Feature","geometry":{"type":"Point","coordinates":[-76.6,-4.81667]},"properties":{"id":147950,"name":"San Lorenzo","state_code":"LOR","country_code":"PE"}},{"type":"Feature","geometry":{"type":"Point","coordinates":[-71.10281,-4.01922]},"properties":{"id":80953,"name":"San Pablo","state_code":"LOR","country_code":"PE"}},{"type":"Feature","geometry":{"type":"Point","coordinates":[-73.1585,-4.0032]},"properties":{"id":147951,"name":"Tamshiyacu","state_code":"LOR","country_code":"PE"}},{"type":"Feature","geometry":{"type":"Point","coordinates":[-76.08333333,-5.9]},"properties":{"id":147956,"name":"Yurimaguas","state_code":"LOR","country_code":"PE"}}]}