{"type":"FeatureCollection","features":[{"type":"Feature","geometry":{"type":"Point","coordinates":[-76.70611,-11.93573]},"properties":{"id":80563,"name":"Asentamiento Humano Nicolas de Pierola","state_code":"LIM","country_code":"PE"}},{"type":"Feature","geometry":{"type":"Point","coordinates":[-77.76667,-10.75]},"properties":{"id":80574,"name":"Barranca","state_code":"LIM","country_code":"PE"}},{"type":"Feature","geometry":{"type":"Point","coordinates":[-77.62667,-11.0925]},"properties":{"id":80585,"name":"Caleta de Carquín","state_code":"LIM","country_code":"PE"}},{"type":"Feature","geometry":{"type":"Point","coordinates":[-77.26722,-11.57139]},"properties":{"id":80603,"name":"Chancay","state_code":"LIM","country_code":"PE"}},{"type":"Feature","geometry":{"type":"Point","coordinates":[-76.73722,-12.52111]},"properties":{"id":80614,"name":"Chilca","state_code":"LIM","country_code":"PE"}},{"type":"Feature","geometry":{"type":"Point","coordinates":[-76.70944,-11.94306]},"properties":{"id":80622,"name":"Chosica","state_code":"LIM","country_code":"PE"}},{"type":"Feature","geometry":{"type":"Point","coordinates":[-77.605,-11.10667]},"properties":{"id":80647,"name":"Huacho","state_code":"LIM","country_code":"PE"}},{"type":"Feature","geometry":{"type":"Point","coordinates":[-77.61389,-11.09639]},"properties":{"id":80648,"name":"Hualmay","state_code":"LIM","country_code":"PE"}},{"type":"Feature","geometry":{"type":"Point","coordinates":[-77.20778,-11.495]},"properties":{"id":80654,"name":"Huaral","state_code":"LIM","country_code":"PE"}},{"type":"Feature","geometry":{"type":"Point","coordinates":[-77.59944,-11.07]},"properties":{"id":80660,"name":"Huaura","state_code":"LIM","country_code":"PE"}},{"type":"Feature","geometry":{"type":"Point","coordinates":[-76.35269,-13.05927]},"properties":{"id":80671,"name":"Imperial","state_code":"LIM","country_code":"PE"}},{"type":"Feature","geometry":{"type":"Point","coordinates":[-77.04583,-11.99]},"properties":{"id":80672,"name":"Independencia","state_code":"LIM","country_code":"PE"}},{"type":"Feature","geometry":{"type":"Point","coordinates":[-77.02824,-12.04318]},"properties":{"id":80701,"name":"Lima","state_code":"LIM","country_code":"PE"}},{"type":"Feature","geometry":{"type":"Point","coordinates":[-76.63083,-12.65806]},"properties":{"id":80708,"name":"Mala","state_code":"LIM","country_code":"PE"}},{"type":"Feature","geometry":{"type":"Point","coordinates":[-76.4,-11.85]},"properties":{"id":80712,"name":"Matucana","state_code":"LIM","country_code":"PE"}},{"type":"Feature","geometry":{"type":"Point","coordinates":[-76.31719,-13.07541]},"properties":{"id":80730,"name":"Nuevo Imperial","state_code":"LIM","country_code":"PE"}},{"type":"Feature","geometry":{"type":"Point","coordinates":[-76.87634,-10.75869]},"properties":{"id":80738,"name":"Oyon","state_code":"LIM","country_code":"PE"}},{"type":"Feature","geometry":{"type":"Point","coordinates":[-77.83333,-10.66667]},"properties":{"id":80753,"name":"Paramonga","state_code":"LIM","country_code":"PE"}},{"type":"Feature","geometry":{"type":"Point","coordinates":[-77.78333,-10.7]},"properties":{"id":80754,"name":"Pativilca","state_code":"LIM","country_code":"PE"}},{"type":"Feature","geometry":{"type":"Point","coordinates":[-77,-10.66667]},"properties":{"id":80787,"name":"Provincia de Cajatambo","state_code":"LIM","country_code":"PE"}},{"type":"Feature","geometry":{"type":"Point","coordinates":[-76.33333,-12.75]},"properties":{"id":80801,"name":"Provincia de Cañete","state_code":"LIM","country_code":"PE"}},{"type":"Feature","geometry":{"type":"Point","coordinates":[-76.61667,-11.46667]},"properties":{"id":80793,"name":"Provincia de Canta","state_code":"LIM","country_code":"PE"}},{"type":"Feature","geometry":{"type":"Point","coordinates":[-76.91667,-11.25]},"properties":{"id":80836,"name":"Provincia de Huaral","state_code":"LIM","country_code":"PE"}},{"type":"Feature","geometry":{"type":"Point","coordinates":[-76.41667,-11.91667]},"properties":{"id":80840,"name":"Provincia de Huarochirí","state_code":"LIM","country_code":"PE"}},{"type":"Feature","geometry":{"type":"Point","coordinates":[-76,-12.41667]},"properties":{"id":80910,"name":"Provincia de Yauyos","state_code":"LIM","country_code":"PE"}},{"type":"Feature","geometry":{"type":"Point","coordinates":[-77.74333,-10.80135]},"properties":{"id":80920,"name":"Puerto Supe","state_code":"LIM","country_code":"PE"}},{"type":"Feature","geometry":{"type":"Point","coordinates":[-76.38112,-12.9486]},"properties":{"id":80930,"name":"Quilmaná","state_code":"LIM","country_code":"PE"}},{"type":"Feature","geometry":{"type":"Point","coordinates":[-76.6561,-11.91978]},"properties":{"id":80933,"name":"Ricardo Palma","state_code":"LIM","country_code":"PE"}},{"type":"Feature","geometry":{"type":"Point","coordinates":[-76.78333,-12.38333]},"properties":{"id":80942,"name":"San Bartolo","state_code":"LIM","country_code":"PE"}},{"type":"Feature","geometry":{"type":"Point","coordinates":[-76.99435,-12.07674]},"properties":{"id":80950,"name":"San Luis","state_code":"LIM","country_code":"PE"}},{"type":"Feature","geometry":{"type":"Point","coordinates":[-76.38528,-13.07556]},"properties":{"id":80958,"name":"San Vicente de Cañete","state_code":"LIM","country_code":"PE"}},{"type":"Feature","geometry":{"type":"Point","coordinates":[-76.89329,-12.00538]},"properties":{"id":80962,"name":"Santa María","state_code":"LIM","country_code":"PE"}},{"type":"Feature","geometry":{"type":"Point","coordinates":[-77.1946,-11.13333]},"properties":{"id":80971,"name":"Sayán","state_code":"LIM","country_code":"PE"}},{"type":"Feature","geometry":{"type":"Point","coordinates":[-77.71306,-10.7975]},"properties":{"id":80980,"name":"Supe","state_code":"LIM","country_code":"PE"}},{"type":"Feature","geometry":{"type":"Point","coordinates":[-77.03345,-11.87655]},"properties":{"id":81003,"name":"Urb. Santo Domingo","state_code":"LIM","country_code":"PE"}},{"type":"Feature","geometry":{"type":"Point","coordinates":[-77.64378,-11.02253]},"properties":{"id":81013,"name":"Végueta","state_code":"LIM","country_code":"PE"}}]}