{"type":"FeatureCollection","features":[{"type":"Feature","geometry":{"type":"Point","coordinates":[-80.245,-3.48139]},"properties":{"id":80557,"name":"Aguas Verdes","state_code":"TUM","country_code":"PE"}},{"type":"Feature","geometry":{"type":"Point","coordinates":[-80.7369,-4.07771]},"properties":{"id":80751,"name":"Papayal","state_code":"TUM","country_code":"PE"}},{"type":"Feature","geometry":{"type":"Point","coordinates":[-80.75,-4]},"properties":{"id":80813,"name":"Provincia de Contralmirante Villar","state_code":"TUM","country_code":"PE"}},{"type":"Feature","geometry":{"type":"Point","coordinates":[-80.41667,-3.75]},"properties":{"id":80905,"name":"Provincia de Tumbes","state_code":"TUM","country_code":"PE"}},{"type":"Feature","geometry":{"type":"Point","coordinates":[-80.25,-3.66667]},"properties":{"id":80912,"name":"Provincia de Zarumilla","state_code":"TUM","country_code":"PE"}},{"type":"Feature","geometry":{"type":"Point","coordinates":[-80.45153,-3.56694]},"properties":{"id":80999,"name":"Tumbes","state_code":"TUM","country_code":"PE"}},{"type":"Feature","geometry":{"type":"Point","coordinates":[-80.27306,-3.50306]},"properties":{"id":81021,"name":"Zarumilla","state_code":"TUM","country_code":"PE"}},{"type":"Feature","geometry":{"type":"Point","coordinates":[-80.67819,-3.68046]},"properties":{"id":81022,"name":"Zorritos","state_code":"TUM","country_code":"PE"}}]}