{"type":"FeatureCollection","features":[{"type":"Feature","geometry":{"type":"Point","coordinates":[145.08333,-6.16667]},"properties":{"id":81034,"name":"Chuave","state_code":"CPK","country_code":"PG"}},{"type":"Feature","geometry":{"type":"Point","coordinates":[144.88333,-6.25]},"properties":{"id":81043,"name":"Gumine","state_code":"CPK","country_code":"PG"}},{"type":"Feature","geometry":{"type":"Point","coordinates":[144.83333,-6.58333]},"properties":{"id":81059,"name":"Karimui Nomane","state_code":"CPK","country_code":"PG"}},{"type":"Feature","geometry":{"type":"Point","coordinates":[144.88333,-5.93333]},"properties":{"id":81062,"name":"Kerowagi","state_code":"CPK","country_code":"PG"}},{"type":"Feature","geometry":{"type":"Point","coordinates":[145.05,-5.91667]},"properties":{"id":81073,"name":"Kundiawa","state_code":"CPK","country_code":"PG"}},{"type":"Feature","geometry":{"type":"Point","coordinates":[145.01667,-6.08333]},"properties":{"id":81107,"name":"Sinasina Yonggamugl","state_code":"CPK","country_code":"PG"}}]}