{"type":"FeatureCollection","features":[{"type":"Feature","geometry":{"type":"Point","coordinates":[143.55,-5.83333]},"properties":{"id":81056,"name":"Kandep","state_code":"EPW","country_code":"PG"}},{"type":"Feature","geometry":{"type":"Point","coordinates":[144,-5.25]},"properties":{"id":81071,"name":"Kompiam Ambum","state_code":"EPW","country_code":"PG"}},{"type":"Feature","geometry":{"type":"Point","coordinates":[143.16667,-5.38333]},"properties":{"id":81075,"name":"Lagaip Porgera","state_code":"EPW","country_code":"PG"}},{"type":"Feature","geometry":{"type":"Point","coordinates":[143.148,-5.463]},"properties":{"id":81100,"name":"Porgera","state_code":"EPW","country_code":"PG"}},{"type":"Feature","geometry":{"type":"Point","coordinates":[143.65,-5.33333]},"properties":{"id":81122,"name":"Wabag","state_code":"EPW","country_code":"PG"}},{"type":"Feature","geometry":{"type":"Point","coordinates":[143.91667,-5.66667]},"properties":{"id":81123,"name":"Wapenamanda","state_code":"EPW","country_code":"PG"}}]}