{"type":"FeatureCollection","features":[{"type":"Feature","geometry":{"type":"Point","coordinates":[143,-6.11667]},"properties":{"id":81070,"name":"Komo Margarima","state_code":"HLA","country_code":"PG"}},{"type":"Feature","geometry":{"type":"Point","coordinates":[142.5,-5.41667]},"properties":{"id":81072,"name":"Koroba-Lake Kopiago","state_code":"HLA","country_code":"PG"}},{"type":"Feature","geometry":{"type":"Point","coordinates":[142.94667,-5.845]},"properties":{"id":81114,"name":"Tari","state_code":"HLA","country_code":"PG"}},{"type":"Feature","geometry":{"type":"Point","coordinates":[142.83333,-6.28333]},"properties":{"id":81115,"name":"Tari Pori","state_code":"HLA","country_code":"PG"}}]}