{"type":"FeatureCollection","features":[{"type":"Feature","geometry":{"type":"Point","coordinates":[150.08333,-10.25]},"properties":{"id":81027,"name":"Alotau","state_code":"MBA","country_code":"PG"}},{"type":"Feature","geometry":{"type":"Point","coordinates":[150.75,-9.58333]},"properties":{"id":81038,"name":"Esa’ala","state_code":"MBA","country_code":"PG"}},{"type":"Feature","geometry":{"type":"Point","coordinates":[151.06667,-8.48333]},"properties":{"id":81066,"name":"Kiriwina Goodenough","state_code":"MBA","country_code":"PG"}},{"type":"Feature","geometry":{"type":"Point","coordinates":[150.66207,-10.61038]},"properties":{"id":81105,"name":"Samarai","state_code":"MBA","country_code":"PG"}},{"type":"Feature","geometry":{"type":"Point","coordinates":[150.54703,-10.49636]},"properties":{"id":81106,"name":"Samarai Murua","state_code":"MBA","country_code":"PG"}}]}