{"type":"FeatureCollection","features":[{"type":"Feature","geometry":{"type":"Point","coordinates":[121.45333,18.44528]},"properties":{"id":81137,"name":"Abulug","state_code":"02","country_code":"PH"}},{"type":"Feature","geometry":{"type":"Point","coordinates":[121.60138,17.35423]},"properties":{"id":81138,"name":"Abut","state_code":"02","country_code":"PH"}},{"type":"Feature","geometry":{"type":"Point","coordinates":[121.46254,17.74791]},"properties":{"id":81143,"name":"Accusilian","state_code":"02","country_code":"PH"}},{"type":"Feature","geometry":{"type":"Point","coordinates":[121.6269,17.8526]},"properties":{"id":81149,"name":"Afusing Centro","state_code":"02","country_code":"PH"}},{"type":"Feature","geometry":{"type":"Point","coordinates":[121.8025,17.70016]},"properties":{"id":81158,"name":"Aggugaddah","state_code":"02","country_code":"PH"}},{"type":"Feature","geometry":{"type":"Point","coordinates":[121.46773,17.73261]},"properties":{"id":81178,"name":"Alabug","state_code":"02","country_code":"PH"}},{"type":"Feature","geometry":{"type":"Point","coordinates":[121.58616,18.06114]},"properties":{"id":81190,"name":"Alannay","state_code":"02","country_code":"PH"}},{"type":"Feature","geometry":{"type":"Point","coordinates":[121.86667,17.11667]},"properties":{"id":81209,"name":"Alibago","state_code":"02","country_code":"PH"}},{"type":"Feature","geometry":{"type":"Point","coordinates":[121.55615,18.22598]},"properties":{"id":81222,"name":"Allacapan","state_code":"02","country_code":"PH"}},{"type":"Feature","geometry":{"type":"Point","coordinates":[121.0926,16.3497]},"properties":{"id":81226,"name":"Almaguer North","state_code":"02","country_code":"PH"}},{"type":"Feature","geometry":{"type":"Point","coordinates":[121.72375,17.8357]},"properties":{"id":81252,"name":"Amulung","state_code":"02","country_code":"PH"}},{"type":"Feature","geometry":{"type":"Point","coordinates":[121.87153,17.28268]},"properties":{"id":81278,"name":"Antagan Segunda","state_code":"02","country_code":"PH"}},{"type":"Feature","geometry":{"type":"Point","coordinates":[121.6406,18.3566]},"properties":{"id":81292,"name":"Aparri","state_code":"02","country_code":"PH"}},{"type":"Feature","geometry":{"type":"Point","coordinates":[121.6937,17.6648]},"properties":{"id":81329,"name":"Atulayan","state_code":"02","country_code":"PH"}},{"type":"Feature","geometry":{"type":"Point","coordinates":[121.91305,17.92439]},"properties":{"id":81338,"name":"Awallan","state_code":"02","country_code":"PH"}},{"type":"Feature","geometry":{"type":"Point","coordinates":[121.70375,17.03449]},"properties":{"id":81360,"name":"Bacnor East","state_code":"02","country_code":"PH"}},{"type":"Feature","geometry":{"type":"Point","coordinates":[121.19014,16.50588]},"properties":{"id":81395,"name":"Baggabag B","state_code":"02","country_code":"PH"}},{"type":"Feature","geometry":{"type":"Point","coordinates":[121.61109,16.98269]},"properties":{"id":81401,"name":"Bagong Tanza","state_code":"02","country_code":"PH"}},{"type":"Feature","geometry":{"type":"Point","coordinates":[121.35573,18.42441]},"properties":{"id":81406,"name":"Bagu","state_code":"02","country_code":"PH"}},{"type":"Feature","geometry":{"type":"Point","coordinates":[121.5152,18.4126]},"properties":{"id":81489,"name":"Ballesteros","state_code":"02","country_code":"PH"}},{"type":"Feature","geometry":{"type":"Point","coordinates":[121.77714,17.49543]},"properties":{"id":81525,"name":"Bangad","state_code":"02","country_code":"PH"}},{"type":"Feature","geometry":{"type":"Point","coordinates":[121.0544,16.3144]},"properties":{"id":81528,"name":"Banganan","state_code":"02","country_code":"PH"}},{"type":"Feature","geometry":{"type":"Point","coordinates":[121.77834,17.02305]},"properties":{"id":81546,"name":"Banquero","state_code":"02","country_code":"PH"}},{"type":"Feature","geometry":{"type":"Point","coordinates":[121.60561,17.25857]},"properties":{"id":81588,"name":"Barucboc Norte","state_code":"02","country_code":"PH"}},{"type":"Feature","geometry":{"type":"Point","coordinates":[121.97017,20.44865]},"properties":{"id":81598,"name":"Basco","state_code":"02","country_code":"PH"}},{"type":"Feature","geometry":{"type":"Point","coordinates":[121.5935412,16.6955267]},"properties":{"id":81612,"name":"Batal","state_code":"02","country_code":"PH"}},{"type":"Feature","geometry":{"type":"Point","coordinates":[121.45914,17.72261]},"properties":{"id":81634,"name":"Battung","state_code":"02","country_code":"PH"}},{"type":"Feature","geometry":{"type":"Point","coordinates":[121.25,16.18333]},"properties":{"id":81676,"name":"Belance","state_code":"02","country_code":"PH"}},{"type":"Feature","geometry":{"type":"Point","coordinates":[121.5451,18.3275]},"properties":{"id":81709,"name":"Binalan","state_code":"02","country_code":"PH"}},{"type":"Feature","geometry":{"type":"Point","coordinates":[121.79519,17.45893]},"properties":{"id":81719,"name":"Binguang","state_code":"02","country_code":"PH"}},{"type":"Feature","geometry":{"type":"Point","coordinates":[121.18764,16.57588]},"properties":{"id":81729,"name":"Bintawan","state_code":"02","country_code":"PH"}},{"type":"Feature","geometry":{"type":"Point","coordinates":[121.85013,17.90244]},"properties":{"id":81740,"name":"Bitag Grande","state_code":"02","country_code":"PH"}},{"type":"Feature","geometry":{"type":"Point","coordinates":[120.9958,16.2446]},"properties":{"id":81786,"name":"Bone South","state_code":"02","country_code":"PH"}},{"type":"Feature","geometry":{"type":"Point","coordinates":[121.832126,18.2882302]},"properties":{"id":81850,"name":"Buguey","state_code":"02","country_code":"PH"}},{"type":"Feature","geometry":{"type":"Point","coordinates":[121.23333,16.48333]},"properties":{"id":81880,"name":"Buliwao","state_code":"02","country_code":"PH"}},{"type":"Feature","geometry":{"type":"Point","coordinates":[121.76667,17.33333]},"properties":{"id":81884,"name":"Bulu","state_code":"02","country_code":"PH"}},{"type":"Feature","geometry":{"type":"Point","coordinates":[121.1241,16.4775]},"properties":{"id":81917,"name":"Busilak","state_code":"02","country_code":"PH"}},{"type":"Feature","geometry":{"type":"Point","coordinates":[121.8506,17.1249]},"properties":{"id":81951,"name":"Cabannungan Second","state_code":"02","country_code":"PH"}},{"type":"Feature","geometry":{"type":"Point","coordinates":[121.48872,18.41781]},"properties":{"id":81953,"name":"Cabaritan East","state_code":"02","country_code":"PH"}},{"type":"Feature","geometry":{"type":"Point","coordinates":[122.08595,18.32377]},"properties":{"id":81970,"name":"Cabiraoan","state_code":"02","country_code":"PH"}},{"type":"Feature","geometry":{"type":"Point","coordinates":[121.4975,16.74556]},"properties":{"id":81982,"name":"Cabulay","state_code":"02","country_code":"PH"}},{"type":"Feature","geometry":{"type":"Point","coordinates":[121.76845,17.48815]},"properties":{"id":82014,"name":"Calamagui East","state_code":"02","country_code":"PH"}},{"type":"Feature","geometry":{"type":"Point","coordinates":[121.7228,17.90904]},"properties":{"id":82025,"name":"Calantac","state_code":"02","country_code":"PH"}},{"type":"Feature","geometry":{"type":"Point","coordinates":[121.72325,18.04279]},"properties":{"id":82028,"name":"Calaoagan","state_code":"02","country_code":"PH"}},{"type":"Feature","geometry":{"type":"Point","coordinates":[121.74074,17.35189]},"properties":{"id":82053,"name":"Calinaoan Malasin","state_code":"02","country_code":"PH"}},{"type":"Feature","geometry":{"type":"Point","coordinates":[121.38533,18.36359]},"properties":{"id":82061,"name":"Calog Norte","state_code":"02","country_code":"PH"}},{"type":"Feature","geometry":{"type":"Point","coordinates":[121.6748,18.274]},"properties":{"id":82077,"name":"Camalaniugan","state_code":"02","country_code":"PH"}},{"type":"Feature","geometry":{"type":"Point","coordinates":[121.8177,18.0509]},"properties":{"id":82138,"name":"Capissayan Sur","state_code":"02","country_code":"PH"}},{"type":"Feature","geometry":{"type":"Point","coordinates":[121.74357,17.65929]},"properties":{"id":82162,"name":"Carig","state_code":"02","country_code":"PH"}},{"type":"Feature","geometry":{"type":"Point","coordinates":[122.12745,18.37646]},"properties":{"id":82188,"name":"Casambalangan","state_code":"02","country_code":"PH"}},{"type":"Feature","geometry":{"type":"Point","coordinates":[121.65271,18.16072]},"properties":{"id":82207,"name":"Catayauan","state_code":"02","country_code":"PH"}},{"type":"Feature","geometry":{"type":"Point","coordinates":[121.70394,17.10267]},"properties":{"id":82317,"name":"Cullalabo del Sur","state_code":"02","country_code":"PH"}},{"type":"Feature","geometry":{"type":"Point","coordinates":[121.7148,17.94917]},"properties":{"id":82345,"name":"Dalaoig","state_code":"02","country_code":"PH"}},{"type":"Feature","geometry":{"type":"Point","coordinates":[122.03333,17]},"properties":{"id":82383,"name":"Daragutan","state_code":"02","country_code":"PH"}},{"type":"Feature","geometry":{"type":"Point","coordinates":[121.71137,17.74517]},"properties":{"id":82389,"name":"Dassun","state_code":"02","country_code":"PH"}},{"type":"Feature","geometry":{"type":"Point","coordinates":[121.62674,16.91795]},"properties":{"id":82414,"name":"Diamantina","state_code":"02","country_code":"PH"}},{"type":"Feature","geometry":{"type":"Point","coordinates":[121.76472,16.51907]},"properties":{"id":82417,"name":"Dibuluan","state_code":"02","country_code":"PH"}},{"type":"Feature","geometry":{"type":"Point","coordinates":[122.41574,17.08184]},"properties":{"id":82418,"name":"Dicabisagan","state_code":"02","country_code":"PH"}},{"type":"Feature","geometry":{"type":"Point","coordinates":[122.00374,16.75606]},"properties":{"id":82419,"name":"Dicamay","state_code":"02","country_code":"PH"}},{"type":"Feature","geometry":{"type":"Point","coordinates":[121.77421,17.52268]},"properties":{"id":82446,"name":"Divisoria","state_code":"02","country_code":"PH"}},{"type":"Feature","geometry":{"type":"Point","coordinates":[121.79449,17.64107]},"properties":{"id":82448,"name":"Dodan","state_code":"02","country_code":"PH"}},{"type":"Feature","geometry":{"type":"Point","coordinates":[121.7,16.31667]},"properties":{"id":82480,"name":"Dumabato","state_code":"02","country_code":"PH"}},{"type":"Feature","geometry":{"type":"Point","coordinates":[121.59799,17.03809]},"properties":{"id":82502,"name":"Eden","state_code":"02","country_code":"PH"}},{"type":"Feature","geometry":{"type":"Point","coordinates":[121.6974,17.5596]},"properties":{"id":82508,"name":"Enrile","state_code":"02","country_code":"PH"}},{"type":"Feature","geometry":{"type":"Point","coordinates":[121.68402,17.02327]},"properties":{"id":82523,"name":"Esperanza East","state_code":"02","country_code":"PH"}},{"type":"Feature","geometry":{"type":"Point","coordinates":[121.7231,17.79952]},"properties":{"id":82529,"name":"Estefania","state_code":"02","country_code":"PH"}},{"type":"Feature","geometry":{"type":"Point","coordinates":[121.79689,17.03466]},"properties":{"id":82542,"name":"Furao","state_code":"02","country_code":"PH"}},{"type":"Feature","geometry":{"type":"Point","coordinates":[121.6105,17.6292]},"properties":{"id":82551,"name":"Gadu","state_code":"02","country_code":"PH"}},{"type":"Feature","geometry":{"type":"Point","coordinates":[121.7437,17.7104]},"properties":{"id":82558,"name":"Gammad","state_code":"02","country_code":"PH"}},{"type":"Feature","geometry":{"type":"Point","coordinates":[121.86524,17.20174]},"properties":{"id":82561,"name":"Ganapi","state_code":"02","country_code":"PH"}},{"type":"Feature","geometry":{"type":"Point","coordinates":[121.82184,16.83646]},"properties":{"id":82568,"name":"Gappal","state_code":"02","country_code":"PH"}},{"type":"Feature","geometry":{"type":"Point","coordinates":[121.6441,18.06157]},"properties":{"id":82573,"name":"Gattaran","state_code":"02","country_code":"PH"}},{"type":"Feature","geometry":{"type":"Point","coordinates":[121.99495,18.25937]},"properties":{"id":82607,"name":"Gonzaga","state_code":"02","country_code":"PH"}},{"type":"Feature","geometry":{"type":"Point","coordinates":[121.46617,18.33493]},"properties":{"id":82619,"name":"Guiddam","state_code":"02","country_code":"PH"}},{"type":"Feature","geometry":{"type":"Point","coordinates":[121.1851893,16.6071699]},"properties":{"id":82711,"name":"Ibung","state_code":"02","country_code":"PH"}},{"type":"Feature","geometry":{"type":"Point","coordinates":[121.73645,17.7506]},"properties":{"id":82722,"name":"Iguig","state_code":"02","country_code":"PH"}},{"type":"Feature","geometry":{"type":"Point","coordinates":[121.093,16.3181]},"properties":{"id":82748,"name":"Ineangan","state_code":"02","country_code":"PH"}},{"type":"Feature","geometry":{"type":"Point","coordinates":[121.6546,17.7015]},"properties":{"id":82760,"name":"Iraga","state_code":"02","country_code":"PH"}},{"type":"Feature","geometry":{"type":"Point","coordinates":[121.84177,20.78733]},"properties":{"id":82774,"name":"Itbayat","state_code":"02","country_code":"PH"}},{"type":"Feature","geometry":{"type":"Point","coordinates":[121.91457,20.37005]},"properties":{"id":82776,"name":"Ivana","state_code":"02","country_code":"PH"}},{"type":"Feature","geometry":{"type":"Point","coordinates":[121.44175,17.70684]},"properties":{"id":82992,"name":"Lallayug","state_code":"02","country_code":"PH"}},{"type":"Feature","geometry":{"type":"Point","coordinates":[121.70014,17.696]},"properties":{"id":83020,"name":"Lanna","state_code":"02","country_code":"PH"}},{"type":"Feature","geometry":{"type":"Point","coordinates":[121.89775,17.716]},"properties":{"id":83032,"name":"Lapi","state_code":"02","country_code":"PH"}},{"type":"Feature","geometry":{"type":"Point","coordinates":[121.76062,17.63082]},"properties":{"id":83043,"name":"Larion Alto","state_code":"02","country_code":"PH"}},{"type":"Feature","geometry":{"type":"Point","coordinates":[121.60065,18.06519]},"properties":{"id":83046,"name":"Lasam","state_code":"02","country_code":"PH"}},{"type":"Feature","geometry":{"type":"Point","coordinates":[121.1262,16.321]},"properties":{"id":83267,"name":"Mabasa","state_code":"02","country_code":"PH"}},{"type":"Feature","geometry":{"type":"Point","coordinates":[121.73454,17.09936]},"properties":{"id":83281,"name":"Mabini","state_code":"02","country_code":"PH"}},{"type":"Feature","geometry":{"type":"Point","coordinates":[121.5147,18.3762]},"properties":{"id":83291,"name":"Mabuttal East","state_code":"02","country_code":"PH"}},{"type":"Feature","geometry":{"type":"Point","coordinates":[121.6767,17.60732]},"properties":{"id":83311,"name":"Maddarulug Norte","state_code":"02","country_code":"PH"}},{"type":"Feature","geometry":{"type":"Point","coordinates":[121.73497,17.57732]},"properties":{"id":83317,"name":"Magalalag","state_code":"02","country_code":"PH"}},{"type":"Feature","geometry":{"type":"Point","coordinates":[121.66942,18.13741]},"properties":{"id":83325,"name":"Magapit","state_code":"02","country_code":"PH"}},{"type":"Feature","geometry":{"type":"Point","coordinates":[121.67705,18.10788]},"properties":{"id":83326,"name":"Magapit Aguiguican","state_code":"02","country_code":"PH"}},{"type":"Feature","geometry":{"type":"Point","coordinates":[121.49778,17.76982]},"properties":{"id":83350,"name":"Maguilling","state_code":"02","country_code":"PH"}},{"type":"Feature","geometry":{"type":"Point","coordinates":[121.94707,20.41585]},"properties":{"id":83359,"name":"Mahatao","state_code":"02","country_code":"PH"}},{"type":"Feature","geometry":{"type":"Point","coordinates":[121.1062,16.3045]},"properties":{"id":83409,"name":"Malasin","state_code":"02","country_code":"PH"}},{"type":"Feature","geometry":{"type":"Point","coordinates":[121.96434,16.99885]},"properties":{"id":83460,"name":"Maluno Sur","state_code":"02","country_code":"PH"}},{"type":"Feature","geometry":{"type":"Point","coordinates":[121.90254,17.17294]},"properties":{"id":83494,"name":"Manaring","state_code":"02","country_code":"PH"}},{"type":"Feature","geometry":{"type":"Point","coordinates":[121.86048,17.70123]},"properties":{"id":83509,"name":"Manga","state_code":"02","country_code":"PH"}},{"type":"Feature","geometry":{"type":"Point","coordinates":[121.74743,16.50017]},"properties":{"id":83600,"name":"Masaya Sur","state_code":"02","country_code":"PH"}},{"type":"Feature","geometry":{"type":"Point","coordinates":[121.83861,17.37933]},"properties":{"id":83604,"name":"Masipi West","state_code":"02","country_code":"PH"}},{"type":"Feature","geometry":{"type":"Point","coordinates":[121.66815,18.21488]},"properties":{"id":83642,"name":"Maxingal","state_code":"02","country_code":"PH"}},{"type":"Feature","geometry":{"type":"Point","coordinates":[121.85394,16.98685]},"properties":{"id":83678,"name":"Minallo","state_code":"02","country_code":"PH"}},{"type":"Feature","geometry":{"type":"Point","coordinates":[121.78533,17.45233]},"properties":{"id":83679,"name":"Minanga Norte","state_code":"02","country_code":"PH"}},{"type":"Feature","geometry":{"type":"Point","coordinates":[121.76191,16.9022]},"properties":{"id":83680,"name":"Minante Segundo","state_code":"02","country_code":"PH"}},{"type":"Feature","geometry":{"type":"Point","coordinates":[121.85532,16.53233]},"properties":{"id":83688,"name":"Minuri","state_code":"02","country_code":"PH"}},{"type":"Feature","geometry":{"type":"Point","coordinates":[121.74607,17.45685]},"properties":{"id":83719,"name":"Mozzozzin Sur","state_code":"02","country_code":"PH"}},{"type":"Feature","geometry":{"type":"Point","coordinates":[121.47096,17.72412]},"properties":{"id":83724,"name":"Mungo","state_code":"02","country_code":"PH"}},{"type":"Feature","geometry":{"type":"Point","coordinates":[121.61354,17.15754]},"properties":{"id":83730,"name":"Muñoz East","state_code":"02","country_code":"PH"}},{"type":"Feature","geometry":{"type":"Point","coordinates":[121.5363,18.07156]},"properties":{"id":83735,"name":"Nabannagan West","state_code":"02","country_code":"PH"}},{"type":"Feature","geometry":{"type":"Point","coordinates":[121.70974,16.89955]},"properties":{"id":83749,"name":"Nagrumbuan","state_code":"02","country_code":"PH"}},{"type":"Feature","geometry":{"type":"Point","coordinates":[121.1657,18.6109]},"properties":{"id":83768,"name":"Namuac","state_code":"02","country_code":"PH"}},{"type":"Feature","geometry":{"type":"Point","coordinates":[121.70296,17.67536]},"properties":{"id":83790,"name":"Nattapian","state_code":"02","country_code":"PH"}},{"type":"Feature","geometry":{"type":"Point","coordinates":[121.73866,18.32361]},"properties":{"id":83879,"name":"Paddaya","state_code":"02","country_code":"PH"}},{"type":"Feature","geometry":{"type":"Point","coordinates":[121.71871,18.04406]},"properties":{"id":83908,"name":"Palagao Norte","state_code":"02","country_code":"PH"}},{"type":"Feature","geometry":{"type":"Point","coordinates":[121.66979,16.60036]},"properties":{"id":83969,"name":"Pangal Sur","state_code":"02","country_code":"PH"}},{"type":"Feature","geometry":{"type":"Point","coordinates":[121.8147,18.24694]},"properties":{"id":84054,"name":"Pattao","state_code":"02","country_code":"PH"}},{"type":"Feature","geometry":{"type":"Point","coordinates":[121.78117,17.63342]},"properties":{"id":84077,"name":"Peñablanca","state_code":"02","country_code":"PH"}},{"type":"Feature","geometry":{"type":"Point","coordinates":[121.478,17.7905]},"properties":{"id":84082,"name":"Piat","state_code":"02","country_code":"PH"}},{"type":"Feature","geometry":{"type":"Point","coordinates":[121.77389,17.34278]},"properties":{"id":84098,"name":"Pilig","state_code":"02","country_code":"PH"}},{"type":"Feature","geometry":{"type":"Point","coordinates":[121.70669,16.87421]},"properties":{"id":84114,"name":"Pinoma","state_code":"02","country_code":"PH"}},{"type":"Feature","geometry":{"type":"Point","coordinates":[121.81135,17.7159]},"properties":{"id":84303,"name":"Quibal","state_code":"02","country_code":"PH"}},{"type":"Feature","geometry":{"type":"Point","coordinates":[121.77428,17.32318]},"properties":{"id":84318,"name":"Ragan Norte","state_code":"02","country_code":"PH"}},{"type":"Feature","geometry":{"type":"Point","coordinates":[121.6136,16.6984]},"properties":{"id":84326,"name":"Ramos West","state_code":"02","country_code":"PH"}},{"type":"Feature","geometry":{"type":"Point","coordinates":[121.87157,20.33566]},"properties":{"id":84375,"name":"Sabtang","state_code":"02","country_code":"PH"}},{"type":"Feature","geometry":{"type":"Point","coordinates":[121.0188,16.3695]},"properties":{"id":84411,"name":"Salinas","state_code":"02","country_code":"PH"}},{"type":"Feature","geometry":{"type":"Point","coordinates":[121.61454,16.86906]},"properties":{"id":84413,"name":"Salinungan Proper","state_code":"02","country_code":"PH"}},{"type":"Feature","geometry":{"type":"Point","coordinates":[121.75155,17.40481]},"properties":{"id":84457,"name":"San Bernardo","state_code":"02","country_code":"PH"}},{"type":"Feature","geometry":{"type":"Point","coordinates":[121.63752,17.07295]},"properties":{"id":84628,"name":"Sandiat Centro","state_code":"02","country_code":"PH"}},{"type":"Feature","geometry":{"type":"Point","coordinates":[121,18.56667]},"properties":{"id":84695,"name":"Santa Praxedes","state_code":"02","country_code":"PH"}},{"type":"Feature","geometry":{"type":"Point","coordinates":[121.63294,17.22874]},"properties":{"id":84782,"name":"Siempre Viva","state_code":"02","country_code":"PH"}},{"type":"Feature","geometry":{"type":"Point","coordinates":[121.75924,16.87316]},"properties":{"id":84794,"name":"Sillawit","state_code":"02","country_code":"PH"}},{"type":"Feature","geometry":{"type":"Point","coordinates":[121.83426,17.48523]},"properties":{"id":84800,"name":"Simanu Sur","state_code":"02","country_code":"PH"}},{"type":"Feature","geometry":{"type":"Point","coordinates":[121.58138,17.11856]},"properties":{"id":84802,"name":"Simimbaan","state_code":"02","country_code":"PH"}},{"type":"Feature","geometry":{"type":"Point","coordinates":[121.56667,16.9]},"properties":{"id":84810,"name":"Sinamar","state_code":"02","country_code":"PH"}},{"type":"Feature","geometry":{"type":"Point","coordinates":[122.01514,17.06034]},"properties":{"id":84814,"name":"Sindon","state_code":"02","country_code":"PH"}},{"type":"Feature","geometry":{"type":"Point","coordinates":[121.691,17.6528]},"properties":{"id":84840,"name":"Solana","state_code":"02","country_code":"PH"}},{"type":"Feature","geometry":{"type":"Point","coordinates":[121.6655,16.7001]},"properties":{"id":84850,"name":"Soyung","state_code":"02","country_code":"PH"}},{"type":"Feature","geometry":{"type":"Point","coordinates":[121.75521,17.94636]},"properties":{"id":84949,"name":"Taguing","state_code":"02","country_code":"PH"}},{"type":"Feature","geometry":{"type":"Point","coordinates":[122.02915,18.28907]},"properties":{"id":85049,"name":"Tapel","state_code":"02","country_code":"PH"}},{"type":"Feature","geometry":{"type":"Point","coordinates":[121.25778,16.58833]},"properties":{"id":85180,"name":"Tuao","state_code":"02","country_code":"PH"}},{"type":"Feature","geometry":{"type":"Point","coordinates":[121.7300377,17.6118858]},"properties":{"id":85212,"name":"Tuguegarao","state_code":"02","country_code":"PH"}},{"type":"Feature","geometry":{"type":"Point","coordinates":[121.64099,17.90483]},"properties":{"id":85231,"name":"Tupang","state_code":"02","country_code":"PH"}},{"type":"Feature","geometry":{"type":"Point","coordinates":[121.15124,16.55888]},"properties":{"id":85242,"name":"Uddiawan","state_code":"02","country_code":"PH"}},{"type":"Feature","geometry":{"type":"Point","coordinates":[121.71583,17.61325]},"properties":{"id":85243,"name":"Ugac Sur","state_code":"02","country_code":"PH"}},{"type":"Feature","geometry":{"type":"Point","coordinates":[121.80042,17.3075]},"properties":{"id":85244,"name":"Ugad","state_code":"02","country_code":"PH"}},{"type":"Feature","geometry":{"type":"Point","coordinates":[121.93777,20.35045]},"properties":{"id":85274,"name":"Uyugan","state_code":"02","country_code":"PH"}},{"type":"Feature","geometry":{"type":"Point","coordinates":[121.94194,17.02195]},"properties":{"id":85319,"name":"Yeban Norte","state_code":"02","country_code":"PH"}}]}