{"type":"FeatureCollection","features":[{"type":"Feature","geometry":{"type":"Point","coordinates":[121.39028,5.95944]},"properties":{"id":81260,"name":"Andalan","state_code":"14","country_code":"PH"}},{"type":"Feature","geometry":{"type":"Point","coordinates":[121.00667,6.03556]},"properties":{"id":81289,"name":"Anuling","state_code":"14","country_code":"PH"}},{"type":"Feature","geometry":{"type":"Point","coordinates":[124.22111,7.15306]},"properties":{"id":81339,"name":"Awang","state_code":"14","country_code":"PH"}},{"type":"Feature","geometry":{"type":"Point","coordinates":[124.23333,7.76667]},"properties":{"id":81356,"name":"Bacayawan","state_code":"14","country_code":"PH"}},{"type":"Feature","geometry":{"type":"Point","coordinates":[124.72056,6.84722]},"properties":{"id":81379,"name":"Badak","state_code":"14","country_code":"PH"}},{"type":"Feature","geometry":{"type":"Point","coordinates":[124.42028,6.92556]},"properties":{"id":81392,"name":"Bagan","state_code":"14","country_code":"PH"}},{"type":"Feature","geometry":{"type":"Point","coordinates":[124.26417,7.27611]},"properties":{"id":81424,"name":"Baka","state_code":"14","country_code":"PH"}},{"type":"Feature","geometry":{"type":"Point","coordinates":[119.79417,4.89111]},"properties":{"id":81427,"name":"Bakung","state_code":"14","country_code":"PH"}},{"type":"Feature","geometry":{"type":"Point","coordinates":[122.13806,6.6875]},"properties":{"id":81449,"name":"Balas","state_code":"14","country_code":"PH"}},{"type":"Feature","geometry":{"type":"Point","coordinates":[119.96583,5.0825]},"properties":{"id":81472,"name":"Balimbing","state_code":"14","country_code":"PH"}},{"type":"Feature","geometry":{"type":"Point","coordinates":[121.06667,6.06667]},"properties":{"id":81531,"name":"Bangkal","state_code":"14","country_code":"PH"}},{"type":"Feature","geometry":{"type":"Point","coordinates":[120.0091,5.0192]},"properties":{"id":81542,"name":"Bankaw","state_code":"14","country_code":"PH"}},{"type":"Feature","geometry":{"type":"Point","coordinates":[124.5975,6.89806]},"properties":{"id":81590,"name":"Barurao","state_code":"14","country_code":"PH"}},{"type":"Feature","geometry":{"type":"Point","coordinates":[120.9463,6.0344]},"properties":{"id":81631,"name":"Bato Bato","state_code":"14","country_code":"PH"}},{"type":"Feature","geometry":{"type":"Point","coordinates":[120.99406,6.00547]},"properties":{"id":81646,"name":"Baunu-Timbangan","state_code":"14","country_code":"PH"}},{"type":"Feature","geometry":{"type":"Point","coordinates":[120.8745,5.9375]},"properties":{"id":81649,"name":"Bawison","state_code":"14","country_code":"PH"}},{"type":"Feature","geometry":{"type":"Point","coordinates":[124.25222,7.52139]},"properties":{"id":81657,"name":"Bayanga","state_code":"14","country_code":"PH"}},{"type":"Feature","geometry":{"type":"Point","coordinates":[122.0168,6.6909]},"properties":{"id":81675,"name":"Begang","state_code":"14","country_code":"PH"}},{"type":"Feature","geometry":{"type":"Point","coordinates":[121.06,5.95694]},"properties":{"id":81730,"name":"Binuang","state_code":"14","country_code":"PH"}},{"type":"Feature","geometry":{"type":"Point","coordinates":[124.18056,7.01806]},"properties":{"id":81751,"name":"Blinsung","state_code":"14","country_code":"PH"}},{"type":"Feature","geometry":{"type":"Point","coordinates":[124.4,7.11667]},"properties":{"id":81790,"name":"Bongued","state_code":"14","country_code":"PH"}},{"type":"Feature","geometry":{"type":"Point","coordinates":[124.26667,7.75]},"properties":{"id":81817,"name":"Bualan","state_code":"14","country_code":"PH"}},{"type":"Feature","geometry":{"type":"Point","coordinates":[120.0426,5.1608]},"properties":{"id":81818,"name":"Buan","state_code":"14","country_code":"PH"}},{"type":"Feature","geometry":{"type":"Point","coordinates":[120.9614,6.0258]},"properties":{"id":81821,"name":"Buansa","state_code":"14","country_code":"PH"}},{"type":"Feature","geometry":{"type":"Point","coordinates":[124.43972,7.20417]},"properties":{"id":81826,"name":"Budta","state_code":"14","country_code":"PH"}},{"type":"Feature","geometry":{"type":"Point","coordinates":[124.25917,7.44083]},"properties":{"id":81843,"name":"Bugasan","state_code":"14","country_code":"PH"}},{"type":"Feature","geometry":{"type":"Point","coordinates":[124.7,7.01667]},"properties":{"id":81876,"name":"Buliok","state_code":"14","country_code":"PH"}},{"type":"Feature","geometry":{"type":"Point","coordinates":[124.78944,7.11528]},"properties":{"id":81879,"name":"Bulit","state_code":"14","country_code":"PH"}},{"type":"Feature","geometry":{"type":"Point","coordinates":[124.65,7.8]},"properties":{"id":81891,"name":"Bumbaran","state_code":"14","country_code":"PH"}},{"type":"Feature","geometry":{"type":"Point","coordinates":[121.97117,6.70407]},"properties":{"id":82245,"name":"City of Isabela","state_code":"14","country_code":"PH"}},{"type":"Feature","geometry":{"type":"Point","coordinates":[122.1575,6.64361]},"properties":{"id":82262,"name":"Colonia","state_code":"14","country_code":"PH"}},{"type":"Feature","geometry":{"type":"Point","coordinates":[124.24639,7.22361]},"properties":{"id":82302,"name":"Cotabato","state_code":"14","country_code":"PH"}},{"type":"Feature","geometry":{"type":"Point","coordinates":[124.45972,7.05]},"properties":{"id":82329,"name":"Dado","state_code":"14","country_code":"PH"}},{"type":"Feature","geometry":{"type":"Point","coordinates":[124.32167,7.0575]},"properties":{"id":82330,"name":"Dadus","state_code":"14","country_code":"PH"}},{"type":"Feature","geometry":{"type":"Point","coordinates":[124.4,6.96667]},"properties":{"id":82347,"name":"Dalican","state_code":"14","country_code":"PH"}},{"type":"Feature","geometry":{"type":"Point","coordinates":[124.3,7.21667]},"properties":{"id":82353,"name":"Dalumangcob","state_code":"14","country_code":"PH"}},{"type":"Feature","geometry":{"type":"Point","coordinates":[124.51417,7.01556]},"properties":{"id":82357,"name":"Damabalas","state_code":"14","country_code":"PH"}},{"type":"Feature","geometry":{"type":"Point","coordinates":[124.48278,7.03889]},"properties":{"id":82358,"name":"Damatulan","state_code":"14","country_code":"PH"}},{"type":"Feature","geometry":{"type":"Point","coordinates":[124.79639,6.75306]},"properties":{"id":82422,"name":"Digal","state_code":"14","country_code":"PH"}},{"type":"Feature","geometry":{"type":"Point","coordinates":[124.315,7.02556]},"properties":{"id":82436,"name":"Dinaig","state_code":"14","country_code":"PH"}},{"type":"Feature","geometry":{"type":"Point","coordinates":[124.37833,7.32833]},"properties":{"id":82439,"name":"Dinganen","state_code":"14","country_code":"PH"}},{"type":"Feature","geometry":{"type":"Point","coordinates":[124.39722,7.44056]},"properties":{"id":82500,"name":"Ebcor Town","state_code":"14","country_code":"PH"}},{"type":"Feature","geometry":{"type":"Point","coordinates":[124.26639,7.24583]},"properties":{"id":82564,"name":"Gang","state_code":"14","country_code":"PH"}},{"type":"Feature","geometry":{"type":"Point","coordinates":[122.02583,6.41861]},"properties":{"id":82643,"name":"Guiong","state_code":"14","country_code":"PH"}},{"type":"Feature","geometry":{"type":"Point","coordinates":[124.77278,6.79889]},"properties":{"id":82714,"name":"Idtig","state_code":"14","country_code":"PH"}},{"type":"Feature","geometry":{"type":"Point","coordinates":[124.65,7.06667]},"properties":{"id":82825,"name":"Kabasalan","state_code":"14","country_code":"PH"}},{"type":"Feature","geometry":{"type":"Point","coordinates":[120.9074,6.0088]},"properties":{"id":82836,"name":"Kagay","state_code":"14","country_code":"PH"}},{"type":"Feature","geometry":{"type":"Point","coordinates":[120.99194,6.03111]},"properties":{"id":82837,"name":"Kajatian","state_code":"14","country_code":"PH"}},{"type":"Feature","geometry":{"type":"Point","coordinates":[121.36306,5.91972]},"properties":{"id":82842,"name":"Kalang","state_code":"14","country_code":"PH"}},{"type":"Feature","geometry":{"type":"Point","coordinates":[124.65917,6.95972]},"properties":{"id":82847,"name":"Kalbugan","state_code":"14","country_code":"PH"}},{"type":"Feature","geometry":{"type":"Point","coordinates":[121.30757,5.94646]},"properties":{"id":82858,"name":"Kambing","state_code":"14","country_code":"PH"}},{"type":"Feature","geometry":{"type":"Point","coordinates":[121.29146,5.87568]},"properties":{"id":82862,"name":"Kanlagay","state_code":"14","country_code":"PH"}},{"type":"Feature","geometry":{"type":"Point","coordinates":[121.23444,6.00111]},"properties":{"id":82864,"name":"Kansipati","state_code":"14","country_code":"PH"}},{"type":"Feature","geometry":{"type":"Point","coordinates":[121.263,5.8844]},"properties":{"id":82874,"name":"Karungdong","state_code":"14","country_code":"PH"}},{"type":"Feature","geometry":{"type":"Point","coordinates":[124.725573,6.7583595]},"properties":{"id":82877,"name":"Katico","state_code":"14","country_code":"PH"}},{"type":"Feature","geometry":{"type":"Point","coordinates":[124.31528,7.18861]},"properties":{"id":82878,"name":"Katidtuan","state_code":"14","country_code":"PH"}},{"type":"Feature","geometry":{"type":"Point","coordinates":[124.21667,7.43333]},"properties":{"id":82882,"name":"Katuli","state_code":"14","country_code":"PH"}},{"type":"Feature","geometry":{"type":"Point","coordinates":[124.4775827,6.7794587]},"properties":{"id":82884,"name":"Kauran","state_code":"14","country_code":"PH"}},{"type":"Feature","geometry":{"type":"Point","coordinates":[124.44111,6.94833]},"properties":{"id":82915,"name":"Kitango","state_code":"14","country_code":"PH"}},{"type":"Feature","geometry":{"type":"Point","coordinates":[124.42556,6.95333]},"properties":{"id":82917,"name":"Kitapak","state_code":"14","country_code":"PH"}},{"type":"Feature","geometry":{"type":"Point","coordinates":[119.89694,5.07028]},"properties":{"id":82923,"name":"Kolape","state_code":"14","country_code":"PH"}},{"type":"Feature","geometry":{"type":"Point","coordinates":[120.9569,5.9052]},"properties":{"id":82930,"name":"Kulase","state_code":"14","country_code":"PH"}},{"type":"Feature","geometry":{"type":"Point","coordinates":[121.2325,5.94528]},"properties":{"id":82931,"name":"Kulay-Kulay","state_code":"14","country_code":"PH"}},{"type":"Feature","geometry":{"type":"Point","coordinates":[124.38972,7.51944]},"properties":{"id":82932,"name":"Kulempang","state_code":"14","country_code":"PH"}},{"type":"Feature","geometry":{"type":"Point","coordinates":[120.8472,5.5572]},"properties":{"id":82935,"name":"Kungtad","state_code":"14","country_code":"PH"}},{"type":"Feature","geometry":{"type":"Point","coordinates":[124.235,7.10306]},"properties":{"id":82967,"name":"Labuñgan","state_code":"14","country_code":"PH"}},{"type":"Feature","geometry":{"type":"Point","coordinates":[120.9136,5.5549]},"properties":{"id":83000,"name":"Laminusa","state_code":"14","country_code":"PH"}},{"type":"Feature","geometry":{"type":"Point","coordinates":[122.12952,6.6502]},"properties":{"id":83003,"name":"Lamitan City","state_code":"14","country_code":"PH"}},{"type":"Feature","geometry":{"type":"Point","coordinates":[120.949,5.975]},"properties":{"id":83015,"name":"Langpas","state_code":"14","country_code":"PH"}},{"type":"Feature","geometry":{"type":"Point","coordinates":[119.40511,4.76154]},"properties":{"id":83042,"name":"Larap","state_code":"14","country_code":"PH"}},{"type":"Feature","geometry":{"type":"Point","coordinates":[120.88333,5.5]},"properties":{"id":83048,"name":"Latung","state_code":"14","country_code":"PH"}},{"type":"Feature","geometry":{"type":"Point","coordinates":[124.73056,7.07667]},"properties":{"id":83057,"name":"Layog","state_code":"14","country_code":"PH"}},{"type":"Feature","geometry":{"type":"Point","coordinates":[119.47062,4.65442]},"properties":{"id":83107,"name":"Ligayan","state_code":"14","country_code":"PH"}},{"type":"Feature","geometry":{"type":"Point","coordinates":[124.24389,7.25167]},"properties":{"id":83121,"name":"Limbo","state_code":"14","country_code":"PH"}},{"type":"Feature","geometry":{"type":"Point","coordinates":[124.03472,7.33583]},"properties":{"id":83150,"name":"Litayan","state_code":"14","country_code":"PH"}},{"type":"Feature","geometry":{"type":"Point","coordinates":[120.1027,5.037]},"properties":{"id":83174,"name":"Lookan","state_code":"14","country_code":"PH"}},{"type":"Feature","geometry":{"type":"Point","coordinates":[121.3122,5.9684]},"properties":{"id":83190,"name":"Lu-uk","state_code":"14","country_code":"PH"}},{"type":"Feature","geometry":{"type":"Point","coordinates":[124.25278,7.73417]},"properties":{"id":83216,"name":"Lumbac","state_code":"14","country_code":"PH"}},{"type":"Feature","geometry":{"type":"Point","coordinates":[119.84528,4.81194]},"properties":{"id":83252,"name":"Luuk Datan","state_code":"14","country_code":"PH"}},{"type":"Feature","geometry":{"type":"Point","coordinates":[124.44167,6.86472]},"properties":{"id":83324,"name":"Maganoy","state_code":"14","country_code":"PH"}},{"type":"Feature","geometry":{"type":"Point","coordinates":[121.13333,5.91667]},"properties":{"id":83356,"name":"Mahala","state_code":"14","country_code":"PH"}},{"type":"Feature","geometry":{"type":"Point","coordinates":[124.30417,7.03083]},"properties":{"id":83378,"name":"Makir","state_code":"14","country_code":"PH"}},{"type":"Feature","geometry":{"type":"Point","coordinates":[121.8753,6.543]},"properties":{"id":83463,"name":"Maluso","state_code":"14","country_code":"PH"}},{"type":"Feature","geometry":{"type":"Point","coordinates":[120.7986,5.4732]},"properties":{"id":83542,"name":"Manubul","state_code":"14","country_code":"PH"}},{"type":"Feature","geometry":{"type":"Point","coordinates":[119.8352764,4.8064495]},"properties":{"id":83544,"name":"Manuk Mangkaw","state_code":"14","country_code":"PH"}},{"type":"Feature","geometry":{"type":"Point","coordinates":[124.28395,8.0034]},"properties":{"id":83567,"name":"Marawi City","state_code":"14","country_code":"PH"}},{"type":"Feature","geometry":{"type":"Point","coordinates":[121.10694,5.93139]},"properties":{"id":83588,"name":"Marsada","state_code":"14","country_code":"PH"}},{"type":"Feature","geometry":{"type":"Point","coordinates":[124.37194,7.47111]},"properties":{"id":83621,"name":"Mataya","state_code":"14","country_code":"PH"}},{"type":"Feature","geometry":{"type":"Point","coordinates":[121.09361,5.99]},"properties":{"id":83636,"name":"Mauboh","state_code":"14","country_code":"PH"}},{"type":"Feature","geometry":{"type":"Point","coordinates":[124.58389,6.89861]},"properties":{"id":83673,"name":"Mileb","state_code":"14","country_code":"PH"}},{"type":"Feature","geometry":{"type":"Point","coordinates":[119.88333,5.06667]},"properties":{"id":83802,"name":"New Batu Batu","state_code":"14","country_code":"PH"}},{"type":"Feature","geometry":{"type":"Point","coordinates":[124.41083,7.41806]},"properties":{"id":83833,"name":"Nuyo","state_code":"14","country_code":"PH"}},{"type":"Feature","geometry":{"type":"Point","coordinates":[124.47528,6.97306]},"properties":{"id":83892,"name":"Pagatin","state_code":"14","country_code":"PH"}},{"type":"Feature","geometry":{"type":"Point","coordinates":[124.8737464,6.6576809]},"properties":{"id":83901,"name":"Paitan","state_code":"14","country_code":"PH"}},{"type":"Feature","geometry":{"type":"Point","coordinates":[120.9627,5.9616]},"properties":{"id":83944,"name":"Panabuan","state_code":"14","country_code":"PH"}},{"type":"Feature","geometry":{"type":"Point","coordinates":[124.64278,6.90083]},"properties":{"id":83946,"name":"Panadtaban","state_code":"14","country_code":"PH"}},{"type":"Feature","geometry":{"type":"Point","coordinates":[121.16583,5.98889]},"properties":{"id":83959,"name":"Pandakan","state_code":"14","country_code":"PH"}},{"type":"Feature","geometry":{"type":"Point","coordinates":[120.5631,6.2282]},"properties":{"id":83963,"name":"Pandan Niog","state_code":"14","country_code":"PH"}},{"type":"Feature","geometry":{"type":"Point","coordinates":[121.2883,5.94837]},"properties":{"id":83967,"name":"Pang","state_code":"14","country_code":"PH"}},{"type":"Feature","geometry":{"type":"Point","coordinates":[119.93833,5.08389]},"properties":{"id":84020,"name":"Parangan","state_code":"14","country_code":"PH"}},{"type":"Feature","geometry":{"type":"Point","coordinates":[120.77194,5.55667]},"properties":{"id":84021,"name":"Parian Dakula","state_code":"14","country_code":"PH"}},{"type":"Feature","geometry":{"type":"Point","coordinates":[124.25647,8.01634]},"properties":{"id":84061,"name":"Pawak","state_code":"14","country_code":"PH"}},{"type":"Feature","geometry":{"type":"Point","coordinates":[120.90111,5.94167]},"properties":{"id":84071,"name":"Payuhan","state_code":"14","country_code":"PH"}},{"type":"Feature","geometry":{"type":"Point","coordinates":[124.59083,6.93222]},"properties":{"id":84085,"name":"Pidsandawan","state_code":"14","country_code":"PH"}},{"type":"Feature","geometry":{"type":"Point","coordinates":[124.31056,7.22889]},"properties":{"id":84107,"name":"Pinaring","state_code":"14","country_code":"PH"}},{"type":"Feature","geometry":{"type":"Point","coordinates":[124.22088,7.3534]},"properties":{"id":84146,"name":"Polloc","state_code":"14","country_code":"PH"}},{"type":"Feature","geometry":{"type":"Point","coordinates":[121.19806,5.96139]},"properties":{"id":84275,"name":"Punay","state_code":"14","country_code":"PH"}},{"type":"Feature","geometry":{"type":"Point","coordinates":[124.34528,7.97083]},"properties":{"id":84322,"name":"Ramain","state_code":"14","country_code":"PH"}},{"type":"Feature","geometry":{"type":"Point","coordinates":[124.10028,7.02389]},"properties":{"id":84337,"name":"Rimpeso","state_code":"14","country_code":"PH"}},{"type":"Feature","geometry":{"type":"Point","coordinates":[124.7,6.88333]},"properties":{"id":84428,"name":"Sambuluan","state_code":"14","country_code":"PH"}},{"type":"Feature","geometry":{"type":"Point","coordinates":[119.78528,5.0725]},"properties":{"id":84630,"name":"Sanga-Sanga","state_code":"14","country_code":"PH"}},{"type":"Feature","geometry":{"type":"Point","coordinates":[122.06,6.6782]},"properties":{"id":84654,"name":"Santa Clara","state_code":"14","country_code":"PH"}},{"type":"Feature","geometry":{"type":"Point","coordinates":[120.3241,5.1544]},"properties":{"id":84739,"name":"Sapa","state_code":"14","country_code":"PH"}},{"type":"Feature","geometry":{"type":"Point","coordinates":[124.25,7.48333]},"properties":{"id":84741,"name":"Sapadun","state_code":"14","country_code":"PH"}},{"type":"Feature","geometry":{"type":"Point","coordinates":[124.40861,6.86306]},"properties":{"id":84754,"name":"Satan","state_code":"14","country_code":"PH"}},{"type":"Feature","geometry":{"type":"Point","coordinates":[122.21889,6.66361]},"properties":{"id":84758,"name":"Semut","state_code":"14","country_code":"PH"}},{"type":"Feature","geometry":{"type":"Point","coordinates":[120.5836,6.3032]},"properties":{"id":84801,"name":"Simbahan","state_code":"14","country_code":"PH"}},{"type":"Feature","geometry":{"type":"Point","coordinates":[124.30722,7.27722]},"properties":{"id":84804,"name":"Simuay","state_code":"14","country_code":"PH"}},{"type":"Feature","geometry":{"type":"Point","coordinates":[120.94861,6.00528]},"properties":{"id":84824,"name":"Sionogan","state_code":"14","country_code":"PH"}},{"type":"Feature","geometry":{"type":"Point","coordinates":[121.89355,6.02806]},"properties":{"id":84894,"name":"Tabiauan","state_code":"14","country_code":"PH"}},{"type":"Feature","geometry":{"type":"Point","coordinates":[122.17472,6.62917]},"properties":{"id":84901,"name":"Tablas","state_code":"14","country_code":"PH"}},{"type":"Feature","geometry":{"type":"Point","coordinates":[118.31226,6.07328]},"properties":{"id":84928,"name":"Taganak","state_code":"14","country_code":"PH"}},{"type":"Feature","geometry":{"type":"Point","coordinates":[121.8395,6.6402]},"properties":{"id":84954,"name":"Tairan Camp","state_code":"14","country_code":"PH"}},{"type":"Feature","geometry":{"type":"Point","coordinates":[121.09444,5.91]},"properties":{"id":84978,"name":"Talipaw","state_code":"14","country_code":"PH"}},{"type":"Feature","geometry":{"type":"Point","coordinates":[124.26611,7.29444]},"properties":{"id":85048,"name":"Tapayan","state_code":"14","country_code":"PH"}},{"type":"Feature","geometry":{"type":"Point","coordinates":[124.3225,6.85194]},"properties":{"id":85051,"name":"Tapikan","state_code":"14","country_code":"PH"}},{"type":"Feature","geometry":{"type":"Point","coordinates":[119.49296,4.70654]},"properties":{"id":85063,"name":"Taungoh","state_code":"14","country_code":"PH"}},{"type":"Feature","geometry":{"type":"Point","coordinates":[124.31972,7.12333]},"properties":{"id":85064,"name":"Taviran","state_code":"14","country_code":"PH"}},{"type":"Feature","geometry":{"type":"Point","coordinates":[120.1328,5.0214]},"properties":{"id":85168,"name":"Tongouson","state_code":"14","country_code":"PH"}},{"type":"Feature","geometry":{"type":"Point","coordinates":[120.3139,5.3656]},"properties":{"id":85223,"name":"Tumbagaan","state_code":"14","country_code":"PH"}},{"type":"Feature","geometry":{"type":"Point","coordinates":[121.15436,5.84458]},"properties":{"id":85228,"name":"Tunggol","state_code":"14","country_code":"PH"}},{"type":"Feature","geometry":{"type":"Point","coordinates":[124.75306,7.08083]},"properties":{"id":85229,"name":"Tungol","state_code":"14","country_code":"PH"}},{"type":"Feature","geometry":{"type":"Point","coordinates":[119.83972,5.05083]},"properties":{"id":85253,"name":"Ungus-Ungus","state_code":"14","country_code":"PH"}},{"type":"Feature","geometry":{"type":"Point","coordinates":[124.04111,7.86306]},"properties":{"id":85272,"name":"Uyaan","state_code":"14","country_code":"PH"}}]}