{"type":"FeatureCollection","features":[{"type":"Feature","geometry":{"type":"Point","coordinates":[120.64472222,15.12277778]},"properties":{"id":145340,"name":"Acli","state_code":"AGS","country_code":"PH"}},{"type":"Feature","geometry":{"type":"Point","coordinates":[121.08333333,15.67916667]},"properties":{"id":145341,"name":"Agbannawag","state_code":"AGS","country_code":"PH"}},{"type":"Feature","geometry":{"type":"Point","coordinates":[121.07333333,15.04833333]},"properties":{"id":145342,"name":"Akle","state_code":"AGS","country_code":"PH"}},{"type":"Feature","geometry":{"type":"Point","coordinates":[120.89444444,15.31166667]},"properties":{"id":145344,"name":"Alua","state_code":"AGS","country_code":"PH"}},{"type":"Feature","geometry":{"type":"Point","coordinates":[120.61111111,15.58138889]},"properties":{"id":145345,"name":"Amacalan","state_code":"AGS","country_code":"PH"}},{"type":"Feature","geometry":{"type":"Point","coordinates":[120.68638889,15.46416667]},"properties":{"id":145346,"name":"Amucao","state_code":"AGS","country_code":"PH"}},{"type":"Feature","geometry":{"type":"Point","coordinates":[119.95833333,15.36527778]},"properties":{"id":145347,"name":"Amuñgan","state_code":"AGS","country_code":"PH"}},{"type":"Feature","geometry":{"type":"Point","coordinates":[121.02931944,14.92814722]},"properties":{"id":145350,"name":"Angat","state_code":"AGS","country_code":"PH"}},{"type":"Feature","geometry":{"type":"Point","coordinates":[120.58473333,15.14718056]},"properties":{"id":145351,"name":"Angeles","state_code":"AGS","country_code":"PH"}},{"type":"Feature","geometry":{"type":"Point","coordinates":[120.68583333,15.17055556]},"properties":{"id":145355,"name":"Arenas","state_code":"AGS","country_code":"PH"}},{"type":"Feature","geometry":{"type":"Point","coordinates":[120.56388889,15.43555556]},"properties":{"id":145356,"name":"Arminia","state_code":"AGS","country_code":"PH"}},{"type":"Feature","geometry":{"type":"Point","coordinates":[120.42805556,15.72472222]},"properties":{"id":145357,"name":"Bacabac","state_code":"AGS","country_code":"PH"}},{"type":"Feature","geometry":{"type":"Point","coordinates":[120.34333333,15.62055556]},"properties":{"id":145359,"name":"Bacsay","state_code":"AGS","country_code":"PH"}},{"type":"Feature","geometry":{"type":"Point","coordinates":[120.41667,14.58333]},"properties":{"id":145360,"name":"Bagac","state_code":"AGS","country_code":"PH"}},{"type":"Feature","geometry":{"type":"Point","coordinates":[120.94083333,14.89]},"properties":{"id":145361,"name":"Bagong Barrio","state_code":"AGS","country_code":"PH"}},{"type":"Feature","geometry":{"type":"Point","coordinates":[121.30722222,15.48]},"properties":{"id":145362,"name":"Bagong-Sikat","state_code":"AGS","country_code":"PH"}},{"type":"Feature","geometry":{"type":"Point","coordinates":[120.88083333,15.0325]},"properties":{"id":145363,"name":"Bahay Pare","state_code":"AGS","country_code":"PH"}},{"type":"Feature","geometry":{"type":"Point","coordinates":[120.63861111,15.53777778]},"properties":{"id":145364,"name":"Bakulong","state_code":"AGS","country_code":"PH"}},{"type":"Feature","geometry":{"type":"Point","coordinates":[120.908467,14.814467]},"properties":{"id":145365,"name":"Balagtas","state_code":"AGS","country_code":"PH"}},{"type":"Feature","geometry":{"type":"Point","coordinates":[120.53333333,14.68333333]},"properties":{"id":145366,"name":"Balanga","state_code":"AGS","country_code":"PH"}},{"type":"Feature","geometry":{"type":"Point","coordinates":[120.51472222,15.66333333]},"properties":{"id":145367,"name":"Balaoang","state_code":"AGS","country_code":"PH"}},{"type":"Feature","geometry":{"type":"Point","coordinates":[120.58611111,15.05]},"properties":{"id":145368,"name":"Balas","state_code":"AGS","country_code":"PH"}},{"type":"Feature","geometry":{"type":"Point","coordinates":[121.01277778,14.85444444]},"properties":{"id":145369,"name":"Balasing","state_code":"AGS","country_code":"PH"}},{"type":"Feature","geometry":{"type":"Point","coordinates":[120.69416667,15.54944444]},"properties":{"id":145370,"name":"Balayang","state_code":"AGS","country_code":"PH"}},{"type":"Feature","geometry":{"type":"Point","coordinates":[120.68555556,15.48222222]},"properties":{"id":145372,"name":"Balingcanaway","state_code":"AGS","country_code":"PH"}},{"type":"Feature","geometry":{"type":"Point","coordinates":[120.64194444,15.64444444]},"properties":{"id":145373,"name":"Balite","state_code":"AGS","country_code":"PH"}},{"type":"Feature","geometry":{"type":"Point","coordinates":[120.9,14.95]},"properties":{"id":145375,"name":"Baliuag","state_code":"AGS","country_code":"PH"}},{"type":"Feature","geometry":{"type":"Point","coordinates":[120.88527778,15.64361111]},"properties":{"id":145376,"name":"Baloc","state_code":"AGS","country_code":"PH"}},{"type":"Feature","geometry":{"type":"Point","coordinates":[120.77416667,15.80527778]},"properties":{"id":145377,"name":"Baloy","state_code":"AGS","country_code":"PH"}},{"type":"Feature","geometry":{"type":"Point","coordinates":[120.4825,14.85916667]},"properties":{"id":145378,"name":"Balsic","state_code":"AGS","country_code":"PH"}},{"type":"Feature","geometry":{"type":"Point","coordinates":[120.81444444,14.95277778]},"properties":{"id":145379,"name":"Balucuc","state_code":"AGS","country_code":"PH"}},{"type":"Feature","geometry":{"type":"Point","coordinates":[120.55,14.68333333]},"properties":{"id":145380,"name":"Balut","state_code":"AGS","country_code":"PH"}},{"type":"Feature","geometry":{"type":"Point","coordinates":[120.69222222,15.29861111]},"properties":{"id":145381,"name":"Balutu","state_code":"AGS","country_code":"PH"}},{"type":"Feature","geometry":{"type":"Point","coordinates":[120.39,14.61222222]},"properties":{"id":145384,"name":"Banawang","state_code":"AGS","country_code":"PH"}},{"type":"Feature","geometry":{"type":"Point","coordinates":[120.55416667,15.71611111]},"properties":{"id":145386,"name":"Baquero Norte","state_code":"AGS","country_code":"PH"}},{"type":"Feature","geometry":{"type":"Point","coordinates":[120.94083333,15.14444444]},"properties":{"id":145387,"name":"Batasan Bata","state_code":"AGS","country_code":"PH"}},{"type":"Feature","geometry":{"type":"Point","coordinates":[120.80277778,15.40027778]},"properties":{"id":145388,"name":"Batitang","state_code":"AGS","country_code":"PH"}},{"type":"Feature","geometry":{"type":"Point","coordinates":[121.17,13.35916667]},"properties":{"id":145389,"name":"Bayanan","state_code":"AGS","country_code":"PH"}},{"type":"Feature","geometry":{"type":"Point","coordinates":[120.085,14.97722222]},"properties":{"id":145390,"name":"Beddeng","state_code":"AGS","country_code":"PH"}},{"type":"Feature","geometry":{"type":"Point","coordinates":[119.90666667,15.74027778]},"properties":{"id":145391,"name":"Biay","state_code":"AGS","country_code":"PH"}},{"type":"Feature","geometry":{"type":"Point","coordinates":[120.86222222,15.52194444]},"properties":{"id":145392,"name":"Bibiclat","state_code":"AGS","country_code":"PH"}},{"type":"Feature","geometry":{"type":"Point","coordinates":[121.04138889,15.66027778]},"properties":{"id":145393,"name":"Bicos","state_code":"AGS","country_code":"PH"}},{"type":"Feature","geometry":{"type":"Point","coordinates":[121.16111111,13.31055556]},"properties":{"id":145394,"name":"Biga","state_code":"AGS","country_code":"PH"}},{"type":"Feature","geometry":{"type":"Point","coordinates":[120.43333333,15.73666667]},"properties":{"id":145395,"name":"Bilad","state_code":"AGS","country_code":"PH"}},{"type":"Feature","geometry":{"type":"Point","coordinates":[120.38111111,15.65666667]},"properties":{"id":145396,"name":"Bobon Second","state_code":"AGS","country_code":"PH"}},{"type":"Feature","geometry":{"type":"Point","coordinates":[120.47972222,14.92277778]},"properties":{"id":145398,"name":"Bodega","state_code":"AGS","country_code":"PH"}},{"type":"Feature","geometry":{"type":"Point","coordinates":[119.87694444,15.73944444]},"properties":{"id":145399,"name":"Bolitoc","state_code":"AGS","country_code":"PH"}},{"type":"Feature","geometry":{"type":"Point","coordinates":[120.58194444,15.6275]},"properties":{"id":145402,"name":"Buenlag","state_code":"AGS","country_code":"PH"}},{"type":"Feature","geometry":{"type":"Point","coordinates":[120.67305556,15.19333333]},"properties":{"id":145403,"name":"Buensuseso","state_code":"AGS","country_code":"PH"}},{"type":"Feature","geometry":{"type":"Point","coordinates":[120.66277778,15.0825]},"properties":{"id":145405,"name":"Bulaon","state_code":"AGS","country_code":"PH"}},{"type":"Feature","geometry":{"type":"Point","coordinates":[120.62166667,15.56833333]},"properties":{"id":145406,"name":"Bularit","state_code":"AGS","country_code":"PH"}},{"type":"Feature","geometry":{"type":"Point","coordinates":[119.95638889,15.41722222]},"properties":{"id":145407,"name":"Bulawin","state_code":"AGS","country_code":"PH"}},{"type":"Feature","geometry":{"type":"Point","coordinates":[120.89555556,14.87583333]},"properties":{"id":145408,"name":"Bulihan","state_code":"AGS","country_code":"PH"}},{"type":"Feature","geometry":{"type":"Point","coordinates":[120.95972222,15.54611111]},"properties":{"id":145409,"name":"Buliran","state_code":"AGS","country_code":"PH"}},{"type":"Feature","geometry":{"type":"Point","coordinates":[120.86666667,15.26666667]},"properties":{"id":145410,"name":"Buliran Segundo","state_code":"AGS","country_code":"PH"}},{"type":"Feature","geometry":{"type":"Point","coordinates":[120.95333333,15.22138889]},"properties":{"id":145411,"name":"Bulualto","state_code":"AGS","country_code":"PH"}},{"type":"Feature","geometry":{"type":"Point","coordinates":[120.7175,15.48583333]},"properties":{"id":145412,"name":"Bundoc","state_code":"AGS","country_code":"PH"}},{"type":"Feature","geometry":{"type":"Point","coordinates":[120.83444444,15.66722222]},"properties":{"id":145413,"name":"Bunol","state_code":"AGS","country_code":"PH"}},{"type":"Feature","geometry":{"type":"Point","coordinates":[120.55138889,15.66333333]},"properties":{"id":145420,"name":"Cabayaoasan","state_code":"AGS","country_code":"PH"}},{"type":"Feature","geometry":{"type":"Point","coordinates":[120.59138889,14.45388889]},"properties":{"id":145421,"name":"Cabcaben","state_code":"AGS","country_code":"PH"}},{"type":"Feature","geometry":{"type":"Point","coordinates":[121.37027778,15.31527778]},"properties":{"id":145423,"name":"Cabog","state_code":"AGS","country_code":"PH"}},{"type":"Feature","geometry":{"type":"Point","coordinates":[120.70611111,15.33694444]},"properties":{"id":145424,"name":"Cafe","state_code":"AGS","country_code":"PH"}},{"type":"Feature","geometry":{"type":"Point","coordinates":[120.87416667,15.30055556]},"properties":{"id":145425,"name":"Calaba","state_code":"AGS","country_code":"PH"}},{"type":"Feature","geometry":{"type":"Point","coordinates":[120.64111111,15.80138889]},"properties":{"id":145426,"name":"Calancuasan Norte","state_code":"AGS","country_code":"PH"}},{"type":"Feature","geometry":{"type":"Point","coordinates":[120.55888889,14.89805556]},"properties":{"id":145427,"name":"Calangain","state_code":"AGS","country_code":"PH"}},{"type":"Feature","geometry":{"type":"Point","coordinates":[120.51805556,15.01944444]},"properties":{"id":145428,"name":"Calantas","state_code":"AGS","country_code":"PH"}},{"type":"Feature","geometry":{"type":"Point","coordinates":[120.51444444,15.5675]},"properties":{"id":145429,"name":"Calayaan","state_code":"AGS","country_code":"PH"}},{"type":"Feature","geometry":{"type":"Point","coordinates":[120.72388889,15.59833333]},"properties":{"id":145430,"name":"Calibungan","state_code":"AGS","country_code":"PH"}},{"type":"Feature","geometry":{"type":"Point","coordinates":[120.59805556,15.115]},"properties":{"id":145431,"name":"Calibutbut","state_code":"AGS","country_code":"PH"}},{"type":"Feature","geometry":{"type":"Point","coordinates":[120.58333333,15.33333333]},"properties":{"id":145432,"name":"Calingcuan","state_code":"AGS","country_code":"PH"}},{"type":"Feature","geometry":{"type":"Point","coordinates":[121.025,15.17388889]},"properties":{"id":145433,"name":"Calumpang","state_code":"AGS","country_code":"PH"}},{"type":"Feature","geometry":{"type":"Point","coordinates":[120.76666667,14.91666667]},"properties":{"id":145434,"name":"Calumpit","state_code":"AGS","country_code":"PH"}},{"type":"Feature","geometry":{"type":"Point","coordinates":[120.76861111,15.39222222]},"properties":{"id":145435,"name":"Cama Juan","state_code":"AGS","country_code":"PH"}},{"type":"Feature","geometry":{"type":"Point","coordinates":[120.58083333,14.64361111]},"properties":{"id":145436,"name":"Camachile","state_code":"AGS","country_code":"PH"}},{"type":"Feature","geometry":{"type":"Point","coordinates":[120.97416667,15.16666667]},"properties":{"id":145437,"name":"Camias","state_code":"AGS","country_code":"PH"}},{"type":"Feature","geometry":{"type":"Point","coordinates":[120.81861111,15.15055556]},"properties":{"id":145440,"name":"Candating","state_code":"AGS","country_code":"PH"}},{"type":"Feature","geometry":{"type":"Point","coordinates":[120.82666667,15.44694444]},"properties":{"id":145444,"name":"Carmen","state_code":"AGS","country_code":"PH"}},{"type":"Feature","geometry":{"type":"Point","coordinates":[120.76972222,15.67777778]},"properties":{"id":145449,"name":"Cavite","state_code":"AGS","country_code":"PH"}},{"type":"Feature","geometry":{"type":"Point","coordinates":[120.77694444,15.63361111]},"properties":{"id":145450,"name":"Cawayan Bugtong","state_code":"AGS","country_code":"PH"}},{"type":"Feature","geometry":{"type":"Point","coordinates":[120.4943,14.66695]},"properties":{"id":145451,"name":"City of Balanga","state_code":"AGS","country_code":"PH"}},{"type":"Feature","geometry":{"type":"Point","coordinates":[120.98333,15.28333]},"properties":{"id":145452,"name":"City of Gapan","state_code":"AGS","country_code":"PH"}},{"type":"Feature","geometry":{"type":"Point","coordinates":[120.83713,14.82978]},"properties":{"id":145453,"name":"City of Malolos","state_code":"AGS","country_code":"PH"}},{"type":"Feature","geometry":{"type":"Point","coordinates":[120.96794,14.75238]},"properties":{"id":145454,"name":"City of Meycauayan","state_code":"AGS","country_code":"PH"}},{"type":"Feature","geometry":{"type":"Point","coordinates":[120.70373,15.04574]},"properties":{"id":145455,"name":"City of San Fernando","state_code":"AGS","country_code":"PH"}},{"type":"Feature","geometry":{"type":"Point","coordinates":[121.11667,14.81667]},"properties":{"id":145456,"name":"City of San Jose del Monte","state_code":"AGS","country_code":"PH"}},{"type":"Feature","geometry":{"type":"Point","coordinates":[120.70055556,15.39833333]},"properties":{"id":145457,"name":"Comillas","state_code":"AGS","country_code":"PH"}},{"type":"Feature","geometry":{"type":"Point","coordinates":[121.13666667,13.25472222]},"properties":{"id":145458,"name":"Communal","state_code":"AGS","country_code":"PH"}},{"type":"Feature","geometry":{"type":"Point","coordinates":[126.0090499,7.9858617]},"properties":{"id":145459,"name":"Concepcion","state_code":"AGS","country_code":"PH"}},{"type":"Feature","geometry":{"type":"Point","coordinates":[121.12777778,15.89833333]},"properties":{"id":145462,"name":"Conversion","state_code":"AGS","country_code":"PH"}},{"type":"Feature","geometry":{"type":"Point","coordinates":[120.89861111,14.915]},"properties":{"id":145463,"name":"Culianin","state_code":"AGS","country_code":"PH"}},{"type":"Feature","geometry":{"type":"Point","coordinates":[120.65222222,15.14444444]},"properties":{"id":145464,"name":"Culubasa","state_code":"AGS","country_code":"PH"}},{"type":"Feature","geometry":{"type":"Point","coordinates":[120.58611111,15.48277778]},"properties":{"id":145465,"name":"Cut-cut Primero","state_code":"AGS","country_code":"PH"}},{"type":"Feature","geometry":{"type":"Point","coordinates":[120.82194444,14.90138889]},"properties":{"id":145467,"name":"Dampol","state_code":"AGS","country_code":"PH"}},{"type":"Feature","geometry":{"type":"Point","coordinates":[120.69944444,15.03611111]},"properties":{"id":145469,"name":"Del Pilar","state_code":"AGS","country_code":"PH"}},{"type":"Feature","geometry":{"type":"Point","coordinates":[120.97777778,15.94888889]},"properties":{"id":145471,"name":"Digdig","state_code":"AGS","country_code":"PH"}},{"type":"Feature","geometry":{"type":"Point","coordinates":[120.95194444,15.02472222]},"properties":{"id":145473,"name":"Diliman Primero","state_code":"AGS","country_code":"PH"}},{"type":"Feature","geometry":{"type":"Point","coordinates":[121.88333,16.18333]},"properties":{"id":145474,"name":"Dinalongan","state_code":"AGS","country_code":"PH"}},{"type":"Feature","geometry":{"type":"Point","coordinates":[120.46666667,14.88333333]},"properties":{"id":145475,"name":"Dinalupihan","state_code":"AGS","country_code":"PH"}},{"type":"Feature","geometry":{"type":"Point","coordinates":[120.86305556,15.28666667]},"properties":{"id":145480,"name":"Entablado","state_code":"AGS","country_code":"PH"}},{"type":"Feature","geometry":{"type":"Point","coordinates":[120.63777778,15.59027778]},"properties":{"id":145481,"name":"Estipona","state_code":"AGS","country_code":"PH"}},{"type":"Feature","geometry":{"type":"Point","coordinates":[121.03333333,15.75]},"properties":{"id":145482,"name":"Estrella","state_code":"AGS","country_code":"PH"}},{"type":"Feature","geometry":{"type":"Point","coordinates":[120.63333333,15.95]},"properties":{"id":145491,"name":"Gueset","state_code":"AGS","country_code":"PH"}},{"type":"Feature","geometry":{"type":"Point","coordinates":[120.88333333,14.83333333]},"properties":{"id":145492,"name":"Guiguinto","state_code":"AGS","country_code":"PH"}},{"type":"Feature","geometry":{"type":"Point","coordinates":[119.97666667,15.79277778]},"properties":{"id":145494,"name":"Guisguis","state_code":"AGS","country_code":"PH"}},{"type":"Feature","geometry":{"type":"Point","coordinates":[120.97833333,14.83611111]},"properties":{"id":145495,"name":"Guyong","state_code":"AGS","country_code":"PH"}},{"type":"Feature","geometry":{"type":"Point","coordinates":[120.5,14.83333333]},"properties":{"id":145497,"name":"Hermosa","state_code":"AGS","country_code":"PH"}},{"type":"Feature","geometry":{"type":"Point","coordinates":[120.72888889,15.44305556]},"properties":{"id":145501,"name":"La Paz","state_code":"AGS","country_code":"PH"}},{"type":"Feature","geometry":{"type":"Point","coordinates":[120.86666667,14.75]},"properties":{"id":145502,"name":"Lambakin","state_code":"AGS","country_code":"PH"}},{"type":"Feature","geometry":{"type":"Point","coordinates":[120.60472222,15.79194444]},"properties":{"id":145504,"name":"Lanat","state_code":"AGS","country_code":"PH"}},{"type":"Feature","geometry":{"type":"Point","coordinates":[120.75138889,15.04666667]},"properties":{"id":145505,"name":"Laug","state_code":"AGS","country_code":"PH"}},{"type":"Feature","geometry":{"type":"Point","coordinates":[120.8575,15.34805556]},"properties":{"id":145507,"name":"Lawang Kupang","state_code":"AGS","country_code":"PH"}},{"type":"Feature","geometry":{"type":"Point","coordinates":[120.73388889,15.68361111]},"properties":{"id":145508,"name":"Lennec","state_code":"AGS","country_code":"PH"}},{"type":"Feature","geometry":{"type":"Point","coordinates":[121.28722222,15.50916667]},"properties":{"id":145510,"name":"Ligaya","state_code":"AGS","country_code":"PH"}},{"type":"Feature","geometry":{"type":"Point","coordinates":[119.93305556,15.39916667]},"properties":{"id":145512,"name":"Liozon","state_code":"AGS","country_code":"PH"}},{"type":"Feature","geometry":{"type":"Point","coordinates":[119.92083333,15.45611111]},"properties":{"id":145513,"name":"Lipay","state_code":"AGS","country_code":"PH"}},{"type":"Feature","geometry":{"type":"Point","coordinates":[120.71722222,15.4925]},"properties":{"id":145515,"name":"Lomboy","state_code":"AGS","country_code":"PH"}},{"type":"Feature","geometry":{"type":"Point","coordinates":[120.68333333,14.96666667]},"properties":{"id":145516,"name":"Lourdes","state_code":"AGS","country_code":"PH"}},{"type":"Feature","geometry":{"type":"Point","coordinates":[119.93194444,15.69972222]},"properties":{"id":145519,"name":"Lucapon","state_code":"AGS","country_code":"PH"}},{"type":"Feature","geometry":{"type":"Point","coordinates":[120.27805556,14.73166667]},"properties":{"id":145523,"name":"Mabayo","state_code":"AGS","country_code":"PH"}},{"type":"Feature","geometry":{"type":"Point","coordinates":[120.48833333,15.675]},"properties":{"id":145524,"name":"Mabilang","state_code":"AGS","country_code":"PH"}},{"type":"Feature","geometry":{"type":"Point","coordinates":[120.66583333,15.39472222]},"properties":{"id":145525,"name":"Mabilog","state_code":"AGS","country_code":"PH"}},{"type":"Feature","geometry":{"type":"Point","coordinates":[121.13194444,15.67833333]},"properties":{"id":145528,"name":"Macapsing","state_code":"AGS","country_code":"PH"}},{"type":"Feature","geometry":{"type":"Point","coordinates":[120.77472222,15.425]},"properties":{"id":145529,"name":"Macarse","state_code":"AGS","country_code":"PH"}},{"type":"Feature","geometry":{"type":"Point","coordinates":[121.07916667,15.50472222]},"properties":{"id":145530,"name":"Macatbong","state_code":"AGS","country_code":"PH"}},{"type":"Feature","geometry":{"type":"Point","coordinates":[120.66416667,15.03555556]},"properties":{"id":145532,"name":"Magliman","state_code":"AGS","country_code":"PH"}},{"type":"Feature","geometry":{"type":"Point","coordinates":[120.91555556,15.75805556]},"properties":{"id":145533,"name":"Magtangol","state_code":"AGS","country_code":"PH"}},{"type":"Feature","geometry":{"type":"Point","coordinates":[120.93416667,15.02222222]},"properties":{"id":145534,"name":"Maguinao","state_code":"AGS","country_code":"PH"}},{"type":"Feature","geometry":{"type":"Point","coordinates":[119.93777778,15.63611111]},"properties":{"id":145535,"name":"Malabon","state_code":"AGS","country_code":"PH"}},{"type":"Feature","geometry":{"type":"Point","coordinates":[120.41111111,15.64333333]},"properties":{"id":145536,"name":"Malacampa","state_code":"AGS","country_code":"PH"}},{"type":"Feature","geometry":{"type":"Point","coordinates":[120.88861111,15.67472222]},"properties":{"id":145537,"name":"Maligaya","state_code":"AGS","country_code":"PH"}},{"type":"Feature","geometry":{"type":"Point","coordinates":[120.67444444,15.12694444]},"properties":{"id":145538,"name":"Malino","state_code":"AGS","country_code":"PH"}},{"type":"Feature","geometry":{"type":"Point","coordinates":[120.81138889,14.84333333]},"properties":{"id":145539,"name":"Malolos","state_code":"AGS","country_code":"PH"}},{"type":"Feature","geometry":{"type":"Point","coordinates":[120.06388889,15.11361111]},"properties":{"id":145540,"name":"Maloma","state_code":"AGS","country_code":"PH"}},{"type":"Feature","geometry":{"type":"Point","coordinates":[120.65277778,15.54916667]},"properties":{"id":145541,"name":"Maluid","state_code":"AGS","country_code":"PH"}},{"type":"Feature","geometry":{"type":"Point","coordinates":[120.62111111,14.85833333]},"properties":{"id":145542,"name":"Malusac","state_code":"AGS","country_code":"PH"}},{"type":"Feature","geometry":{"type":"Point","coordinates":[120.03027778,15.31361111]},"properties":{"id":145543,"name":"Mambog","state_code":"AGS","country_code":"PH"}},{"type":"Feature","geometry":{"type":"Point","coordinates":[120.39638889,15.58722222]},"properties":{"id":145544,"name":"Mamonit","state_code":"AGS","country_code":"PH"}},{"type":"Feature","geometry":{"type":"Point","coordinates":[120.79111111,15.59527778]},"properties":{"id":145545,"name":"Manacsac","state_code":"AGS","country_code":"PH"}},{"type":"Feature","geometry":{"type":"Point","coordinates":[120.91638889,14.87694444]},"properties":{"id":145546,"name":"Manatal","state_code":"AGS","country_code":"PH"}},{"type":"Feature","geometry":{"type":"Point","coordinates":[120.87722222,15.17916667]},"properties":{"id":145547,"name":"Mandili","state_code":"AGS","country_code":"PH"}},{"type":"Feature","geometry":{"type":"Point","coordinates":[120.90888889,15.25027778]},"properties":{"id":145548,"name":"Mangga","state_code":"AGS","country_code":"PH"}},{"type":"Feature","geometry":{"type":"Point","coordinates":[120.56444444,15.09611111]},"properties":{"id":145549,"name":"Manibaug Pasig","state_code":"AGS","country_code":"PH"}},{"type":"Feature","geometry":{"type":"Point","coordinates":[121.20388889,13.31083333]},"properties":{"id":145550,"name":"Manogpi","state_code":"AGS","country_code":"PH"}},{"type":"Feature","geometry":{"type":"Point","coordinates":[120.6525,15.42833333]},"properties":{"id":145551,"name":"Mapalacsiao","state_code":"AGS","country_code":"PH"}},{"type":"Feature","geometry":{"type":"Point","coordinates":[121.08388889,15.45138889]},"properties":{"id":145552,"name":"Mapalad","state_code":"AGS","country_code":"PH"}},{"type":"Feature","geometry":{"type":"Point","coordinates":[120.92277778,15.10694444]},"properties":{"id":145553,"name":"Mapaniqui","state_code":"AGS","country_code":"PH"}},{"type":"Feature","geometry":{"type":"Point","coordinates":[120.55861111,14.98555556]},"properties":{"id":145554,"name":"Maquiapo","state_code":"AGS","country_code":"PH"}},{"type":"Feature","geometry":{"type":"Point","coordinates":[120.83805556,15.41722222]},"properties":{"id":145555,"name":"Marawa","state_code":"AGS","country_code":"PH"}},{"type":"Feature","geometry":{"type":"Point","coordinates":[120.94805556,14.75805556]},"properties":{"id":145557,"name":"Marilao","state_code":"AGS","country_code":"PH"}},{"type":"Feature","geometry":{"type":"Point","coordinates":[120.48333333,14.43333333]},"properties":{"id":145558,"name":"Mariveles","state_code":"AGS","country_code":"PH"}},{"type":"Feature","geometry":{"type":"Point","coordinates":[121.03722222,15.14805556]},"properties":{"id":145559,"name":"Masalipit","state_code":"AGS","country_code":"PH"}},{"type":"Feature","geometry":{"type":"Point","coordinates":[120.70972222,15.51666667]},"properties":{"id":145562,"name":"Matayumtayum","state_code":"AGS","country_code":"PH"}},{"type":"Feature","geometry":{"type":"Point","coordinates":[120.79222222,15.65722222]},"properties":{"id":145563,"name":"Maturanoc","state_code":"AGS","country_code":"PH"}},{"type":"Feature","geometry":{"type":"Point","coordinates":[120.95,14.73333333]},"properties":{"id":145566,"name":"Meycauayan","state_code":"AGS","country_code":"PH"}},{"type":"Feature","geometry":{"type":"Point","coordinates":[120.46583333,15.46111111]},"properties":{"id":145569,"name":"Moriones","state_code":"AGS","country_code":"PH"}},{"type":"Feature","geometry":{"type":"Point","coordinates":[120.67666667,15.41361111]},"properties":{"id":145571,"name":"Motrico","state_code":"AGS","country_code":"PH"}},{"type":"Feature","geometry":{"type":"Point","coordinates":[120.76888889,15.60138889]},"properties":{"id":145574,"name":"Nagpandayan","state_code":"AGS","country_code":"PH"}},{"type":"Feature","geometry":{"type":"Point","coordinates":[120.46027778,15.59916667]},"properties":{"id":145575,"name":"Nambalan","state_code":"AGS","country_code":"PH"}},{"type":"Feature","geometry":{"type":"Point","coordinates":[120.53638889,15.67527778]},"properties":{"id":145578,"name":"Nancamarinan","state_code":"AGS","country_code":"PH"}},{"type":"Feature","geometry":{"type":"Point","coordinates":[120.94888889,15.32833333]},"properties":{"id":145579,"name":"Nieves","state_code":"AGS","country_code":"PH"}},{"type":"Feature","geometry":{"type":"Point","coordinates":[120.96722222,14.94611111]},"properties":{"id":145580,"name":"Niugan","state_code":"AGS","country_code":"PH"}},{"type":"Feature","geometry":{"type":"Point","coordinates":[121.04916667,14.91083333]},"properties":{"id":145581,"name":"Norzagaray","state_code":"AGS","country_code":"PH"}},{"type":"Feature","geometry":{"type":"Point","coordinates":[120.91666667,14.7]},"properties":{"id":145582,"name":"Obando","state_code":"AGS","country_code":"PH"}},{"type":"Feature","geometry":{"type":"Point","coordinates":[120.53333333,14.8]},"properties":{"id":145584,"name":"Orani","state_code":"AGS","country_code":"PH"}},{"type":"Feature","geometry":{"type":"Point","coordinates":[121.08777778,15.65972222]},"properties":{"id":145586,"name":"Paco Roman","state_code":"AGS","country_code":"PH"}},{"type":"Feature","geometry":{"type":"Point","coordinates":[120.51638889,15.55166667]},"properties":{"id":145587,"name":"Padapada","state_code":"AGS","country_code":"PH"}},{"type":"Feature","geometry":{"type":"Point","coordinates":[120.74083333,15.83333333]},"properties":{"id":145588,"name":"Paitan Norte","state_code":"AGS","country_code":"PH"}},{"type":"Feature","geometry":{"type":"Point","coordinates":[120.86277778,15.68333333]},"properties":{"id":145591,"name":"Palusapis","state_code":"AGS","country_code":"PH"}},{"type":"Feature","geometry":{"type":"Point","coordinates":[120.21361111,14.92777778]},"properties":{"id":145592,"name":"Pamatawan","state_code":"AGS","country_code":"PH"}},{"type":"Feature","geometry":{"type":"Point","coordinates":[120.765,15.37722222]},"properties":{"id":145593,"name":"Panabingan","state_code":"AGS","country_code":"PH"}},{"type":"Feature","geometry":{"type":"Point","coordinates":[120.02722222,15.21333333]},"properties":{"id":145594,"name":"Panan","state_code":"AGS","country_code":"PH"}},{"type":"Feature","geometry":{"type":"Point","coordinates":[120.62,15.68861111]},"properties":{"id":145595,"name":"Pance","state_code":"AGS","country_code":"PH"}},{"type":"Feature","geometry":{"type":"Point","coordinates":[120.65444444,15.17194444]},"properties":{"id":145596,"name":"Pandacaqui","state_code":"AGS","country_code":"PH"}},{"type":"Feature","geometry":{"type":"Point","coordinates":[120.95,14.86666667]},"properties":{"id":145597,"name":"Pandi","state_code":"AGS","country_code":"PH"}},{"type":"Feature","geometry":{"type":"Point","coordinates":[120.68472222,15.39388889]},"properties":{"id":145598,"name":"Pando","state_code":"AGS","country_code":"PH"}},{"type":"Feature","geometry":{"type":"Point","coordinates":[120.95472222,14.96805556]},"properties":{"id":145601,"name":"Pantubig","state_code":"AGS","country_code":"PH"}},{"type":"Feature","geometry":{"type":"Point","coordinates":[120.789167,14.831111]},"properties":{"id":145602,"name":"Paombong","state_code":"AGS","country_code":"PH"}},{"type":"Feature","geometry":{"type":"Point","coordinates":[120.83583333,15.32027778]},"properties":{"id":145603,"name":"Papaya","state_code":"AGS","country_code":"PH"}},{"type":"Feature","geometry":{"type":"Point","coordinates":[120.92833333,15.85361111]},"properties":{"id":145605,"name":"Parista","state_code":"AGS","country_code":"PH"}},{"type":"Feature","geometry":{"type":"Point","coordinates":[120.72416667,15.02777778]},"properties":{"id":145606,"name":"Pau","state_code":"AGS","country_code":"PH"}},{"type":"Feature","geometry":{"type":"Point","coordinates":[121.07472222,15.34527778]},"properties":{"id":145608,"name":"Pias","state_code":"AGS","country_code":"PH"}},{"type":"Feature","geometry":{"type":"Point","coordinates":[121.06222222,15.62666667]},"properties":{"id":145613,"name":"Piñahan","state_code":"AGS","country_code":"PH"}},{"type":"Feature","geometry":{"type":"Point","coordinates":[120.97805556,15.20222222]},"properties":{"id":145611,"name":"Pinambaran","state_code":"AGS","country_code":"PH"}},{"type":"Feature","geometry":{"type":"Point","coordinates":[120.51888889,15.0475]},"properties":{"id":145612,"name":"Pio","state_code":"AGS","country_code":"PH"}},{"type":"Feature","geometry":{"type":"Point","coordinates":[121.04277778,15.755]},"properties":{"id":145617,"name":"Porais","state_code":"AGS","country_code":"PH"}},{"type":"Feature","geometry":{"type":"Point","coordinates":[120.51305556,14.87888889]},"properties":{"id":145618,"name":"Prado Siongco","state_code":"AGS","country_code":"PH"}},{"type":"Feature","geometry":{"type":"Point","coordinates":[120.85,14.9]},"properties":{"id":145619,"name":"Pulilan","state_code":"AGS","country_code":"PH"}},{"type":"Feature","geometry":{"type":"Point","coordinates":[121.01472222,14.96222222]},"properties":{"id":145620,"name":"Pulo","state_code":"AGS","country_code":"PH"}},{"type":"Feature","geometry":{"type":"Point","coordinates":[120.90611111,14.85944444]},"properties":{"id":145621,"name":"Pulong Gubat","state_code":"AGS","country_code":"PH"}},{"type":"Feature","geometry":{"type":"Point","coordinates":[121.06083333,14.96111111]},"properties":{"id":145622,"name":"Pulong Sampalok","state_code":"AGS","country_code":"PH"}},{"type":"Feature","geometry":{"type":"Point","coordinates":[120.56194444,15.04583333]},"properties":{"id":145623,"name":"Pulung Santol","state_code":"AGS","country_code":"PH"}},{"type":"Feature","geometry":{"type":"Point","coordinates":[120.55777778,15.00027778]},"properties":{"id":145624,"name":"Pulungmasle","state_code":"AGS","country_code":"PH"}},{"type":"Feature","geometry":{"type":"Point","coordinates":[120.99083333,15.90722222]},"properties":{"id":145625,"name":"Puncan","state_code":"AGS","country_code":"PH"}},{"type":"Feature","geometry":{"type":"Point","coordinates":[120.01694444,15.25194444]},"properties":{"id":145627,"name":"Purac","state_code":"AGS","country_code":"PH"}},{"type":"Feature","geometry":{"type":"Point","coordinates":[120.8675,15.37055556]},"properties":{"id":145628,"name":"Putlod","state_code":"AGS","country_code":"PH"}},{"type":"Feature","geometry":{"type":"Point","coordinates":[120.8625,15.44472222]},"properties":{"id":145630,"name":"Rajal Norte","state_code":"AGS","country_code":"PH"}},{"type":"Feature","geometry":{"type":"Point","coordinates":[121.16666667,15.68333333]},"properties":{"id":145632,"name":"Rizal","state_code":"AGS","country_code":"PH"}},{"type":"Feature","geometry":{"type":"Point","coordinates":[120.25083333,14.695]},"properties":{"id":145633,"name":"Sabang","state_code":"AGS","country_code":"PH"}},{"type":"Feature","geometry":{"type":"Point","coordinates":[121.15222222,15.56888889]},"properties":{"id":145634,"name":"Sagana","state_code":"AGS","country_code":"PH"}},{"type":"Feature","geometry":{"type":"Point","coordinates":[120.92805556,15.13388889]},"properties":{"id":145635,"name":"Salapungan","state_code":"AGS","country_code":"PH"}},{"type":"Feature","geometry":{"type":"Point","coordinates":[119.95527778,15.45416667]},"properties":{"id":145636,"name":"Salaza","state_code":"AGS","country_code":"PH"}},{"type":"Feature","geometry":{"type":"Point","coordinates":[120.91583333,15.83972222]},"properties":{"id":145638,"name":"Salvacion I","state_code":"AGS","country_code":"PH"}},{"type":"Feature","geometry":{"type":"Point","coordinates":[120.15,14.93333333]},"properties":{"id":145641,"name":"San Agustin","state_code":"AGS","country_code":"PH"}},{"type":"Feature","geometry":{"type":"Point","coordinates":[120.84888889,15.56111111]},"properties":{"id":145643,"name":"San Alejandro","state_code":"AGS","country_code":"PH"}},{"type":"Feature","geometry":{"type":"Point","coordinates":[120.7775,15.71916667]},"properties":{"id":145644,"name":"San Andres","state_code":"AGS","country_code":"PH"}},{"type":"Feature","geometry":{"type":"Point","coordinates":[120.92,15.34777778]},"properties":{"id":145645,"name":"San Anton","state_code":"AGS","country_code":"PH"}},{"type":"Feature","geometry":{"type":"Point","coordinates":[120.58416667,15.03333333]},"properties":{"id":145651,"name":"San Basilio","state_code":"AGS","country_code":"PH"}},{"type":"Feature","geometry":{"type":"Point","coordinates":[120.78083333,15.55305556]},"properties":{"id":145655,"name":"San Casimiro","state_code":"AGS","country_code":"PH"}},{"type":"Feature","geometry":{"type":"Point","coordinates":[120.76694444,15.55388889]},"properties":{"id":145657,"name":"San Cristobal","state_code":"AGS","country_code":"PH"}},{"type":"Feature","geometry":{"type":"Point","coordinates":[120.90777778,15.50138889]},"properties":{"id":145661,"name":"San Felipe Old","state_code":"AGS","country_code":"PH"}},{"type":"Feature","geometry":{"type":"Point","coordinates":[120.84,15.35555556]},"properties":{"id":145663,"name":"San Francisco","state_code":"AGS","country_code":"PH"}},{"type":"Feature","geometry":{"type":"Point","coordinates":[120.9,15.26666667]},"properties":{"id":145667,"name":"San Isidro","state_code":"AGS","country_code":"PH"}},{"type":"Feature","geometry":{"type":"Point","coordinates":[121.04527778,14.81388889]},"properties":{"id":145674,"name":"San Jose del Monte","state_code":"AGS","country_code":"PH"}},{"type":"Feature","geometry":{"type":"Point","coordinates":[120.53027778,15.53527778]},"properties":{"id":145677,"name":"San Juan de Mata","state_code":"AGS","country_code":"PH"}},{"type":"Feature","geometry":{"type":"Point","coordinates":[119.96222222,15.48611111]},"properties":{"id":145679,"name":"San Lorenzo","state_code":"AGS","country_code":"PH"}},{"type":"Feature","geometry":{"type":"Point","coordinates":[120.79194444,15.04]},"properties":{"id":145680,"name":"San Luis","state_code":"AGS","country_code":"PH"}},{"type":"Feature","geometry":{"type":"Point","coordinates":[120.87611111,15.32083333]},"properties":{"id":145685,"name":"San Mariano","state_code":"AGS","country_code":"PH"}},{"type":"Feature","geometry":{"type":"Point","coordinates":[120.67638889,15.58416667]},"properties":{"id":145690,"name":"San Nicolas","state_code":"AGS","country_code":"PH"}},{"type":"Feature","geometry":{"type":"Point","coordinates":[120.72888889,15.09777778]},"properties":{"id":145694,"name":"San Patricio","state_code":"AGS","country_code":"PH"}},{"type":"Feature","geometry":{"type":"Point","coordinates":[120.96666667,14.95]},"properties":{"id":145695,"name":"San Rafael","state_code":"AGS","country_code":"PH"}},{"type":"Feature","geometry":{"type":"Point","coordinates":[120.93833333,15.00944444]},"properties":{"id":145699,"name":"San Roque","state_code":"AGS","country_code":"PH"}},{"type":"Feature","geometry":{"type":"Point","coordinates":[120.57694444,14.97722222]},"properties":{"id":145701,"name":"San Roque Dau First","state_code":"AGS","country_code":"PH"}},{"type":"Feature","geometry":{"type":"Point","coordinates":[120.655,15.29222222]},"properties":{"id":145703,"name":"San Vicente","state_code":"AGS","country_code":"PH"}},{"type":"Feature","geometry":{"type":"Point","coordinates":[121.175,13.40666667]},"properties":{"id":145706,"name":"San Vincente","state_code":"AGS","country_code":"PH"}},{"type":"Feature","geometry":{"type":"Point","coordinates":[120.76805556,15.09388889]},"properties":{"id":145707,"name":"Santa Ana","state_code":"AGS","country_code":"PH"}},{"type":"Feature","geometry":{"type":"Point","coordinates":[119.90916667,15.76527778]},"properties":{"id":145709,"name":"Santa Cruz","state_code":"AGS","country_code":"PH"}},{"type":"Feature","geometry":{"type":"Point","coordinates":[120.21027778,15.01027778]},"properties":{"id":145712,"name":"Santa Fe","state_code":"AGS","country_code":"PH"}},{"type":"Feature","geometry":{"type":"Point","coordinates":[120.46444444,15.55694444]},"properties":{"id":145714,"name":"Santa Ines West","state_code":"AGS","country_code":"PH"}},{"type":"Feature","geometry":{"type":"Point","coordinates":[120.42861111,15.32833333]},"properties":{"id":145715,"name":"Santa Juliana","state_code":"AGS","country_code":"PH"}},{"type":"Feature","geometry":{"type":"Point","coordinates":[120.95633333,14.81833333]},"properties":{"id":145719,"name":"Santa Maria","state_code":"AGS","country_code":"PH"}},{"type":"Feature","geometry":{"type":"Point","coordinates":[120.72,15.35777778]},"properties":{"id":145723,"name":"Santa Monica","state_code":"AGS","country_code":"PH"}},{"type":"Feature","geometry":{"type":"Point","coordinates":[120.615278,14.995278]},"properties":{"id":145724,"name":"Santa Rita","state_code":"AGS","country_code":"PH"}},{"type":"Feature","geometry":{"type":"Point","coordinates":[120.55777778,14.92638889]},"properties":{"id":145728,"name":"Santa Teresa First","state_code":"AGS","country_code":"PH"}},{"type":"Feature","geometry":{"type":"Point","coordinates":[120.51138889,14.90361111]},"properties":{"id":145729,"name":"Santiago","state_code":"AGS","country_code":"PH"}},{"type":"Feature","geometry":{"type":"Point","coordinates":[120.89027778,15.29694444]},"properties":{"id":145730,"name":"Santo Cristo","state_code":"AGS","country_code":"PH"}},{"type":"Feature","geometry":{"type":"Point","coordinates":[120.62611111,15.33444444]},"properties":{"id":145736,"name":"Santo Niño","state_code":"AGS","country_code":"PH"}},{"type":"Feature","geometry":{"type":"Point","coordinates":[120.88972222,15.43416667]},"properties":{"id":145738,"name":"Santo Rosario","state_code":"AGS","country_code":"PH"}},{"type":"Feature","geometry":{"type":"Point","coordinates":[120.52444444,15.70333333]},"properties":{"id":145744,"name":"Sapang","state_code":"AGS","country_code":"PH"}},{"type":"Feature","geometry":{"type":"Point","coordinates":[121.12444444,15.59027778]},"properties":{"id":145745,"name":"Sapang Buho","state_code":"AGS","country_code":"PH"}},{"type":"Feature","geometry":{"type":"Point","coordinates":[121.18916667,13.365]},"properties":{"id":145746,"name":"Sapol","state_code":"AGS","country_code":"PH"}},{"type":"Feature","geometry":{"type":"Point","coordinates":[120.3925,14.56111111]},"properties":{"id":145749,"name":"Saysain","state_code":"AGS","country_code":"PH"}},{"type":"Feature","geometry":{"type":"Point","coordinates":[121.06166667,15.16888889]},"properties":{"id":145750,"name":"Sibul","state_code":"AGS","country_code":"PH"}},{"type":"Feature","geometry":{"type":"Point","coordinates":[121.22388889,15.58083333]},"properties":{"id":145752,"name":"Siclong","state_code":"AGS","country_code":"PH"}},{"type":"Feature","geometry":{"type":"Point","coordinates":[120.45944444,15.69333333]},"properties":{"id":145754,"name":"Sinilian First","state_code":"AGS","country_code":"PH"}},{"type":"Feature","geometry":{"type":"Point","coordinates":[120.98361111,15.42833333]},"properties":{"id":145755,"name":"Soledad","state_code":"AGS","country_code":"PH"}},{"type":"Feature","geometry":{"type":"Point","coordinates":[121.55027778,15.7575]},"properties":{"id":145757,"name":"Suklayin","state_code":"AGS","country_code":"PH"}},{"type":"Feature","geometry":{"type":"Point","coordinates":[120.39555556,15.45722222]},"properties":{"id":145758,"name":"Sula","state_code":"AGS","country_code":"PH"}},{"type":"Feature","geometry":{"type":"Point","coordinates":[120.92583333,14.79444444]},"properties":{"id":145759,"name":"Sulucan","state_code":"AGS","country_code":"PH"}},{"type":"Feature","geometry":{"type":"Point","coordinates":[120.94055556,15.64972222]},"properties":{"id":145760,"name":"Tabacao","state_code":"AGS","country_code":"PH"}},{"type":"Feature","geometry":{"type":"Point","coordinates":[120.91277778,15.27111111]},"properties":{"id":145761,"name":"Tabon","state_code":"AGS","country_code":"PH"}},{"type":"Feature","geometry":{"type":"Point","coordinates":[120.94083333,15.39222222]},"properties":{"id":145762,"name":"Tabuating","state_code":"AGS","country_code":"PH"}},{"type":"Feature","geometry":{"type":"Point","coordinates":[120.685,15.21222222]},"properties":{"id":145763,"name":"Tal I Mun Doc","state_code":"AGS","country_code":"PH"}},{"type":"Feature","geometry":{"type":"Point","coordinates":[120.58944444,15.38388889]},"properties":{"id":145764,"name":"Talaga","state_code":"AGS","country_code":"PH"}},{"type":"Feature","geometry":{"type":"Point","coordinates":[120.83777778,15.025]},"properties":{"id":145765,"name":"Talang","state_code":"AGS","country_code":"PH"}},{"type":"Feature","geometry":{"type":"Point","coordinates":[119.94555556,15.58777778]},"properties":{"id":145767,"name":"Taltal","state_code":"AGS","country_code":"PH"}},{"type":"Feature","geometry":{"type":"Point","coordinates":[120.61444444,15.52111111]},"properties":{"id":145769,"name":"Tariji","state_code":"AGS","country_code":"PH"}},{"type":"Feature","geometry":{"type":"Point","coordinates":[121.03083333,15.83444444]},"properties":{"id":145771,"name":"Tayabo","state_code":"AGS","country_code":"PH"}},{"type":"Feature","geometry":{"type":"Point","coordinates":[120.60777778,15.11861111]},"properties":{"id":145772,"name":"Telabastagan","state_code":"AGS","country_code":"PH"}},{"type":"Feature","geometry":{"type":"Point","coordinates":[120.86111111,15.31194444]},"properties":{"id":145773,"name":"Tikiw","state_code":"AGS","country_code":"PH"}},{"type":"Feature","geometry":{"type":"Point","coordinates":[120.65333333,15.37638889]},"properties":{"id":145774,"name":"Tinang","state_code":"AGS","country_code":"PH"}},{"type":"Feature","geometry":{"type":"Point","coordinates":[120.96805556,15.71833333]},"properties":{"id":145775,"name":"Tondod","state_code":"AGS","country_code":"PH"}},{"type":"Feature","geometry":{"type":"Point","coordinates":[119.94027778,15.67861111]},"properties":{"id":145776,"name":"Uacon","state_code":"AGS","country_code":"PH"}},{"type":"Feature","geometry":{"type":"Point","coordinates":[121.41111111,15.22055556]},"properties":{"id":145777,"name":"Umiray","state_code":"AGS","country_code":"PH"}},{"type":"Feature","geometry":{"type":"Point","coordinates":[120.99194444,15.02555556]},"properties":{"id":145778,"name":"Upig","state_code":"AGS","country_code":"PH"}},{"type":"Feature","geometry":{"type":"Point","coordinates":[120.48722222,15.59333333]},"properties":{"id":145779,"name":"Vargas","state_code":"AGS","country_code":"PH"}},{"type":"Feature","geometry":{"type":"Point","coordinates":[120.45277778,15.46611111]},"properties":{"id":145781,"name":"Villa Aglipay","state_code":"AGS","country_code":"PH"}},{"type":"Feature","geometry":{"type":"Point","coordinates":[120.86666667,15.77027778]},"properties":{"id":145782,"name":"Villa Isla","state_code":"AGS","country_code":"PH"}},{"type":"Feature","geometry":{"type":"Point","coordinates":[120.90027778,15.0625]},"properties":{"id":145783,"name":"Vizal San Pablo","state_code":"AGS","country_code":"PH"}},{"type":"Feature","geometry":{"type":"Point","coordinates":[120.905,15.02916667]},"properties":{"id":145784,"name":"Vizal Santo Niño","state_code":"AGS","country_code":"PH"}}]}