{"type":"FeatureCollection","features":[{"type":"Feature","geometry":{"type":"Point","coordinates":[121.60138889,17.35416667]},"properties":{"id":145098,"name":"Abut","state_code":"AGN","country_code":"PH"}},{"type":"Feature","geometry":{"type":"Point","coordinates":[121.4625,17.74777778]},"properties":{"id":145099,"name":"Accusilian","state_code":"AGN","country_code":"PH"}},{"type":"Feature","geometry":{"type":"Point","coordinates":[121.62694444,17.8525]},"properties":{"id":145100,"name":"Afusing Centro","state_code":"AGN","country_code":"PH"}},{"type":"Feature","geometry":{"type":"Point","coordinates":[121.46777778,17.7325]},"properties":{"id":145102,"name":"Alabug","state_code":"AGN","country_code":"PH"}},{"type":"Feature","geometry":{"type":"Point","coordinates":[121.58611111,18.06111111]},"properties":{"id":145103,"name":"Alannay","state_code":"AGN","country_code":"PH"}},{"type":"Feature","geometry":{"type":"Point","coordinates":[121.69718056,16.77868611]},"properties":{"id":145106,"name":"Alicia","state_code":"AGN","country_code":"PH"}},{"type":"Feature","geometry":{"type":"Point","coordinates":[121.55558333,18.22696667]},"properties":{"id":145107,"name":"Allacapan","state_code":"AGN","country_code":"PH"}},{"type":"Feature","geometry":{"type":"Point","coordinates":[121.0925,16.34972222]},"properties":{"id":145108,"name":"Almaguer North","state_code":"AGN","country_code":"PH"}},{"type":"Feature","geometry":{"type":"Point","coordinates":[121.72348333,17.83865556]},"properties":{"id":145110,"name":"Amulung","state_code":"AGN","country_code":"PH"}},{"type":"Feature","geometry":{"type":"Point","coordinates":[121.87138889,17.28277778]},"properties":{"id":145112,"name":"Antagan Segunda","state_code":"AGN","country_code":"PH"}},{"type":"Feature","geometry":{"type":"Point","coordinates":[121.64185,18.354975]},"properties":{"id":145113,"name":"Aparri","state_code":"AGN","country_code":"PH"}},{"type":"Feature","geometry":{"type":"Point","coordinates":[121.69361111,17.66472222]},"properties":{"id":145115,"name":"Atulayan","state_code":"AGN","country_code":"PH"}},{"type":"Feature","geometry":{"type":"Point","coordinates":[121.91305556,17.92444444]},"properties":{"id":145117,"name":"Awallan","state_code":"AGN","country_code":"PH"}},{"type":"Feature","geometry":{"type":"Point","coordinates":[121.70361111,17.03444444]},"properties":{"id":145118,"name":"Bacnor East","state_code":"AGN","country_code":"PH"}},{"type":"Feature","geometry":{"type":"Point","coordinates":[121.19027778,16.50583333]},"properties":{"id":145120,"name":"Baggabag B","state_code":"AGN","country_code":"PH"}},{"type":"Feature","geometry":{"type":"Point","coordinates":[121.87092222,17.88935278]},"properties":{"id":145121,"name":"Baggao","state_code":"AGN","country_code":"PH"}},{"type":"Feature","geometry":{"type":"Point","coordinates":[121.61111111,16.98277778]},"properties":{"id":145122,"name":"Bagong Tanza","state_code":"AGN","country_code":"PH"}},{"type":"Feature","geometry":{"type":"Point","coordinates":[121.35583333,18.42444444]},"properties":{"id":145123,"name":"Bagu","state_code":"AGN","country_code":"PH"}},{"type":"Feature","geometry":{"type":"Point","coordinates":[121.51666667,18.4]},"properties":{"id":145126,"name":"Ballesteros","state_code":"AGN","country_code":"PH"}},{"type":"Feature","geometry":{"type":"Point","coordinates":[121.77722222,17.49555556]},"properties":{"id":145128,"name":"Bangad","state_code":"AGN","country_code":"PH"}},{"type":"Feature","geometry":{"type":"Point","coordinates":[121.05444444,16.31444444]},"properties":{"id":145129,"name":"Banganan","state_code":"AGN","country_code":"PH"}},{"type":"Feature","geometry":{"type":"Point","coordinates":[121.77833333,17.02305556]},"properties":{"id":145130,"name":"Banquero","state_code":"AGN","country_code":"PH"}},{"type":"Feature","geometry":{"type":"Point","coordinates":[121.60555556,17.25861111]},"properties":{"id":145131,"name":"Barucboc Norte","state_code":"AGN","country_code":"PH"}},{"type":"Feature","geometry":{"type":"Point","coordinates":[121.96666667,20.45]},"properties":{"id":145132,"name":"Basco","state_code":"AGN","country_code":"PH"}},{"type":"Feature","geometry":{"type":"Point","coordinates":[121.45916667,17.7225]},"properties":{"id":145134,"name":"Battung","state_code":"AGN","country_code":"PH"}},{"type":"Feature","geometry":{"type":"Point","coordinates":[121.25,16.18333333]},"properties":{"id":145137,"name":"Belance","state_code":"AGN","country_code":"PH"}},{"type":"Feature","geometry":{"type":"Point","coordinates":[121.545,18.3275]},"properties":{"id":145139,"name":"Binalan","state_code":"AGN","country_code":"PH"}},{"type":"Feature","geometry":{"type":"Point","coordinates":[121.79527778,17.45888889]},"properties":{"id":145140,"name":"Binguang","state_code":"AGN","country_code":"PH"}},{"type":"Feature","geometry":{"type":"Point","coordinates":[121.18777778,16.57583333]},"properties":{"id":145141,"name":"Bintawan","state_code":"AGN","country_code":"PH"}},{"type":"Feature","geometry":{"type":"Point","coordinates":[121.85,17.9025]},"properties":{"id":145142,"name":"Bitag Grande","state_code":"AGN","country_code":"PH"}},{"type":"Feature","geometry":{"type":"Point","coordinates":[120.99583333,16.24472222]},"properties":{"id":145143,"name":"Bone South","state_code":"AGN","country_code":"PH"}},{"type":"Feature","geometry":{"type":"Point","coordinates":[121.23333333,16.48333333]},"properties":{"id":145145,"name":"Buliwao","state_code":"AGN","country_code":"PH"}},{"type":"Feature","geometry":{"type":"Point","coordinates":[121.76666667,17.33333333]},"properties":{"id":145146,"name":"Bulu","state_code":"AGN","country_code":"PH"}},{"type":"Feature","geometry":{"type":"Point","coordinates":[121.12416667,16.4775]},"properties":{"id":145149,"name":"Busilak","state_code":"AGN","country_code":"PH"}},{"type":"Feature","geometry":{"type":"Point","coordinates":[121.85055556,17.125]},"properties":{"id":145151,"name":"Cabannungan Second","state_code":"AGN","country_code":"PH"}},{"type":"Feature","geometry":{"type":"Point","coordinates":[121.48861111,18.41777778]},"properties":{"id":145152,"name":"Cabaritan East","state_code":"AGN","country_code":"PH"}},{"type":"Feature","geometry":{"type":"Point","coordinates":[122.08583333,18.32388889]},"properties":{"id":145155,"name":"Cabiraoan","state_code":"AGN","country_code":"PH"}},{"type":"Feature","geometry":{"type":"Point","coordinates":[121.76833333,17.48805556]},"properties":{"id":145156,"name":"Calamagui East","state_code":"AGN","country_code":"PH"}},{"type":"Feature","geometry":{"type":"Point","coordinates":[121.72277778,17.90916667]},"properties":{"id":145157,"name":"Calantac","state_code":"AGN","country_code":"PH"}},{"type":"Feature","geometry":{"type":"Point","coordinates":[121.72333333,18.04277778]},"properties":{"id":145158,"name":"Calaoagan","state_code":"AGN","country_code":"PH"}},{"type":"Feature","geometry":{"type":"Point","coordinates":[121.48333333,19.26666667]},"properties":{"id":145159,"name":"Calayan","state_code":"AGN","country_code":"PH"}},{"type":"Feature","geometry":{"type":"Point","coordinates":[121.74083333,17.35194444]},"properties":{"id":145160,"name":"Calinaoan Malasin","state_code":"AGN","country_code":"PH"}},{"type":"Feature","geometry":{"type":"Point","coordinates":[121.38527778,18.36361111]},"properties":{"id":145161,"name":"Calog Norte","state_code":"AGN","country_code":"PH"}},{"type":"Feature","geometry":{"type":"Point","coordinates":[121.68333333,18.26666667]},"properties":{"id":145162,"name":"Camalaniugan","state_code":"AGN","country_code":"PH"}},{"type":"Feature","geometry":{"type":"Point","coordinates":[121.81777778,18.05083333]},"properties":{"id":145163,"name":"Capissayan Sur","state_code":"AGN","country_code":"PH"}},{"type":"Feature","geometry":{"type":"Point","coordinates":[121.74361111,17.65916667]},"properties":{"id":145164,"name":"Carig","state_code":"AGN","country_code":"PH"}},{"type":"Feature","geometry":{"type":"Point","coordinates":[122.1275,18.37638889]},"properties":{"id":145165,"name":"Casambalangan","state_code":"AGN","country_code":"PH"}},{"type":"Feature","geometry":{"type":"Point","coordinates":[121.65277778,18.16083333]},"properties":{"id":145166,"name":"Catayauan","state_code":"AGN","country_code":"PH"}},{"type":"Feature","geometry":{"type":"Point","coordinates":[121.70388889,17.10277778]},"properties":{"id":145170,"name":"Cullalabo del Sur","state_code":"AGN","country_code":"PH"}},{"type":"Feature","geometry":{"type":"Point","coordinates":[121.71472222,17.94916667]},"properties":{"id":145172,"name":"Dalaoig","state_code":"AGN","country_code":"PH"}},{"type":"Feature","geometry":{"type":"Point","coordinates":[122.03333333,17]},"properties":{"id":145173,"name":"Daragutan","state_code":"AGN","country_code":"PH"}},{"type":"Feature","geometry":{"type":"Point","coordinates":[121.71138889,17.74527778]},"properties":{"id":145174,"name":"Dassun","state_code":"AGN","country_code":"PH"}},{"type":"Feature","geometry":{"type":"Point","coordinates":[121.62666667,16.91805556]},"properties":{"id":145177,"name":"Diamantina","state_code":"AGN","country_code":"PH"}},{"type":"Feature","geometry":{"type":"Point","coordinates":[121.76472222,16.51916667]},"properties":{"id":145178,"name":"Dibuluan","state_code":"AGN","country_code":"PH"}},{"type":"Feature","geometry":{"type":"Point","coordinates":[122.41583333,17.08194444]},"properties":{"id":145179,"name":"Dicabisagan","state_code":"AGN","country_code":"PH"}},{"type":"Feature","geometry":{"type":"Point","coordinates":[122.00361111,16.75611111]},"properties":{"id":145180,"name":"Dicamay","state_code":"AGN","country_code":"PH"}},{"type":"Feature","geometry":{"type":"Point","coordinates":[122.23333,16.66667]},"properties":{"id":145182,"name":"Dinapigui","state_code":"AGN","country_code":"PH"}},{"type":"Feature","geometry":{"type":"Point","coordinates":[122.31548,17.24194]},"properties":{"id":145183,"name":"Divilican","state_code":"AGN","country_code":"PH"}},{"type":"Feature","geometry":{"type":"Point","coordinates":[121.77416667,17.52277778]},"properties":{"id":145184,"name":"Divisoria","state_code":"AGN","country_code":"PH"}},{"type":"Feature","geometry":{"type":"Point","coordinates":[121.79444444,17.64111111]},"properties":{"id":145185,"name":"Dodan","state_code":"AGN","country_code":"PH"}},{"type":"Feature","geometry":{"type":"Point","coordinates":[121.7,16.31666667]},"properties":{"id":145186,"name":"Dumabato","state_code":"AGN","country_code":"PH"}},{"type":"Feature","geometry":{"type":"Point","coordinates":[121.67638889,16.705]},"properties":{"id":145190,"name":"Echague (town)","state_code":"AGN","country_code":"PH"}},{"type":"Feature","geometry":{"type":"Point","coordinates":[121.59805556,17.03805556]},"properties":{"id":145191,"name":"Eden","state_code":"AGN","country_code":"PH"}},{"type":"Feature","geometry":{"type":"Point","coordinates":[121.7,17.55]},"properties":{"id":145192,"name":"Enrile","state_code":"AGN","country_code":"PH"}},{"type":"Feature","geometry":{"type":"Point","coordinates":[121.68388889,17.02333333]},"properties":{"id":145193,"name":"Esperanza East","state_code":"AGN","country_code":"PH"}},{"type":"Feature","geometry":{"type":"Point","coordinates":[121.72305556,17.79944444]},"properties":{"id":145194,"name":"Estefania","state_code":"AGN","country_code":"PH"}},{"type":"Feature","geometry":{"type":"Point","coordinates":[121.79694444,17.03472222]},"properties":{"id":145195,"name":"Furao","state_code":"AGN","country_code":"PH"}},{"type":"Feature","geometry":{"type":"Point","coordinates":[121.61055556,17.62916667]},"properties":{"id":145196,"name":"Gadu","state_code":"AGN","country_code":"PH"}},{"type":"Feature","geometry":{"type":"Point","coordinates":[121.74361111,17.71027778]},"properties":{"id":145197,"name":"Gammad","state_code":"AGN","country_code":"PH"}},{"type":"Feature","geometry":{"type":"Point","coordinates":[121.86527778,17.20166667]},"properties":{"id":145199,"name":"Ganapi","state_code":"AGN","country_code":"PH"}},{"type":"Feature","geometry":{"type":"Point","coordinates":[121.82194444,16.83638889]},"properties":{"id":145200,"name":"Gappal","state_code":"AGN","country_code":"PH"}},{"type":"Feature","geometry":{"type":"Point","coordinates":[121.64416667,18.06166667]},"properties":{"id":145201,"name":"Gattaran","state_code":"AGN","country_code":"PH"}},{"type":"Feature","geometry":{"type":"Point","coordinates":[122,18.26666667]},"properties":{"id":145202,"name":"Gonzaga","state_code":"AGN","country_code":"PH"}},{"type":"Feature","geometry":{"type":"Point","coordinates":[121.46611111,18.335]},"properties":{"id":145203,"name":"Guiddam","state_code":"AGN","country_code":"PH"}},{"type":"Feature","geometry":{"type":"Point","coordinates":[121.73333333,17.75]},"properties":{"id":145205,"name":"Iguig","state_code":"AGN","country_code":"PH"}},{"type":"Feature","geometry":{"type":"Point","coordinates":[121.09305556,16.31805556]},"properties":{"id":145208,"name":"Ineangan","state_code":"AGN","country_code":"PH"}},{"type":"Feature","geometry":{"type":"Point","coordinates":[121.83333,20.76667]},"properties":{"id":145209,"name":"Itbayat","state_code":"AGN","country_code":"PH"}},{"type":"Feature","geometry":{"type":"Point","coordinates":[121.91666667,20.36666667]},"properties":{"id":145210,"name":"Ivana","state_code":"AGN","country_code":"PH"}},{"type":"Feature","geometry":{"type":"Point","coordinates":[121.66833333,16.91083333]},"properties":{"id":145214,"name":"La Paz","state_code":"AGN","country_code":"PH"}},{"type":"Feature","geometry":{"type":"Point","coordinates":[121.66666667,18.2]},"properties":{"id":145215,"name":"Lal-lo","state_code":"AGN","country_code":"PH"}},{"type":"Feature","geometry":{"type":"Point","coordinates":[121.44166667,17.70694444]},"properties":{"id":145217,"name":"Lallayug","state_code":"AGN","country_code":"PH"}},{"type":"Feature","geometry":{"type":"Point","coordinates":[121.70027778,17.69611111]},"properties":{"id":145218,"name":"Lanna","state_code":"AGN","country_code":"PH"}},{"type":"Feature","geometry":{"type":"Point","coordinates":[121.89777778,17.71611111]},"properties":{"id":145219,"name":"Lapi","state_code":"AGN","country_code":"PH"}},{"type":"Feature","geometry":{"type":"Point","coordinates":[121.76055556,17.63083333]},"properties":{"id":145220,"name":"Larion Alto","state_code":"AGN","country_code":"PH"}},{"type":"Feature","geometry":{"type":"Point","coordinates":[121.6,18.06666667]},"properties":{"id":145221,"name":"Lasam","state_code":"AGN","country_code":"PH"}},{"type":"Feature","geometry":{"type":"Point","coordinates":[121.73333333,16.96666667]},"properties":{"id":145223,"name":"Luna","state_code":"AGN","country_code":"PH"}},{"type":"Feature","geometry":{"type":"Point","coordinates":[121.12611111,16.32111111]},"properties":{"id":145224,"name":"Mabasa","state_code":"AGN","country_code":"PH"}},{"type":"Feature","geometry":{"type":"Point","coordinates":[121.51472222,18.37611111]},"properties":{"id":145226,"name":"Mabuttal East","state_code":"AGN","country_code":"PH"}},{"type":"Feature","geometry":{"type":"Point","coordinates":[121.67666667,17.60722222]},"properties":{"id":145228,"name":"Maddarulug Norte","state_code":"AGN","country_code":"PH"}},{"type":"Feature","geometry":{"type":"Point","coordinates":[121.735,17.57722222]},"properties":{"id":145230,"name":"Magalalag","state_code":"AGN","country_code":"PH"}},{"type":"Feature","geometry":{"type":"Point","coordinates":[121.49777778,17.76972222]},"properties":{"id":145232,"name":"Maguilling","state_code":"AGN","country_code":"PH"}},{"type":"Feature","geometry":{"type":"Point","coordinates":[121.95,20.41666667]},"properties":{"id":145233,"name":"Mahatao","state_code":"AGN","country_code":"PH"}},{"type":"Feature","geometry":{"type":"Point","coordinates":[121.10611111,16.30444444]},"properties":{"id":145234,"name":"Malasin","state_code":"AGN","country_code":"PH"}},{"type":"Feature","geometry":{"type":"Point","coordinates":[121.96444444,16.99888889]},"properties":{"id":145237,"name":"Maluno Sur","state_code":"AGN","country_code":"PH"}},{"type":"Feature","geometry":{"type":"Point","coordinates":[121.9025,17.17305556]},"properties":{"id":145238,"name":"Manaring","state_code":"AGN","country_code":"PH"}},{"type":"Feature","geometry":{"type":"Point","coordinates":[121.86055556,17.70111111]},"properties":{"id":145239,"name":"Manga","state_code":"AGN","country_code":"PH"}},{"type":"Feature","geometry":{"type":"Point","coordinates":[121.7475,16.50027778]},"properties":{"id":145240,"name":"Masaya Sur","state_code":"AGN","country_code":"PH"}},{"type":"Feature","geometry":{"type":"Point","coordinates":[121.83861111,17.37944444]},"properties":{"id":145241,"name":"Masipi West","state_code":"AGN","country_code":"PH"}},{"type":"Feature","geometry":{"type":"Point","coordinates":[121.66805556,18.215]},"properties":{"id":145242,"name":"Maxingal","state_code":"AGN","country_code":"PH"}},{"type":"Feature","geometry":{"type":"Point","coordinates":[121.85388889,16.98694444]},"properties":{"id":145243,"name":"Minallo","state_code":"AGN","country_code":"PH"}},{"type":"Feature","geometry":{"type":"Point","coordinates":[121.78527778,17.45222222]},"properties":{"id":145244,"name":"Minanga Norte","state_code":"AGN","country_code":"PH"}},{"type":"Feature","geometry":{"type":"Point","coordinates":[121.76194444,16.90222222]},"properties":{"id":145246,"name":"Minante Segundo","state_code":"AGN","country_code":"PH"}},{"type":"Feature","geometry":{"type":"Point","coordinates":[121.85527778,16.53222222]},"properties":{"id":145247,"name":"Minuri","state_code":"AGN","country_code":"PH"}},{"type":"Feature","geometry":{"type":"Point","coordinates":[121.74611111,17.45694444]},"properties":{"id":145248,"name":"Mozzozzin Sur","state_code":"AGN","country_code":"PH"}},{"type":"Feature","geometry":{"type":"Point","coordinates":[121.47083333,17.72416667]},"properties":{"id":145249,"name":"Mungo","state_code":"AGN","country_code":"PH"}},{"type":"Feature","geometry":{"type":"Point","coordinates":[121.73333,17.26667]},"properties":{"id":145250,"name":"Municipality of Delfin Albano","state_code":"AGN","country_code":"PH"}},{"type":"Feature","geometry":{"type":"Point","coordinates":[121.61361111,17.1575]},"properties":{"id":145251,"name":"Muñoz East","state_code":"AGN","country_code":"PH"}},{"type":"Feature","geometry":{"type":"Point","coordinates":[121.53638889,18.07166667]},"properties":{"id":145252,"name":"Nabannagan West","state_code":"AGN","country_code":"PH"}},{"type":"Feature","geometry":{"type":"Point","coordinates":[121.70972222,16.89944444]},"properties":{"id":145253,"name":"Nagrumbuan","state_code":"AGN","country_code":"PH"}},{"type":"Feature","geometry":{"type":"Point","coordinates":[121.16583333,18.61083333]},"properties":{"id":145256,"name":"Namuac","state_code":"AGN","country_code":"PH"}},{"type":"Feature","geometry":{"type":"Point","coordinates":[121.70305556,17.67527778]},"properties":{"id":145257,"name":"Nattapian","state_code":"AGN","country_code":"PH"}},{"type":"Feature","geometry":{"type":"Point","coordinates":[121.73861111,18.32361111]},"properties":{"id":145258,"name":"Paddaya","state_code":"AGN","country_code":"PH"}},{"type":"Feature","geometry":{"type":"Point","coordinates":[121.71861111,18.04416667]},"properties":{"id":145260,"name":"Palagao Norte","state_code":"AGN","country_code":"PH"}},{"type":"Feature","geometry":{"type":"Point","coordinates":[122.43,17.05888889]},"properties":{"id":145261,"name":"Palanan","state_code":"AGN","country_code":"PH"}},{"type":"Feature","geometry":{"type":"Point","coordinates":[121.66972222,16.60027778]},"properties":{"id":145263,"name":"Pangal Sur","state_code":"AGN","country_code":"PH"}},{"type":"Feature","geometry":{"type":"Point","coordinates":[121.81472222,18.24694444]},"properties":{"id":145265,"name":"Pattao","state_code":"AGN","country_code":"PH"}},{"type":"Feature","geometry":{"type":"Point","coordinates":[121.78333333,17.63333333]},"properties":{"id":145266,"name":"Peñablanca","state_code":"AGN","country_code":"PH"}},{"type":"Feature","geometry":{"type":"Point","coordinates":[121.475,17.79166667]},"properties":{"id":145267,"name":"Piat","state_code":"AGN","country_code":"PH"}},{"type":"Feature","geometry":{"type":"Point","coordinates":[121.70666667,16.87416667]},"properties":{"id":145268,"name":"Pinoma","state_code":"AGN","country_code":"PH"}},{"type":"Feature","geometry":{"type":"Point","coordinates":[121.81138889,17.71583333]},"properties":{"id":145271,"name":"Quibal","state_code":"AGN","country_code":"PH"}},{"type":"Feature","geometry":{"type":"Point","coordinates":[121.77416667,17.32305556]},"properties":{"id":145273,"name":"Ragan Norte","state_code":"AGN","country_code":"PH"}},{"type":"Feature","geometry":{"type":"Point","coordinates":[121.53504,16.78416]},"properties":{"id":145274,"name":"Ramon (municipal capital)","state_code":"AGN","country_code":"PH"}},{"type":"Feature","geometry":{"type":"Point","coordinates":[121.61361111,16.69833333]},"properties":{"id":145275,"name":"Ramos West","state_code":"AGN","country_code":"PH"}},{"type":"Feature","geometry":{"type":"Point","coordinates":[121.35,17.85]},"properties":{"id":145277,"name":"Rizal","state_code":"AGN","country_code":"PH"}},{"type":"Feature","geometry":{"type":"Point","coordinates":[121.86666667,20.33333333]},"properties":{"id":145280,"name":"Sabtang","state_code":"AGN","country_code":"PH"}},{"type":"Feature","geometry":{"type":"Point","coordinates":[121.01888889,16.36944444]},"properties":{"id":145282,"name":"Salinas","state_code":"AGN","country_code":"PH"}},{"type":"Feature","geometry":{"type":"Point","coordinates":[121.61444444,16.86916667]},"properties":{"id":145283,"name":"Salinungan Proper","state_code":"AGN","country_code":"PH"}},{"type":"Feature","geometry":{"type":"Point","coordinates":[121.75,16.51666667]},"properties":{"id":145284,"name":"San Agustin","state_code":"AGN","country_code":"PH"}},{"type":"Feature","geometry":{"type":"Point","coordinates":[121.10916667,16.35027778]},"properties":{"id":145285,"name":"San Antonio","state_code":"AGN","country_code":"PH"}},{"type":"Feature","geometry":{"type":"Point","coordinates":[121.75166667,17.40472222]},"properties":{"id":145287,"name":"San Bernardo","state_code":"AGN","country_code":"PH"}},{"type":"Feature","geometry":{"type":"Point","coordinates":[121.61667,16.73333]},"properties":{"id":145290,"name":"San Isidro","state_code":"AGN","country_code":"PH"}},{"type":"Feature","geometry":{"type":"Point","coordinates":[121.58333333,16.88333333]},"properties":{"id":145297,"name":"San Mateo","state_code":"AGN","country_code":"PH"}},{"type":"Feature","geometry":{"type":"Point","coordinates":[121.98777778,17.48305556]},"properties":{"id":145299,"name":"San Pablo","state_code":"AGN","country_code":"PH"}},{"type":"Feature","geometry":{"type":"Point","coordinates":[121.88333333,17.2]},"properties":{"id":145300,"name":"San Pedro","state_code":"AGN","country_code":"PH"}},{"type":"Feature","geometry":{"type":"Point","coordinates":[122.15027778,18.5075]},"properties":{"id":145301,"name":"San Vicente","state_code":"AGN","country_code":"PH"}},{"type":"Feature","geometry":{"type":"Point","coordinates":[121.23333333,18.56666667]},"properties":{"id":145302,"name":"Sanchez Mira","state_code":"AGN","country_code":"PH"}},{"type":"Feature","geometry":{"type":"Point","coordinates":[121.6375,17.07305556]},"properties":{"id":145303,"name":"Sandiat Centro","state_code":"AGN","country_code":"PH"}},{"type":"Feature","geometry":{"type":"Point","coordinates":[122.15,18.46666667]},"properties":{"id":145304,"name":"Santa Ana","state_code":"AGN","country_code":"PH"}},{"type":"Feature","geometry":{"type":"Point","coordinates":[121.31055556,18.51638889]},"properties":{"id":145305,"name":"Santa Cruz","state_code":"AGN","country_code":"PH"}},{"type":"Feature","geometry":{"type":"Point","coordinates":[121,18.56666667]},"properties":{"id":145309,"name":"Santa Praxedes","state_code":"AGN","country_code":"PH"}},{"type":"Feature","geometry":{"type":"Point","coordinates":[121.55,16.68333333]},"properties":{"id":145311,"name":"Santiago","state_code":"AGN","country_code":"PH"}},{"type":"Feature","geometry":{"type":"Point","coordinates":[121.5691,17.8861]},"properties":{"id":145313,"name":"Santo Niño","state_code":"AGN","country_code":"PH"}},{"type":"Feature","geometry":{"type":"Point","coordinates":[121.63305556,17.22861111]},"properties":{"id":145316,"name":"Siempre Viva","state_code":"AGN","country_code":"PH"}},{"type":"Feature","geometry":{"type":"Point","coordinates":[121.75916667,16.87305556]},"properties":{"id":145317,"name":"Sillawit","state_code":"AGN","country_code":"PH"}},{"type":"Feature","geometry":{"type":"Point","coordinates":[121.83416667,17.48527778]},"properties":{"id":145318,"name":"Simanu Sur","state_code":"AGN","country_code":"PH"}},{"type":"Feature","geometry":{"type":"Point","coordinates":[121.58138889,17.11861111]},"properties":{"id":145319,"name":"Simimbaan","state_code":"AGN","country_code":"PH"}},{"type":"Feature","geometry":{"type":"Point","coordinates":[121.56666667,16.9]},"properties":{"id":145320,"name":"Sinamar","state_code":"AGN","country_code":"PH"}},{"type":"Feature","geometry":{"type":"Point","coordinates":[122.01527778,17.06027778]},"properties":{"id":145321,"name":"Sindon","state_code":"AGN","country_code":"PH"}},{"type":"Feature","geometry":{"type":"Point","coordinates":[121.68333333,17.65]},"properties":{"id":145322,"name":"Solana","state_code":"AGN","country_code":"PH"}},{"type":"Feature","geometry":{"type":"Point","coordinates":[121.66555556,16.7]},"properties":{"id":145324,"name":"Soyung","state_code":"AGN","country_code":"PH"}},{"type":"Feature","geometry":{"type":"Point","coordinates":[121.75527778,17.94638889]},"properties":{"id":145325,"name":"Taguing","state_code":"AGN","country_code":"PH"}},{"type":"Feature","geometry":{"type":"Point","coordinates":[122.02916667,18.28916667]},"properties":{"id":145326,"name":"Tapel","state_code":"AGN","country_code":"PH"}},{"type":"Feature","geometry":{"type":"Point","coordinates":[121.45,17.73333333]},"properties":{"id":145327,"name":"Tuao","state_code":"AGN","country_code":"PH"}},{"type":"Feature","geometry":{"type":"Point","coordinates":[121.64111111,17.90472222]},"properties":{"id":145332,"name":"Tupang","state_code":"AGN","country_code":"PH"}},{"type":"Feature","geometry":{"type":"Point","coordinates":[121.15111111,16.55888889]},"properties":{"id":145333,"name":"Uddiawan","state_code":"AGN","country_code":"PH"}},{"type":"Feature","geometry":{"type":"Point","coordinates":[121.71583333,17.61333333]},"properties":{"id":145334,"name":"Ugac Sur","state_code":"AGN","country_code":"PH"}},{"type":"Feature","geometry":{"type":"Point","coordinates":[121.80027778,17.3075]},"properties":{"id":145335,"name":"Ugad","state_code":"AGN","country_code":"PH"}},{"type":"Feature","geometry":{"type":"Point","coordinates":[121.93333333,20.35]},"properties":{"id":145337,"name":"Uyugan","state_code":"AGN","country_code":"PH"}},{"type":"Feature","geometry":{"type":"Point","coordinates":[121.94194444,17.02194444]},"properties":{"id":145339,"name":"Yeban Norte","state_code":"AGN","country_code":"PH"}}]}