{"type":"FeatureCollection","features":[{"type":"Feature","geometry":{"type":"Point","coordinates":[122.3839576,11.5193722]},"properties":{"id":81232,"name":"Altavas","state_code":"AKL","country_code":"PH"}},{"type":"Feature","geometry":{"type":"Point","coordinates":[122.293362,11.5225972]},"properties":{"id":81462,"name":"Balete","state_code":"AKL","country_code":"PH"}},{"type":"Feature","geometry":{"type":"Point","coordinates":[122.2902335,11.5992633]},"properties":{"id":81522,"name":"Banga","state_code":"AKL","country_code":"PH"}},{"type":"Feature","geometry":{"type":"Point","coordinates":[122.3124056,11.5699131]},"properties":{"id":81613,"name":"Batan","state_code":"AKL","country_code":"PH"}},{"type":"Feature","geometry":{"type":"Point","coordinates":[121.8443401,11.8298687]},"properties":{"id":81914,"name":"Buruanga","state_code":"AKL","country_code":"PH"}},{"type":"Feature","geometry":{"type":"Point","coordinates":[122.0775851,11.733946]},"properties":{"id":82709,"name":"Ibajay","state_code":"AKL","country_code":"PH"}},{"type":"Feature","geometry":{"type":"Point","coordinates":[122.3361959,11.6985446]},"properties":{"id":154475,"name":"Kalibo","state_code":"AKL","country_code":"PH"}},{"type":"Feature","geometry":{"type":"Point","coordinates":[122.2730271,11.6803601]},"properties":{"id":154476,"name":"Lezo","state_code":"AKL","country_code":"PH"}},{"type":"Feature","geometry":{"type":"Point","coordinates":[122.2009238,11.4146741]},"properties":{"id":83075,"name":"Libacao","state_code":"AKL","country_code":"PH"}},{"type":"Feature","geometry":{"type":"Point","coordinates":[122.0737506,11.4412148]},"properties":{"id":83308,"name":"Madalag","state_code":"AKL","country_code":"PH"}},{"type":"Feature","geometry":{"type":"Point","coordinates":[122.1803673,11.7136685]},"properties":{"id":83376,"name":"Makato","state_code":"AKL","country_code":"PH"}},{"type":"Feature","geometry":{"type":"Point","coordinates":[121.8649395,11.9124685]},"properties":{"id":83415,"name":"Malay","state_code":"AKL","country_code":"PH"}},{"type":"Feature","geometry":{"type":"Point","coordinates":[122.1504995,11.6051372]},"properties":{"id":83434,"name":"Malinao","state_code":"AKL","country_code":"PH"}},{"type":"Feature","geometry":{"type":"Point","coordinates":[121.955794,11.8523036]},"properties":{"id":83736,"name":"Nabas","state_code":"AKL","country_code":"PH"}},{"type":"Feature","geometry":{"type":"Point","coordinates":[122.3415143,11.6343158]},"properties":{"id":83813,"name":"New Washington","state_code":"AKL","country_code":"PH"}},{"type":"Feature","geometry":{"type":"Point","coordinates":[122.2926369,11.7132961]},"properties":{"id":83831,"name":"Numancia","state_code":"AKL","country_code":"PH"}},{"type":"Feature","geometry":{"type":"Point","coordinates":[122.1609695,11.7393156]},"properties":{"id":85035,"name":"Tangalan","state_code":"AKL","country_code":"PH"}}]}