{"type":"FeatureCollection","features":[{"type":"Feature","geometry":{"type":"Point","coordinates":[124.98388889,7.05694444]},"properties":{"id":144334,"name":"Amas","state_code":"BUK","country_code":"PH"}},{"type":"Feature","geometry":{"type":"Point","coordinates":[124.90888889,6.85888889]},"properties":{"id":144335,"name":"Bagontapay","state_code":"BUK","country_code":"PH"}},{"type":"Feature","geometry":{"type":"Point","coordinates":[124.50416667,7.25611111]},"properties":{"id":144336,"name":"Baguer","state_code":"BUK","country_code":"PH"}},{"type":"Feature","geometry":{"type":"Point","coordinates":[125.23638889,5.74361111]},"properties":{"id":144338,"name":"Baliton","state_code":"BUK","country_code":"PH"}},{"type":"Feature","geometry":{"type":"Point","coordinates":[124.46388889,7.28222222]},"properties":{"id":144339,"name":"Balogo","state_code":"BUK","country_code":"PH"}},{"type":"Feature","geometry":{"type":"Point","coordinates":[124.86666667,7.15361111]},"properties":{"id":144340,"name":"Banawa","state_code":"BUK","country_code":"PH"}},{"type":"Feature","geometry":{"type":"Point","coordinates":[124.03333333,6.53333333]},"properties":{"id":144344,"name":"Bantogon","state_code":"BUK","country_code":"PH"}},{"type":"Feature","geometry":{"type":"Point","coordinates":[124.56416667,7.26111111]},"properties":{"id":144345,"name":"Barongis","state_code":"BUK","country_code":"PH"}},{"type":"Feature","geometry":{"type":"Point","coordinates":[124.15111111,6.72722222]},"properties":{"id":144346,"name":"Basak","state_code":"BUK","country_code":"PH"}},{"type":"Feature","geometry":{"type":"Point","coordinates":[125.05,7.03333333]},"properties":{"id":144347,"name":"Batasan","state_code":"BUK","country_code":"PH"}},{"type":"Feature","geometry":{"type":"Point","coordinates":[125.25194444,6.22333333]},"properties":{"id":144348,"name":"Batutitik","state_code":"BUK","country_code":"PH"}},{"type":"Feature","geometry":{"type":"Point","coordinates":[124.64972222,7.40527778]},"properties":{"id":144349,"name":"Bau","state_code":"BUK","country_code":"PH"}},{"type":"Feature","geometry":{"type":"Point","coordinates":[124.87305556,6.64888889]},"properties":{"id":144350,"name":"Bayasong","state_code":"BUK","country_code":"PH"}},{"type":"Feature","geometry":{"type":"Point","coordinates":[124.88888889,6.98055556]},"properties":{"id":144351,"name":"Bialong","state_code":"BUK","country_code":"PH"}},{"type":"Feature","geometry":{"type":"Point","coordinates":[124.61277778,6.005]},"properties":{"id":144354,"name":"Buadtasan","state_code":"BUK","country_code":"PH"}},{"type":"Feature","geometry":{"type":"Point","coordinates":[124.91083333,6.79583333]},"properties":{"id":144355,"name":"Bual","state_code":"BUK","country_code":"PH"}},{"type":"Feature","geometry":{"type":"Point","coordinates":[125.23472222,6.11638889]},"properties":{"id":144357,"name":"Buayan","state_code":"BUK","country_code":"PH"}},{"type":"Feature","geometry":{"type":"Point","coordinates":[125.16083333,6.9025]},"properties":{"id":144360,"name":"Bulatukan","state_code":"BUK","country_code":"PH"}},{"type":"Feature","geometry":{"type":"Point","coordinates":[125.25361111,5.71777778]},"properties":{"id":144361,"name":"Burias","state_code":"BUK","country_code":"PH"}},{"type":"Feature","geometry":{"type":"Point","coordinates":[124.96833333,6.38805556]},"properties":{"id":144365,"name":"Cebuano","state_code":"BUK","country_code":"PH"}},{"type":"Feature","geometry":{"type":"Point","coordinates":[125.08333,7.03333]},"properties":{"id":144366,"name":"City of Kidapawan","state_code":"BUK","country_code":"PH"}},{"type":"Feature","geometry":{"type":"Point","coordinates":[124.8884,6.49162]},"properties":{"id":144367,"name":"City of Koronadal","state_code":"BUK","country_code":"PH"}},{"type":"Feature","geometry":{"type":"Point","coordinates":[124.673,6.69133]},"properties":{"id":144368,"name":"City of Tacurong","state_code":"BUK","country_code":"PH"}},{"type":"Feature","geometry":{"type":"Point","coordinates":[124.72166667,6.33861111]},"properties":{"id":144369,"name":"Colongolo","state_code":"BUK","country_code":"PH"}},{"type":"Feature","geometry":{"type":"Point","coordinates":[124.95333333,5.86111111]},"properties":{"id":143935,"name":"Daliao","state_code":"BUK","country_code":"PH"}},{"type":"Feature","geometry":{"type":"Point","coordinates":[124.78333333,6.7]},"properties":{"id":143936,"name":"Damawato","state_code":"BUK","country_code":"PH"}},{"type":"Feature","geometry":{"type":"Point","coordinates":[124.56833333,7.15166667]},"properties":{"id":143939,"name":"Dualing","state_code":"BUK","country_code":"PH"}},{"type":"Feature","geometry":{"type":"Point","coordinates":[124.86083333,6.94972222]},"properties":{"id":143941,"name":"Dunguan","state_code":"BUK","country_code":"PH"}},{"type":"Feature","geometry":{"type":"Point","coordinates":[124.51805556,7.14833333]},"properties":{"id":143946,"name":"Glad","state_code":"BUK","country_code":"PH"}},{"type":"Feature","geometry":{"type":"Point","coordinates":[125.08388889,6.1625]},"properties":{"id":143947,"name":"Glamang","state_code":"BUK","country_code":"PH"}},{"type":"Feature","geometry":{"type":"Point","coordinates":[125.21861111,5.855]},"properties":{"id":143949,"name":"Glan Peidu","state_code":"BUK","country_code":"PH"}},{"type":"Feature","geometry":{"type":"Point","coordinates":[124.69111111,7.15611111]},"properties":{"id":143950,"name":"Gocoton","state_code":"BUK","country_code":"PH"}},{"type":"Feature","geometry":{"type":"Point","coordinates":[125.22666667,5.81527778]},"properties":{"id":143952,"name":"Ilaya","state_code":"BUK","country_code":"PH"}},{"type":"Feature","geometry":{"type":"Point","coordinates":[125.01055556,6.31944444]},"properties":{"id":143955,"name":"Kabalen","state_code":"BUK","country_code":"PH"}},{"type":"Feature","geometry":{"type":"Point","coordinates":[125.19777778,5.77972222]},"properties":{"id":143956,"name":"Kablalan","state_code":"BUK","country_code":"PH"}},{"type":"Feature","geometry":{"type":"Point","coordinates":[125.045,7.01027778]},"properties":{"id":143957,"name":"Kalaisan","state_code":"BUK","country_code":"PH"}},{"type":"Feature","geometry":{"type":"Point","coordinates":[124.06888889,6.72555556]},"properties":{"id":143958,"name":"Kalamangog","state_code":"BUK","country_code":"PH"}},{"type":"Feature","geometry":{"type":"Point","coordinates":[125.05611111,5.85777778]},"properties":{"id":143960,"name":"Kamanga","state_code":"BUK","country_code":"PH"}},{"type":"Feature","geometry":{"type":"Point","coordinates":[125.2375,5.90055556]},"properties":{"id":143961,"name":"Kapatan","state_code":"BUK","country_code":"PH"}},{"type":"Feature","geometry":{"type":"Point","coordinates":[124.82944444,5.88916667]},"properties":{"id":143964,"name":"Katubao","state_code":"BUK","country_code":"PH"}},{"type":"Feature","geometry":{"type":"Point","coordinates":[125.155,6.92305556]},"properties":{"id":143968,"name":"Kisante","state_code":"BUK","country_code":"PH"}},{"type":"Feature","geometry":{"type":"Point","coordinates":[125.31916667,5.84166667]},"properties":{"id":143969,"name":"Kiupo","state_code":"BUK","country_code":"PH"}},{"type":"Feature","geometry":{"type":"Point","coordinates":[125.13694444,6.18694444]},"properties":{"id":143970,"name":"Klinan","state_code":"BUK","country_code":"PH"}},{"type":"Feature","geometry":{"type":"Point","coordinates":[124.72472222,5.93805556]},"properties":{"id":143971,"name":"Kling","state_code":"BUK","country_code":"PH"}},{"type":"Feature","geometry":{"type":"Point","coordinates":[125.2648432,8.2395023]},"properties":{"id":143974,"name":"Kulaman","state_code":"BUK","country_code":"PH"}},{"type":"Feature","geometry":{"type":"Point","coordinates":[125.04527778,7.11416667]},"properties":{"id":143975,"name":"Labu-o","state_code":"BUK","country_code":"PH"}},{"type":"Feature","geometry":{"type":"Point","coordinates":[124.81055556,6.30833333]},"properties":{"id":143980,"name":"Lambontong","state_code":"BUK","country_code":"PH"}},{"type":"Feature","geometry":{"type":"Point","coordinates":[124.84638889,6.30916667]},"properties":{"id":143981,"name":"Lamian","state_code":"BUK","country_code":"PH"}},{"type":"Feature","geometry":{"type":"Point","coordinates":[125.0525,6.43222222]},"properties":{"id":143983,"name":"Lampitak","state_code":"BUK","country_code":"PH"}},{"type":"Feature","geometry":{"type":"Point","coordinates":[125.1271371,8.1618929]},"properties":{"id":143988,"name":"Liberty","state_code":"BUK","country_code":"PH"}},{"type":"Feature","geometry":{"type":"Point","coordinates":[124.79277778,7.36277778]},"properties":{"id":143991,"name":"Liliongan","state_code":"BUK","country_code":"PH"}},{"type":"Feature","geometry":{"type":"Point","coordinates":[124.79888889,7.13277778]},"properties":{"id":143992,"name":"Limbalod","state_code":"BUK","country_code":"PH"}},{"type":"Feature","geometry":{"type":"Point","coordinates":[124.06194444,6.58527778]},"properties":{"id":143993,"name":"Limulan","state_code":"BUK","country_code":"PH"}},{"type":"Feature","geometry":{"type":"Point","coordinates":[124.9675,7.16777778]},"properties":{"id":143995,"name":"Linao","state_code":"BUK","country_code":"PH"}},{"type":"Feature","geometry":{"type":"Point","coordinates":[124.88833333,5.87472222]},"properties":{"id":143997,"name":"Lumatil","state_code":"BUK","country_code":"PH"}},{"type":"Feature","geometry":{"type":"Point","coordinates":[124.84944444,5.88527778]},"properties":{"id":143998,"name":"Lumazal","state_code":"BUK","country_code":"PH"}},{"type":"Feature","geometry":{"type":"Point","coordinates":[124.78694444,5.91583333]},"properties":{"id":143999,"name":"Lumuyon","state_code":"BUK","country_code":"PH"}},{"type":"Feature","geometry":{"type":"Point","coordinates":[125.28388889,6.03777778]},"properties":{"id":144000,"name":"Lun Pequeño","state_code":"BUK","country_code":"PH"}},{"type":"Feature","geometry":{"type":"Point","coordinates":[124.90472222,6.35916667]},"properties":{"id":144001,"name":"Lunen","state_code":"BUK","country_code":"PH"}},{"type":"Feature","geometry":{"type":"Point","coordinates":[124.88333333,6.95]},"properties":{"id":144003,"name":"M'lang","state_code":"BUK","country_code":"PH"}},{"type":"Feature","geometry":{"type":"Point","coordinates":[124.73555556,5.93388889]},"properties":{"id":144005,"name":"Maan","state_code":"BUK","country_code":"PH"}},{"type":"Feature","geometry":{"type":"Point","coordinates":[124.46666667,6.05777778]},"properties":{"id":144007,"name":"Mabay","state_code":"BUK","country_code":"PH"}},{"type":"Feature","geometry":{"type":"Point","coordinates":[124.40333333,6.095]},"properties":{"id":144010,"name":"Maguling","state_code":"BUK","country_code":"PH"}},{"type":"Feature","geometry":{"type":"Point","coordinates":[124.94,7.07388889]},"properties":{"id":144015,"name":"Malamote","state_code":"BUK","country_code":"PH"}},{"type":"Feature","geometry":{"type":"Point","coordinates":[124.81666667,7.13333333]},"properties":{"id":144017,"name":"Malapag","state_code":"BUK","country_code":"PH"}},{"type":"Feature","geometry":{"type":"Point","coordinates":[125.12944444,6.94388889]},"properties":{"id":144019,"name":"Malasila","state_code":"BUK","country_code":"PH"}},{"type":"Feature","geometry":{"type":"Point","coordinates":[125.04527778,5.85555556]},"properties":{"id":144020,"name":"Malbang","state_code":"BUK","country_code":"PH"}},{"type":"Feature","geometry":{"type":"Point","coordinates":[124.475,7.16083333]},"properties":{"id":144021,"name":"Malingao","state_code":"BUK","country_code":"PH"}},{"type":"Feature","geometry":{"type":"Point","coordinates":[124.35472222,6.12]},"properties":{"id":144022,"name":"Malisbeng","state_code":"BUK","country_code":"PH"}},{"type":"Feature","geometry":{"type":"Point","coordinates":[124.63805556,7.31555556]},"properties":{"id":144023,"name":"Malitubog","state_code":"BUK","country_code":"PH"}},{"type":"Feature","geometry":{"type":"Point","coordinates":[124.61944444,7.04805556]},"properties":{"id":144027,"name":"Manaulanan","state_code":"BUK","country_code":"PH"}},{"type":"Feature","geometry":{"type":"Point","coordinates":[125.30833333,6.29083333]},"properties":{"id":144028,"name":"Manga","state_code":"BUK","country_code":"PH"}},{"type":"Feature","geometry":{"type":"Point","coordinates":[124.40444444,7.27694444]},"properties":{"id":144029,"name":"Manuangan","state_code":"BUK","country_code":"PH"}},{"type":"Feature","geometry":{"type":"Point","coordinates":[125.0922924,7.9052654]},"properties":{"id":144030,"name":"Manuel Roxas","state_code":"BUK","country_code":"PH"}},{"type":"Feature","geometry":{"type":"Point","coordinates":[124.9125,7.11583333]},"properties":{"id":144031,"name":"Marbel","state_code":"BUK","country_code":"PH"}},{"type":"Feature","geometry":{"type":"Point","coordinates":[124.65,6.73333]},"properties":{"id":144032,"name":"Mariano Marcos","state_code":"BUK","country_code":"PH"}},{"type":"Feature","geometry":{"type":"Point","coordinates":[124.85861111,6.815]},"properties":{"id":144036,"name":"Minapan","state_code":"BUK","country_code":"PH"}},{"type":"Feature","geometry":{"type":"Point","coordinates":[124.42333333,6.09055556]},"properties":{"id":144037,"name":"Mindupok","state_code":"BUK","country_code":"PH"}},{"type":"Feature","geometry":{"type":"Point","coordinates":[124.58527778,6.01222222]},"properties":{"id":144038,"name":"Nalus","state_code":"BUK","country_code":"PH"}},{"type":"Feature","geometry":{"type":"Point","coordinates":[125.03361111,7.09527778]},"properties":{"id":144039,"name":"New Cebu","state_code":"BUK","country_code":"PH"}},{"type":"Feature","geometry":{"type":"Point","coordinates":[124.8210879,7.7118183]},"properties":{"id":144040,"name":"New Iloilo","state_code":"BUK","country_code":"PH"}},{"type":"Feature","geometry":{"type":"Point","coordinates":[124.09972222,6.65972222]},"properties":{"id":144043,"name":"Noling","state_code":"BUK","country_code":"PH"}},{"type":"Feature","geometry":{"type":"Point","coordinates":[124.81666667,7.6]},"properties":{"id":144046,"name":"Osias","state_code":"BUK","country_code":"PH"}},{"type":"Feature","geometry":{"type":"Point","coordinates":[124.92388889,7.11972222]},"properties":{"id":144047,"name":"Paatan","state_code":"BUK","country_code":"PH"}},{"type":"Feature","geometry":{"type":"Point","coordinates":[124.59527778,7.11444444]},"properties":{"id":144049,"name":"Pagangan","state_code":"BUK","country_code":"PH"}},{"type":"Feature","geometry":{"type":"Point","coordinates":[125.03166667,6.29638889]},"properties":{"id":144052,"name":"Palkan","state_code":"BUK","country_code":"PH"}},{"type":"Feature","geometry":{"type":"Point","coordinates":[125.28111111,5.70083333]},"properties":{"id":144055,"name":"Pangyan","state_code":"BUK","country_code":"PH"}},{"type":"Feature","geometry":{"type":"Point","coordinates":[124.49833333,7.21972222]},"properties":{"id":144057,"name":"Patindeguen","state_code":"BUK","country_code":"PH"}},{"type":"Feature","geometry":{"type":"Point","coordinates":[124.81444444,7.16055556]},"properties":{"id":144058,"name":"Pedtad","state_code":"BUK","country_code":"PH"}},{"type":"Feature","geometry":{"type":"Point","coordinates":[124.6725,6.86916667]},"properties":{"id":144062,"name":"Pimbalayan","state_code":"BUK","country_code":"PH"}},{"type":"Feature","geometry":{"type":"Point","coordinates":[125.1125,6.26472222]},"properties":{"id":144063,"name":"Polo","state_code":"BUK","country_code":"PH"}},{"type":"Feature","geometry":{"type":"Point","coordinates":[124.09611111,6.63527778]},"properties":{"id":144068,"name":"Puloypuloy","state_code":"BUK","country_code":"PH"}},{"type":"Feature","geometry":{"type":"Point","coordinates":[124.58333333,7.05]},"properties":{"id":144069,"name":"Punolu","state_code":"BUK","country_code":"PH"}},{"type":"Feature","geometry":{"type":"Point","coordinates":[124.06944444,6.68611111]},"properties":{"id":144070,"name":"Puricay","state_code":"BUK","country_code":"PH"}},{"type":"Feature","geometry":{"type":"Point","coordinates":[124.12055556,6.66388889]},"properties":{"id":144071,"name":"Ragandang","state_code":"BUK","country_code":"PH"}},{"type":"Feature","geometry":{"type":"Point","coordinates":[125.0077156,7.9835053]},"properties":{"id":144072,"name":"Rotunda","state_code":"BUK","country_code":"PH"}},{"type":"Feature","geometry":{"type":"Point","coordinates":[125.07805556,6.98027778]},"properties":{"id":144074,"name":"Saguing","state_code":"BUK","country_code":"PH"}},{"type":"Feature","geometry":{"type":"Point","coordinates":[124.25333333,7.2225]},"properties":{"id":144075,"name":"Salimbao","state_code":"BUK","country_code":"PH"}},{"type":"Feature","geometry":{"type":"Point","coordinates":[124.4975,7.15444444]},"properties":{"id":144076,"name":"Salunayan","state_code":"BUK","country_code":"PH"}},{"type":"Feature","geometry":{"type":"Point","coordinates":[124.59555556,6.87666667]},"properties":{"id":144077,"name":"Sampao","state_code":"BUK","country_code":"PH"}},{"type":"Feature","geometry":{"type":"Point","coordinates":[124.69643,6.49245]},"properties":{"id":144078,"name":"San Miguel","state_code":"BUK","country_code":"PH"}},{"type":"Feature","geometry":{"type":"Point","coordinates":[124.78005,6.45375]},"properties":{"id":144079,"name":"San Vicente","state_code":"BUK","country_code":"PH"}},{"type":"Feature","geometry":{"type":"Point","coordinates":[124.04444444,6.445]},"properties":{"id":144083,"name":"Sañgay","state_code":"BUK","country_code":"PH"}},{"type":"Feature","geometry":{"type":"Point","coordinates":[124.66819,6.45733]},"properties":{"id":144080,"name":"Santo Niño","state_code":"BUK","country_code":"PH"}},{"type":"Feature","geometry":{"type":"Point","coordinates":[125.26694444,5.91722222]},"properties":{"id":144082,"name":"Sapu Padidu","state_code":"BUK","country_code":"PH"}},{"type":"Feature","geometry":{"type":"Point","coordinates":[124.71042,6.22482]},"properties":{"id":144084,"name":"Sebu","state_code":"BUK","country_code":"PH"}},{"type":"Feature","geometry":{"type":"Point","coordinates":[125.12055556,6.17722222]},"properties":{"id":144085,"name":"Silway 7","state_code":"BUK","country_code":"PH"}},{"type":"Feature","geometry":{"type":"Point","coordinates":[124.81444444,6.24388889]},"properties":{"id":144086,"name":"Sinolon","state_code":"BUK","country_code":"PH"}},{"type":"Feature","geometry":{"type":"Point","coordinates":[125.02055556,6.23611111]},"properties":{"id":144087,"name":"Sulit","state_code":"BUK","country_code":"PH"}},{"type":"Feature","geometry":{"type":"Point","coordinates":[125.38527778,6.06027778]},"properties":{"id":144089,"name":"Suyan","state_code":"BUK","country_code":"PH"}},{"type":"Feature","geometry":{"type":"Point","coordinates":[124.78333,6.15]},"properties":{"id":144090,"name":"T'boli","state_code":"BUK","country_code":"PH"}},{"type":"Feature","geometry":{"type":"Point","coordinates":[124.03583333,6.69833333]},"properties":{"id":144092,"name":"Taguisa","state_code":"BUK","country_code":"PH"}},{"type":"Feature","geometry":{"type":"Point","coordinates":[125.17277778,5.81166667]},"properties":{"id":144093,"name":"Taluya","state_code":"BUK","country_code":"PH"}},{"type":"Feature","geometry":{"type":"Point","coordinates":[124.66972222,5.96222222]},"properties":{"id":144095,"name":"Tambilil","state_code":"BUK","country_code":"PH"}},{"type":"Feature","geometry":{"type":"Point","coordinates":[125.22194444,5.88083333]},"properties":{"id":144099,"name":"Tañgo","state_code":"BUK","country_code":"PH"}},{"type":"Feature","geometry":{"type":"Point","coordinates":[124.27934,8.26147]},"properties":{"id":144101,"name":"Teresita","state_code":"BUK","country_code":"PH"}},{"type":"Feature","geometry":{"type":"Point","coordinates":[125.07055556,5.88666667]},"properties":{"id":144102,"name":"Tinoto","state_code":"BUK","country_code":"PH"}},{"type":"Feature","geometry":{"type":"Point","coordinates":[124.60805556,7.1925]},"properties":{"id":144103,"name":"Tomado","state_code":"BUK","country_code":"PH"}},{"type":"Feature","geometry":{"type":"Point","coordinates":[124.055,6.72027778]},"properties":{"id":144104,"name":"Tran","state_code":"BUK","country_code":"PH"}},{"type":"Feature","geometry":{"type":"Point","coordinates":[125.28333333,6]},"properties":{"id":144108,"name":"Tuyan","state_code":"BUK","country_code":"PH"}},{"type":"Feature","geometry":{"type":"Point","coordinates":[125.12083333,6.22722222]},"properties":{"id":144109,"name":"Upper Klinan","state_code":"BUK","country_code":"PH"}},{"type":"Feature","geometry":{"type":"Point","coordinates":[124.58222222,7.17305556]},"properties":{"id":144110,"name":"Upper San Mateo","state_code":"BUK","country_code":"PH"}}]}