{"type":"FeatureCollection","features":[{"type":"Feature","geometry":{"type":"Point","coordinates":[120.8531284,14.1115159]},"properties":{"id":81205,"name":"Alfonso","state_code":"CAV","country_code":"PH"}},{"type":"Feature","geometry":{"type":"Point","coordinates":[120.8818983,14.1835286]},"properties":{"id":81239,"name":"Amadeo","state_code":"CAV","country_code":"PH"}},{"type":"Feature","geometry":{"type":"Point","coordinates":[120.9275749,14.4160938]},"properties":{"id":81370,"name":"Bacoor","state_code":"CAV","country_code":"PH"}},{"type":"Feature","geometry":{"type":"Point","coordinates":[120.9986649,14.3018234]},"properties":{"id":82175,"name":"Carmona","state_code":"CAV","country_code":"PH"}},{"type":"Feature","geometry":{"type":"Point","coordinates":[120.3909941,14.4032905]},"properties":{"id":82227,"name":"Cavite City","state_code":"CAV","country_code":"PH"}},{"type":"Feature","geometry":{"type":"Point","coordinates":[120.9241174,14.3115216]},"properties":{"id":82387,"name":"Dasmariñas","state_code":"CAV","country_code":"PH"}},{"type":"Feature","geometry":{"type":"Point","coordinates":[120.7624845,14.1829057]},"properties":{"id":82575,"name":"General Emilio Aguinaldo","state_code":"CAV","country_code":"PH"}},{"type":"Feature","geometry":{"type":"Point","coordinates":[120.9970355,14.3100507]},"properties":{"id":154483,"name":"General Mariano Alvarez","state_code":"CAV","country_code":"PH"}},{"type":"Feature","geometry":{"type":"Point","coordinates":[120.8154232,14.3227039]},"properties":{"id":82584,"name":"General Trias","state_code":"CAV","country_code":"PH"}},{"type":"Feature","geometry":{"type":"Point","coordinates":[120.8952055,14.40049]},"properties":{"id":82738,"name":"Imus","state_code":"CAV","country_code":"PH"}},{"type":"Feature","geometry":{"type":"Point","coordinates":[120.7898921,14.1824014]},"properties":{"id":82746,"name":"Indang","state_code":"CAV","country_code":"PH"}},{"type":"Feature","geometry":{"type":"Point","coordinates":[120.8872079,14.4387087]},"properties":{"id":82889,"name":"Kawit","state_code":"CAV","country_code":"PH"}},{"type":"Feature","geometry":{"type":"Point","coordinates":[120.7527709,14.1606842]},"properties":{"id":83322,"name":"Magallanes","state_code":"CAV","country_code":"PH"}},{"type":"Feature","geometry":{"type":"Point","coordinates":[120.5682617,14.225798]},"properties":{"id":83560,"name":"Maragondon","state_code":"CAV","country_code":"PH"}},{"type":"Feature","geometry":{"type":"Point","coordinates":[120.8734754,14.1304349]},"properties":{"id":154484,"name":"Mendez","state_code":"CAV","country_code":"PH"}},{"type":"Feature","geometry":{"type":"Point","coordinates":[120.7118836,14.2920202]},"properties":{"id":83757,"name":"Naic","state_code":"CAV","country_code":"PH"}},{"type":"Feature","geometry":{"type":"Point","coordinates":[120.8598136,14.4348756]},"properties":{"id":83824,"name":"Noveleta","state_code":"CAV","country_code":"PH"}},{"type":"Feature","geometry":{"type":"Point","coordinates":[120.841102,14.4158977]},"properties":{"id":84357,"name":"Rosario","state_code":"CAV","country_code":"PH"}},{"type":"Feature","geometry":{"type":"Point","coordinates":[120.9063831,14.2097973]},"properties":{"id":84792,"name":"Silang","state_code":"CAV","country_code":"PH"}},{"type":"Feature","geometry":{"type":"Point","coordinates":[120.8863596,14.1174496]},"properties":{"id":84932,"name":"Tagaytay","state_code":"CAV","country_code":"PH"}},{"type":"Feature","geometry":{"type":"Point","coordinates":[120.7455636,14.3394693]},"properties":{"id":85044,"name":"Tanza","state_code":"CAV","country_code":"PH"}},{"type":"Feature","geometry":{"type":"Point","coordinates":[120.6018551,14.2691507]},"properties":{"id":85091,"name":"Ternate","state_code":"CAV","country_code":"PH"}},{"type":"Feature","geometry":{"type":"Point","coordinates":[120.8281166,14.2703383]},"properties":{"id":154485,"name":"Trece Martires","state_code":"CAV","country_code":"PH"}}]}