{"type":"FeatureCollection","features":[{"type":"Feature","geometry":{"type":"Point","coordinates":[121.39027778,5.95944444]},"properties":{"id":144610,"name":"Andalan","state_code":"CAG","country_code":"PH"}},{"type":"Feature","geometry":{"type":"Point","coordinates":[121.00666667,6.03555556]},"properties":{"id":144611,"name":"Anuling","state_code":"CAG","country_code":"PH"}},{"type":"Feature","geometry":{"type":"Point","coordinates":[124.22111111,7.15305556]},"properties":{"id":144612,"name":"Awang","state_code":"CAG","country_code":"PH"}},{"type":"Feature","geometry":{"type":"Point","coordinates":[124.23333333,7.76666667]},"properties":{"id":144613,"name":"Bacayawan","state_code":"CAG","country_code":"PH"}},{"type":"Feature","geometry":{"type":"Point","coordinates":[124.11667,7.88333]},"properties":{"id":144614,"name":"Bacolod Grande","state_code":"CAG","country_code":"PH"}},{"type":"Feature","geometry":{"type":"Point","coordinates":[124.72055556,6.84722222]},"properties":{"id":144616,"name":"Badak","state_code":"CAG","country_code":"PH"}},{"type":"Feature","geometry":{"type":"Point","coordinates":[124.42027778,6.92555556]},"properties":{"id":144617,"name":"Bagan","state_code":"CAG","country_code":"PH"}},{"type":"Feature","geometry":{"type":"Point","coordinates":[124.26416667,7.27611111]},"properties":{"id":144628,"name":"Baka","state_code":"CAG","country_code":"PH"}},{"type":"Feature","geometry":{"type":"Point","coordinates":[119.79416667,4.89111111]},"properties":{"id":144629,"name":"Bakung","state_code":"CAG","country_code":"PH"}},{"type":"Feature","geometry":{"type":"Point","coordinates":[122.13805556,6.6875]},"properties":{"id":144631,"name":"Balas","state_code":"CAG","country_code":"PH"}},{"type":"Feature","geometry":{"type":"Point","coordinates":[121.06666667,6.06666667]},"properties":{"id":144634,"name":"Bangkal","state_code":"CAG","country_code":"PH"}},{"type":"Feature","geometry":{"type":"Point","coordinates":[120.00916667,5.01916667]},"properties":{"id":144636,"name":"Bankaw","state_code":"CAG","country_code":"PH"}},{"type":"Feature","geometry":{"type":"Point","coordinates":[124.5975,6.89805556]},"properties":{"id":144638,"name":"Barurao","state_code":"CAG","country_code":"PH"}},{"type":"Feature","geometry":{"type":"Point","coordinates":[120.94638889,6.03444444]},"properties":{"id":144639,"name":"Bato Bato","state_code":"CAG","country_code":"PH"}},{"type":"Feature","geometry":{"type":"Point","coordinates":[120.99416667,6.00555556]},"properties":{"id":144640,"name":"Baunu-Timbangan","state_code":"CAG","country_code":"PH"}},{"type":"Feature","geometry":{"type":"Point","coordinates":[120.87444444,5.9375]},"properties":{"id":144641,"name":"Bawison","state_code":"CAG","country_code":"PH"}},{"type":"Feature","geometry":{"type":"Point","coordinates":[124.25222222,7.52138889]},"properties":{"id":144643,"name":"Bayanga","state_code":"CAG","country_code":"PH"}},{"type":"Feature","geometry":{"type":"Point","coordinates":[122.01666667,6.69083333]},"properties":{"id":144644,"name":"Begang","state_code":"CAG","country_code":"PH"}},{"type":"Feature","geometry":{"type":"Point","coordinates":[121.06,5.95694444]},"properties":{"id":144646,"name":"Binuang","state_code":"CAG","country_code":"PH"}},{"type":"Feature","geometry":{"type":"Point","coordinates":[124.18055556,7.01805556]},"properties":{"id":144647,"name":"Blinsung","state_code":"CAG","country_code":"PH"}},{"type":"Feature","geometry":{"type":"Point","coordinates":[124.4,7.11666667]},"properties":{"id":144649,"name":"Bongued","state_code":"CAG","country_code":"PH"}},{"type":"Feature","geometry":{"type":"Point","coordinates":[124.26666667,7.75]},"properties":{"id":144651,"name":"Bualan","state_code":"CAG","country_code":"PH"}},{"type":"Feature","geometry":{"type":"Point","coordinates":[120.0425,5.16083333]},"properties":{"id":144653,"name":"Buan","state_code":"CAG","country_code":"PH"}},{"type":"Feature","geometry":{"type":"Point","coordinates":[120.96138889,6.02583333]},"properties":{"id":144655,"name":"Buansa","state_code":"CAG","country_code":"PH"}},{"type":"Feature","geometry":{"type":"Point","coordinates":[124.43972222,7.20416667]},"properties":{"id":144657,"name":"Budta","state_code":"CAG","country_code":"PH"}},{"type":"Feature","geometry":{"type":"Point","coordinates":[124.25916667,7.44083333]},"properties":{"id":144668,"name":"Bugasan","state_code":"CAG","country_code":"PH"}},{"type":"Feature","geometry":{"type":"Point","coordinates":[124.7,7.01666667]},"properties":{"id":144670,"name":"Buliok","state_code":"CAG","country_code":"PH"}},{"type":"Feature","geometry":{"type":"Point","coordinates":[124.78944444,7.11527778]},"properties":{"id":144671,"name":"Bulit","state_code":"CAG","country_code":"PH"}},{"type":"Feature","geometry":{"type":"Point","coordinates":[118.46667,7.01667]},"properties":{"id":144674,"name":"Cagayan de Tawi-Tawi","state_code":"CAG","country_code":"PH"}},{"type":"Feature","geometry":{"type":"Point","coordinates":[122.1575,6.64361111]},"properties":{"id":144677,"name":"Colonia","state_code":"CAG","country_code":"PH"}},{"type":"Feature","geometry":{"type":"Point","coordinates":[124.45972222,7.05]},"properties":{"id":144678,"name":"Dado","state_code":"CAG","country_code":"PH"}},{"type":"Feature","geometry":{"type":"Point","coordinates":[124.32166667,7.0575]},"properties":{"id":144679,"name":"Dadus","state_code":"CAG","country_code":"PH"}},{"type":"Feature","geometry":{"type":"Point","coordinates":[124.4,6.96666667]},"properties":{"id":144680,"name":"Dalican","state_code":"CAG","country_code":"PH"}},{"type":"Feature","geometry":{"type":"Point","coordinates":[124.3,7.21666667]},"properties":{"id":144681,"name":"Dalumangcob","state_code":"CAG","country_code":"PH"}},{"type":"Feature","geometry":{"type":"Point","coordinates":[124.51416667,7.01555556]},"properties":{"id":144682,"name":"Damabalas","state_code":"CAG","country_code":"PH"}},{"type":"Feature","geometry":{"type":"Point","coordinates":[124.48277778,7.03888889]},"properties":{"id":144683,"name":"Damatulan","state_code":"CAG","country_code":"PH"}},{"type":"Feature","geometry":{"type":"Point","coordinates":[124.79638889,6.75305556]},"properties":{"id":144688,"name":"Digal","state_code":"CAG","country_code":"PH"}},{"type":"Feature","geometry":{"type":"Point","coordinates":[124.26667,7.08333]},"properties":{"id":144689,"name":"Dinaig","state_code":"CAG","country_code":"PH"}},{"type":"Feature","geometry":{"type":"Point","coordinates":[124.37833333,7.32833333]},"properties":{"id":144690,"name":"Dinganen","state_code":"CAG","country_code":"PH"}},{"type":"Feature","geometry":{"type":"Point","coordinates":[124.39722222,7.44055556]},"properties":{"id":144692,"name":"Ebcor Town","state_code":"CAG","country_code":"PH"}},{"type":"Feature","geometry":{"type":"Point","coordinates":[124.26638889,7.24583333]},"properties":{"id":144695,"name":"Gang","state_code":"CAG","country_code":"PH"}},{"type":"Feature","geometry":{"type":"Point","coordinates":[122.02583333,6.41861111]},"properties":{"id":144696,"name":"Guiong","state_code":"CAG","country_code":"PH"}},{"type":"Feature","geometry":{"type":"Point","coordinates":[124.77277778,6.79888889]},"properties":{"id":144528,"name":"Idtig","state_code":"CAG","country_code":"PH"}},{"type":"Feature","geometry":{"type":"Point","coordinates":[124.65,7.06666667]},"properties":{"id":144532,"name":"Kabasalan","state_code":"CAG","country_code":"PH"}},{"type":"Feature","geometry":{"type":"Point","coordinates":[120.9075,6.00888889]},"properties":{"id":144534,"name":"Kagay","state_code":"CAG","country_code":"PH"}},{"type":"Feature","geometry":{"type":"Point","coordinates":[120.99194444,6.03111111]},"properties":{"id":144535,"name":"Kajatian","state_code":"CAG","country_code":"PH"}},{"type":"Feature","geometry":{"type":"Point","coordinates":[121.36305556,5.91972222]},"properties":{"id":144536,"name":"Kalang","state_code":"CAG","country_code":"PH"}},{"type":"Feature","geometry":{"type":"Point","coordinates":[124.65916667,6.95972222]},"properties":{"id":144537,"name":"Kalbugan","state_code":"CAG","country_code":"PH"}},{"type":"Feature","geometry":{"type":"Point","coordinates":[121.3075,5.94638889]},"properties":{"id":144539,"name":"Kambing","state_code":"CAG","country_code":"PH"}},{"type":"Feature","geometry":{"type":"Point","coordinates":[121.29138889,5.87555556]},"properties":{"id":144540,"name":"Kanlagay","state_code":"CAG","country_code":"PH"}},{"type":"Feature","geometry":{"type":"Point","coordinates":[121.23444444,6.00111111]},"properties":{"id":144541,"name":"Kansipati","state_code":"CAG","country_code":"PH"}},{"type":"Feature","geometry":{"type":"Point","coordinates":[121.26305556,5.88444444]},"properties":{"id":144544,"name":"Karungdong","state_code":"CAG","country_code":"PH"}},{"type":"Feature","geometry":{"type":"Point","coordinates":[124.31527778,7.18861111]},"properties":{"id":144546,"name":"Katidtuan","state_code":"CAG","country_code":"PH"}},{"type":"Feature","geometry":{"type":"Point","coordinates":[124.21666667,7.43333333]},"properties":{"id":144547,"name":"Katuli","state_code":"CAG","country_code":"PH"}},{"type":"Feature","geometry":{"type":"Point","coordinates":[124.44111111,6.94833333]},"properties":{"id":144549,"name":"Kitango","state_code":"CAG","country_code":"PH"}},{"type":"Feature","geometry":{"type":"Point","coordinates":[124.42555556,6.95333333]},"properties":{"id":144550,"name":"Kitapak","state_code":"CAG","country_code":"PH"}},{"type":"Feature","geometry":{"type":"Point","coordinates":[119.89694444,5.07027778]},"properties":{"id":144551,"name":"Kolape","state_code":"CAG","country_code":"PH"}},{"type":"Feature","geometry":{"type":"Point","coordinates":[120.95694444,5.90527778]},"properties":{"id":144552,"name":"Kulase","state_code":"CAG","country_code":"PH"}},{"type":"Feature","geometry":{"type":"Point","coordinates":[121.2325,5.94527778]},"properties":{"id":144553,"name":"Kulay-Kulay","state_code":"CAG","country_code":"PH"}},{"type":"Feature","geometry":{"type":"Point","coordinates":[124.38972222,7.51944444]},"properties":{"id":144554,"name":"Kulempang","state_code":"CAG","country_code":"PH"}},{"type":"Feature","geometry":{"type":"Point","coordinates":[120.84722222,5.55722222]},"properties":{"id":144555,"name":"Kungtad","state_code":"CAG","country_code":"PH"}},{"type":"Feature","geometry":{"type":"Point","coordinates":[124.235,7.10305556]},"properties":{"id":144556,"name":"Labuñgan","state_code":"CAG","country_code":"PH"}},{"type":"Feature","geometry":{"type":"Point","coordinates":[120.91361111,5.555]},"properties":{"id":144557,"name":"Laminusa","state_code":"CAG","country_code":"PH"}},{"type":"Feature","geometry":{"type":"Point","coordinates":[122.1,6.63333]},"properties":{"id":144559,"name":"Lamitan City","state_code":"CAG","country_code":"PH"}},{"type":"Feature","geometry":{"type":"Point","coordinates":[120.94888889,5.975]},"properties":{"id":144560,"name":"Langpas","state_code":"CAG","country_code":"PH"}},{"type":"Feature","geometry":{"type":"Point","coordinates":[119.405,4.76166667]},"properties":{"id":144562,"name":"Larap","state_code":"CAG","country_code":"PH"}},{"type":"Feature","geometry":{"type":"Point","coordinates":[120.88333333,5.5]},"properties":{"id":144563,"name":"Latung","state_code":"CAG","country_code":"PH"}},{"type":"Feature","geometry":{"type":"Point","coordinates":[124.73055556,7.07666667]},"properties":{"id":144564,"name":"Layog","state_code":"CAG","country_code":"PH"}},{"type":"Feature","geometry":{"type":"Point","coordinates":[119.47055556,4.65444444]},"properties":{"id":144565,"name":"Ligayan","state_code":"CAG","country_code":"PH"}},{"type":"Feature","geometry":{"type":"Point","coordinates":[124.24388889,7.25166667]},"properties":{"id":144566,"name":"Limbo","state_code":"CAG","country_code":"PH"}},{"type":"Feature","geometry":{"type":"Point","coordinates":[124.03472222,7.33583333]},"properties":{"id":144567,"name":"Litayan","state_code":"CAG","country_code":"PH"}},{"type":"Feature","geometry":{"type":"Point","coordinates":[120.10277778,5.03694444]},"properties":{"id":144568,"name":"Lookan","state_code":"CAG","country_code":"PH"}},{"type":"Feature","geometry":{"type":"Point","coordinates":[124.5,7.78333]},"properties":{"id":144570,"name":"Lumba-a-Bayabao","state_code":"CAG","country_code":"PH"}},{"type":"Feature","geometry":{"type":"Point","coordinates":[124.25277778,7.73416667]},"properties":{"id":144571,"name":"Lumbac","state_code":"CAG","country_code":"PH"}},{"type":"Feature","geometry":{"type":"Point","coordinates":[119.84527778,4.81194444]},"properties":{"id":144576,"name":"Luuk Datan","state_code":"CAG","country_code":"PH"}},{"type":"Feature","geometry":{"type":"Point","coordinates":[121.13333333,5.91666667]},"properties":{"id":144580,"name":"Mahala","state_code":"CAG","country_code":"PH"}},{"type":"Feature","geometry":{"type":"Point","coordinates":[124.30416667,7.03083333]},"properties":{"id":144582,"name":"Makir","state_code":"CAG","country_code":"PH"}},{"type":"Feature","geometry":{"type":"Point","coordinates":[120.79861111,5.47333333]},"properties":{"id":144585,"name":"Manubul","state_code":"CAG","country_code":"PH"}},{"type":"Feature","geometry":{"type":"Point","coordinates":[121.10694444,5.93138889]},"properties":{"id":144590,"name":"Marsada","state_code":"CAG","country_code":"PH"}},{"type":"Feature","geometry":{"type":"Point","coordinates":[120.96085,6.19193]},"properties":{"id":144591,"name":"Marunggas","state_code":"CAG","country_code":"PH"}},{"type":"Feature","geometry":{"type":"Point","coordinates":[124.37194444,7.47111111]},"properties":{"id":144594,"name":"Mataya","state_code":"CAG","country_code":"PH"}},{"type":"Feature","geometry":{"type":"Point","coordinates":[121.09361111,5.99]},"properties":{"id":144595,"name":"Mauboh","state_code":"CAG","country_code":"PH"}},{"type":"Feature","geometry":{"type":"Point","coordinates":[124.58388889,6.89861111]},"properties":{"id":144596,"name":"Mileb","state_code":"CAG","country_code":"PH"}},{"type":"Feature","geometry":{"type":"Point","coordinates":[124.36542,7.91786]},"properties":{"id":144597,"name":"Molundo","state_code":"CAG","country_code":"PH"}},{"type":"Feature","geometry":{"type":"Point","coordinates":[120.96028,5.99429]},"properties":{"id":144598,"name":"Municipality of Indanan","state_code":"CAG","country_code":"PH"}},{"type":"Feature","geometry":{"type":"Point","coordinates":[121.8642,6.6265]},"properties":{"id":144599,"name":"Municipality of Lantawan","state_code":"CAG","country_code":"PH"}},{"type":"Feature","geometry":{"type":"Point","coordinates":[120.554,6.305]},"properties":{"id":144600,"name":"Municipality of Pangutaran","state_code":"CAG","country_code":"PH"}},{"type":"Feature","geometry":{"type":"Point","coordinates":[123.9406,7.6905]},"properties":{"id":144601,"name":"Municipality of Sultan Gumander","state_code":"CAG","country_code":"PH"}},{"type":"Feature","geometry":{"type":"Point","coordinates":[121.83632,6.02517]},"properties":{"id":144602,"name":"Municipality of Tongkil","state_code":"CAG","country_code":"PH"}},{"type":"Feature","geometry":{"type":"Point","coordinates":[119.88333333,5.06666667]},"properties":{"id":144603,"name":"New Batu Batu","state_code":"CAG","country_code":"PH"}},{"type":"Feature","geometry":{"type":"Point","coordinates":[121.18333,5.96667]},"properties":{"id":144604,"name":"New Panamao","state_code":"CAG","country_code":"PH"}},{"type":"Feature","geometry":{"type":"Point","coordinates":[124.41083333,7.41805556]},"properties":{"id":144605,"name":"Nuyo","state_code":"CAG","country_code":"PH"}},{"type":"Feature","geometry":{"type":"Point","coordinates":[121.25,5.98333333]},"properties":{"id":144606,"name":"Old Panamao","state_code":"CAG","country_code":"PH"}},{"type":"Feature","geometry":{"type":"Point","coordinates":[124.47527778,6.97305556]},"properties":{"id":144619,"name":"Pagatin","state_code":"CAG","country_code":"PH"}},{"type":"Feature","geometry":{"type":"Point","coordinates":[121.1451566,16.4646107]},"properties":{"id":144623,"name":"Paitan","state_code":"CAG","country_code":"PH"}},{"type":"Feature","geometry":{"type":"Point","coordinates":[120.96277778,5.96166667]},"properties":{"id":144624,"name":"Panabuan","state_code":"CAG","country_code":"PH"}},{"type":"Feature","geometry":{"type":"Point","coordinates":[124.64277778,6.90083333]},"properties":{"id":144625,"name":"Panadtaban","state_code":"CAG","country_code":"PH"}},{"type":"Feature","geometry":{"type":"Point","coordinates":[121.16583333,5.98888889]},"properties":{"id":144627,"name":"Pandakan","state_code":"CAG","country_code":"PH"}},{"type":"Feature","geometry":{"type":"Point","coordinates":[120.56305556,6.22833333]},"properties":{"id":144659,"name":"Pandan Niog","state_code":"CAG","country_code":"PH"}},{"type":"Feature","geometry":{"type":"Point","coordinates":[121.28833333,5.94833333]},"properties":{"id":144660,"name":"Pang","state_code":"CAG","country_code":"PH"}},{"type":"Feature","geometry":{"type":"Point","coordinates":[119.93833333,5.08388889]},"properties":{"id":144665,"name":"Parangan","state_code":"CAG","country_code":"PH"}},{"type":"Feature","geometry":{"type":"Point","coordinates":[120.77194444,5.55666667]},"properties":{"id":144666,"name":"Parian Dakula","state_code":"CAG","country_code":"PH"}},{"type":"Feature","geometry":{"type":"Point","coordinates":[121.14386111,5.84440833]},"properties":{"id":144667,"name":"Pata","state_code":"CAG","country_code":"PH"}},{"type":"Feature","geometry":{"type":"Point","coordinates":[124.25638889,8.01638889]},"properties":{"id":144698,"name":"Pawak","state_code":"CAG","country_code":"PH"}},{"type":"Feature","geometry":{"type":"Point","coordinates":[120.90111111,5.94166667]},"properties":{"id":144699,"name":"Payuhan","state_code":"CAG","country_code":"PH"}},{"type":"Feature","geometry":{"type":"Point","coordinates":[124.59083333,6.93222222]},"properties":{"id":144701,"name":"Pidsandawan","state_code":"CAG","country_code":"PH"}},{"type":"Feature","geometry":{"type":"Point","coordinates":[124.31055556,7.22888889]},"properties":{"id":144702,"name":"Pinaring","state_code":"CAG","country_code":"PH"}},{"type":"Feature","geometry":{"type":"Point","coordinates":[124.35,7.83333]},"properties":{"id":144704,"name":"Poon-a-Bayabao","state_code":"CAG","country_code":"PH"}},{"type":"Feature","geometry":{"type":"Point","coordinates":[121.19805556,5.96138889]},"properties":{"id":144706,"name":"Punay","state_code":"CAG","country_code":"PH"}},{"type":"Feature","geometry":{"type":"Point","coordinates":[124.10027778,7.02388889]},"properties":{"id":144707,"name":"Rimpeso","state_code":"CAG","country_code":"PH"}},{"type":"Feature","geometry":{"type":"Point","coordinates":[124.7,6.88333333]},"properties":{"id":144711,"name":"Sambuluan","state_code":"CAG","country_code":"PH"}},{"type":"Feature","geometry":{"type":"Point","coordinates":[119.78527778,5.0725]},"properties":{"id":144712,"name":"Sanga-Sanga","state_code":"CAG","country_code":"PH"}},{"type":"Feature","geometry":{"type":"Point","coordinates":[122.06,6.67833333]},"properties":{"id":144713,"name":"Santa Clara","state_code":"CAG","country_code":"PH"}},{"type":"Feature","geometry":{"type":"Point","coordinates":[120.32416667,5.15444444]},"properties":{"id":144714,"name":"Sapa","state_code":"CAG","country_code":"PH"}},{"type":"Feature","geometry":{"type":"Point","coordinates":[124.25,7.48333333]},"properties":{"id":144716,"name":"Sapadun","state_code":"CAG","country_code":"PH"}},{"type":"Feature","geometry":{"type":"Point","coordinates":[124.40861111,6.86305556]},"properties":{"id":144717,"name":"Satan","state_code":"CAG","country_code":"PH"}},{"type":"Feature","geometry":{"type":"Point","coordinates":[122.21888889,6.66361111]},"properties":{"id":144718,"name":"Semut","state_code":"CAG","country_code":"PH"}},{"type":"Feature","geometry":{"type":"Point","coordinates":[124.30722222,7.27722222]},"properties":{"id":144721,"name":"Simuay","state_code":"CAG","country_code":"PH"}},{"type":"Feature","geometry":{"type":"Point","coordinates":[120.94861111,6.00527778]},"properties":{"id":144723,"name":"Sionogan","state_code":"CAG","country_code":"PH"}},{"type":"Feature","geometry":{"type":"Point","coordinates":[124.37575556,7.035325]},"properties":{"id":144729,"name":"Sultan Sumagka","state_code":"CAG","country_code":"PH"}},{"type":"Feature","geometry":{"type":"Point","coordinates":[121.89361111,6.02805556]},"properties":{"id":144733,"name":"Tabiauan","state_code":"CAG","country_code":"PH"}},{"type":"Feature","geometry":{"type":"Point","coordinates":[122.17472222,6.62916667]},"properties":{"id":144734,"name":"Tablas","state_code":"CAG","country_code":"PH"}},{"type":"Feature","geometry":{"type":"Point","coordinates":[121.83944444,6.64027778]},"properties":{"id":144735,"name":"Tairan Camp","state_code":"CAG","country_code":"PH"}},{"type":"Feature","geometry":{"type":"Point","coordinates":[121.09444444,5.91]},"properties":{"id":144738,"name":"Talipaw","state_code":"CAG","country_code":"PH"}},{"type":"Feature","geometry":{"type":"Point","coordinates":[124.26611111,7.29444444]},"properties":{"id":144742,"name":"Tapayan","state_code":"CAG","country_code":"PH"}},{"type":"Feature","geometry":{"type":"Point","coordinates":[124.3225,6.85194444]},"properties":{"id":144743,"name":"Tapikan","state_code":"CAG","country_code":"PH"}},{"type":"Feature","geometry":{"type":"Point","coordinates":[119.49305556,4.70666667]},"properties":{"id":144747,"name":"Taungoh","state_code":"CAG","country_code":"PH"}},{"type":"Feature","geometry":{"type":"Point","coordinates":[124.31972222,7.12333333]},"properties":{"id":144748,"name":"Taviran","state_code":"CAG","country_code":"PH"}},{"type":"Feature","geometry":{"type":"Point","coordinates":[120.13277778,5.02138889]},"properties":{"id":144751,"name":"Tongouson","state_code":"CAG","country_code":"PH"}},{"type":"Feature","geometry":{"type":"Point","coordinates":[120.31388889,5.36555556]},"properties":{"id":144756,"name":"Tumbagaan","state_code":"CAG","country_code":"PH"}},{"type":"Feature","geometry":{"type":"Point","coordinates":[121.15444444,5.84444444]},"properties":{"id":144757,"name":"Tunggol","state_code":"CAG","country_code":"PH"}},{"type":"Feature","geometry":{"type":"Point","coordinates":[124.75305556,7.08083333]},"properties":{"id":144758,"name":"Tungol","state_code":"CAG","country_code":"PH"}},{"type":"Feature","geometry":{"type":"Point","coordinates":[119.83972222,5.05083333]},"properties":{"id":144760,"name":"Ungus-Ungus","state_code":"CAG","country_code":"PH"}},{"type":"Feature","geometry":{"type":"Point","coordinates":[124.04111111,7.86305556]},"properties":{"id":144762,"name":"Uyaan","state_code":"CAG","country_code":"PH"}}]}