{"type":"FeatureCollection","features":[{"type":"Feature","geometry":{"type":"Point","coordinates":[125.4631766,10.0400851]},"properties":{"id":144388,"name":"Basilisa","state_code":"DIN","country_code":"PH"}},{"type":"Feature","geometry":{"type":"Point","coordinates":[125.4970246,10.0193146]},"properties":{"id":144403,"name":"Cagdianao","state_code":"DIN","country_code":"PH"}},{"type":"Feature","geometry":{"type":"Point","coordinates":[125.5473795,9.9609839]},"properties":{"id":144425,"name":"Dinagat","state_code":"DIN","country_code":"PH"}},{"type":"Feature","geometry":{"type":"Point","coordinates":[125.3968174,10.1962004]},"properties":{"id":144451,"name":"Libjo","state_code":"DIN","country_code":"PH"}},{"type":"Feature","geometry":{"type":"Point","coordinates":[125.4069454,10.3634494]},"properties":{"id":144453,"name":"Loreto","state_code":"DIN","country_code":"PH"}},{"type":"Feature","geometry":{"type":"Point","coordinates":[125.551156,10.0177884]},"properties":{"id":154538,"name":"San Jose","state_code":"DIN","country_code":"PH"}},{"type":"Feature","geometry":{"type":"Point","coordinates":[125.5029162,10.2881752]},"properties":{"id":144522,"name":"Tubajon","state_code":"DIN","country_code":"PH"}}]}