{"type":"FeatureCollection","features":[{"type":"Feature","geometry":{"type":"Point","coordinates":[125.3543645,5.5705429]},"properties":{"id":144886,"name":"Balangonan","state_code":"DVO","country_code":"PH"}},{"type":"Feature","geometry":{"type":"Point","coordinates":[125.511087,6.5113587]},"properties":{"id":144893,"name":"Basiawan","state_code":"DVO","country_code":"PH"}},{"type":"Feature","geometry":{"type":"Point","coordinates":[125.4699665,6.3862395]},"properties":{"id":144898,"name":"Biao","state_code":"DVO","country_code":"PH"}},{"type":"Feature","geometry":{"type":"Point","coordinates":[125.5702583,6.3708399]},"properties":{"id":144902,"name":"Bolila","state_code":"DVO","country_code":"PH"}},{"type":"Feature","geometry":{"type":"Point","coordinates":[125.5441618,6.489421]},"properties":{"id":144905,"name":"Buhangin","state_code":"DVO","country_code":"PH"}},{"type":"Feature","geometry":{"type":"Point","coordinates":[125.406028,5.5708777]},"properties":{"id":144906,"name":"Bukid","state_code":"DVO","country_code":"PH"}},{"type":"Feature","geometry":{"type":"Point","coordinates":[125.4289164,5.6109149]},"properties":{"id":144909,"name":"Butulan","state_code":"DVO","country_code":"PH"}},{"type":"Feature","geometry":{"type":"Point","coordinates":[125.6436879,5.9105565]},"properties":{"id":144912,"name":"Caburan","state_code":"DVO","country_code":"PH"}},{"type":"Feature","geometry":{"type":"Point","coordinates":[125.59962,6.3899887]},"properties":{"id":144926,"name":"Culaman","state_code":"DVO","country_code":"PH"}},{"type":"Feature","geometry":{"type":"Point","coordinates":[125.6977653,6.1978508]},"properties":{"id":144934,"name":"Don Marcelino","state_code":"DVO","country_code":"PH"}},{"type":"Feature","geometry":{"type":"Point","coordinates":[125.6445932,5.9124655]},"properties":{"id":144949,"name":"Jose Abad Santos","state_code":"DVO","country_code":"PH"}},{"type":"Feature","geometry":{"type":"Point","coordinates":[125.498893,5.7234977]},"properties":{"id":144952,"name":"Kalbay","state_code":"DVO","country_code":"PH"}},{"type":"Feature","geometry":{"type":"Point","coordinates":[125.5756885,6.3070128]},"properties":{"id":144961,"name":"Kinangan","state_code":"DVO","country_code":"PH"}},{"type":"Feature","geometry":{"type":"Point","coordinates":[125.5653512,6.4527403]},"properties":{"id":144965,"name":"Lacaron","state_code":"DVO","country_code":"PH"}},{"type":"Feature","geometry":{"type":"Point","coordinates":[125.6521619,6.3216726]},"properties":{"id":144967,"name":"Lais","state_code":"DVO","country_code":"PH"}},{"type":"Feature","geometry":{"type":"Point","coordinates":[125.6860051,6.1574062]},"properties":{"id":144969,"name":"Lapuan","state_code":"DVO","country_code":"PH"}},{"type":"Feature","geometry":{"type":"Point","coordinates":[125.6546621,6.1348864]},"properties":{"id":144983,"name":"Mabuhay","state_code":"DVO","country_code":"PH"}},{"type":"Feature","geometry":{"type":"Point","coordinates":[125.6109051,6.4143745]},"properties":{"id":144997,"name":"Malita","state_code":"DVO","country_code":"PH"}},{"type":"Feature","geometry":{"type":"Point","coordinates":[125.6873703,6.0035694]},"properties":{"id":145004,"name":"Mangili","state_code":"DVO","country_code":"PH"}},{"type":"Feature","geometry":{"type":"Point","coordinates":[125.4392526,5.6250562]},"properties":{"id":145026,"name":"Nuing","state_code":"DVO","country_code":"PH"}},{"type":"Feature","geometry":{"type":"Point","coordinates":[125.5484748,6.4628674]},"properties":{"id":145033,"name":"Pangian","state_code":"DVO","country_code":"PH"}},{"type":"Feature","geometry":{"type":"Point","coordinates":[125.4350593,6.4734466]},"properties":{"id":145042,"name":"San Antonio","state_code":"DVO","country_code":"PH"}},{"type":"Feature","geometry":{"type":"Point","coordinates":[125.4091582,5.6639438]},"properties":{"id":145044,"name":"San Isidro","state_code":"DVO","country_code":"PH"}},{"type":"Feature","geometry":{"type":"Point","coordinates":[126.55111111,7.44138889]},"properties":{"id":145045,"name":"San Luis","state_code":"DVO","country_code":"PH"}},{"type":"Feature","geometry":{"type":"Point","coordinates":[126.16464,7.33819]},"properties":{"id":145046,"name":"San Mariano","state_code":"DVO","country_code":"PH"}},{"type":"Feature","geometry":{"type":"Point","coordinates":[125.4338893,6.4257288]},"properties":{"id":145048,"name":"San Pedro","state_code":"DVO","country_code":"PH"}},{"type":"Feature","geometry":{"type":"Point","coordinates":[125.47083333,6.55361111]},"properties":{"id":145053,"name":"Santa Maria","state_code":"DVO","country_code":"PH"}},{"type":"Feature","geometry":{"type":"Point","coordinates":[125.497376,6.5615661]},"properties":{"id":145055,"name":"Santo Niño","state_code":"DVO","country_code":"PH"}},{"type":"Feature","geometry":{"type":"Point","coordinates":[125.4217427,5.4122469]},"properties":{"id":145058,"name":"Sarangani","state_code":"DVO","country_code":"PH"}},{"type":"Feature","geometry":{"type":"Point","coordinates":[125.4735064,5.6706967]},"properties":{"id":145065,"name":"Sugal","state_code":"DVO","country_code":"PH"}},{"type":"Feature","geometry":{"type":"Point","coordinates":[125.6627812,6.2599466]},"properties":{"id":145074,"name":"Talagutong","state_code":"DVO","country_code":"PH"}},{"type":"Feature","geometry":{"type":"Point","coordinates":[125.55974,6.4842349]},"properties":{"id":145090,"name":"Tubalan","state_code":"DVO","country_code":"PH"}}]}