{"type":"FeatureCollection","features":[{"type":"Feature","geometry":{"type":"Point","coordinates":[121.5019962,16.8091822]},"properties":{"id":81214,"name":"Alicia","state_code":"ISA","country_code":"PH"}},{"type":"Feature","geometry":{"type":"Point","coordinates":[121.6222844,16.7795489]},"properties":{"id":145111,"name":"Angadanan","state_code":"ISA","country_code":"PH"}},{"type":"Feature","geometry":{"type":"Point","coordinates":[121.557779,16.9766804]},"properties":{"id":144378,"name":"Aurora","state_code":"ISA","country_code":"PH"}},{"type":"Feature","geometry":{"type":"Point","coordinates":[121.7505233,16.9019831]},"properties":{"id":145138,"name":"Benito Soliven","state_code":"ISA","country_code":"PH"}},{"type":"Feature","geometry":{"type":"Point","coordinates":[121.6548706,17.0559826]},"properties":{"id":154557,"name":"Burgos","state_code":"ISA","country_code":"PH"}},{"type":"Feature","geometry":{"type":"Point","coordinates":[121.4923104,17.3823023]},"properties":{"id":145150,"name":"Cabagan","state_code":"ISA","country_code":"PH"}},{"type":"Feature","geometry":{"type":"Point","coordinates":[121.6180845,16.9390416]},"properties":{"id":154558,"name":"Cabatuan","state_code":"ISA","country_code":"PH"}},{"type":"Feature","geometry":{"type":"Point","coordinates":[121.6263111,16.9039817]},"properties":{"id":145167,"name":"Cauayan","state_code":"ISA","country_code":"PH"}},{"type":"Feature","geometry":{"type":"Point","coordinates":[121.3760909,16.6896579]},"properties":{"id":145169,"name":"Cordon","state_code":"ISA","country_code":"PH"}},{"type":"Feature","geometry":{"type":"Point","coordinates":[121.6744384,17.2765059]},"properties":{"id":145175,"name":"Delfin Albano","state_code":"ISA","country_code":"PH"}},{"type":"Feature","geometry":{"type":"Point","coordinates":[122.0730242,16.6711896]},"properties":{"id":154559,"name":"Dinapigue","state_code":"ISA","country_code":"PH"}},{"type":"Feature","geometry":{"type":"Point","coordinates":[122.0143214,17.2881179]},"properties":{"id":154560,"name":"Divilacan","state_code":"ISA","country_code":"PH"}},{"type":"Feature","geometry":{"type":"Point","coordinates":[121.5061611,16.647547]},"properties":{"id":82501,"name":"Echague","state_code":"ISA","country_code":"PH"}},{"type":"Feature","geometry":{"type":"Point","coordinates":[121.7304576,17.0782845]},"properties":{"id":145198,"name":"Gamu","state_code":"ISA","country_code":"PH"}},{"type":"Feature","geometry":{"type":"Point","coordinates":[121.7745859,17.1893171]},"properties":{"id":145206,"name":"Ilagan","state_code":"ISA","country_code":"PH"}},{"type":"Feature","geometry":{"type":"Point","coordinates":[121.608986,16.5290936]},"properties":{"id":145211,"name":"Jones","state_code":"ISA","country_code":"PH"}},{"type":"Feature","geometry":{"type":"Point","coordinates":[121.6899416,16.973251]},"properties":{"id":154561,"name":"Luna","state_code":"ISA","country_code":"PH"}},{"type":"Feature","geometry":{"type":"Point","coordinates":[121.9747857,17.3705131]},"properties":{"id":145227,"name":"Maconacon","state_code":"ISA","country_code":"PH"}},{"type":"Feature","geometry":{"type":"Point","coordinates":[121.5321311,17.1808237]},"properties":{"id":145236,"name":"Mallig","state_code":"ISA","country_code":"PH"}},{"type":"Feature","geometry":{"type":"Point","coordinates":[121.7898356,17.0028038]},"properties":{"id":145255,"name":"Naguilian","state_code":"ISA","country_code":"PH"}},{"type":"Feature","geometry":{"type":"Point","coordinates":[121.533676,17.3214888]},"properties":{"id":145269,"name":"Quezon","state_code":"ISA","country_code":"PH"}},{"type":"Feature","geometry":{"type":"Point","coordinates":[121.667615,17.1547489]},"properties":{"id":154562,"name":"Quirino","state_code":"ISA","country_code":"PH"}},{"type":"Feature","geometry":{"type":"Point","coordinates":[121.4251646,16.7917268]},"properties":{"id":84323,"name":"Ramon","state_code":"ISA","country_code":"PH"}},{"type":"Feature","geometry":{"type":"Point","coordinates":[121.7561129,17.0024506]},"properties":{"id":145276,"name":"Reina Mercedes","state_code":"ISA","country_code":"PH"}},{"type":"Feature","geometry":{"type":"Point","coordinates":[121.5405574,17.0954926]},"properties":{"id":145279,"name":"Roxas","state_code":"ISA","country_code":"PH"}},{"type":"Feature","geometry":{"type":"Point","coordinates":[121.7082438,16.4675745]},"properties":{"id":84438,"name":"San Agustin","state_code":"ISA","country_code":"PH"}},{"type":"Feature","geometry":{"type":"Point","coordinates":[121.8132577,16.6914009]},"properties":{"id":145289,"name":"San Guillermo","state_code":"ISA","country_code":"PH"}},{"type":"Feature","geometry":{"type":"Point","coordinates":[121.5386188,16.7342229]},"properties":{"id":154563,"name":"San Isidro","state_code":"ISA","country_code":"PH"}},{"type":"Feature","geometry":{"type":"Point","coordinates":[121.5427408,17.0271399]},"properties":{"id":145295,"name":"San Manuel","state_code":"ISA","country_code":"PH"}},{"type":"Feature","geometry":{"type":"Point","coordinates":[121.8852278,16.8944811]},"properties":{"id":145296,"name":"San Mariano","state_code":"ISA","country_code":"PH"}},{"type":"Feature","geometry":{"type":"Point","coordinates":[121.5178719,16.8783733]},"properties":{"id":145686,"name":"San Mateo","state_code":"ISA","country_code":"PH"}},{"type":"Feature","geometry":{"type":"Point","coordinates":[121.673778,17.4776643]},"properties":{"id":84574,"name":"San Pablo","state_code":"ISA","country_code":"PH"}},{"type":"Feature","geometry":{"type":"Point","coordinates":[121.6386067,17.4697775]},"properties":{"id":154564,"name":"Santa Maria","state_code":"ISA","country_code":"PH"}},{"type":"Feature","geometry":{"type":"Point","coordinates":[121.3115732,16.6956149]},"properties":{"id":154565,"name":"Santiago City","state_code":"ISA","country_code":"PH"}},{"type":"Feature","geometry":{"type":"Point","coordinates":[121.6598444,17.3807966]},"properties":{"id":154566,"name":"Santo Tomas","state_code":"ISA","country_code":"PH"}},{"type":"Feature","geometry":{"type":"Point","coordinates":[121.7202119,17.2838493]},"properties":{"id":145331,"name":"Tumauini","state_code":"ISA","country_code":"PH"}}]}