{"type":"FeatureCollection","features":[{"type":"Feature","geometry":{"type":"Point","coordinates":[121.20826,14.0444754]},"properties":{"id":81184,"name":"Alaminos","state_code":"LAG","country_code":"PH"}},{"type":"Feature","geometry":{"type":"Point","coordinates":[121.2121788,14.1416632]},"properties":{"id":81650,"name":"Bay","state_code":"LAG","country_code":"PH"}},{"type":"Feature","geometry":{"type":"Point","coordinates":[121.0288872,14.3032377]},"properties":{"id":81749,"name":"Biñan","state_code":"LAG","country_code":"PH"}},{"type":"Feature","geometry":{"type":"Point","coordinates":[121.0319313,14.252687]},"properties":{"id":81986,"name":"Cabuyao","state_code":"LAG","country_code":"PH"}},{"type":"Feature","geometry":{"type":"Point","coordinates":[121.0338302,14.188341]},"properties":{"id":82018,"name":"Calamba","state_code":"LAG","country_code":"PH"}},{"type":"Feature","geometry":{"type":"Point","coordinates":[121.2089571,14.1360142]},"properties":{"id":82042,"name":"Calauan","state_code":"LAG","country_code":"PH"}},{"type":"Feature","geometry":{"type":"Point","coordinates":[121.4718351,14.2510526]},"properties":{"id":82225,"name":"Cavinti","state_code":"LAG","country_code":"PH"}},{"type":"Feature","geometry":{"type":"Point","coordinates":[121.431476,14.4793853]},"properties":{"id":82536,"name":"Famy","state_code":"LAG","country_code":"PH"}},{"type":"Feature","geometry":{"type":"Point","coordinates":[121.4661273,14.3357286]},"properties":{"id":82845,"name":"Kalayaan","state_code":"LAG","country_code":"PH"}},{"type":"Feature","geometry":{"type":"Point","coordinates":[121.4034711,14.131947]},"properties":{"id":154574,"name":"Liliw","state_code":"LAG","country_code":"PH"}},{"type":"Feature","geometry":{"type":"Point","coordinates":[121.1780609,14.1547742]},"properties":{"id":83185,"name":"Los Baños","state_code":"LAG","country_code":"PH"}},{"type":"Feature","geometry":{"type":"Point","coordinates":[121.4417513,14.1829971]},"properties":{"id":83209,"name":"Luisiana","state_code":"LAG","country_code":"PH"}},{"type":"Feature","geometry":{"type":"Point","coordinates":[121.3609325,14.3070284]},"properties":{"id":154575,"name":"Lumban","state_code":"LAG","country_code":"PH"}},{"type":"Feature","geometry":{"type":"Point","coordinates":[121.3920985,14.1994008]},"properties":{"id":145231,"name":"Magdalena","state_code":"LAG","country_code":"PH"}},{"type":"Feature","geometry":{"type":"Point","coordinates":[121.4009817,14.1432514]},"properties":{"id":83374,"name":"Majayjay","state_code":"LAG","country_code":"PH"}},{"type":"Feature","geometry":{"type":"Point","coordinates":[121.3287982,14.1422495]},"properties":{"id":83745,"name":"Nagcarlan","state_code":"LAG","country_code":"PH"}},{"type":"Feature","geometry":{"type":"Point","coordinates":[121.4673692,14.3839534]},"properties":{"id":83885,"name":"Paete","state_code":"LAG","country_code":"PH"}},{"type":"Feature","geometry":{"type":"Point","coordinates":[121.3787945,14.2483498]},"properties":{"id":83897,"name":"Pagsanjan","state_code":"LAG","country_code":"PH"}},{"type":"Feature","geometry":{"type":"Point","coordinates":[121.3805969,14.3836823]},"properties":{"id":83906,"name":"Pakil","state_code":"LAG","country_code":"PH"}},{"type":"Feature","geometry":{"type":"Point","coordinates":[121.3845613,14.4114707]},"properties":{"id":83978,"name":"Pangil","state_code":"LAG","country_code":"PH"}},{"type":"Feature","geometry":{"type":"Point","coordinates":[121.3291847,14.2318075]},"properties":{"id":84088,"name":"Pila","state_code":"LAG","country_code":"PH"}},{"type":"Feature","geometry":{"type":"Point","coordinates":[121.362149,14.0983632]},"properties":{"id":154576,"name":"Rizal","state_code":"LAG","country_code":"PH"}},{"type":"Feature","geometry":{"type":"Point","coordinates":[121.2530038,14.0556904]},"properties":{"id":154577,"name":"San Pablo","state_code":"LAG","country_code":"PH"}},{"type":"Feature","geometry":{"type":"Point","coordinates":[121.041149,14.3490861]},"properties":{"id":154578,"name":"San Pedro","state_code":"LAG","country_code":"PH"}},{"type":"Feature","geometry":{"type":"Point","coordinates":[121.3596573,14.2652077]},"properties":{"id":154579,"name":"Santa Cruz","state_code":"LAG","country_code":"PH"}},{"type":"Feature","geometry":{"type":"Point","coordinates":[121.3411843,14.5090939]},"properties":{"id":154580,"name":"Santa Maria","state_code":"LAG","country_code":"PH"}},{"type":"Feature","geometry":{"type":"Point","coordinates":[121.0470243,14.2800212]},"properties":{"id":84699,"name":"Santa Rosa","state_code":"LAG","country_code":"PH"}},{"type":"Feature","geometry":{"type":"Point","coordinates":[121.4456784,14.4337175]},"properties":{"id":84816,"name":"Siniloan","state_code":"LAG","country_code":"PH"}},{"type":"Feature","geometry":{"type":"Point","coordinates":[121.2948149,14.2114689]},"properties":{"id":145780,"name":"Victoria","state_code":"LAG","country_code":"PH"}}]}