{"type":"FeatureCollection","features":[{"type":"Feature","geometry":{"type":"Point","coordinates":[123.9830321,8.1388443]},"properties":{"id":81365,"name":"Bacolod","state_code":"LAN","country_code":"PH"}},{"type":"Feature","geometry":{"type":"Point","coordinates":[124.132243,8.0975291]},"properties":{"id":154663,"name":"Baloi","state_code":"LAN","country_code":"PH"}},{"type":"Feature","geometry":{"type":"Point","coordinates":[123.7342246,7.9798338]},"properties":{"id":81585,"name":"Baroy","state_code":"LAN","country_code":"PH"}},{"type":"Feature","geometry":{"type":"Point","coordinates":[124.0430753,8.1633248]},"properties":{"id":82727,"name":"Iligan City","state_code":"LAN","country_code":"PH"}},{"type":"Feature","geometry":{"type":"Point","coordinates":[123.6518485,7.8777331]},"properties":{"id":82868,"name":"Kapatagan","state_code":"LAN","country_code":"PH"}},{"type":"Feature","geometry":{"type":"Point","coordinates":[124.0533462,8.1689673]},"properties":{"id":82886,"name":"Kauswagan","state_code":"LAN","country_code":"PH"}},{"type":"Feature","geometry":{"type":"Point","coordinates":[123.7998235,8.0919783]},"properties":{"id":82922,"name":"Kolambugan","state_code":"LAN","country_code":"PH"}},{"type":"Feature","geometry":{"type":"Point","coordinates":[123.6819349,7.9484258]},"properties":{"id":82987,"name":"Lala","state_code":"LAN","country_code":"PH"}},{"type":"Feature","geometry":{"type":"Point","coordinates":[124.1178474,8.1688834]},"properties":{"id":83131,"name":"Linamon","state_code":"LAN","country_code":"PH"}},{"type":"Feature","geometry":{"type":"Point","coordinates":[123.8368137,8.0281615]},"properties":{"id":154664,"name":"Magsaysay","state_code":"LAN","country_code":"PH"}},{"type":"Feature","geometry":{"type":"Point","coordinates":[123.8947869,8.0999615]},"properties":{"id":83365,"name":"Maigo","state_code":"LAN","country_code":"PH"}},{"type":"Feature","geometry":{"type":"Point","coordinates":[124.1209619,8.116495]},"properties":{"id":83633,"name":"Matungao","state_code":"LAN","country_code":"PH"}},{"type":"Feature","geometry":{"type":"Point","coordinates":[124.0088184,7.9587541]},"properties":{"id":83723,"name":"Munai","state_code":"LAN","country_code":"PH"}},{"type":"Feature","geometry":{"type":"Point","coordinates":[123.7712456,7.8053032]},"properties":{"id":154665,"name":"Nunungan","state_code":"LAN","country_code":"PH"}},{"type":"Feature","geometry":{"type":"Point","coordinates":[123.9290052,8.058488]},"properties":{"id":154666,"name":"Pantao Ragat","state_code":"LAN","country_code":"PH"}},{"type":"Feature","geometry":{"type":"Point","coordinates":[124.1397101,8.0686759]},"properties":{"id":84001,"name":"Pantar","state_code":"LAN","country_code":"PH"}},{"type":"Feature","geometry":{"type":"Point","coordinates":[123.9884525,8.0937033]},"properties":{"id":154667,"name":"Poona Piagapo","state_code":"LAN","country_code":"PH"}},{"type":"Feature","geometry":{"type":"Point","coordinates":[123.8205116,7.9130423]},"properties":{"id":84423,"name":"Salvador","state_code":"LAN","country_code":"PH"}},{"type":"Feature","geometry":{"type":"Point","coordinates":[123.7936438,7.8321727]},"properties":{"id":84740,"name":"Sapad","state_code":"LAN","country_code":"PH"}},{"type":"Feature","geometry":{"type":"Point","coordinates":[123.5661773,7.789491]},"properties":{"id":154668,"name":"Sultan Naga Dimaporo","state_code":"LAN","country_code":"PH"}},{"type":"Feature","geometry":{"type":"Point","coordinates":[124.2292615,8.1467781]},"properties":{"id":84945,"name":"Tagoloan","state_code":"LAN","country_code":"PH"}},{"type":"Feature","geometry":{"type":"Point","coordinates":[123.8939018,7.9586773]},"properties":{"id":154669,"name":"Tangcal","state_code":"LAN","country_code":"PH"}},{"type":"Feature","geometry":{"type":"Point","coordinates":[123.7855728,7.9980205]},"properties":{"id":85196,"name":"Tubod","state_code":"LAN","country_code":"PH"}}]}