{"type":"FeatureCollection","features":[{"type":"Feature","geometry":{"type":"Point","coordinates":[120.7749756,15.5070119]},"properties":{"id":145343,"name":"Aliaga","state_code":"NUE","country_code":"PH"}},{"type":"Feature","geometry":{"type":"Point","coordinates":[121.0608872,15.6574937]},"properties":{"id":145400,"name":"Bongabon","state_code":"NUE","country_code":"PH"}},{"type":"Feature","geometry":{"type":"Point","coordinates":[120.8162141,15.5001723]},"properties":{"id":145418,"name":"Cabanatuan","state_code":"NUE","country_code":"PH"}},{"type":"Feature","geometry":{"type":"Point","coordinates":[120.758582,15.2289491]},"properties":{"id":145422,"name":"Cabiao","state_code":"NUE","country_code":"PH"}},{"type":"Feature","geometry":{"type":"Point","coordinates":[120.8720114,15.9930714]},"properties":{"id":145445,"name":"Carranglan","state_code":"NUE","country_code":"PH"}},{"type":"Feature","geometry":{"type":"Point","coordinates":[120.6219342,15.7802057]},"properties":{"id":145466,"name":"Cuyapo","state_code":"NUE","country_code":"PH"}},{"type":"Feature","geometry":{"type":"Point","coordinates":[121.2044696,15.5283715]},"properties":{"id":145484,"name":"Gabaldon","state_code":"NUE","country_code":"PH"}},{"type":"Feature","geometry":{"type":"Point","coordinates":[120.9370615,15.2931687]},"properties":{"id":145485,"name":"Gapan","state_code":"NUE","country_code":"PH"}},{"type":"Feature","geometry":{"type":"Point","coordinates":[120.9730299,15.586229]},"properties":{"id":145487,"name":"General Mamerto Natividad","state_code":"NUE","country_code":"PH"}},{"type":"Feature","geometry":{"type":"Point","coordinates":[121.0388232,15.3222084]},"properties":{"id":145488,"name":"General Tinio","state_code":"NUE","country_code":"PH"}},{"type":"Feature","geometry":{"type":"Point","coordinates":[120.6677302,15.6659407]},"properties":{"id":145493,"name":"Guimba","state_code":"NUE","country_code":"PH"}},{"type":"Feature","geometry":{"type":"Point","coordinates":[120.7932687,15.3772988]},"properties":{"id":145500,"name":"Jaen","state_code":"NUE","country_code":"PH"}},{"type":"Feature","geometry":{"type":"Point","coordinates":[121.1007003,15.5196961]},"properties":{"id":145506,"name":"Laur","state_code":"NUE","country_code":"PH"}},{"type":"Feature","geometry":{"type":"Point","coordinates":[120.7206021,15.5465966]},"properties":{"id":145509,"name":"Licab","state_code":"NUE","country_code":"PH"}},{"type":"Feature","geometry":{"type":"Point","coordinates":[120.9068115,15.6617444]},"properties":{"id":145514,"name":"Llanera","state_code":"NUE","country_code":"PH"}},{"type":"Feature","geometry":{"type":"Point","coordinates":[120.8348498,15.8536027]},"properties":{"id":145520,"name":"Lupao","state_code":"NUE","country_code":"PH"}},{"type":"Feature","geometry":{"type":"Point","coordinates":[120.8216775,15.730911]},"properties":{"id":145573,"name":"Muñoz","state_code":"NUE","country_code":"PH"}},{"type":"Feature","geometry":{"type":"Point","coordinates":[120.6262984,15.7208708]},"properties":{"id":145576,"name":"Nampicuan","state_code":"NUE","country_code":"PH"}},{"type":"Feature","geometry":{"type":"Point","coordinates":[121.0127266,15.5183166]},"properties":{"id":145590,"name":"Palayan","state_code":"NUE","country_code":"PH"}},{"type":"Feature","geometry":{"type":"Point","coordinates":[120.9917048,15.8241289]},"properties":{"id":145600,"name":"Pantabangan","state_code":"NUE","country_code":"PH"}},{"type":"Feature","geometry":{"type":"Point","coordinates":[120.9527777,15.3525632]},"properties":{"id":145607,"name":"Peñaranda","state_code":"NUE","country_code":"PH"}},{"type":"Feature","geometry":{"type":"Point","coordinates":[120.7462654,15.5882919]},"properties":{"id":154742,"name":"Quezon","state_code":"NUE","country_code":"PH"}},{"type":"Feature","geometry":{"type":"Point","coordinates":[121.0420163,15.6895404]},"properties":{"id":154743,"name":"Rizal","state_code":"NUE","country_code":"PH"}},{"type":"Feature","geometry":{"type":"Point","coordinates":[120.7375963,15.331221]},"properties":{"id":154744,"name":"San Antonio","state_code":"NUE","country_code":"PH"}},{"type":"Feature","geometry":{"type":"Point","coordinates":[120.8618821,15.2625228]},"properties":{"id":154745,"name":"San Isidro","state_code":"NUE","country_code":"PH"}},{"type":"Feature","geometry":{"type":"Point","coordinates":[120.9070354,15.7878017]},"properties":{"id":154746,"name":"San Jose","state_code":"NUE","country_code":"PH"}},{"type":"Feature","geometry":{"type":"Point","coordinates":[120.9130615,15.3563391]},"properties":{"id":145678,"name":"San Leonardo","state_code":"NUE","country_code":"PH"}},{"type":"Feature","geometry":{"type":"Point","coordinates":[120.8289034,15.4323687]},"properties":{"id":154747,"name":"Santa Rosa","state_code":"NUE","country_code":"PH"}},{"type":"Feature","geometry":{"type":"Point","coordinates":[120.8434608,15.616142]},"properties":{"id":154748,"name":"Santo Domingo","state_code":"NUE","country_code":"PH"}},{"type":"Feature","geometry":{"type":"Point","coordinates":[120.8542027,15.6191118]},"properties":{"id":145766,"name":"Talavera","state_code":"NUE","country_code":"PH"}},{"type":"Feature","geometry":{"type":"Point","coordinates":[120.7209734,15.7613073]},"properties":{"id":145768,"name":"Talugtug","state_code":"NUE","country_code":"PH"}},{"type":"Feature","geometry":{"type":"Point","coordinates":[120.7155808,15.4461855]},"properties":{"id":145785,"name":"Zaragoza","state_code":"NUE","country_code":"PH"}}]}