{"type":"FeatureCollection","features":[{"type":"Feature","geometry":{"type":"Point","coordinates":[119.73903,16.1092991]},"properties":{"id":81161,"name":"Agno","state_code":"PAN","country_code":"PH"}},{"type":"Feature","geometry":{"type":"Point","coordinates":[120.1296941,15.8351945]},"properties":{"id":145790,"name":"Aguilar","state_code":"PAN","country_code":"PH"}},{"type":"Feature","geometry":{"type":"Point","coordinates":[119.9074236,16.1442336]},"properties":{"id":154766,"name":"Alaminos","state_code":"PAN","country_code":"PH"}},{"type":"Feature","geometry":{"type":"Point","coordinates":[120.4472312,15.8493416]},"properties":{"id":145793,"name":"Alcala","state_code":"PAN","country_code":"PH"}},{"type":"Feature","geometry":{"type":"Point","coordinates":[119.8916813,16.2946966]},"properties":{"id":145799,"name":"Anda","state_code":"PAN","country_code":"PH"}},{"type":"Feature","geometry":{"type":"Point","coordinates":[120.5739601,15.9941267]},"properties":{"id":81320,"name":"Asingan","state_code":"PAN","country_code":"PH"}},{"type":"Feature","geometry":{"type":"Point","coordinates":[120.618592,15.8861969]},"properties":{"id":145818,"name":"Balungao","state_code":"PAN","country_code":"PH"}},{"type":"Feature","geometry":{"type":"Point","coordinates":[119.7745332,16.2159173]},"properties":{"id":145824,"name":"Bani","state_code":"PAN","country_code":"PH"}},{"type":"Feature","geometry":{"type":"Point","coordinates":[120.3568115,15.8772149]},"properties":{"id":145834,"name":"Basista","state_code":"PAN","country_code":"PH"}},{"type":"Feature","geometry":{"type":"Point","coordinates":[120.4311432,15.7994939]},"properties":{"id":145838,"name":"Bautista","state_code":"PAN","country_code":"PH"}},{"type":"Feature","geometry":{"type":"Point","coordinates":[120.3777297,15.791319]},"properties":{"id":145839,"name":"Bayambang","state_code":"PAN","country_code":"PH"}},{"type":"Feature","geometry":{"type":"Point","coordinates":[120.5570496,16.0688147]},"properties":{"id":145844,"name":"Binalonan","state_code":"PAN","country_code":"PH"}},{"type":"Feature","geometry":{"type":"Point","coordinates":[120.2500368,15.9993467]},"properties":{"id":145846,"name":"Binmaley","state_code":"PAN","country_code":"PH"}},{"type":"Feature","geometry":{"type":"Point","coordinates":[119.7144183,16.3524798]},"properties":{"id":145850,"name":"Bolinao","state_code":"PAN","country_code":"PH"}},{"type":"Feature","geometry":{"type":"Point","coordinates":[120.101988,15.9090076]},"properties":{"id":145858,"name":"Bugallon","state_code":"PAN","country_code":"PH"}},{"type":"Feature","geometry":{"type":"Point","coordinates":[119.7583111,16.019383]},"properties":{"id":154767,"name":"Burgos","state_code":"PAN","country_code":"PH"}},{"type":"Feature","geometry":{"type":"Point","coordinates":[120.3177987,15.9926322]},"properties":{"id":145872,"name":"Calasiao","state_code":"PAN","country_code":"PH"}},{"type":"Feature","geometry":{"type":"Point","coordinates":[120.301645,16.0614518]},"properties":{"id":145907,"name":"Dagupan","state_code":"PAN","country_code":"PH"}},{"type":"Feature","geometry":{"type":"Point","coordinates":[119.7237523,15.9722498]},"properties":{"id":145910,"name":"Dasol","state_code":"PAN","country_code":"PH"}},{"type":"Feature","geometry":{"type":"Point","coordinates":[119.8464044,15.8643127]},"properties":{"id":145936,"name":"Infanta","state_code":"PAN","country_code":"PH"}},{"type":"Feature","geometry":{"type":"Point","coordinates":[120.0404259,15.9956439]},"properties":{"id":145940,"name":"Labrador","state_code":"PAN","country_code":"PH"}},{"type":"Feature","geometry":{"type":"Point","coordinates":[120.4990758,16.0462759]},"properties":{"id":145943,"name":"Laoac","state_code":"PAN","country_code":"PH"}},{"type":"Feature","geometry":{"type":"Point","coordinates":[120.1316532,15.9908464]},"properties":{"id":145949,"name":"Lingayen","state_code":"PAN","country_code":"PH"}},{"type":"Feature","geometry":{"type":"Point","coordinates":[119.8143213,16.0269044]},"properties":{"id":154768,"name":"Mabini","state_code":"PAN","country_code":"PH"}},{"type":"Feature","geometry":{"type":"Point","coordinates":[120.376335,15.9093089]},"properties":{"id":145974,"name":"Malasiqui","state_code":"PAN","country_code":"PH"}},{"type":"Feature","geometry":{"type":"Point","coordinates":[120.4554309,16.0430992]},"properties":{"id":145977,"name":"Manaoag","state_code":"PAN","country_code":"PH"}},{"type":"Feature","geometry":{"type":"Point","coordinates":[120.3603293,16.0641376]},"properties":{"id":145978,"name":"Mangaldan","state_code":"PAN","country_code":"PH"}},{"type":"Feature","geometry":{"type":"Point","coordinates":[120.1153871,15.7411861]},"properties":{"id":145979,"name":"Mangatarem","state_code":"PAN","country_code":"PH"}},{"type":"Feature","geometry":{"type":"Point","coordinates":[120.4138889,16.0167273]},"properties":{"id":145980,"name":"Mapandan","state_code":"PAN","country_code":"PH"}},{"type":"Feature","geometry":{"type":"Point","coordinates":[120.7569351,16.0484491]},"properties":{"id":145996,"name":"Natividad","state_code":"PAN","country_code":"PH"}},{"type":"Feature","geometry":{"type":"Point","coordinates":[120.4409082,16.1135101]},"properties":{"id":146029,"name":"Pozorrubio","state_code":"PAN","country_code":"PH"}},{"type":"Feature","geometry":{"type":"Point","coordinates":[120.5966406,15.8733508]},"properties":{"id":146044,"name":"Rosales","state_code":"PAN","country_code":"PH"}},{"type":"Feature","geometry":{"type":"Point","coordinates":[120.2290924,15.9087026]},"properties":{"id":154769,"name":"San Carlos","state_code":"PAN","country_code":"PH"}},{"type":"Feature","geometry":{"type":"Point","coordinates":[120.3450254,16.1542362]},"properties":{"id":146056,"name":"San Fabian","state_code":"PAN","country_code":"PH"}},{"type":"Feature","geometry":{"type":"Point","coordinates":[120.411314,16.0857255]},"properties":{"id":154770,"name":"San Jacinto","state_code":"PAN","country_code":"PH"}},{"type":"Feature","geometry":{"type":"Point","coordinates":[120.5945322,16.1150718]},"properties":{"id":154771,"name":"San Manuel","state_code":"PAN","country_code":"PH"}},{"type":"Feature","geometry":{"type":"Point","coordinates":[120.6112679,16.1220426]},"properties":{"id":154772,"name":"San Nicolas","state_code":"PAN","country_code":"PH"}},{"type":"Feature","geometry":{"type":"Point","coordinates":[120.738798,15.9863768]},"properties":{"id":144855,"name":"San Quintin","state_code":"PAN","country_code":"PH"}},{"type":"Feature","geometry":{"type":"Point","coordinates":[120.3543623,15.9891582]},"properties":{"id":154773,"name":"Santa Barbara","state_code":"PAN","country_code":"PH"}},{"type":"Feature","geometry":{"type":"Point","coordinates":[120.6262527,15.9622731]},"properties":{"id":154774,"name":"Santa Maria","state_code":"PAN","country_code":"PH"}},{"type":"Feature","geometry":{"type":"Point","coordinates":[120.5323286,15.8691882]},"properties":{"id":154775,"name":"Santo Tomas","state_code":"PAN","country_code":"PH"}},{"type":"Feature","geometry":{"type":"Point","coordinates":[120.4641062,16.1676104]},"properties":{"id":146091,"name":"Sison","state_code":"PAN","country_code":"PH"}},{"type":"Feature","geometry":{"type":"Point","coordinates":[119.9668799,16.0972988]},"properties":{"id":146094,"name":"Sual","state_code":"PAN","country_code":"PH"}},{"type":"Feature","geometry":{"type":"Point","coordinates":[120.707344,16.0128922]},"properties":{"id":146111,"name":"Tayug","state_code":"PAN","country_code":"PH"}},{"type":"Feature","geometry":{"type":"Point","coordinates":[120.7381034,15.8925427]},"properties":{"id":146124,"name":"Umingan","state_code":"PAN","country_code":"PH"}},{"type":"Feature","geometry":{"type":"Point","coordinates":[120.292138,15.8239967]},"properties":{"id":146126,"name":"Urbiztondo","state_code":"PAN","country_code":"PH"}},{"type":"Feature","geometry":{"type":"Point","coordinates":[120.4820551,15.9657018]},"properties":{"id":146127,"name":"Urdaneta","state_code":"PAN","country_code":"PH"}},{"type":"Feature","geometry":{"type":"Point","coordinates":[120.4916852,15.9089946]},"properties":{"id":146130,"name":"Villasis","state_code":"PAN","country_code":"PH"}}]}