{"type":"FeatureCollection","features":[{"type":"Feature","geometry":{"type":"Point","coordinates":[124.3384391,6.4730508]},"properties":{"id":81413,"name":"Bagumbayan","state_code":"SUK","country_code":"PH"}},{"type":"Feature","geometry":{"type":"Point","coordinates":[124.269753,6.7207204]},"properties":{"id":154814,"name":"Esperanza","state_code":"SUK","country_code":"PH"}},{"type":"Feature","geometry":{"type":"Point","coordinates":[124.2908029,6.6076203]},"properties":{"id":82773,"name":"Isulan","state_code":"SUK","country_code":"PH"}},{"type":"Feature","geometry":{"type":"Point","coordinates":[123.9833466,6.5093083]},"properties":{"id":82840,"name":"Kalamansig","state_code":"SUK","country_code":"PH"}},{"type":"Feature","geometry":{"type":"Point","coordinates":[124.5463331,6.7751456]},"properties":{"id":82996,"name":"Lambayong","state_code":"SUK","country_code":"PH"}},{"type":"Feature","geometry":{"type":"Point","coordinates":[123.9804391,6.6653843]},"properties":{"id":143985,"name":"Lebak","state_code":"SUK","country_code":"PH"}},{"type":"Feature","geometry":{"type":"Point","coordinates":[124.7748144,6.612675]},"properties":{"id":83251,"name":"Lutayan","state_code":"SUK","country_code":"PH"}},{"type":"Feature","geometry":{"type":"Point","coordinates":[124.0582017,6.2725921]},"properties":{"id":144051,"name":"Palimbang","state_code":"SUK","country_code":"PH"}},{"type":"Feature","geometry":{"type":"Point","coordinates":[124.6489974,6.6969867]},"properties":{"id":144066,"name":"President Quirino","state_code":"SUK","country_code":"PH"}},{"type":"Feature","geometry":{"type":"Point","coordinates":[124.2043715,6.3677152]},"properties":{"id":154815,"name":"Senator Ninoy Aquino","state_code":"SUK","country_code":"PH"}},{"type":"Feature","geometry":{"type":"Point","coordinates":[124.5904072,6.6640377]},"properties":{"id":144091,"name":"Tacurong","state_code":"SUK","country_code":"PH"}}]}