{"type":"FeatureCollection","features":[{"type":"Feature","geometry":{"type":"Point","coordinates":[122.2640991,7.823053]},"properties":{"id":82380,"name":"Baliguian","state_code":"ZAN","country_code":"PH"}},{"type":"Feature","geometry":{"type":"Point","coordinates":[123.268731,8.5770072]},"properties":{"id":82381,"name":"Dapitan","state_code":"ZAN","country_code":"PH"}},{"type":"Feature","geometry":{"type":"Point","coordinates":[123.2753523,8.5085676]},"properties":{"id":82444,"name":"Dipolog","state_code":"ZAN","country_code":"PH"}},{"type":"Feature","geometry":{"type":"Point","coordinates":[122.6606206,7.9803213]},"properties":{"id":154847,"name":"Godod","state_code":"ZAN","country_code":"PH"}},{"type":"Feature","geometry":{"type":"Point","coordinates":[122.1898821,7.9270859]},"properties":{"id":82660,"name":"Gutalac","state_code":"ZAN","country_code":"PH"}},{"type":"Feature","geometry":{"type":"Point","coordinates":[122.9029635,8.4006674]},"properties":{"id":154848,"name":"Jose Dalman","state_code":"ZAN","country_code":"PH"}},{"type":"Feature","geometry":{"type":"Point","coordinates":[122.3604921,7.909495]},"properties":{"id":82844,"name":"Kalawit","state_code":"ZAN","country_code":"PH"}},{"type":"Feature","geometry":{"type":"Point","coordinates":[123.139985,8.4346317]},"properties":{"id":82880,"name":"Katipunan","state_code":"ZAN","country_code":"PH"}},{"type":"Feature","geometry":{"type":"Point","coordinates":[123.4933224,8.4778413]},"properties":{"id":154849,"name":"La Libertad","state_code":"ZAN","country_code":"PH"}},{"type":"Feature","geometry":{"type":"Point","coordinates":[122.3617582,8.0571482]},"properties":{"id":82958,"name":"Labason","state_code":"ZAN","country_code":"PH"}},{"type":"Feature","geometry":{"type":"Point","coordinates":[122.8699739,8.0575415]},"properties":{"id":154850,"name":"Leon B. Postigo","state_code":"ZAN","country_code":"PH"}},{"type":"Feature","geometry":{"type":"Point","coordinates":[122.5980194,8.0975821]},"properties":{"id":83113,"name":"Liloy","state_code":"ZAN","country_code":"PH"}},{"type":"Feature","geometry":{"type":"Point","coordinates":[123.0311211,8.4186459]},"properties":{"id":83545,"name":"Manukan","state_code":"ZAN","country_code":"PH"}},{"type":"Feature","geometry":{"type":"Point","coordinates":[123.4247835,8.389283]},"properties":{"id":154851,"name":"Mutia","state_code":"ZAN","country_code":"PH"}},{"type":"Feature","geometry":{"type":"Point","coordinates":[123.3781345,8.4207789]},"properties":{"id":154852,"name":"Piñan","state_code":"ZAN","country_code":"PH"}},{"type":"Feature","geometry":{"type":"Point","coordinates":[123.3198983,8.4742664]},"properties":{"id":84142,"name":"Polanco","state_code":"ZAN","country_code":"PH"}},{"type":"Feature","geometry":{"type":"Point","coordinates":[123.1327445,8.44009]},"properties":{"id":154853,"name":"President Manuel A. Roxas","state_code":"ZAN","country_code":"PH"}},{"type":"Feature","geometry":{"type":"Point","coordinates":[123.4920778,8.5717631]},"properties":{"id":154854,"name":"Rizal","state_code":"ZAN","country_code":"PH"}},{"type":"Feature","geometry":{"type":"Point","coordinates":[122.7170236,8.0847954]},"properties":{"id":84415,"name":"Salug","state_code":"ZAN","country_code":"PH"}},{"type":"Feature","geometry":{"type":"Point","coordinates":[123.0339344,8.2811981]},"properties":{"id":154855,"name":"Sergio Osmeña Sr.","state_code":"ZAN","country_code":"PH"}},{"type":"Feature","geometry":{"type":"Point","coordinates":[122.9355363,8.1423982]},"properties":{"id":84767,"name":"Siayan","state_code":"ZAN","country_code":"PH"}},{"type":"Feature","geometry":{"type":"Point","coordinates":[121.8998174,7.322053]},"properties":{"id":84773,"name":"Sibuco","state_code":"ZAN","country_code":"PH"}},{"type":"Feature","geometry":{"type":"Point","coordinates":[123.4034116,8.6175374]},"properties":{"id":154856,"name":"Sibutad","state_code":"ZAN","country_code":"PH"}},{"type":"Feature","geometry":{"type":"Point","coordinates":[122.8600911,8.2523267]},"properties":{"id":84813,"name":"Sindangan","state_code":"ZAN","country_code":"PH"}},{"type":"Feature","geometry":{"type":"Point","coordinates":[122.0350865,7.7000628]},"properties":{"id":84823,"name":"Siocon","state_code":"ZAN","country_code":"PH"}},{"type":"Feature","geometry":{"type":"Point","coordinates":[122.0068482,7.5420879]},"properties":{"id":154857,"name":"Sirawai","state_code":"ZAN","country_code":"PH"}},{"type":"Feature","geometry":{"type":"Point","coordinates":[122.5957448,7.9736309]},"properties":{"id":85025,"name":"Tampilisan","state_code":"ZAN","country_code":"PH"}}]}