{"type":"FeatureCollection","features":[{"type":"Feature","geometry":{"type":"Point","coordinates":[123.4878583,7.9313938]},"properties":{"id":154858,"name":"Aurora","state_code":"ZAS","country_code":"PH"}},{"type":"Feature","geometry":{"type":"Point","coordinates":[122.8843812,7.9105102]},"properties":{"id":81666,"name":"Bayog","state_code":"ZAS","country_code":"PH"}},{"type":"Feature","geometry":{"type":"Point","coordinates":[123.2471086,7.5221493]},"properties":{"id":82430,"name":"Dimataling","state_code":"ZAS","country_code":"PH"}},{"type":"Feature","geometry":{"type":"Point","coordinates":[123.2637516,7.633918]},"properties":{"id":154859,"name":"Dinas","state_code":"ZAS","country_code":"PH"}},{"type":"Feature","geometry":{"type":"Point","coordinates":[123.3137378,7.7785156]},"properties":{"id":82485,"name":"Dumalinao","state_code":"ZAS","country_code":"PH"}},{"type":"Feature","geometry":{"type":"Point","coordinates":[123.2059098,8.1643241]},"properties":{"id":82492,"name":"Dumingag","state_code":"ZAS","country_code":"PH"}},{"type":"Feature","geometry":{"type":"Point","coordinates":[123.2453541,7.7467921]},"properties":{"id":82644,"name":"Guipos","state_code":"ZAS","country_code":"PH"}},{"type":"Feature","geometry":{"type":"Point","coordinates":[123.4928582,8.1899911]},"properties":{"id":82813,"name":"Josefina","state_code":"ZAS","country_code":"PH"}},{"type":"Feature","geometry":{"type":"Point","coordinates":[123.0546775,7.7703836]},"properties":{"id":82933,"name":"Kumalarang","state_code":"ZAS","country_code":"PH"}},{"type":"Feature","geometry":{"type":"Point","coordinates":[123.2455996,7.8945334]},"properties":{"id":82956,"name":"Labangan","state_code":"ZAS","country_code":"PH"}},{"type":"Feature","geometry":{"type":"Point","coordinates":[123.0944212,7.8944784]},"properties":{"id":154860,"name":"Lakewood","state_code":"ZAS","country_code":"PH"}},{"type":"Feature","geometry":{"type":"Point","coordinates":[123.1076391,7.6978749]},"properties":{"id":83039,"name":"Lapuyan","state_code":"ZAS","country_code":"PH"}},{"type":"Feature","geometry":{"type":"Point","coordinates":[123.3528144,8.1318625]},"properties":{"id":83360,"name":"Mahayag","state_code":"ZAS","country_code":"PH"}},{"type":"Feature","geometry":{"type":"Point","coordinates":[123.091975,7.5744498]},"properties":{"id":83573,"name":"Margosatubig","state_code":"ZAS","country_code":"PH"}},{"type":"Feature","geometry":{"type":"Point","coordinates":[123.1060819,8.0449172]},"properties":{"id":83669,"name":"Midsalip","state_code":"ZAS","country_code":"PH"}},{"type":"Feature","geometry":{"type":"Point","coordinates":[123.3998094,8.133817]},"properties":{"id":83695,"name":"Molave","state_code":"ZAS","country_code":"PH"}},{"type":"Feature","geometry":{"type":"Point","coordinates":[123.1647906,7.8727055]},"properties":{"id":83887,"name":"Pagadian","state_code":"ZAS","country_code":"PH"}},{"type":"Feature","geometry":{"type":"Point","coordinates":[123.2537229,7.4432259]},"properties":{"id":154861,"name":"Pitogo","state_code":"ZAS","country_code":"PH"}},{"type":"Feature","geometry":{"type":"Point","coordinates":[123.3840944,8.0181746]},"properties":{"id":84324,"name":"Ramon Magsaysay","state_code":"ZAS","country_code":"PH"}},{"type":"Feature","geometry":{"type":"Point","coordinates":[123.1883159,7.6860581]},"properties":{"id":154862,"name":"San Miguel","state_code":"ZAS","country_code":"PH"}},{"type":"Feature","geometry":{"type":"Point","coordinates":[123.3398942,7.6669887]},"properties":{"id":154863,"name":"San Pablo","state_code":"ZAS","country_code":"PH"}},{"type":"Feature","geometry":{"type":"Point","coordinates":[123.2861616,8.0354225]},"properties":{"id":154864,"name":"Sominot","state_code":"ZAS","country_code":"PH"}},{"type":"Feature","geometry":{"type":"Point","coordinates":[123.3788967,7.4165107]},"properties":{"id":84896,"name":"Tabina","state_code":"ZAS","country_code":"PH"}},{"type":"Feature","geometry":{"type":"Point","coordinates":[123.496967,8.0771523]},"properties":{"id":85014,"name":"Tambulig","state_code":"ZAS","country_code":"PH"}},{"type":"Feature","geometry":{"type":"Point","coordinates":[123.1765584,7.8458969]},"properties":{"id":85103,"name":"Tigbao","state_code":"ZAS","country_code":"PH"}},{"type":"Feature","geometry":{"type":"Point","coordinates":[123.356281,7.9094643]},"properties":{"id":154865,"name":"Tukuran","state_code":"ZAS","country_code":"PH"}},{"type":"Feature","geometry":{"type":"Point","coordinates":[123.1017583,7.5142911]},"properties":{"id":154866,"name":"Vincenzo A. Sagun","state_code":"ZAS","country_code":"PH"}},{"type":"Feature","geometry":{"type":"Point","coordinates":[121.8384294,7.1612491]},"properties":{"id":85324,"name":"Zamboanga","state_code":"ZAS","country_code":"PH"}}]}