{"type":"FeatureCollection","features":[{"type":"Feature","geometry":{"type":"Point","coordinates":[71.74344,30.67791]},"properties":{"id":85332,"name":"Ahmadpur Sial","state_code":"PB","country_code":"PK"}},{"type":"Feature","geometry":{"type":"Point","coordinates":[71.25771,29.14269]},"properties":{"id":85331,"name":"Ahmedpur East","state_code":"PB","country_code":"PK"}},{"type":"Feature","geometry":{"type":"Point","coordinates":[70.91106,29.38242]},"properties":{"id":85335,"name":"Alipur Chatha","state_code":"PB","country_code":"PK"}},{"type":"Feature","geometry":{"type":"Point","coordinates":[73.06574,30.29058]},"properties":{"id":85339,"name":"Arifwala","state_code":"PB","country_code":"PK"}},{"type":"Feature","geometry":{"type":"Point","coordinates":[72.35977,33.76671]},"properties":{"id":85341,"name":"Attock Tehsil","state_code":"PB","country_code":"PK"}},{"type":"Feature","geometry":{"type":"Point","coordinates":[74.6641,31.99042]},"properties":{"id":85343,"name":"Baddomalhi","state_code":"PB","country_code":"PK"}},{"type":"Feature","geometry":{"type":"Point","coordinates":[73.25272,29.99835]},"properties":{"id":85347,"name":"Bahawalnagar","state_code":"PB","country_code":"PK"}},{"type":"Feature","geometry":{"type":"Point","coordinates":[71.6752,29.39779]},"properties":{"id":85348,"name":"Bahawalpur","state_code":"PB","country_code":"PK"}},{"type":"Feature","geometry":{"type":"Point","coordinates":[70.83796,30.73586]},"properties":{"id":85349,"name":"Bakhri Ahmad Khan","state_code":"PB","country_code":"PK"}},{"type":"Feature","geometry":{"type":"Point","coordinates":[73.83912,30.57759]},"properties":{"id":85354,"name":"Basirpur","state_code":"PB","country_code":"PK"}},{"type":"Feature","geometry":{"type":"Point","coordinates":[70.86853,30.78769]},"properties":{"id":85355,"name":"Basti Dosa","state_code":"PB","country_code":"PK"}},{"type":"Feature","geometry":{"type":"Point","coordinates":[74.26794,32.43816]},"properties":{"id":85359,"name":"Begowala","state_code":"PB","country_code":"PK"}},{"type":"Feature","geometry":{"type":"Point","coordinates":[71.06471,31.62685]},"properties":{"id":85363,"name":"Bhakkar","state_code":"PB","country_code":"PK"}},{"type":"Feature","geometry":{"type":"Point","coordinates":[72.89809,32.26576]},"properties":{"id":85364,"name":"Bhalwal","state_code":"PB","country_code":"PK"}},{"type":"Feature","geometry":{"type":"Point","coordinates":[72.64917,31.56884]},"properties":{"id":85366,"name":"Bhawana","state_code":"PB","country_code":"PK"}},{"type":"Feature","geometry":{"type":"Point","coordinates":[72.90865,32.48206]},"properties":{"id":85367,"name":"Bhera","state_code":"PB","country_code":"PK"}},{"type":"Feature","geometry":{"type":"Point","coordinates":[74.3635,32.42968]},"properties":{"id":85371,"name":"Bhopalwala","state_code":"PB","country_code":"PK"}},{"type":"Feature","geometry":{"type":"Point","coordinates":[72.65,30.16667]},"properties":{"id":85376,"name":"Burewala","state_code":"PB","country_code":"PK"}},{"type":"Feature","geometry":{"type":"Point","coordinates":[73.02834,30.75202]},"properties":{"id":85378,"name":"Chak Azam Saffo","state_code":"PB","country_code":"PK"}},{"type":"Feature","geometry":{"type":"Point","coordinates":[73.18317,31.56808]},"properties":{"id":85380,"name":"Chak Jhumra","state_code":"PB","country_code":"PK"}},{"type":"Feature","geometry":{"type":"Point","coordinates":[73.04522,30.42919]},"properties":{"id":85381,"name":"Chak One Hundred Twenty Nine Left","state_code":"PB","country_code":"PK"}},{"type":"Feature","geometry":{"type":"Point","coordinates":[72.69737,30.42388]},"properties":{"id":85382,"name":"Chak Thirty-one -Eleven Left","state_code":"PB","country_code":"PK"}},{"type":"Feature","geometry":{"type":"Point","coordinates":[71.2048,31.17772]},"properties":{"id":85383,"name":"Chak Two Hundred Forty-Nine TDA","state_code":"PB","country_code":"PK"}},{"type":"Feature","geometry":{"type":"Point","coordinates":[72.85394,32.93286]},"properties":{"id":85384,"name":"Chakwal","state_code":"PB","country_code":"PK"}},{"type":"Feature","geometry":{"type":"Point","coordinates":[74.70507,32.34434]},"properties":{"id":85388,"name":"Chawinda","state_code":"PB","country_code":"PK"}},{"type":"Feature","geometry":{"type":"Point","coordinates":[72.69155,30.5301]},"properties":{"id":85392,"name":"Chichawatni","state_code":"PB","country_code":"PK"}},{"type":"Feature","geometry":{"type":"Point","coordinates":[72.97836,31.72091]},"properties":{"id":85393,"name":"Chiniot","state_code":"PB","country_code":"PK"}},{"type":"Feature","geometry":{"type":"Point","coordinates":[72.85772,29.79713]},"properties":{"id":85394,"name":"Chishtian","state_code":"PB","country_code":"PK"}},{"type":"Feature","geometry":{"type":"Point","coordinates":[72.98625,32.71962]},"properties":{"id":85396,"name":"Choa Saidanshah","state_code":"PB","country_code":"PK"}},{"type":"Feature","geometry":{"type":"Point","coordinates":[73.8,31.75]},"properties":{"id":143765,"name":"Chuhar Kana","state_code":"PB","country_code":"PK"}},{"type":"Feature","geometry":{"type":"Point","coordinates":[73.97908,30.96621]},"properties":{"id":85400,"name":"Chunian","state_code":"PB","country_code":"PK"}},{"type":"Feature","geometry":{"type":"Point","coordinates":[70.93722,30.57053]},"properties":{"id":85404,"name":"Daira Din Panah","state_code":"PB","country_code":"PK"}},{"type":"Feature","geometry":{"type":"Point","coordinates":[70.37614,29.55769]},"properties":{"id":85405,"name":"Dajal","state_code":"PB","country_code":"PK"}},{"type":"Feature","geometry":{"type":"Point","coordinates":[72.975,32.64167]},"properties":{"id":85407,"name":"Dandot RS","state_code":"PB","country_code":"PK"}},{"type":"Feature","geometry":{"type":"Point","coordinates":[71.10197,31.78447]},"properties":{"id":85409,"name":"Darya Khan","state_code":"PB","country_code":"PK"}},{"type":"Feature","geometry":{"type":"Point","coordinates":[74.35039,32.32422]},"properties":{"id":85411,"name":"Daska","state_code":"PB","country_code":"PK"}},{"type":"Feature","geometry":{"type":"Point","coordinates":[71.57013,32.87498]},"properties":{"id":143767,"name":"Daud Khel","state_code":"PB","country_code":"PK"}},{"type":"Feature","geometry":{"type":"Point","coordinates":[73.14099,33.19282]},"properties":{"id":85414,"name":"Daultala","state_code":"PB","country_code":"PK"}},{"type":"Feature","geometry":{"type":"Point","coordinates":[70.64029,30.04587]},"properties":{"id":85418,"name":"Dera Ghazi Khan","state_code":"PB","country_code":"PK"}},{"type":"Feature","geometry":{"type":"Point","coordinates":[71.75213,29.57991]},"properties":{"id":85421,"name":"Dhanot","state_code":"PB","country_code":"PK"}},{"type":"Feature","geometry":{"type":"Point","coordinates":[74.13706,32.40613]},"properties":{"id":85422,"name":"Dhaunkal","state_code":"PB","country_code":"PK"}},{"type":"Feature","geometry":{"type":"Point","coordinates":[72.52357,32.84452]},"properties":{"id":143766,"name":"Dhok Awan","state_code":"PB","country_code":"PK"}},{"type":"Feature","geometry":{"type":"Point","coordinates":[72.99621,31.21735]},"properties":{"id":85425,"name":"Dijkot","state_code":"PB","country_code":"PK"}},{"type":"Feature","geometry":{"type":"Point","coordinates":[73.26557,29.76584]},"properties":{"id":85426,"name":"Dinan Bashnoian Wala","state_code":"PB","country_code":"PK"}},{"type":"Feature","geometry":{"type":"Point","coordinates":[73.72039,32.64101]},"properties":{"id":85427,"name":"Dinga","state_code":"PB","country_code":"PK"}},{"type":"Feature","geometry":{"type":"Point","coordinates":[73.65306,30.66984]},"properties":{"id":85428,"name":"Dipalpur","state_code":"PB","country_code":"PK"}},{"type":"Feature","geometry":{"type":"Point","coordinates":[71.43639,31.83439]},"properties":{"id":85433,"name":"Dullewala","state_code":"PB","country_code":"PK"}},{"type":"Feature","geometry":{"type":"Point","coordinates":[73.24294,29.74975]},"properties":{"id":85434,"name":"Dunga Bunga","state_code":"PB","country_code":"PK"}},{"type":"Feature","geometry":{"type":"Point","coordinates":[71.74344,29.80275]},"properties":{"id":85435,"name":"Dunyapur","state_code":"PB","country_code":"PK"}},{"type":"Feature","geometry":{"type":"Point","coordinates":[74.25996,32.04237]},"properties":{"id":85436,"name":"Eminabad","state_code":"PB","country_code":"PK"}},{"type":"Feature","geometry":{"type":"Point","coordinates":[73.08969,31.41554]},"properties":{"id":85437,"name":"Faisalabad","state_code":"PB","country_code":"PK"}},{"type":"Feature","geometry":{"type":"Point","coordinates":[73.03489,29.46799]},"properties":{"id":85438,"name":"Faqirwali","state_code":"PB","country_code":"PK"}},{"type":"Feature","geometry":{"type":"Point","coordinates":[72.41362,31.88642]},"properties":{"id":85439,"name":"Faruka","state_code":"PB","country_code":"PK"}},{"type":"Feature","geometry":{"type":"Point","coordinates":[75.06583,32.17629]},"properties":{"id":85440,"name":"Fazilpur","state_code":"PB","country_code":"PK"}},{"type":"Feature","geometry":{"type":"Point","coordinates":[70.43333333,29.3]},"properties":{"id":143768,"name":"Ferozewala","state_code":"PB","country_code":"PK"}},{"type":"Feature","geometry":{"type":"Point","coordinates":[72.85525,29.19344]},"properties":{"id":85441,"name":"Fort Abbas","state_code":"PB","country_code":"PK"}},{"type":"Feature","geometry":{"type":"Point","coordinates":[71.90491,30.83383]},"properties":{"id":85444,"name":"Garh Maharaja","state_code":"PB","country_code":"PK"}},{"type":"Feature","geometry":{"type":"Point","coordinates":[72.68323,31.14926]},"properties":{"id":85451,"name":"Gojra","state_code":"PB","country_code":"PK"}},{"type":"Feature","geometry":{"type":"Point","coordinates":[73.30433,33.25411]},"properties":{"id":85455,"name":"Gujar Khan","state_code":"PB","country_code":"PK"}},{"type":"Feature","geometry":{"type":"Point","coordinates":[74.18705,32.15567]},"properties":{"id":85456,"name":"Gujranwala","state_code":"PB","country_code":"PK"}},{"type":"Feature","geometry":{"type":"Point","coordinates":[74.13333,32.45]},"properties":{"id":143769,"name":"Gujranwala Division","state_code":"PB","country_code":"PK"}},{"type":"Feature","geometry":{"type":"Point","coordinates":[74.07542,32.5742]},"properties":{"id":85457,"name":"Gujrat","state_code":"PB","country_code":"PK"}},{"type":"Feature","geometry":{"type":"Point","coordinates":[74.56898,32.64043]},"properties":{"id":85460,"name":"Hadali","state_code":"PB","country_code":"PK"}},{"type":"Feature","geometry":{"type":"Point","coordinates":[73.68802,32.07095]},"properties":{"id":85461,"name":"Hafizabad","state_code":"PB","country_code":"PK"}},{"type":"Feature","geometry":{"type":"Point","coordinates":[71.55429,32.27871]},"properties":{"id":85466,"name":"Harnoli","state_code":"PB","country_code":"PK"}},{"type":"Feature","geometry":{"type":"Point","coordinates":[73.13802,29.61206]},"properties":{"id":85467,"name":"Harunabad","state_code":"PB","country_code":"PK"}},{"type":"Feature","geometry":{"type":"Point","coordinates":[72.68902778,33.81948611]},"properties":{"id":143770,"name":"Hasan Abdal","state_code":"PB","country_code":"PK"}},{"type":"Feature","geometry":{"type":"Point","coordinates":[72.54566,29.69221]},"properties":{"id":85468,"name":"Hasilpur","state_code":"PB","country_code":"PK"}},{"type":"Feature","geometry":{"type":"Point","coordinates":[73.69371,30.45097]},"properties":{"id":85469,"name":"Haveli Lakha","state_code":"PB","country_code":"PK"}},{"type":"Feature","geometry":{"type":"Point","coordinates":[72.49179,33.9099]},"properties":{"id":85471,"name":"Hazro","state_code":"PB","country_code":"PK"}},{"type":"Feature","geometry":{"type":"Point","coordinates":[73.82327,30.74168]},"properties":{"id":85473,"name":"Hujra Shah Muqeem","state_code":"PB","country_code":"PK"}},{"type":"Feature","geometry":{"type":"Point","coordinates":[72.2774,31.80541]},"properties":{"id":85478,"name":"Jahanian Shah","state_code":"PB","country_code":"PK"}},{"type":"Feature","geometry":{"type":"Point","coordinates":[74.20561,32.64118]},"properties":{"id":85479,"name":"Jalalpur Jattan","state_code":"PB","country_code":"PK"}},{"type":"Feature","geometry":{"type":"Point","coordinates":[71.22202,29.5051]},"properties":{"id":85480,"name":"Jalalpur Pirwala","state_code":"PB","country_code":"PK"}},{"type":"Feature","geometry":{"type":"Point","coordinates":[70.59518,29.64235]},"properties":{"id":85481,"name":"Jampur","state_code":"PB","country_code":"PK"}},{"type":"Feature","geometry":{"type":"Point","coordinates":[72.01877,33.43304]},"properties":{"id":85483,"name":"Jand","state_code":"PB","country_code":"PK"}},{"type":"Feature","geometry":{"type":"Point","coordinates":[73.91815,31.82098]},"properties":{"id":85484,"name":"Jandiala Sher Khan","state_code":"PB","country_code":"PK"}},{"type":"Feature","geometry":{"type":"Point","coordinates":[73.41868,31.3332]},"properties":{"id":85485,"name":"Jaranwala","state_code":"PB","country_code":"PK"}},{"type":"Feature","geometry":{"type":"Point","coordinates":[70.84474,29.51827]},"properties":{"id":85487,"name":"Jatoi Shimali","state_code":"PB","country_code":"PK"}},{"type":"Feature","geometry":{"type":"Point","coordinates":[72.28182,32.29016]},"properties":{"id":85488,"name":"Jauharabad","state_code":"PB","country_code":"PK"}},{"type":"Feature","geometry":{"type":"Point","coordinates":[72.32594,31.30568]},"properties":{"id":85490,"name":"Jhang","state_code":"PB","country_code":"PK"}},{"type":"Feature","geometry":{"type":"Point","coordinates":[72.31687,31.26981]},"properties":{"id":85491,"name":"Jhang Sadar","state_code":"PB","country_code":"PK"}},{"type":"Feature","geometry":{"type":"Point","coordinates":[72.62275,32.36192]},"properties":{"id":85492,"name":"Jhawarian","state_code":"PB","country_code":"PK"}},{"type":"Feature","geometry":{"type":"Point","coordinates":[73.73102,32.93448]},"properties":{"id":85493,"name":"Jhelum","state_code":"PB","country_code":"PK"}},{"type":"Feature","geometry":{"type":"Point","coordinates":[71.86269,30.40472]},"properties":{"id":85499,"name":"Kabirwala","state_code":"PB","country_code":"PK"}},{"type":"Feature","geometry":{"type":"Point","coordinates":[74.36899,31.36709]},"properties":{"id":85501,"name":"Kahna Nau","state_code":"PB","country_code":"PK"}},{"type":"Feature","geometry":{"type":"Point","coordinates":[73.38736,33.59183]},"properties":{"id":85503,"name":"Kahuta","state_code":"PB","country_code":"PK"}},{"type":"Feature","geometry":{"type":"Point","coordinates":[71.54638,32.96164]},"properties":{"id":85505,"name":"Kalabagh","state_code":"PB","country_code":"PK"}},{"type":"Feature","geometry":{"type":"Point","coordinates":[74.64858,32.20081]},"properties":{"id":85506,"name":"Kalaswala","state_code":"PB","country_code":"PK"}},{"type":"Feature","geometry":{"type":"Point","coordinates":[73.59999,31.97597]},"properties":{"id":85508,"name":"Kaleke Mandi","state_code":"PB","country_code":"PK"}},{"type":"Feature","geometry":{"type":"Point","coordinates":[72.69793,32.77998]},"properties":{"id":85509,"name":"Kallar Kahar","state_code":"PB","country_code":"PK"}},{"type":"Feature","geometry":{"type":"Point","coordinates":[71.26631,32.15512]},"properties":{"id":85510,"name":"Kalur Kot","state_code":"PB","country_code":"PK"}},{"type":"Feature","geometry":{"type":"Point","coordinates":[72.64607,30.72708]},"properties":{"id":85512,"name":"Kamalia","state_code":"PB","country_code":"PK"}},{"type":"Feature","geometry":{"type":"Point","coordinates":[71.36192,32.84318]},"properties":{"id":85513,"name":"Kamar Mushani","state_code":"PB","country_code":"PK"}},{"type":"Feature","geometry":{"type":"Point","coordinates":[74.22304,31.97526]},"properties":{"id":85515,"name":"Kamoke","state_code":"PB","country_code":"PK"}},{"type":"Feature","geometry":{"type":"Point","coordinates":[73.51229,33.74698]},"properties":{"id":85516,"name":"Kamra","state_code":"PB","country_code":"PK"}},{"type":"Feature","geometry":{"type":"Point","coordinates":[74.12286,30.76468]},"properties":{"id":85520,"name":"Kanganpur","state_code":"PB","country_code":"PK"}},{"type":"Feature","geometry":{"type":"Point","coordinates":[70.95153,31.2246]},"properties":{"id":85525,"name":"Karor","state_code":"PB","country_code":"PK"}},{"type":"Feature","geometry":{"type":"Point","coordinates":[74.45025,31.11866]},"properties":{"id":85527,"name":"Kasur","state_code":"PB","country_code":"PK"}},{"type":"Feature","geometry":{"type":"Point","coordinates":[72.5,32.26]},"properties":{"id":85528,"name":"Keshupur","state_code":"PB","country_code":"PK"}},{"type":"Feature","geometry":{"type":"Point","coordinates":[72.23804,29.58139]},"properties":{"id":85535,"name":"Khairpur Tamiwali","state_code":"PB","country_code":"PK"}},{"type":"Feature","geometry":{"type":"Point","coordinates":[72.73478,32.74255]},"properties":{"id":85537,"name":"Khandowa","state_code":"PB","country_code":"PK"}},{"type":"Feature","geometry":{"type":"Point","coordinates":[71.93212,30.30173]},"properties":{"id":85538,"name":"Khanewal","state_code":"PB","country_code":"PK"}},{"type":"Feature","geometry":{"type":"Point","coordinates":[73.62213,31.83294]},"properties":{"id":85539,"name":"Khanga Dogran","state_code":"PB","country_code":"PK"}},{"type":"Feature","geometry":{"type":"Point","coordinates":[71.16067,29.91446]},"properties":{"id":85540,"name":"Khangarh","state_code":"PB","country_code":"PK"}},{"type":"Feature","geometry":{"type":"Point","coordinates":[70.65694,28.64739]},"properties":{"id":85541,"name":"Khanpur","state_code":"PB","country_code":"PK"}},{"type":"Feature","geometry":{"type":"Point","coordinates":[73.88697,32.81612]},"properties":{"id":85544,"name":"Kharian","state_code":"PB","country_code":"PK"}},{"type":"Feature","geometry":{"type":"Point","coordinates":[73.01059,32.6491]},"properties":{"id":85545,"name":"Khewra","state_code":"PB","country_code":"PK"}},{"type":"Feature","geometry":{"type":"Point","coordinates":[73.26763,31.49936]},"properties":{"id":85546,"name":"Khurrianwala","state_code":"PB","country_code":"PK"}},{"type":"Feature","geometry":{"type":"Point","coordinates":[72.3525,32.29667]},"properties":{"id":85547,"name":"Khushab","state_code":"PB","country_code":"PK"}},{"type":"Feature","geometry":{"type":"Point","coordinates":[71.91673,29.62382]},"properties":{"id":143771,"name":"Kohror Pakka","state_code":"PB","country_code":"PK"}},{"type":"Feature","geometry":{"type":"Point","coordinates":[70.96699,30.46907]},"properties":{"id":85553,"name":"Kot Addu Tehsil","state_code":"PB","country_code":"PK"}},{"type":"Feature","geometry":{"type":"Point","coordinates":[74.54694,32.33311]},"properties":{"id":85555,"name":"Kot Ghulam Muhammad","state_code":"PB","country_code":"PK"}},{"type":"Feature","geometry":{"type":"Point","coordinates":[73.02987,32.18843]},"properties":{"id":85557,"name":"Kot Mumin","state_code":"PB","country_code":"PK"}},{"type":"Feature","geometry":{"type":"Point","coordinates":[74.10126,31.17068]},"properties":{"id":85558,"name":"Kot Radha Kishan","state_code":"PB","country_code":"PK"}},{"type":"Feature","geometry":{"type":"Point","coordinates":[74.62855,32.41208]},"properties":{"id":85559,"name":"Kot Rajkour","state_code":"PB","country_code":"PK"}},{"type":"Feature","geometry":{"type":"Point","coordinates":[70.46837,28.55207]},"properties":{"id":85560,"name":"Kot Samaba","state_code":"PB","country_code":"PK"}},{"type":"Feature","geometry":{"type":"Point","coordinates":[70.93125,30.7737]},"properties":{"id":85561,"name":"Kot Sultan","state_code":"PB","country_code":"PK"}},{"type":"Feature","geometry":{"type":"Point","coordinates":[74.49466,32.58893]},"properties":{"id":85564,"name":"Kotli Loharan","state_code":"PB","country_code":"PK"}},{"type":"Feature","geometry":{"type":"Point","coordinates":[71.47892,32.45775]},"properties":{"id":85567,"name":"Kundian","state_code":"PB","country_code":"PK"}},{"type":"Feature","geometry":{"type":"Point","coordinates":[73.97486,32.52982]},"properties":{"id":85568,"name":"Kunjah","state_code":"PB","country_code":"PK"}},{"type":"Feature","geometry":{"type":"Point","coordinates":[74.11564,32.15692]},"properties":{"id":85571,"name":"Ladhewala Waraich","state_code":"PB","country_code":"PK"}},{"type":"Feature","geometry":{"type":"Point","coordinates":[74.35071,31.558]},"properties":{"id":85572,"name":"Lahore","state_code":"PB","country_code":"PK"}},{"type":"Feature","geometry":{"type":"Point","coordinates":[73.95746,32.70138]},"properties":{"id":85575,"name":"Lala Musa","state_code":"PB","country_code":"PK"}},{"type":"Feature","geometry":{"type":"Point","coordinates":[72.80116,31.82462]},"properties":{"id":85576,"name":"Lalian","state_code":"PB","country_code":"PK"}},{"type":"Feature","geometry":{"type":"Point","coordinates":[70.93904,30.96128]},"properties":{"id":85580,"name":"Layyah","state_code":"PB","country_code":"PK"}},{"type":"Feature","geometry":{"type":"Point","coordinates":[70.943,30.968]},"properties":{"id":85581,"name":"Layyah District","state_code":"PB","country_code":"PK"}},{"type":"Feature","geometry":{"type":"Point","coordinates":[72.9512,32.20393]},"properties":{"id":85582,"name":"Liliani","state_code":"PB","country_code":"PK"}},{"type":"Feature","geometry":{"type":"Point","coordinates":[71.63244,29.5339]},"properties":{"id":85583,"name":"Lodhran","state_code":"PB","country_code":"PK"}},{"type":"Feature","geometry":{"type":"Point","coordinates":[72.17398,29.80123]},"properties":{"id":85588,"name":"Mailsi","state_code":"PB","country_code":"PK"}},{"type":"Feature","geometry":{"type":"Point","coordinates":[73.21274,32.55449]},"properties":{"id":85589,"name":"Malakwal","state_code":"PB","country_code":"PK"}},{"type":"Feature","geometry":{"type":"Point","coordinates":[72.79943,30.83044]},"properties":{"id":85592,"name":"Mamu Kanjan","state_code":"PB","country_code":"PK"}},{"type":"Feature","geometry":{"type":"Point","coordinates":[73.68927,31.58803]},"properties":{"id":85593,"name":"Mananwala","state_code":"PB","country_code":"PK"}},{"type":"Feature","geometry":{"type":"Point","coordinates":[73.49123,32.58704]},"properties":{"id":85594,"name":"Mandi Bahauddin","state_code":"PB","country_code":"PK"}},{"type":"Feature","geometry":{"type":"Point","coordinates":[73.5,32.58333333]},"properties":{"id":143772,"name":"Mandi Bahauddin District","state_code":"PB","country_code":"PK"}},{"type":"Feature","geometry":{"type":"Point","coordinates":[72.38167,31.89306]},"properties":{"id":85595,"name":"Mangla","state_code":"PB","country_code":"PK"}},{"type":"Feature","geometry":{"type":"Point","coordinates":[71.44047,31.38771]},"properties":{"id":85596,"name":"Mankera","state_code":"PB","country_code":"PK"}},{"type":"Feature","geometry":{"type":"Point","coordinates":[73.82306,32.78518]},"properties":{"id":85604,"name":"Mehmand Chak","state_code":"PB","country_code":"PK"}},{"type":"Feature","geometry":{"type":"Point","coordinates":[72.35679,30.44067]},"properties":{"id":85606,"name":"Mian Channun","state_code":"PB","country_code":"PK"}},{"type":"Feature","geometry":{"type":"Point","coordinates":[73.94857,31.2024]},"properties":{"id":85607,"name":"Mianke Mor","state_code":"PB","country_code":"PK"}},{"type":"Feature","geometry":{"type":"Point","coordinates":[71.52847,32.57756]},"properties":{"id":85608,"name":"Mianwali","state_code":"PB","country_code":"PK"}},{"type":"Feature","geometry":{"type":"Point","coordinates":[73.56858,30.16356]},"properties":{"id":85609,"name":"Minchinabad","state_code":"PB","country_code":"PK"}},{"type":"Feature","geometry":{"type":"Point","coordinates":[72.10615,32.2454]},"properties":{"id":85619,"name":"Mitha Tiwana","state_code":"PB","country_code":"PK"}},{"type":"Feature","geometry":{"type":"Point","coordinates":[70.84911,30.80563]},"properties":{"id":85622,"name":"Moza Shahwala","state_code":"PB","country_code":"PK"}},{"type":"Feature","geometry":{"type":"Point","coordinates":[71.47824,30.19679]},"properties":{"id":85623,"name":"Multan","state_code":"PB","country_code":"PK"}},{"type":"Feature","geometry":{"type":"Point","coordinates":[71.66666667,30.08333333]},"properties":{"id":143773,"name":"Multan District","state_code":"PB","country_code":"PK"}},{"type":"Feature","geometry":{"type":"Point","coordinates":[74.25772,31.80258]},"properties":{"id":85624,"name":"Muridke","state_code":"PB","country_code":"PK"}},{"type":"Feature","geometry":{"type":"Point","coordinates":[73.3903,33.90836]},"properties":{"id":85625,"name":"Murree","state_code":"PB","country_code":"PK"}},{"type":"Feature","geometry":{"type":"Point","coordinates":[73.49889,30.89222]},"properties":{"id":85626,"name":"Mustafabad","state_code":"PB","country_code":"PK"}},{"type":"Feature","geometry":{"type":"Point","coordinates":[71.19379,30.07258]},"properties":{"id":85627,"name":"Muzaffargarh","state_code":"PB","country_code":"PK"}},{"type":"Feature","geometry":{"type":"Point","coordinates":[73.70653,31.4501]},"properties":{"id":85631,"name":"Nankana Sahib","state_code":"PB","country_code":"PK"}},{"type":"Feature","geometry":{"type":"Point","coordinates":[74.51587,31.90376]},"properties":{"id":85632,"name":"Narang Mandi","state_code":"PB","country_code":"PK"}},{"type":"Feature","geometry":{"type":"Point","coordinates":[74.87303,32.10197]},"properties":{"id":85633,"name":"Narowal","state_code":"PB","country_code":"PK"}},{"type":"Feature","geometry":{"type":"Point","coordinates":[73.97117,31.96258]},"properties":{"id":85638,"name":"Naushahra Virkan","state_code":"PB","country_code":"PK"}},{"type":"Feature","geometry":{"type":"Point","coordinates":[73.4833,33.30614]},"properties":{"id":85641,"name":"Nazir Town","state_code":"PB","country_code":"PK"}},{"type":"Feature","geometry":{"type":"Point","coordinates":[73.45155,30.81029]},"properties":{"id":85650,"name":"Okara","state_code":"PB","country_code":"PK"}},{"type":"Feature","geometry":{"type":"Point","coordinates":[70.87139,30.79033]},"properties":{"id":143774,"name":"Pakki Shagwanwali","state_code":"PB","country_code":"PK"}},{"type":"Feature","geometry":{"type":"Point","coordinates":[73.38944,30.34314]},"properties":{"id":85655,"name":"Pakpattan","state_code":"PB","country_code":"PK"}},{"type":"Feature","geometry":{"type":"Point","coordinates":[74.66327,32.26286]},"properties":{"id":85659,"name":"Pasrur","state_code":"PB","country_code":"PK"}},{"type":"Feature","geometry":{"type":"Point","coordinates":[73.85333,31.02021]},"properties":{"id":85660,"name":"Pattoki","state_code":"PB","country_code":"PK"}},{"type":"Feature","geometry":{"type":"Point","coordinates":[73.579,32.43104]},"properties":{"id":85662,"name":"Phalia","state_code":"PB","country_code":"PK"}},{"type":"Feature","geometry":{"type":"Point","coordinates":[73.04456,32.58662]},"properties":{"id":85663,"name":"Pind Dadan Khan","state_code":"PB","country_code":"PK"}},{"type":"Feature","geometry":{"type":"Point","coordinates":[73.27339,31.89844]},"properties":{"id":85664,"name":"Pindi Bhattian","state_code":"PB","country_code":"PK"}},{"type":"Feature","geometry":{"type":"Point","coordinates":[72.2648,33.24095]},"properties":{"id":85665,"name":"Pindi Gheb","state_code":"PB","country_code":"PK"}},{"type":"Feature","geometry":{"type":"Point","coordinates":[72.43455,30.76663]},"properties":{"id":85667,"name":"Pir Mahal","state_code":"PB","country_code":"PK"}},{"type":"Feature","geometry":{"type":"Point","coordinates":[71.67164,30.29184]},"properties":{"id":85670,"name":"Qadirpur Ran","state_code":"PB","country_code":"PK"}},{"type":"Feature","geometry":{"type":"Point","coordinates":[74.1,32.8]},"properties":{"id":143775,"name":"Qila Didar Singh","state_code":"PB","country_code":"PK"}},{"type":"Feature","geometry":{"type":"Point","coordinates":[72.91403,31.75511]},"properties":{"id":85389,"name":"Rabwah","state_code":"PB","country_code":"PK"}},{"type":"Feature","geometry":{"type":"Point","coordinates":[70.30345,28.41987]},"properties":{"id":85674,"name":"Rahim Yar Khan","state_code":"PB","country_code":"PK"}},{"type":"Feature","geometry":{"type":"Point","coordinates":[70.52837,28.4602]},"properties":{"id":143776,"name":"Rahimyar Khan","state_code":"PB","country_code":"PK"}},{"type":"Feature","geometry":{"type":"Point","coordinates":[74.21534,31.24895]},"properties":{"id":85675,"name":"Raiwind","state_code":"PB","country_code":"PK"}},{"type":"Feature","geometry":{"type":"Point","coordinates":[74.25483,31.22078]},"properties":{"id":85676,"name":"Raja Jang","state_code":"PB","country_code":"PK"}},{"type":"Feature","geometry":{"type":"Point","coordinates":[70.32969,29.10408]},"properties":{"id":85677,"name":"Rajanpur","state_code":"PB","country_code":"PK"}},{"type":"Feature","geometry":{"type":"Point","coordinates":[73.7804,32.32794]},"properties":{"id":85680,"name":"Rasulnagar","state_code":"PB","country_code":"PK"}},{"type":"Feature","geometry":{"type":"Point","coordinates":[73.0479,33.59733]},"properties":{"id":85683,"name":"Rawalpindi","state_code":"PB","country_code":"PK"}},{"type":"Feature","geometry":{"type":"Point","coordinates":[73.23092,33.42987]},"properties":{"id":85684,"name":"Rawalpindi District","state_code":"PB","country_code":"PK"}},{"type":"Feature","geometry":{"type":"Point","coordinates":[73.59857,30.87878]},"properties":{"id":85685,"name":"Renala Khurd","state_code":"PB","country_code":"PK"}},{"type":"Feature","geometry":{"type":"Point","coordinates":[69.9535,28.68735]},"properties":{"id":85688,"name":"Rojhan","state_code":"PB","country_code":"PK"}},{"type":"Feature","geometry":{"type":"Point","coordinates":[70.12652,28.3091]},"properties":{"id":85690,"name":"Sadiqabad","state_code":"PB","country_code":"PK"}},{"type":"Feature","geometry":{"type":"Point","coordinates":[73.10186,30.66595]},"properties":{"id":85691,"name":"Sahiwal","state_code":"PB","country_code":"PK"}},{"type":"Feature","geometry":{"type":"Point","coordinates":[74.35338,32.47835]},"properties":{"id":85694,"name":"Sambrial","state_code":"PB","country_code":"PK"}},{"type":"Feature","geometry":{"type":"Point","coordinates":[73.38333,31.71667]},"properties":{"id":85696,"name":"Sangla Hill","state_code":"PB","country_code":"PK"}},{"type":"Feature","geometry":{"type":"Point","coordinates":[72.43315,33.76105]},"properties":{"id":85697,"name":"Sanjwal","state_code":"PB","country_code":"PK"}},{"type":"Feature","geometry":{"type":"Point","coordinates":[73.75518,32.90495]},"properties":{"id":85699,"name":"Sarai Alamgir","state_code":"PB","country_code":"PK"}},{"type":"Feature","geometry":{"type":"Point","coordinates":[71.9699,30.59476]},"properties":{"id":85701,"name":"Sarai Sidhu","state_code":"PB","country_code":"PK"}},{"type":"Feature","geometry":{"type":"Point","coordinates":[72.67418,32.08586]},"properties":{"id":85702,"name":"Sargodha","state_code":"PB","country_code":"PK"}},{"type":"Feature","geometry":{"type":"Point","coordinates":[73.4875,31.56166667]},"properties":{"id":143777,"name":"Shahkot Tehsil","state_code":"PB","country_code":"PK"}},{"type":"Feature","geometry":{"type":"Point","coordinates":[72.46884,32.2682]},"properties":{"id":85709,"name":"Shahpur","state_code":"PB","country_code":"PK"}},{"type":"Feature","geometry":{"type":"Point","coordinates":[71.02209,29.57517]},"properties":{"id":85711,"name":"Shahr Sultan","state_code":"PB","country_code":"PK"}},{"type":"Feature","geometry":{"type":"Point","coordinates":[75.16008,32.26361]},"properties":{"id":85712,"name":"Shakargarh","state_code":"PB","country_code":"PK"}},{"type":"Feature","geometry":{"type":"Point","coordinates":[74.10091,31.46116]},"properties":{"id":85713,"name":"Sharqpur","state_code":"PB","country_code":"PK"}},{"type":"Feature","geometry":{"type":"Point","coordinates":[73.98556,31.71287]},"properties":{"id":85714,"name":"Sheikhupura","state_code":"PB","country_code":"PK"}},{"type":"Feature","geometry":{"type":"Point","coordinates":[71.29344,29.88092]},"properties":{"id":85719,"name":"Shujaabad","state_code":"PB","country_code":"PK"}},{"type":"Feature","geometry":{"type":"Point","coordinates":[74.53134,32.49268]},"properties":{"id":85720,"name":"Sialkot","state_code":"PB","country_code":"PK"}},{"type":"Feature","geometry":{"type":"Point","coordinates":[72.54064,31.82539]},"properties":{"id":85722,"name":"Sillanwali","state_code":"PB","country_code":"PK"}},{"type":"Feature","geometry":{"type":"Point","coordinates":[74.18207,32.46211]},"properties":{"id":85726,"name":"Sodhra","state_code":"PB","country_code":"PK"}},{"type":"Feature","geometry":{"type":"Point","coordinates":[73.50875,31.86541]},"properties":{"id":85729,"name":"Sukheke Mandi","state_code":"PB","country_code":"PK"}},{"type":"Feature","geometry":{"type":"Point","coordinates":[74.44773,32.71816]},"properties":{"id":85732,"name":"Surkhpur","state_code":"PB","country_code":"PK"}},{"type":"Feature","geometry":{"type":"Point","coordinates":[72.41594,32.92766]},"properties":{"id":85735,"name":"Talagang","state_code":"PB","country_code":"PK"}},{"type":"Feature","geometry":{"type":"Point","coordinates":[72.24079,30.52693]},"properties":{"id":85736,"name":"Talamba","state_code":"PB","country_code":"PK"}},{"type":"Feature","geometry":{"type":"Point","coordinates":[73.13268,31.03359]},"properties":{"id":85738,"name":"Tandlianwala","state_code":"PB","country_code":"PK"}},{"type":"Feature","geometry":{"type":"Point","coordinates":[70.65054,30.70358]},"properties":{"id":85748,"name":"Taunsa","state_code":"PB","country_code":"PK"}},{"type":"Feature","geometry":{"type":"Point","coordinates":[72.48275,30.97127]},"properties":{"id":85753,"name":"Toba Tek Singh","state_code":"PB","country_code":"PK"}},{"type":"Feature","geometry":{"type":"Point","coordinates":[69.73611111,25.36138889]},"properties":{"id":143778,"name":"Umerkot","state_code":"PB","country_code":"PK"}},{"type":"Feature","geometry":{"type":"Point","coordinates":[72.3556,30.0445]},"properties":{"id":85763,"name":"Vihari","state_code":"PB","country_code":"PK"}},{"type":"Feature","geometry":{"type":"Point","coordinates":[72.70972222,33.81]},"properties":{"id":143779,"name":"Wah","state_code":"PB","country_code":"PK"}},{"type":"Feature","geometry":{"type":"Point","coordinates":[73.8333,31.55]},"properties":{"id":143780,"name":"Warburton","state_code":"PB","country_code":"PK"}},{"type":"Feature","geometry":{"type":"Point","coordinates":[74.12,32.44324]},"properties":{"id":85766,"name":"Wazirabad","state_code":"PB","country_code":"PK"}},{"type":"Feature","geometry":{"type":"Point","coordinates":[72,31]},"properties":{"id":143781,"name":"West Punjab","state_code":"PB","country_code":"PK"}},{"type":"Feature","geometry":{"type":"Point","coordinates":[71.74459,29.12122]},"properties":{"id":85767,"name":"Yazman","state_code":"PB","country_code":"PK"}},{"type":"Feature","geometry":{"type":"Point","coordinates":[74.8999,32.34464]},"properties":{"id":85768,"name":"Zafarwal","state_code":"PB","country_code":"PK"}},{"type":"Feature","geometry":{"type":"Point","coordinates":[70.52341,28.81284]},"properties":{"id":85769,"name":"Zahir Pir","state_code":"PB","country_code":"PK"}}]}