{"type":"FeatureCollection","features":[{"type":"Feature","geometry":{"type":"Point","coordinates":[22.31521,51.45647]},"properties":{"id":85775,"name":"Abramów","state_code":"06","country_code":"PL"}},{"type":"Feature","geometry":{"type":"Point","coordinates":[22.26414,51.74335]},"properties":{"id":85776,"name":"Adamów","state_code":"06","country_code":"PL"}},{"type":"Feature","geometry":{"type":"Point","coordinates":[22.89225,50.4663]},"properties":{"id":85779,"name":"Aleksandrów","state_code":"06","country_code":"PL"}},{"type":"Feature","geometry":{"type":"Point","coordinates":[21.85678,50.88551]},"properties":{"id":85786,"name":"Annopol","state_code":"06","country_code":"PL"}},{"type":"Feature","geometry":{"type":"Point","coordinates":[22.13625,51.55786]},"properties":{"id":85804,"name":"Baranów","state_code":"06","country_code":"PL"}},{"type":"Feature","geometry":{"type":"Point","coordinates":[22.49313,50.8505]},"properties":{"id":85818,"name":"Batorz","state_code":"06","country_code":"PL"}},{"type":"Feature","geometry":{"type":"Point","coordinates":[23.43839,50.38453]},"properties":{"id":85831,"name":"Bełżec","state_code":"06","country_code":"PL"}},{"type":"Feature","geometry":{"type":"Point","coordinates":[22.28027,51.17415]},"properties":{"id":85832,"name":"Bełżyce","state_code":"06","country_code":"PL"}},{"type":"Feature","geometry":{"type":"Point","coordinates":[23.11652,52.03238]},"properties":{"id":85836,"name":"Biała Podlaska","state_code":"06","country_code":"PL"}},{"type":"Feature","geometry":{"type":"Point","coordinates":[22.72204,50.54114]},"properties":{"id":85878,"name":"Biłgoraj","state_code":"06","country_code":"PL"}},{"type":"Feature","geometry":{"type":"Point","coordinates":[22.65063,50.40146]},"properties":{"id":85876,"name":"Biszcza","state_code":"06","country_code":"PL"}},{"type":"Feature","geometry":{"type":"Point","coordinates":[22.52129,51.72161]},"properties":{"id":85920,"name":"Borki","state_code":"06","country_code":"PL"}},{"type":"Feature","geometry":{"type":"Point","coordinates":[22.28414,51.09258]},"properties":{"id":85928,"name":"Borzechów","state_code":"06","country_code":"PL"}},{"type":"Feature","geometry":{"type":"Point","coordinates":[22.53296,51.01608]},"properties":{"id":85997,"name":"Bychawa","state_code":"06","country_code":"PL"}},{"type":"Feature","geometry":{"type":"Point","coordinates":[23.4716,51.14312]},"properties":{"id":86027,"name":"Chełm","state_code":"06","country_code":"PL"}},{"type":"Feature","geometry":{"type":"Point","coordinates":[22.13269,51.11177]},"properties":{"id":86045,"name":"Chodel","state_code":"06","country_code":"PL"}},{"type":"Feature","geometry":{"type":"Point","coordinates":[22.60351,50.77256]},"properties":{"id":86061,"name":"Chrzanów","state_code":"06","country_code":"PL"}},{"type":"Feature","geometry":{"type":"Point","coordinates":[23.14124,51.29928]},"properties":{"id":86097,"name":"Cyców","state_code":"06","country_code":"PL"}},{"type":"Feature","geometry":{"type":"Point","coordinates":[22.63887,51.67298]},"properties":{"id":86124,"name":"Czemierniki","state_code":"06","country_code":"PL"}},{"type":"Feature","geometry":{"type":"Point","coordinates":[21.84829,51.55912]},"properties":{"id":86248,"name":"Dęblin","state_code":"06","country_code":"PL"}},{"type":"Feature","geometry":{"type":"Point","coordinates":[23.0064,51.59446]},"properties":{"id":86253,"name":"Dębowa Kłoda","state_code":"06","country_code":"PL"}},{"type":"Feature","geometry":{"type":"Point","coordinates":[24.03594,50.58591]},"properties":{"id":86192,"name":"Dołhobyczów","state_code":"06","country_code":"PL"}},{"type":"Feature","geometry":{"type":"Point","coordinates":[23.80325,51.15475]},"properties":{"id":86190,"name":"Dorohusk","state_code":"06","country_code":"PL"}},{"type":"Feature","geometry":{"type":"Point","coordinates":[22.87165,51.91219]},"properties":{"id":86196,"name":"Drelów","state_code":"06","country_code":"PL"}},{"type":"Feature","geometry":{"type":"Point","coordinates":[23.89252,51.04862]},"properties":{"id":86205,"name":"Dubienka","state_code":"06","country_code":"PL"}},{"type":"Feature","geometry":{"type":"Point","coordinates":[22.56729,50.69657]},"properties":{"id":86232,"name":"Dzwola","state_code":"06","country_code":"PL"}},{"type":"Feature","geometry":{"type":"Point","coordinates":[22.96323,51.09592]},"properties":{"id":86267,"name":"Fajsławice","state_code":"06","country_code":"PL"}},{"type":"Feature","geometry":{"type":"Point","coordinates":[22.50841,51.55882]},"properties":{"id":86271,"name":"Firlej","state_code":"06","country_code":"PL"}},{"type":"Feature","geometry":{"type":"Point","coordinates":[22.67061,50.67159]},"properties":{"id":86273,"name":"Frampol","state_code":"06","country_code":"PL"}},{"type":"Feature","geometry":{"type":"Point","coordinates":[22.32937,51.35517]},"properties":{"id":86282,"name":"Garbów","state_code":"06","country_code":"PL"}},{"type":"Feature","geometry":{"type":"Point","coordinates":[22.49794,50.74889]},"properties":{"id":86320,"name":"Godziszów","state_code":"06","country_code":"PL"}},{"type":"Feature","geometry":{"type":"Point","coordinates":[22.48386,50.75753]},"properties":{"id":86321,"name":"Godziszów Pierwszy","state_code":"06","country_code":"PL"}},{"type":"Feature","geometry":{"type":"Point","coordinates":[22.66651,50.72184]},"properties":{"id":86332,"name":"Goraj","state_code":"06","country_code":"PL"}},{"type":"Feature","geometry":{"type":"Point","coordinates":[23.01267,50.94778]},"properties":{"id":86337,"name":"Gorzków","state_code":"06","country_code":"PL"}},{"type":"Feature","geometry":{"type":"Point","coordinates":[22.00536,50.86859]},"properties":{"id":86360,"name":"Gościeradów","state_code":"06","country_code":"PL"}},{"type":"Feature","geometry":{"type":"Point","coordinates":[23.55057,50.8209]},"properties":{"id":86365,"name":"Grabowiec","state_code":"06","country_code":"PL"}},{"type":"Feature","geometry":{"type":"Point","coordinates":[23.39942,51.41286]},"properties":{"id":86444,"name":"Hańsk","state_code":"06","country_code":"PL"}},{"type":"Feature","geometry":{"type":"Point","coordinates":[24.03723,50.89459]},"properties":{"id":86450,"name":"Horodło","state_code":"06","country_code":"PL"}},{"type":"Feature","geometry":{"type":"Point","coordinates":[23.89251,50.80502]},"properties":{"id":86452,"name":"Hrubieszów","state_code":"06","country_code":"PL"}},{"type":"Feature","geometry":{"type":"Point","coordinates":[23.15248,50.88728]},"properties":{"id":86468,"name":"Izbica","state_code":"06","country_code":"PL"}},{"type":"Feature","geometry":{"type":"Point","coordinates":[23.08743,51.72501]},"properties":{"id":86486,"name":"Jabłoń","state_code":"06","country_code":"PL"}},{"type":"Feature","geometry":{"type":"Point","coordinates":[22.59364,51.08875]},"properties":{"id":86481,"name":"Jabłonna","state_code":"06","country_code":"PL"}},{"type":"Feature","geometry":{"type":"Point","coordinates":[22.63415,51.26992]},"properties":{"id":86491,"name":"Jakubowice Murowane","state_code":"06","country_code":"PL"}},{"type":"Feature","geometry":{"type":"Point","coordinates":[22.41039,50.70695]},"properties":{"id":86503,"name":"Janów Lubelski","state_code":"06","country_code":"PL"}},{"type":"Feature","geometry":{"type":"Point","coordinates":[23.21218,52.19398]},"properties":{"id":86504,"name":"Janów Podlaski","state_code":"06","country_code":"PL"}},{"type":"Feature","geometry":{"type":"Point","coordinates":[21.8894,51.32359]},"properties":{"id":86500,"name":"Janowiec","state_code":"06","country_code":"PL"}},{"type":"Feature","geometry":{"type":"Point","coordinates":[23.58576,50.42438]},"properties":{"id":86506,"name":"Jarczów","state_code":"06","country_code":"PL"}},{"type":"Feature","geometry":{"type":"Point","coordinates":[22.43546,51.30411]},"properties":{"id":86521,"name":"Jastków","state_code":"06","country_code":"PL"}},{"type":"Feature","geometry":{"type":"Point","coordinates":[22.27667,51.60245]},"properties":{"id":86557,"name":"Jeziorzany","state_code":"06","country_code":"PL"}},{"type":"Feature","geometry":{"type":"Point","coordinates":[23.05404,50.48119]},"properties":{"id":86575,"name":"Józefów","state_code":"06","country_code":"PL"}},{"type":"Feature","geometry":{"type":"Point","coordinates":[21.83018,51.04183]},"properties":{"id":86577,"name":"Józefów nad Wisłą","state_code":"06","country_code":"PL"}},{"type":"Feature","geometry":{"type":"Point","coordinates":[22.46275,51.47165]},"properties":{"id":86603,"name":"Kamionka","state_code":"06","country_code":"PL"}},{"type":"Feature","geometry":{"type":"Point","coordinates":[21.98158,51.22952]},"properties":{"id":86610,"name":"Karczmiska","state_code":"06","country_code":"PL"}},{"type":"Feature","geometry":{"type":"Point","coordinates":[21.95502,51.31911]},"properties":{"id":86626,"name":"Kazimierz Dolny","state_code":"06","country_code":"PL"}},{"type":"Feature","geometry":{"type":"Point","coordinates":[21.96493,51.72134]},"properties":{"id":86863,"name":"Kłoczew","state_code":"06","country_code":"PL"}},{"type":"Feature","geometry":{"type":"Point","coordinates":[22.44391,51.63997]},"properties":{"id":86672,"name":"Kock","state_code":"06","country_code":"PL"}},{"type":"Feature","geometry":{"type":"Point","coordinates":[23.60301,51.91171]},"properties":{"id":86674,"name":"Kodeń","state_code":"06","country_code":"PL"}},{"type":"Feature","geometry":{"type":"Point","coordinates":[23.4774,50.62888]},"properties":{"id":86683,"name":"Komarów-Osada","state_code":"06","country_code":"PL"}},{"type":"Feature","geometry":{"type":"Point","coordinates":[22.94392,51.80315]},"properties":{"id":86684,"name":"Komarówka Podlaska","state_code":"06","country_code":"PL"}},{"type":"Feature","geometry":{"type":"Point","coordinates":[22.05175,51.40922]},"properties":{"id":86751,"name":"Końskowola","state_code":"06","country_code":"PL"}},{"type":"Feature","geometry":{"type":"Point","coordinates":[23.0853,52.20746]},"properties":{"id":86697,"name":"Konstantynów","state_code":"06","country_code":"PL"}},{"type":"Feature","geometry":{"type":"Point","coordinates":[22.42747,51.22323]},"properties":{"id":86736,"name":"Kozubszczyzna","state_code":"06","country_code":"PL"}},{"type":"Feature","geometry":{"type":"Point","coordinates":[23.34929,50.93171]},"properties":{"id":86776,"name":"Kraśniczyn","state_code":"06","country_code":"PL"}},{"type":"Feature","geometry":{"type":"Point","coordinates":[22.22706,50.9236]},"properties":{"id":86777,"name":"Kraśnik","state_code":"06","country_code":"PL"}},{"type":"Feature","geometry":{"type":"Point","coordinates":[23.21308,50.54551]},"properties":{"id":86770,"name":"Krasnobród","state_code":"06","country_code":"PL"}},{"type":"Feature","geometry":{"type":"Point","coordinates":[23.1742,50.98464]},"properties":{"id":86773,"name":"Krasnystaw","state_code":"06","country_code":"PL"}},{"type":"Feature","geometry":{"type":"Point","coordinates":[23.38157,50.5876]},"properties":{"id":86796,"name":"Krynice","state_code":"06","country_code":"PL"}},{"type":"Feature","geometry":{"type":"Point","coordinates":[22.71097,51.00727]},"properties":{"id":86802,"name":"Krzczonów","state_code":"06","country_code":"PL"}},{"type":"Feature","geometry":{"type":"Point","coordinates":[22.19994,51.79519]},"properties":{"id":86819,"name":"Krzywda","state_code":"06","country_code":"PL"}},{"type":"Feature","geometry":{"type":"Point","coordinates":[21.98965,50.90855]},"properties":{"id":86832,"name":"Księżomierz","state_code":"06","country_code":"PL"}},{"type":"Feature","geometry":{"type":"Point","coordinates":[22.73526,50.42323]},"properties":{"id":86833,"name":"Księżpol","state_code":"06","country_code":"PL"}},{"type":"Feature","geometry":{"type":"Point","coordinates":[22.18637,51.38941]},"properties":{"id":86843,"name":"Kurów","state_code":"06","country_code":"PL"}},{"type":"Feature","geometry":{"type":"Point","coordinates":[23.02786,52.13317]},"properties":{"id":86890,"name":"Leśna Podlaska","state_code":"06","country_code":"PL"}},{"type":"Feature","geometry":{"type":"Point","coordinates":[22.60952,51.46026]},"properties":{"id":86932,"name":"Lubartów","state_code":"06","country_code":"PL"}},{"type":"Feature","geometry":{"type":"Point","coordinates":[22.56667,51.25]},"properties":{"id":86947,"name":"Lublin","state_code":"06","country_code":"PL"}},{"type":"Feature","geometry":{"type":"Point","coordinates":[23.51941,50.34102]},"properties":{"id":86962,"name":"Lubycza Królewska","state_code":"06","country_code":"PL"}},{"type":"Feature","geometry":{"type":"Point","coordinates":[22.90581,51.34605]},"properties":{"id":86964,"name":"Ludwin","state_code":"06","country_code":"PL"}},{"type":"Feature","geometry":{"type":"Point","coordinates":[23.3662,50.65517]},"properties":{"id":88757,"name":"Łabunie","state_code":"06","country_code":"PL"}},{"type":"Feature","geometry":{"type":"Point","coordinates":[23.72562,50.53332]},"properties":{"id":88772,"name":"Łaszczów","state_code":"06","country_code":"PL"}},{"type":"Feature","geometry":{"type":"Point","coordinates":[21.87919,51.14226]},"properties":{"id":88773,"name":"Łaziska","state_code":"06","country_code":"PL"}},{"type":"Feature","geometry":{"type":"Point","coordinates":[22.88135,51.30121]},"properties":{"id":88816,"name":"Łęczna","state_code":"06","country_code":"PL"}},{"type":"Feature","geometry":{"type":"Point","coordinates":[23.17656,51.90435]},"properties":{"id":88784,"name":"Łomazy","state_code":"06","country_code":"PL"}},{"type":"Feature","geometry":{"type":"Point","coordinates":[23.01833,51.0408]},"properties":{"id":88788,"name":"Łopiennik Górny","state_code":"06","country_code":"PL"}},{"type":"Feature","geometry":{"type":"Point","coordinates":[22.37956,51.929]},"properties":{"id":88805,"name":"Łuków","state_code":"06","country_code":"PL"}},{"type":"Feature","geometry":{"type":"Point","coordinates":[22.94349,50.37426]},"properties":{"id":88803,"name":"Łukowa","state_code":"06","country_code":"PL"}},{"type":"Feature","geometry":{"type":"Point","coordinates":[22.25804,51.37457]},"properties":{"id":86996,"name":"Markuszów","state_code":"06","country_code":"PL"}},{"type":"Feature","geometry":{"type":"Point","coordinates":[22.78414,51.22519]},"properties":{"id":87014,"name":"Mełgiew","state_code":"06","country_code":"PL"}},{"type":"Feature","geometry":{"type":"Point","coordinates":[23.5013,50.73825]},"properties":{"id":87058,"name":"Miączyn","state_code":"06","country_code":"PL"}},{"type":"Feature","geometry":{"type":"Point","coordinates":[23.60361,50.54709]},"properties":{"id":87022,"name":"Michałów","state_code":"06","country_code":"PL"}},{"type":"Feature","geometry":{"type":"Point","coordinates":[22.31435,51.52573]},"properties":{"id":87025,"name":"Michów","state_code":"06","country_code":"PL"}},{"type":"Feature","geometry":{"type":"Point","coordinates":[22.78248,51.9864]},"properties":{"id":87064,"name":"Międzyrzec Podlaski","state_code":"06","country_code":"PL"}},{"type":"Feature","geometry":{"type":"Point","coordinates":[22.8883,51.70374]},"properties":{"id":87046,"name":"Milanów","state_code":"06","country_code":"PL"}},{"type":"Feature","geometry":{"type":"Point","coordinates":[22.92443,51.23226]},"properties":{"id":87049,"name":"Milejów","state_code":"06","country_code":"PL"}},{"type":"Feature","geometry":{"type":"Point","coordinates":[23.89604,50.65164]},"properties":{"id":87052,"name":"Mircze","state_code":"06","country_code":"PL"}},{"type":"Feature","geometry":{"type":"Point","coordinates":[22.32945,50.75416]},"properties":{"id":87081,"name":"Modliborzyce","state_code":"06","country_code":"PL"}},{"type":"Feature","geometry":{"type":"Point","coordinates":[22.21539,51.28581]},"properties":{"id":87143,"name":"Nałęczów","state_code":"06","country_code":"PL"}},{"type":"Feature","geometry":{"type":"Point","coordinates":[22.38911,51.11462]},"properties":{"id":87155,"name":"Niedrzwica Duża","state_code":"06","country_code":"PL"}},{"type":"Feature","geometry":{"type":"Point","coordinates":[22.6914,51.54409]},"properties":{"id":87157,"name":"Niedźwiada","state_code":"06","country_code":"PL"}},{"type":"Feature","geometry":{"type":"Point","coordinates":[23.04451,50.80067]},"properties":{"id":87161,"name":"Nielisz","state_code":"06","country_code":"PL"}},{"type":"Feature","geometry":{"type":"Point","coordinates":[22.63939,51.36155]},"properties":{"id":87162,"name":"Niemce","state_code":"06","country_code":"PL"}},{"type":"Feature","geometry":{"type":"Point","coordinates":[22.10183,51.63901]},"properties":{"id":87193,"name":"Nowodwór","state_code":"06","country_code":"PL"}},{"type":"Feature","geometry":{"type":"Point","coordinates":[22.95688,50.3152]},"properties":{"id":87222,"name":"Obsza","state_code":"06","country_code":"PL"}},{"type":"Feature","geometry":{"type":"Point","coordinates":[21.96897,51.14775]},"properties":{"id":87263,"name":"Opole Lubelskie","state_code":"06","country_code":"PL"}},{"type":"Feature","geometry":{"type":"Point","coordinates":[22.85287,51.49416]},"properties":{"id":87309,"name":"Ostrów Lubelski","state_code":"06","country_code":"PL"}},{"type":"Feature","geometry":{"type":"Point","coordinates":[22.61227,51.5815]},"properties":{"id":87313,"name":"Ostrówek","state_code":"06","country_code":"PL"}},{"type":"Feature","geometry":{"type":"Point","coordinates":[22.90057,51.64021]},"properties":{"id":87347,"name":"Parczew","state_code":"06","country_code":"PL"}},{"type":"Feature","geometry":{"type":"Point","coordinates":[22.84856,51.13892]},"properties":{"id":87370,"name":"Piaski","state_code":"06","country_code":"PL"}},{"type":"Feature","geometry":{"type":"Point","coordinates":[23.37719,51.98118]},"properties":{"id":87399,"name":"Piszczac","state_code":"06","country_code":"PL"}},{"type":"Feature","geometry":{"type":"Point","coordinates":[23.19961,51.68815]},"properties":{"id":87414,"name":"Podedwórze","state_code":"06","country_code":"PL"}},{"type":"Feature","geometry":{"type":"Point","coordinates":[23.46345,51.09479]},"properties":{"id":87428,"name":"Pokrówka","state_code":"06","country_code":"PL"}},{"type":"Feature","geometry":{"type":"Point","coordinates":[22.13093,51.17983]},"properties":{"id":87439,"name":"Poniatowa","state_code":"06","country_code":"PL"}},{"type":"Feature","geometry":{"type":"Point","coordinates":[22.56188,50.38477]},"properties":{"id":87452,"name":"Potok Górny","state_code":"06","country_code":"PL"}},{"type":"Feature","geometry":{"type":"Point","coordinates":[22.21642,50.7915]},"properties":{"id":87453,"name":"Potok Wielki","state_code":"06","country_code":"PL"}},{"type":"Feature","geometry":{"type":"Point","coordinates":[22.27135,51.61951]},"properties":{"id":87832,"name":"Przytoczno","state_code":"06","country_code":"PL"}},{"type":"Feature","geometry":{"type":"Point","coordinates":[22.9737,51.3105]},"properties":{"id":87846,"name":"Puchaczów","state_code":"06","country_code":"PL"}},{"type":"Feature","geometry":{"type":"Point","coordinates":[21.96939,51.41655]},"properties":{"id":87851,"name":"Puławy","state_code":"06","country_code":"PL"}},{"type":"Feature","geometry":{"type":"Point","coordinates":[23.54688,50.53842]},"properties":{"id":87871,"name":"Rachanie","state_code":"06","country_code":"PL"}},{"type":"Feature","geometry":{"type":"Point","coordinates":[22.82976,50.75155]},"properties":{"id":87879,"name":"Radecznica","state_code":"06","country_code":"PL"}},{"type":"Feature","geometry":{"type":"Point","coordinates":[22.61667,51.78333]},"properties":{"id":87904,"name":"Radzyń Podlaski","state_code":"06","country_code":"PL"}},{"type":"Feature","geometry":{"type":"Point","coordinates":[23.28192,51.09134]},"properties":{"id":87933,"name":"Rejowiec","state_code":"06","country_code":"PL"}},{"type":"Feature","geometry":{"type":"Point","coordinates":[23.24724,51.11414]},"properties":{"id":87934,"name":"Rejowiec Fabryczny","state_code":"06","country_code":"PL"}},{"type":"Feature","geometry":{"type":"Point","coordinates":[23.39041,50.46417]},"properties":{"id":87951,"name":"Rogóźno","state_code":"06","country_code":"PL"}},{"type":"Feature","geometry":{"type":"Point","coordinates":[23.29514,52.12142]},"properties":{"id":87958,"name":"Rokitno","state_code":"06","country_code":"PL"}},{"type":"Feature","geometry":{"type":"Point","coordinates":[23.59486,51.23666]},"properties":{"id":87972,"name":"Ruda-Huta","state_code":"06","country_code":"PL"}},{"type":"Feature","geometry":{"type":"Point","coordinates":[22.97293,50.88035]},"properties":{"id":87978,"name":"Rudnik","state_code":"06","country_code":"PL"}},{"type":"Feature","geometry":{"type":"Point","coordinates":[22.85053,51.02876]},"properties":{"id":87992,"name":"Rybczewice","state_code":"06","country_code":"PL"}},{"type":"Feature","geometry":{"type":"Point","coordinates":[21.93274,51.62574]},"properties":{"id":88008,"name":"Ryki","state_code":"06","country_code":"PL"}},{"type":"Feature","geometry":{"type":"Point","coordinates":[22.74942,51.96225]},"properties":{"id":88018,"name":"Rzeczyca","state_code":"06","country_code":"PL"}},{"type":"Feature","geometry":{"type":"Point","coordinates":[23.43375,51.27443]},"properties":{"id":88053,"name":"Sawin","state_code":"06","country_code":"PL"}},{"type":"Feature","geometry":{"type":"Point","coordinates":[22.65853,51.43716]},"properties":{"id":88056,"name":"Serniki","state_code":"06","country_code":"PL"}},{"type":"Feature","geometry":{"type":"Point","coordinates":[22.33237,51.7007]},"properties":{"id":88058,"name":"Serokomla","state_code":"06","country_code":"PL"}},{"type":"Feature","geometry":{"type":"Point","coordinates":[22.77243,51.62883]},"properties":{"id":88074,"name":"Siemień","state_code":"06","country_code":"PL"}},{"type":"Feature","geometry":{"type":"Point","coordinates":[23.3226,51.00123]},"properties":{"id":88082,"name":"Siennica Różana","state_code":"06","country_code":"PL"}},{"type":"Feature","geometry":{"type":"Point","coordinates":[23.3626,50.74944]},"properties":{"id":88094,"name":"Sitno","state_code":"06","country_code":"PL"}},{"type":"Feature","geometry":{"type":"Point","coordinates":[23.35917,50.85158]},"properties":{"id":88106,"name":"Skierbieszów","state_code":"06","country_code":"PL"}},{"type":"Feature","geometry":{"type":"Point","coordinates":[23.5546,51.76338]},"properties":{"id":88335,"name":"Sławatycze","state_code":"06","country_code":"PL"}},{"type":"Feature","geometry":{"type":"Point","coordinates":[23.09215,51.52065]},"properties":{"id":88150,"name":"Sosnowica","state_code":"06","country_code":"PL"}},{"type":"Feature","geometry":{"type":"Point","coordinates":[23.33814,51.75084]},"properties":{"id":88153,"name":"Sosnówka","state_code":"06","country_code":"PL"}},{"type":"Feature","geometry":{"type":"Point","coordinates":[22.75354,51.34128]},"properties":{"id":88161,"name":"Spiczyn","state_code":"06","country_code":"PL"}},{"type":"Feature","geometry":{"type":"Point","coordinates":[23.17154,50.82004]},"properties":{"id":88197,"name":"Stary Zamość","state_code":"06","country_code":"PL"}},{"type":"Feature","geometry":{"type":"Point","coordinates":[21.77087,51.58187]},"properties":{"id":88244,"name":"Stężyca","state_code":"06","country_code":"PL"}},{"type":"Feature","geometry":{"type":"Point","coordinates":[21.97137,51.96135]},"properties":{"id":88206,"name":"Stoczek Łukowski","state_code":"06","country_code":"PL"}},{"type":"Feature","geometry":{"type":"Point","coordinates":[22.44018,51.0483]},"properties":{"id":88234,"name":"Strzyżowice","state_code":"06","country_code":"PL"}},{"type":"Feature","geometry":{"type":"Point","coordinates":[22.36061,50.90661]},"properties":{"id":88273,"name":"Sułów","state_code":"06","country_code":"PL"}},{"type":"Feature","geometry":{"type":"Point","coordinates":[23.19626,50.41973]},"properties":{"id":88266,"name":"Susiec","state_code":"06","country_code":"PL"}},{"type":"Feature","geometry":{"type":"Point","coordinates":[22.69621,51.21898]},"properties":{"id":88843,"name":"Świdnik","state_code":"06","country_code":"PL"}},{"type":"Feature","geometry":{"type":"Point","coordinates":[22.31971,50.85527]},"properties":{"id":88288,"name":"Szastarka","state_code":"06","country_code":"PL"}},{"type":"Feature","geometry":{"type":"Point","coordinates":[22.97954,50.69499]},"properties":{"id":88292,"name":"Szczebrzeszyn","state_code":"06","country_code":"PL"}},{"type":"Feature","geometry":{"type":"Point","coordinates":[23.3959,50.53154]},"properties":{"id":88358,"name":"Tarnawatka","state_code":"06","country_code":"PL"}},{"type":"Feature","geometry":{"type":"Point","coordinates":[22.74174,50.3609]},"properties":{"id":88360,"name":"Tarnogród","state_code":"06","country_code":"PL"}},{"type":"Feature","geometry":{"type":"Point","coordinates":[23.83956,50.52712]},"properties":{"id":88371,"name":"Telatyn","state_code":"06","country_code":"PL"}},{"type":"Feature","geometry":{"type":"Point","coordinates":[23.61614,52.0755]},"properties":{"id":88374,"name":"Terespol","state_code":"06","country_code":"PL"}},{"type":"Feature","geometry":{"type":"Point","coordinates":[22.8798,50.58373]},"properties":{"id":88375,"name":"Tereszpol","state_code":"06","country_code":"PL"}},{"type":"Feature","geometry":{"type":"Point","coordinates":[23.41616,50.44767]},"properties":{"id":88379,"name":"Tomaszów Lubelski","state_code":"06","country_code":"PL"}},{"type":"Feature","geometry":{"type":"Point","coordinates":[22.99816,51.13633]},"properties":{"id":88388,"name":"Trawniki","state_code":"06","country_code":"PL"}},{"type":"Feature","geometry":{"type":"Point","coordinates":[22.55502,51.99006]},"properties":{"id":88405,"name":"Trzebieszów","state_code":"06","country_code":"PL"}},{"type":"Feature","geometry":{"type":"Point","coordinates":[22.13359,50.84887]},"properties":{"id":88413,"name":"Trzydnik Duży","state_code":"06","country_code":"PL"}},{"type":"Feature","geometry":{"type":"Point","coordinates":[22.74273,50.82367]},"properties":{"id":88425,"name":"Turobin","state_code":"06","country_code":"PL"}},{"type":"Feature","geometry":{"type":"Point","coordinates":[23.69927,50.61699]},"properties":{"id":88443,"name":"Tyszowce","state_code":"06","country_code":"PL"}},{"type":"Feature","geometry":{"type":"Point","coordinates":[23.79956,50.44969]},"properties":{"id":88454,"name":"Ulhówek","state_code":"06","country_code":"PL"}},{"type":"Feature","geometry":{"type":"Point","coordinates":[22.10741,51.59195]},"properties":{"id":88466,"name":"Ułęż","state_code":"06","country_code":"PL"}},{"type":"Feature","geometry":{"type":"Point","coordinates":[23.1948,51.3939]},"properties":{"id":88459,"name":"Urszulin","state_code":"06","country_code":"PL"}},{"type":"Feature","geometry":{"type":"Point","coordinates":[22.1426,50.99323]},"properties":{"id":88461,"name":"Urzędów","state_code":"06","country_code":"PL"}},{"type":"Feature","geometry":{"type":"Point","coordinates":[22.95516,51.46962]},"properties":{"id":88468,"name":"Uścimów Stary","state_code":"06","country_code":"PL"}},{"type":"Feature","geometry":{"type":"Point","coordinates":[22.14681,51.29467]},"properties":{"id":88637,"name":"Wąwolnica","state_code":"06","country_code":"PL"}},{"type":"Feature","geometry":{"type":"Point","coordinates":[23.76411,50.75373]},"properties":{"id":88491,"name":"Werbkowice","state_code":"06","country_code":"PL"}},{"type":"Feature","geometry":{"type":"Point","coordinates":[22.35014,51.01473]},"properties":{"id":88540,"name":"Wilkołaz","state_code":"06","country_code":"PL"}},{"type":"Feature","geometry":{"type":"Point","coordinates":[21.87756,51.26224]},"properties":{"id":88541,"name":"Wilków","state_code":"06","country_code":"PL"}},{"type":"Feature","geometry":{"type":"Point","coordinates":[23.20836,51.78924]},"properties":{"id":88546,"name":"Wisznice","state_code":"06","country_code":"PL"}},{"type":"Feature","geometry":{"type":"Point","coordinates":[23.55,51.55]},"properties":{"id":88650,"name":"Włodawa","state_code":"06","country_code":"PL"}},{"type":"Feature","geometry":{"type":"Point","coordinates":[22.78582,51.75642]},"properties":{"id":88570,"name":"Wohyń","state_code":"06","country_code":"PL"}},{"type":"Feature","geometry":{"type":"Point","coordinates":[22.24551,51.23543]},"properties":{"id":88573,"name":"Wojciechów","state_code":"06","country_code":"PL"}},{"type":"Feature","geometry":{"type":"Point","coordinates":[22.31589,51.76922]},"properties":{"id":88574,"name":"Wojcieszków","state_code":"06","country_code":"PL"}},{"type":"Feature","geometry":{"type":"Point","coordinates":[23.54602,50.91916]},"properties":{"id":88579,"name":"Wojsławice","state_code":"06","country_code":"PL"}},{"type":"Feature","geometry":{"type":"Point","coordinates":[22.68351,51.44978]},"properties":{"id":88589,"name":"Wola Sernicka","state_code":"06","country_code":"PL"}},{"type":"Feature","geometry":{"type":"Point","coordinates":[23.62627,51.32139]},"properties":{"id":88590,"name":"Wola Uhruska","state_code":"06","country_code":"PL"}},{"type":"Feature","geometry":{"type":"Point","coordinates":[22.666,50.91093]},"properties":{"id":88621,"name":"Wysokie","state_code":"06","country_code":"PL"}},{"type":"Feature","geometry":{"type":"Point","coordinates":[22.59115,50.89004]},"properties":{"id":88678,"name":"Zakrzew","state_code":"06","country_code":"PL"}},{"type":"Feature","geometry":{"type":"Point","coordinates":[22.38138,50.95124]},"properties":{"id":88682,"name":"Zakrzówek","state_code":"06","country_code":"PL"}},{"type":"Feature","geometry":{"type":"Point","coordinates":[23.02786,50.31713]},"properties":{"id":88691,"name":"Zamch","state_code":"06","country_code":"PL"}},{"type":"Feature","geometry":{"type":"Point","coordinates":[23.25196,50.72314]},"properties":{"id":88692,"name":"Zamość","state_code":"06","country_code":"PL"}},{"type":"Feature","geometry":{"type":"Point","coordinates":[22.83465,50.90991]},"properties":{"id":88903,"name":"Żółkiewka","state_code":"06","country_code":"PL"}},{"type":"Feature","geometry":{"type":"Point","coordinates":[22.97512,50.614]},"properties":{"id":88735,"name":"Zwierzyniec","state_code":"06","country_code":"PL"}},{"type":"Feature","geometry":{"type":"Point","coordinates":[22.0917,51.49918]},"properties":{"id":88900,"name":"Żyrzyn","state_code":"06","country_code":"PL"}}]}