{"type":"FeatureCollection","features":[{"type":"Feature","geometry":{"type":"Point","coordinates":[20.25527,52.6807]},"properties":{"id":85793,"name":"Baboszewo","state_code":"14","country_code":"PL"}},{"type":"Feature","geometry":{"type":"Point","coordinates":[21.13984,52.01653]},"properties":{"id":85801,"name":"Baniocha","state_code":"14","country_code":"PL"}},{"type":"Feature","geometry":{"type":"Point","coordinates":[21.29803,53.17554]},"properties":{"id":85802,"name":"Baranowo","state_code":"14","country_code":"PL"}},{"type":"Feature","geometry":{"type":"Point","coordinates":[20.90844,52.2546]},"properties":{"id":85824,"name":"Bemowo","state_code":"14","country_code":"PL"}},{"type":"Feature","geometry":{"type":"Point","coordinates":[19.64956,52.60524]},"properties":{"id":85834,"name":"Biała","state_code":"14","country_code":"PL"}},{"type":"Feature","geometry":{"type":"Point","coordinates":[20.95041,51.64695]},"properties":{"id":85843,"name":"Białobrzegi","state_code":"14","country_code":"PL"}},{"type":"Feature","geometry":{"type":"Point","coordinates":[20.97204,52.32127]},"properties":{"id":85846,"name":"Białołeka","state_code":"14","country_code":"PL"}},{"type":"Feature","geometry":{"type":"Point","coordinates":[20.93531,52.29242]},"properties":{"id":85852,"name":"Bielany","state_code":"14","country_code":"PL"}},{"type":"Feature","geometry":{"type":"Point","coordinates":[19.805,52.6718]},"properties":{"id":85859,"name":"Bielsk","state_code":"14","country_code":"PL"}},{"type":"Feature","geometry":{"type":"Point","coordinates":[20.56306,52.18268]},"properties":{"id":85863,"name":"Bieniewice","state_code":"14","country_code":"PL"}},{"type":"Feature","geometry":{"type":"Point","coordinates":[19.88976,52.96107]},"properties":{"id":85870,"name":"Bieżuń","state_code":"14","country_code":"PL"}},{"type":"Feature","geometry":{"type":"Point","coordinates":[20.69798,51.77767]},"properties":{"id":86017,"name":"Błędów","state_code":"14","country_code":"PL"}},{"type":"Feature","geometry":{"type":"Point","coordinates":[20.61709,52.19849]},"properties":{"id":86016,"name":"Błonie","state_code":"14","country_code":"PL"}},{"type":"Feature","geometry":{"type":"Point","coordinates":[20.02945,52.49992]},"properties":{"id":85893,"name":"Bodzanów","state_code":"14","country_code":"PL"}},{"type":"Feature","geometry":{"type":"Point","coordinates":[22.41546,52.7168]},"properties":{"id":85900,"name":"Boguty-Pianki","state_code":"14","country_code":"PL"}},{"type":"Feature","geometry":{"type":"Point","coordinates":[20.68339,51.32025]},"properties":{"id":85921,"name":"Borkowice","state_code":"14","country_code":"PL"}},{"type":"Feature","geometry":{"type":"Point","coordinates":[21.7658,51.94908]},"properties":{"id":85925,"name":"Borowie","state_code":"14","country_code":"PL"}},{"type":"Feature","geometry":{"type":"Point","coordinates":[21.58745,52.62931]},"properties":{"id":85938,"name":"Brańszczyk","state_code":"14","country_code":"PL"}},{"type":"Feature","geometry":{"type":"Point","coordinates":[20.26257,52.3195]},"properties":{"id":85942,"name":"Brochów","state_code":"14","country_code":"PL"}},{"type":"Feature","geometry":{"type":"Point","coordinates":[20.74974,52.47797]},"properties":{"id":85948,"name":"Brody-Parcele","state_code":"14","country_code":"PL"}},{"type":"Feature","geometry":{"type":"Point","coordinates":[21.85704,52.69948]},"properties":{"id":85951,"name":"Brok","state_code":"14","country_code":"PL"}},{"type":"Feature","geometry":{"type":"Point","coordinates":[19.50399,52.66884]},"properties":{"id":85955,"name":"Brudzeń Duży","state_code":"14","country_code":"PL"}},{"type":"Feature","geometry":{"type":"Point","coordinates":[20.71697,52.14269]},"properties":{"id":85957,"name":"Brwinów","state_code":"14","country_code":"PL"}},{"type":"Feature","geometry":{"type":"Point","coordinates":[20.11889,52.54087]},"properties":{"id":85993,"name":"Bulkowo","state_code":"14","country_code":"PL"}},{"type":"Feature","geometry":{"type":"Point","coordinates":[21.73739,52.14782]},"properties":{"id":86020,"name":"Cegłów","state_code":"14","country_code":"PL"}},{"type":"Feature","geometry":{"type":"Point","coordinates":[21.39107,52.06093]},"properties":{"id":86022,"name":"Celestynów","state_code":"14","country_code":"PL"}},{"type":"Feature","geometry":{"type":"Point","coordinates":[22.22826,52.63082]},"properties":{"id":86023,"name":"Ceranów","state_code":"14","country_code":"PL"}},{"type":"Feature","geometry":{"type":"Point","coordinates":[20.76871,51.24376]},"properties":{"id":86033,"name":"Chlewiska","state_code":"14","country_code":"PL"}},{"type":"Feature","geometry":{"type":"Point","coordinates":[20.89728,53.26075]},"properties":{"id":86054,"name":"Chorzele","state_code":"14","country_code":"PL"}},{"type":"Feature","geometry":{"type":"Point","coordinates":[21.77662,51.24043]},"properties":{"id":86057,"name":"Chotcza","state_code":"14","country_code":"PL"}},{"type":"Feature","geometry":{"type":"Point","coordinates":[21.08208,51.90425]},"properties":{"id":86070,"name":"Chynów","state_code":"14","country_code":"PL"}},{"type":"Feature","geometry":{"type":"Point","coordinates":[20.61996,52.88141]},"properties":{"id":86077,"name":"Ciechanów","state_code":"14","country_code":"PL"}},{"type":"Feature","geometry":{"type":"Point","coordinates":[21.57475,51.24838]},"properties":{"id":86083,"name":"Ciepielów","state_code":"14","country_code":"PL"}},{"type":"Feature","geometry":{"type":"Point","coordinates":[21.1952,53.35614]},"properties":{"id":86110,"name":"Czarnia","state_code":"14","country_code":"PL"}},{"type":"Feature","geometry":{"type":"Point","coordinates":[20.71944,53.03197]},"properties":{"id":86131,"name":"Czernice Borowe","state_code":"14","country_code":"PL"}},{"type":"Feature","geometry":{"type":"Point","coordinates":[21.75842,52.94905]},"properties":{"id":86140,"name":"Czerwin","state_code":"14","country_code":"PL"}},{"type":"Feature","geometry":{"type":"Point","coordinates":[20.3096,52.39828]},"properties":{"id":86142,"name":"Czerwińsk Nad Wisłą","state_code":"14","country_code":"PL"}},{"type":"Feature","geometry":{"type":"Point","coordinates":[21.21494,52.89254]},"properties":{"id":86144,"name":"Czerwonka","state_code":"14","country_code":"PL"}},{"type":"Feature","geometry":{"type":"Point","coordinates":[21.29794,52.48388]},"properties":{"id":86244,"name":"Dąbrówka","state_code":"14","country_code":"PL"}},{"type":"Feature","geometry":{"type":"Point","coordinates":[21.44334,52.19961]},"properties":{"id":86246,"name":"Dębe Wielkie","state_code":"14","country_code":"PL"}},{"type":"Feature","geometry":{"type":"Point","coordinates":[21.59183,52.75998]},"properties":{"id":86260,"name":"Długosiodło","state_code":"14","country_code":"PL"}},{"type":"Feature","geometry":{"type":"Point","coordinates":[21.67881,52.32097]},"properties":{"id":86170,"name":"Dobre","state_code":"14","country_code":"PL"}},{"type":"Feature","geometry":{"type":"Point","coordinates":[22.17642,52.03739]},"properties":{"id":86183,"name":"Domanice","state_code":"14","country_code":"PL"}},{"type":"Feature","geometry":{"type":"Point","coordinates":[19.98928,52.73775]},"properties":{"id":86198,"name":"Drobin","state_code":"14","country_code":"PL"}},{"type":"Feature","geometry":{"type":"Point","coordinates":[21.29047,52.36271]},"properties":{"id":86206,"name":"Duczki","state_code":"14","country_code":"PL"}},{"type":"Feature","geometry":{"type":"Point","coordinates":[20.85124,52.35243]},"properties":{"id":86219,"name":"Dziekanów Leśny","state_code":"14","country_code":"PL"}},{"type":"Feature","geometry":{"type":"Point","coordinates":[20.23364,52.62811]},"properties":{"id":86224,"name":"Dzierzążnia","state_code":"14","country_code":"PL"}},{"type":"Feature","geometry":{"type":"Point","coordinates":[20.66322,53.15279]},"properties":{"id":86222,"name":"Dzierzgowo","state_code":"14","country_code":"PL"}},{"type":"Feature","geometry":{"type":"Point","coordinates":[19.73509,52.39849]},"properties":{"id":86422,"name":"Gąbin","state_code":"14","country_code":"PL"}},{"type":"Feature","geometry":{"type":"Point","coordinates":[21.61079,51.4832]},"properties":{"id":86281,"name":"Garbatka-Letnisko","state_code":"14","country_code":"PL"}},{"type":"Feature","geometry":{"type":"Point","coordinates":[21.61466,51.89747]},"properties":{"id":86286,"name":"Garwolin","state_code":"14","country_code":"PL"}},{"type":"Feature","geometry":{"type":"Point","coordinates":[20.7118,52.73754]},"properties":{"id":86425,"name":"Gąsocin","state_code":"14","country_code":"PL"}},{"type":"Feature","geometry":{"type":"Point","coordinates":[20.48126,51.40076]},"properties":{"id":86297,"name":"Gielniów","state_code":"14","country_code":"PL"}},{"type":"Feature","geometry":{"type":"Point","coordinates":[20.29198,52.81983]},"properties":{"id":86306,"name":"Glinojeck","state_code":"14","country_code":"PL"}},{"type":"Feature","geometry":{"type":"Point","coordinates":[20.87325,52.808]},"properties":{"id":86358,"name":"Gołymin-Ośrodek","state_code":"14","country_code":"PL"}},{"type":"Feature","geometry":{"type":"Point","coordinates":[21.21537,51.97653]},"properties":{"id":86410,"name":"Góra Kalwaria","state_code":"14","country_code":"PL"}},{"type":"Feature","geometry":{"type":"Point","coordinates":[21.70933,51.84681]},"properties":{"id":86418,"name":"Górzno","state_code":"14","country_code":"PL"}},{"type":"Feature","geometry":{"type":"Point","coordinates":[19.46194,52.42938]},"properties":{"id":86345,"name":"Gostynin","state_code":"14","country_code":"PL"}},{"type":"Feature","geometry":{"type":"Point","coordinates":[20.85154,51.73187]},"properties":{"id":86349,"name":"Goszczyn","state_code":"14","country_code":"PL"}},{"type":"Feature","geometry":{"type":"Point","coordinates":[21.55578,52.90083]},"properties":{"id":86351,"name":"Goworowo","state_code":"14","country_code":"PL"}},{"type":"Feature","geometry":{"type":"Point","coordinates":[21.37914,51.37832]},"properties":{"id":86421,"name":"Gózd","state_code":"14","country_code":"PL"}},{"type":"Feature","geometry":{"type":"Point","coordinates":[19.68501,52.72455]},"properties":{"id":86353,"name":"Gozdowo","state_code":"14","country_code":"PL"}},{"type":"Feature","geometry":{"type":"Point","coordinates":[20.80313,52.13359]},"properties":{"id":86371,"name":"Granica","state_code":"14","country_code":"PL"}},{"type":"Feature","geometry":{"type":"Point","coordinates":[21.90974,52.26931]},"properties":{"id":86400,"name":"Grębków","state_code":"14","country_code":"PL"}},{"type":"Feature","geometry":{"type":"Point","coordinates":[20.6337,52.10387]},"properties":{"id":86375,"name":"Grodzisk Mazowiecki","state_code":"14","country_code":"PL"}},{"type":"Feature","geometry":{"type":"Point","coordinates":[20.86757,51.86252]},"properties":{"id":86399,"name":"Grójec","state_code":"14","country_code":"PL"}},{"type":"Feature","geometry":{"type":"Point","coordinates":[20.62494,53.05845]},"properties":{"id":86385,"name":"Grudusk","state_code":"14","country_code":"PL"}},{"type":"Feature","geometry":{"type":"Point","coordinates":[20.33672,52.11626]},"properties":{"id":86405,"name":"Guzów","state_code":"14","country_code":"PL"}},{"type":"Feature","geometry":{"type":"Point","coordinates":[20.94372,52.74045]},"properties":{"id":86407,"name":"Gzy","state_code":"14","country_code":"PL"}},{"type":"Feature","geometry":{"type":"Point","coordinates":[21.3551,52.2288]},"properties":{"id":86440,"name":"Halinów","state_code":"14","country_code":"PL"}},{"type":"Feature","geometry":{"type":"Point","coordinates":[20.80793,52.28638]},"properties":{"id":86449,"name":"Hornówek","state_code":"14","country_code":"PL"}},{"type":"Feature","geometry":{"type":"Point","coordinates":[20.0273,52.33953]},"properties":{"id":86475,"name":"Iłów","state_code":"14","country_code":"PL"}},{"type":"Feature","geometry":{"type":"Point","coordinates":[21.23979,51.16313]},"properties":{"id":86476,"name":"Iłża","state_code":"14","country_code":"PL"}},{"type":"Feature","geometry":{"type":"Point","coordinates":[20.81729,52.29992]},"properties":{"id":86467,"name":"Izabelin","state_code":"14","country_code":"PL"}},{"type":"Feature","geometry":{"type":"Point","coordinates":[20.91745,52.37885]},"properties":{"id":86482,"name":"Jabłonna","state_code":"14","country_code":"PL"}},{"type":"Feature","geometry":{"type":"Point","coordinates":[22.44228,52.47664]},"properties":{"id":86484,"name":"Jabłonna Lacka","state_code":"14","country_code":"PL"}},{"type":"Feature","geometry":{"type":"Point","coordinates":[21.63199,52.47849]},"properties":{"id":86489,"name":"Jadów","state_code":"14","country_code":"PL"}},{"type":"Feature","geometry":{"type":"Point","coordinates":[21.68032,52.21965]},"properties":{"id":86492,"name":"Jakubów","state_code":"14","country_code":"PL"}},{"type":"Feature","geometry":{"type":"Point","coordinates":[21.4115,52.41415]},"properties":{"id":86512,"name":"Jasienica","state_code":"14","country_code":"PL"}},{"type":"Feature","geometry":{"type":"Point","coordinates":[20.94099,51.82104]},"properties":{"id":86516,"name":"Jasieniec","state_code":"14","country_code":"PL"}},{"type":"Feature","geometry":{"type":"Point","coordinates":[20.94758,51.24725]},"properties":{"id":86523,"name":"Jastrząb","state_code":"14","country_code":"PL"}},{"type":"Feature","geometry":{"type":"Point","coordinates":[21.23709,51.49742]},"properties":{"id":86525,"name":"Jastrzębia","state_code":"14","country_code":"PL"}},{"type":"Feature","geometry":{"type":"Point","coordinates":[21.11577,51.514]},"properties":{"id":86542,"name":"Jedlińsk","state_code":"14","country_code":"PL"}},{"type":"Feature","geometry":{"type":"Point","coordinates":[21.33536,51.43074]},"properties":{"id":86543,"name":"Jedlnia-Letnisko","state_code":"14","country_code":"PL"}},{"type":"Feature","geometry":{"type":"Point","coordinates":[21.05161,53.14116]},"properties":{"id":86544,"name":"Jednorożec","state_code":"14","country_code":"PL"}},{"type":"Feature","geometry":{"type":"Point","coordinates":[20.58177,52.60128]},"properties":{"id":86566,"name":"Joniec","state_code":"14","country_code":"PL"}},{"type":"Feature","geometry":{"type":"Point","coordinates":[21.04629,52.1005]},"properties":{"id":86574,"name":"Józefosław","state_code":"14","country_code":"PL"}},{"type":"Feature","geometry":{"type":"Point","coordinates":[21.23589,52.13707]},"properties":{"id":86576,"name":"Józefów","state_code":"14","country_code":"PL"}},{"type":"Feature","geometry":{"type":"Point","coordinates":[21.08148,52.13012]},"properties":{"id":86579,"name":"Kabaty","state_code":"14","country_code":"PL"}},{"type":"Feature","geometry":{"type":"Point","coordinates":[21.46454,53.23435]},"properties":{"id":86582,"name":"Kadzidło","state_code":"14","country_code":"PL"}},{"type":"Feature","geometry":{"type":"Point","coordinates":[21.80838,52.20669]},"properties":{"id":86628,"name":"Kałuszyn","state_code":"14","country_code":"PL"}},{"type":"Feature","geometry":{"type":"Point","coordinates":[20.46307,52.26837]},"properties":{"id":86605,"name":"Kampinos","state_code":"14","country_code":"PL"}},{"type":"Feature","geometry":{"type":"Point","coordinates":[21.24962,52.07655]},"properties":{"id":86609,"name":"Karczew","state_code":"14","country_code":"PL"}},{"type":"Feature","geometry":{"type":"Point","coordinates":[20.98886,52.837]},"properties":{"id":86614,"name":"Karniewo","state_code":"14","country_code":"PL"}},{"type":"Feature","geometry":{"type":"Point","coordinates":[21.46737,51.27593]},"properties":{"id":86624,"name":"Kazanów","state_code":"14","country_code":"PL"}},{"type":"Feature","geometry":{"type":"Point","coordinates":[20.86214,52.35796]},"properties":{"id":86637,"name":"Kiełpin","state_code":"14","country_code":"PL"}},{"type":"Feature","geometry":{"type":"Point","coordinates":[21.33176,52.4065]},"properties":{"id":86644,"name":"Klembów","state_code":"14","country_code":"PL"}},{"type":"Feature","geometry":{"type":"Point","coordinates":[20.63644,51.53448]},"properties":{"id":86657,"name":"Klwów","state_code":"14","country_code":"PL"}},{"type":"Feature","geometry":{"type":"Point","coordinates":[21.19589,52.33953]},"properties":{"id":86669,"name":"Kobyłka","state_code":"14","country_code":"PL"}},{"type":"Feature","geometry":{"type":"Point","coordinates":[21.48153,52.06431]},"properties":{"id":86743,"name":"Kołbiel","state_code":"14","country_code":"PL"}},{"type":"Feature","geometry":{"type":"Point","coordinates":[20.81566,52.1456]},"properties":{"id":86687,"name":"Komorów","state_code":"14","country_code":"PL"}},{"type":"Feature","geometry":{"type":"Point","coordinates":[21.11761,52.0938]},"properties":{"id":86696,"name":"Konstancin-Jeziorna","state_code":"14","country_code":"PL"}},{"type":"Feature","geometry":{"type":"Point","coordinates":[22.61338,52.35327]},"properties":{"id":86701,"name":"Korczew","state_code":"14","country_code":"PL"}},{"type":"Feature","geometry":{"type":"Point","coordinates":[21.84949,52.41441]},"properties":{"id":86708,"name":"Korytnica","state_code":"14","country_code":"PL"}},{"type":"Feature","geometry":{"type":"Point","coordinates":[22.14707,52.59541]},"properties":{"id":86721,"name":"Kosów Lacki","state_code":"14","country_code":"PL"}},{"type":"Feature","geometry":{"type":"Point","coordinates":[22.06819,52.17643]},"properties":{"id":86724,"name":"Kotuń","state_code":"14","country_code":"PL"}},{"type":"Feature","geometry":{"type":"Point","coordinates":[21.06972,51.32503]},"properties":{"id":86726,"name":"Kowala","state_code":"14","country_code":"PL"}},{"type":"Feature","geometry":{"type":"Point","coordinates":[21.54779,51.58294]},"properties":{"id":86735,"name":"Kozienice","state_code":"14","country_code":"PL"}},{"type":"Feature","geometry":{"type":"Point","coordinates":[20.96732,52.92401]},"properties":{"id":86768,"name":"Krasne","state_code":"14","country_code":"PL"}},{"type":"Feature","geometry":{"type":"Point","coordinates":[21.15735,53.03378]},"properties":{"id":86772,"name":"Krasnosielc","state_code":"14","country_code":"PL"}},{"type":"Feature","geometry":{"type":"Point","coordinates":[20.78579,53.15773]},"properties":{"id":86815,"name":"Krzynowłoga Mała","state_code":"14","country_code":"PL"}},{"type":"Feature","geometry":{"type":"Point","coordinates":[20.04782,53.08619]},"properties":{"id":86834,"name":"Kuczbork-Osada","state_code":"14","country_code":"PL"}},{"type":"Feature","geometry":{"type":"Point","coordinates":[21.80829,52.02636]},"properties":{"id":86874,"name":"Latowicz","state_code":"14","country_code":"PL"}},{"type":"Feature","geometry":{"type":"Point","coordinates":[20.92664,52.40149]},"properties":{"id":86876,"name":"Legionowo","state_code":"14","country_code":"PL"}},{"type":"Feature","geometry":{"type":"Point","coordinates":[20.59121,52.25799]},"properties":{"id":86882,"name":"Leszno","state_code":"14","country_code":"PL"}},{"type":"Feature","geometry":{"type":"Point","coordinates":[20.93479,52.09095]},"properties":{"id":86884,"name":"Lesznowola","state_code":"14","country_code":"PL"}},{"type":"Feature","geometry":{"type":"Point","coordinates":[20.17639,53.10459]},"properties":{"id":86920,"name":"Lipowiec Kościelny","state_code":"14","country_code":"PL"}},{"type":"Feature","geometry":{"type":"Point","coordinates":[21.64933,51.15954]},"properties":{"id":86922,"name":"Lipsko","state_code":"14","country_code":"PL"}},{"type":"Feature","geometry":{"type":"Point","coordinates":[19.84594,53.11865]},"properties":{"id":86955,"name":"Lubowidz","state_code":"14","country_code":"PL"}},{"type":"Feature","geometry":{"type":"Point","coordinates":[19.76655,52.98152]},"properties":{"id":86967,"name":"Lutocin","state_code":"14","country_code":"PL"}},{"type":"Feature","geometry":{"type":"Point","coordinates":[19.61137,52.46621]},"properties":{"id":88811,"name":"Łąck","state_code":"14","country_code":"PL"}},{"type":"Feature","geometry":{"type":"Point","coordinates":[20.94946,52.42873]},"properties":{"id":88762,"name":"Łajski","state_code":"14","country_code":"PL"}},{"type":"Feature","geometry":{"type":"Point","coordinates":[21.59122,51.78993]},"properties":{"id":88771,"name":"Łaskarzew","state_code":"14","country_code":"PL"}},{"type":"Feature","geometry":{"type":"Point","coordinates":[21.68158,52.53076]},"properties":{"id":88782,"name":"Łochów","state_code":"14","country_code":"PL"}},{"type":"Feature","geometry":{"type":"Point","coordinates":[20.88602,52.33413]},"properties":{"id":88785,"name":"Łomianki","state_code":"14","country_code":"PL"}},{"type":"Feature","geometry":{"type":"Point","coordinates":[22.71801,52.21129]},"properties":{"id":88792,"name":"Łosice","state_code":"14","country_code":"PL"}},{"type":"Feature","geometry":{"type":"Point","coordinates":[21.56487,53.36443]},"properties":{"id":88807,"name":"Łyse","state_code":"14","country_code":"PL"}},{"type":"Feature","geometry":{"type":"Point","coordinates":[21.55342,51.69222]},"properties":{"id":86980,"name":"Maciejowice","state_code":"14","country_code":"PL"}},{"type":"Feature","geometry":{"type":"Point","coordinates":[21.10053,52.86493]},"properties":{"id":86983,"name":"Maków Mazowiecki","state_code":"14","country_code":"PL"}},{"type":"Feature","geometry":{"type":"Point","coordinates":[20.10223,52.45779]},"properties":{"id":87005,"name":"Mała Wieś","state_code":"14","country_code":"PL"}},{"type":"Feature","geometry":{"type":"Point","coordinates":[22.02836,52.6922]},"properties":{"id":87007,"name":"Małkinia Górna","state_code":"14","country_code":"PL"}},{"type":"Feature","geometry":{"type":"Point","coordinates":[21.10474,52.32065]},"properties":{"id":86994,"name":"Marki","state_code":"14","country_code":"PL"}},{"type":"Feature","geometry":{"type":"Point","coordinates":[19.62905,52.58026]},"properties":{"id":87001,"name":"Maszewo Duże","state_code":"14","country_code":"PL"}},{"type":"Feature","geometry":{"type":"Point","coordinates":[21.82528,51.88407]},"properties":{"id":87018,"name":"Miastków Kościelny","state_code":"14","country_code":"PL"}},{"type":"Feature","geometry":{"type":"Point","coordinates":[20.96595,52.41711]},"properties":{"id":87024,"name":"Michałów-Reginów","state_code":"14","country_code":"PL"}},{"type":"Feature","geometry":{"type":"Point","coordinates":[20.88089,52.17435]},"properties":{"id":87019,"name":"Michałowice","state_code":"14","country_code":"PL"}},{"type":"Feature","geometry":{"type":"Point","coordinates":[22.08947,52.46778]},"properties":{"id":87030,"name":"Miedzna","state_code":"14","country_code":"PL"}},{"type":"Feature","geometry":{"type":"Point","coordinates":[21.57457,51.92135]},"properties":{"id":87069,"name":"Miętne","state_code":"14","country_code":"PL"}},{"type":"Feature","geometry":{"type":"Point","coordinates":[20.67155,52.11879]},"properties":{"id":87047,"name":"Milanówek","state_code":"14","country_code":"PL"}},{"type":"Feature","geometry":{"type":"Point","coordinates":[21.57251,52.17935]},"properties":{"id":87075,"name":"Mińsk Mazowiecki","state_code":"14","country_code":"PL"}},{"type":"Feature","geometry":{"type":"Point","coordinates":[20.3841,53.11278]},"properties":{"id":87127,"name":"Mława","state_code":"14","country_code":"PL"}},{"type":"Feature","geometry":{"type":"Point","coordinates":[20.20017,52.29945]},"properties":{"id":87128,"name":"Młodzieszyn","state_code":"14","country_code":"PL"}},{"type":"Feature","geometry":{"type":"Point","coordinates":[21.41141,52.95417]},"properties":{"id":87130,"name":"Młynarze","state_code":"14","country_code":"PL"}},{"type":"Feature","geometry":{"type":"Point","coordinates":[19.55592,52.7657]},"properties":{"id":87080,"name":"Mochowo","state_code":"14","country_code":"PL"}},{"type":"Feature","geometry":{"type":"Point","coordinates":[20.72227,51.69432]},"properties":{"id":87084,"name":"Mogielnica","state_code":"14","country_code":"PL"}},{"type":"Feature","geometry":{"type":"Point","coordinates":[22.11182,52.26523]},"properties":{"id":87087,"name":"Mokobody","state_code":"14","country_code":"PL"}},{"type":"Feature","geometry":{"type":"Point","coordinates":[21.03487,52.1934]},"properties":{"id":87088,"name":"Mokotów","state_code":"14","country_code":"PL"}},{"type":"Feature","geometry":{"type":"Point","coordinates":[22.51725,52.2116]},"properties":{"id":87091,"name":"Mordy","state_code":"14","country_code":"PL"}},{"type":"Feature","geometry":{"type":"Point","coordinates":[20.36702,52.01975]},"properties":{"id":87102,"name":"Mrozy","state_code":"14","country_code":"PL"}},{"type":"Feature","geometry":{"type":"Point","coordinates":[20.52083,51.97415]},"properties":{"id":87111,"name":"Mszczonów","state_code":"14","country_code":"PL"}},{"type":"Feature","geometry":{"type":"Point","coordinates":[21.01856,52.10216]},"properties":{"id":87117,"name":"Mysiadło","state_code":"14","country_code":"PL"}},{"type":"Feature","geometry":{"type":"Point","coordinates":[21.34961,53.38055]},"properties":{"id":87119,"name":"Myszyniec","state_code":"14","country_code":"PL"}},{"type":"Feature","geometry":{"type":"Point","coordinates":[20.80776,52.09438]},"properties":{"id":87131,"name":"Nadarzyn","state_code":"14","country_code":"PL"}},{"type":"Feature","geometry":{"type":"Point","coordinates":[20.35157,52.52687]},"properties":{"id":87140,"name":"Naruszewo","state_code":"14","country_code":"PL"}},{"type":"Feature","geometry":{"type":"Point","coordinates":[20.80553,52.58887]},"properties":{"id":87141,"name":"Nasielsk","state_code":"14","country_code":"PL"}},{"type":"Feature","geometry":{"type":"Point","coordinates":[21.03212,52.43152]},"properties":{"id":87166,"name":"Nieporęt","state_code":"14","country_code":"PL"}},{"type":"Feature","geometry":{"type":"Point","coordinates":[20.9111,52.15924]},"properties":{"id":87182,"name":"Nowe Grocholice","state_code":"14","country_code":"PL"}},{"type":"Feature","geometry":{"type":"Point","coordinates":[21.27125,52.35789]},"properties":{"id":87183,"name":"Nowe Lipiny","state_code":"14","country_code":"PL"}},{"type":"Feature","geometry":{"type":"Point","coordinates":[20.62838,52.65691]},"properties":{"id":87185,"name":"Nowe Miasto","state_code":"14","country_code":"PL"}},{"type":"Feature","geometry":{"type":"Point","coordinates":[20.57619,51.61812]},"properties":{"id":87187,"name":"Nowe Miasto nad Pilicą","state_code":"14","country_code":"PL"}},{"type":"Feature","geometry":{"type":"Point","coordinates":[19.47996,52.58271]},"properties":{"id":87201,"name":"Nowy Duninów","state_code":"14","country_code":"PL"}},{"type":"Feature","geometry":{"type":"Point","coordinates":[20.71652,52.43022]},"properties":{"id":87203,"name":"Nowy Dwór Mazowiecki","state_code":"14","country_code":"PL"}},{"type":"Feature","geometry":{"type":"Point","coordinates":[22.32207,52.66826]},"properties":{"id":87212,"name":"Nur","state_code":"14","country_code":"PL"}},{"type":"Feature","geometry":{"type":"Point","coordinates":[21.24945,52.71633]},"properties":{"id":87220,"name":"Obryte","state_code":"14","country_code":"PL"}},{"type":"Feature","geometry":{"type":"Point","coordinates":[20.98526,52.22096]},"properties":{"id":87226,"name":"Ochota","state_code":"14","country_code":"PL"}},{"type":"Feature","geometry":{"type":"Point","coordinates":[20.55559,51.51953]},"properties":{"id":87230,"name":"Odrzywół","state_code":"14","country_code":"PL"}},{"type":"Feature","geometry":{"type":"Point","coordinates":[20.54315,52.7657]},"properties":{"id":87232,"name":"Ojrzeń","state_code":"14","country_code":"PL"}},{"type":"Feature","geometry":{"type":"Point","coordinates":[20.71781,52.90554]},"properties":{"id":87260,"name":"Opinogóra Górna","state_code":"14","country_code":"PL"}},{"type":"Feature","geometry":{"type":"Point","coordinates":[20.99067,51.31339]},"properties":{"id":87270,"name":"Orońsko","state_code":"14","country_code":"PL"}},{"type":"Feature","geometry":{"type":"Point","coordinates":[21.41913,51.96653]},"properties":{"id":87277,"name":"Osieck","state_code":"14","country_code":"PL"}},{"type":"Feature","geometry":{"type":"Point","coordinates":[21.57566,53.08621]},"properties":{"id":87305,"name":"Ostrołęka","state_code":"14","country_code":"PL"}},{"type":"Feature","geometry":{"type":"Point","coordinates":[21.89507,52.80245]},"properties":{"id":87310,"name":"Ostrów Mazowiecka","state_code":"14","country_code":"PL"}},{"type":"Feature","geometry":{"type":"Point","coordinates":[21.76014,52.5535]},"properties":{"id":87312,"name":"Ostrówek","state_code":"14","country_code":"PL"}},{"type":"Feature","geometry":{"type":"Point","coordinates":[20.76073,52.12843]},"properties":{"id":87316,"name":"Otrębusy","state_code":"14","country_code":"PL"}},{"type":"Feature","geometry":{"type":"Point","coordinates":[21.26129,52.10577]},"properties":{"id":87317,"name":"Otwock","state_code":"14","country_code":"PL"}},{"type":"Feature","geometry":{"type":"Point","coordinates":[20.70468,52.11114]},"properties":{"id":87319,"name":"Owczarnia","state_code":"14","country_code":"PL"}},{"type":"Feature","geometry":{"type":"Point","coordinates":[20.79716,52.21039]},"properties":{"id":87329,"name":"Ożarów Mazowiecki","state_code":"14","country_code":"PL"}},{"type":"Feature","geometry":{"type":"Point","coordinates":[19.70982,52.30281]},"properties":{"id":87332,"name":"Pacyna","state_code":"14","country_code":"PL"}},{"type":"Feature","geometry":{"type":"Point","coordinates":[20.4232,52.20513]},"properties":{"id":87344,"name":"Paprotnia","state_code":"14","country_code":"PL"}},{"type":"Feature","geometry":{"type":"Point","coordinates":[21.68006,51.97584]},"properties":{"id":87349,"name":"Parysów","state_code":"14","country_code":"PL"}},{"type":"Feature","geometry":{"type":"Point","coordinates":[21.02397,52.0814]},"properties":{"id":87368,"name":"Piaseczno","state_code":"14","country_code":"PL"}},{"type":"Feature","geometry":{"type":"Point","coordinates":[20.83952,52.18435]},"properties":{"id":87372,"name":"Piastów","state_code":"14","country_code":"PL"}},{"type":"Feature","geometry":{"type":"Point","coordinates":[21.53089,51.95945]},"properties":{"id":87387,"name":"Pilawa","state_code":"14","country_code":"PL"}},{"type":"Feature","geometry":{"type":"Point","coordinates":[21.44995,51.47604]},"properties":{"id":87392,"name":"Pionki","state_code":"14","country_code":"PL"}},{"type":"Feature","geometry":{"type":"Point","coordinates":[19.70638,52.54682]},"properties":{"id":87864,"name":"Płock","state_code":"14","country_code":"PL"}},{"type":"Feature","geometry":{"type":"Point","coordinates":[21.07178,52.9778]},"properties":{"id":87865,"name":"Płoniawy-Bramura","state_code":"14","country_code":"PL"}},{"type":"Feature","geometry":{"type":"Point","coordinates":[20.37552,52.62348]},"properties":{"id":87867,"name":"Płońsk","state_code":"14","country_code":"PL"}},{"type":"Feature","geometry":{"type":"Point","coordinates":[21.7442,51.64023]},"properties":{"id":87413,"name":"Podebłocie","state_code":"14","country_code":"PL"}},{"type":"Feature","geometry":{"type":"Point","coordinates":[20.72665,52.12237]},"properties":{"id":87417,"name":"Podkowa Leśna","state_code":"14","country_code":"PL"}},{"type":"Feature","geometry":{"type":"Point","coordinates":[21.01925,52.62072]},"properties":{"id":87427,"name":"Pokrzywnica","state_code":"14","country_code":"PL"}},{"type":"Feature","geometry":{"type":"Point","coordinates":[21.62684,51.45545]},"properties":{"id":87435,"name":"Policzna","state_code":"14","country_code":"PL"}},{"type":"Feature","geometry":{"type":"Point","coordinates":[20.72923,52.47138]},"properties":{"id":87438,"name":"Pomiechówek","state_code":"14","country_code":"PL"}},{"type":"Feature","geometry":{"type":"Point","coordinates":[21.42137,52.32967]},"properties":{"id":87780,"name":"Poświętne","state_code":"14","country_code":"PL"}},{"type":"Feature","geometry":{"type":"Point","coordinates":[20.72176,51.50874]},"properties":{"id":87455,"name":"Potworów","state_code":"14","country_code":"PL"}},{"type":"Feature","geometry":{"type":"Point","coordinates":[21.03472,52.25443]},"properties":{"id":87786,"name":"Praga Północ","state_code":"14","country_code":"PL"}},{"type":"Feature","geometry":{"type":"Point","coordinates":[21.08545,52.24424]},"properties":{"id":87785,"name":"Praga Południe","state_code":"14","country_code":"PL"}},{"type":"Feature","geometry":{"type":"Point","coordinates":[20.95479,51.9404]},"properties":{"id":87788,"name":"Prażmów","state_code":"14","country_code":"PL"}},{"type":"Feature","geometry":{"type":"Point","coordinates":[20.95917,51.68006]},"properties":{"id":87790,"name":"Promna","state_code":"14","country_code":"PL"}},{"type":"Feature","geometry":{"type":"Point","coordinates":[20.81214,52.17072]},"properties":{"id":87799,"name":"Pruszków","state_code":"14","country_code":"PL"}},{"type":"Feature","geometry":{"type":"Point","coordinates":[20.88029,53.01907]},"properties":{"id":87800,"name":"Przasnysz","state_code":"14","country_code":"PL"}},{"type":"Feature","geometry":{"type":"Point","coordinates":[22.58394,52.26816]},"properties":{"id":87814,"name":"Przesmyki","state_code":"14","country_code":"PL"}},{"type":"Feature","geometry":{"type":"Point","coordinates":[21.74744,51.30856]},"properties":{"id":87835,"name":"Przyłęk","state_code":"14","country_code":"PL"}},{"type":"Feature","geometry":{"type":"Point","coordinates":[20.62889,51.35858]},"properties":{"id":87828,"name":"Przysucha","state_code":"14","country_code":"PL"}},{"type":"Feature","geometry":{"type":"Point","coordinates":[20.90587,51.46567]},"properties":{"id":87833,"name":"Przytyk","state_code":"14","country_code":"PL"}},{"type":"Feature","geometry":{"type":"Point","coordinates":[21.08276,52.7025]},"properties":{"id":87852,"name":"Pułtusk","state_code":"14","country_code":"PL"}},{"type":"Feature","geometry":{"type":"Point","coordinates":[20.35037,51.97901]},"properties":{"id":87849,"name":"Puszcza Mariańska","state_code":"14","country_code":"PL"}},{"type":"Feature","geometry":{"type":"Point","coordinates":[20.1177,52.78152]},"properties":{"id":87873,"name":"Raciąż","state_code":"14","country_code":"PL"}},{"type":"Feature","geometry":{"type":"Point","coordinates":[21.14714,51.40253]},"properties":{"id":87884,"name":"Radom","state_code":"14","country_code":"PL"}},{"type":"Feature","geometry":{"type":"Point","coordinates":[20.09219,52.94238]},"properties":{"id":87895,"name":"Radzanów","state_code":"14","country_code":"PL"}},{"type":"Feature","geometry":{"type":"Point","coordinates":[19.89109,52.57306]},"properties":{"id":87894,"name":"Radzanowo","state_code":"14","country_code":"PL"}},{"type":"Feature","geometry":{"type":"Point","coordinates":[20.5477,52.00834]},"properties":{"id":87897,"name":"Radziejowice","state_code":"14","country_code":"PL"}},{"type":"Feature","geometry":{"type":"Point","coordinates":[21.18415,52.41592]},"properties":{"id":87902,"name":"Radzymin","state_code":"14","country_code":"PL"}},{"type":"Feature","geometry":{"type":"Point","coordinates":[20.9226,52.15603]},"properties":{"id":87916,"name":"Raszyn","state_code":"14","country_code":"PL"}},{"type":"Feature","geometry":{"type":"Point","coordinates":[20.55319,52.94166]},"properties":{"id":87922,"name":"Regimin","state_code":"14","country_code":"PL"}},{"type":"Feature","geometry":{"type":"Point","coordinates":[21.16355,52.26059]},"properties":{"id":87936,"name":"Rembertów","state_code":"14","country_code":"PL"}},{"type":"Feature","geometry":{"type":"Point","coordinates":[22.39117,52.38555]},"properties":{"id":87937,"name":"Repki","state_code":"14","country_code":"PL"}},{"type":"Feature","geometry":{"type":"Point","coordinates":[19.77419,52.90331]},"properties":{"id":87968,"name":"Rościszewo","state_code":"14","country_code":"PL"}},{"type":"Feature","geometry":{"type":"Point","coordinates":[21.39105,52.88757]},"properties":{"id":88033,"name":"Różan","state_code":"14","country_code":"PL"}},{"type":"Feature","geometry":{"type":"Point","coordinates":[20.58701,51.43678]},"properties":{"id":87988,"name":"Rusinów","state_code":"14","country_code":"PL"}},{"type":"Feature","geometry":{"type":"Point","coordinates":[20.93655,52.15229]},"properties":{"id":87993,"name":"Rybie","state_code":"14","country_code":"PL"}},{"type":"Feature","geometry":{"type":"Point","coordinates":[20.10301,52.24278]},"properties":{"id":87995,"name":"Rybno","state_code":"14","country_code":"PL"}},{"type":"Feature","geometry":{"type":"Point","coordinates":[21.42197,51.69118]},"properties":{"id":88001,"name":"Ryczywół","state_code":"14","country_code":"PL"}},{"type":"Feature","geometry":{"type":"Point","coordinates":[21.36772,52.71332]},"properties":{"id":88032,"name":"Rząśnik","state_code":"14","country_code":"PL"}},{"type":"Feature","geometry":{"type":"Point","coordinates":[21.44008,51.12804]},"properties":{"id":88016,"name":"Rzeczniów","state_code":"14","country_code":"PL"}},{"type":"Feature","geometry":{"type":"Point","coordinates":[21.62069,53.04756]},"properties":{"id":88019,"name":"Rzekuń","state_code":"14","country_code":"PL"}},{"type":"Feature","geometry":{"type":"Point","coordinates":[21.33682,52.83508]},"properties":{"id":88025,"name":"Rzewnie","state_code":"14","country_code":"PL"}},{"type":"Feature","geometry":{"type":"Point","coordinates":[22.30697,52.50097]},"properties":{"id":88039,"name":"Sabnie","state_code":"14","country_code":"PL"}},{"type":"Feature","geometry":{"type":"Point","coordinates":[21.84563,52.64124]},"properties":{"id":88044,"name":"Sadowne","state_code":"14","country_code":"PL"}},{"type":"Feature","geometry":{"type":"Point","coordinates":[19.86766,52.33046]},"properties":{"id":88048,"name":"Sanniki","state_code":"14","country_code":"PL"}},{"type":"Feature","geometry":{"type":"Point","coordinates":[22.89044,52.31504]},"properties":{"id":88051,"name":"Sarnaki","state_code":"14","country_code":"PL"}},{"type":"Feature","geometry":{"type":"Point","coordinates":[21.0691,52.51036]},"properties":{"id":88057,"name":"Serock","state_code":"14","country_code":"PL"}},{"type":"Feature","geometry":{"type":"Point","coordinates":[22.29006,52.16772]},"properties":{"id":88064,"name":"Siedlce","state_code":"14","country_code":"PL"}},{"type":"Feature","geometry":{"type":"Point","coordinates":[20.02893,52.8811]},"properties":{"id":88075,"name":"Siemiątkowo","state_code":"14","country_code":"PL"}},{"type":"Feature","geometry":{"type":"Point","coordinates":[21.61921,52.09164]},"properties":{"id":88081,"name":"Siennica","state_code":"14","country_code":"PL"}},{"type":"Feature","geometry":{"type":"Point","coordinates":[21.48325,51.08773]},"properties":{"id":88083,"name":"Sienno","state_code":"14","country_code":"PL"}},{"type":"Feature","geometry":{"type":"Point","coordinates":[19.66913,52.8568]},"properties":{"id":88091,"name":"Sierpc","state_code":"14","country_code":"PL"}},{"type":"Feature","geometry":{"type":"Point","coordinates":[21.25233,51.31075]},"properties":{"id":88099,"name":"Skaryszew","state_code":"14","country_code":"PL"}},{"type":"Feature","geometry":{"type":"Point","coordinates":[22.13052,52.10727]},"properties":{"id":88122,"name":"Skórzec","state_code":"14","country_code":"PL"}},{"type":"Feature","geometry":{"type":"Point","coordinates":[19.93881,52.36942]},"properties":{"id":88346,"name":"Słubice","state_code":"14","country_code":"PL"}},{"type":"Feature","geometry":{"type":"Point","coordinates":[21.15572,52.38409]},"properties":{"id":88352,"name":"Słupno","state_code":"14","country_code":"PL"}},{"type":"Feature","geometry":{"type":"Point","coordinates":[21.30335,51.93273]},"properties":{"id":88130,"name":"Sobienie Jeziory","state_code":"14","country_code":"PL"}},{"type":"Feature","geometry":{"type":"Point","coordinates":[21.66349,51.7366]},"properties":{"id":88132,"name":"Sobolew","state_code":"14","country_code":"PL"}},{"type":"Feature","geometry":{"type":"Point","coordinates":[20.23838,52.22944]},"properties":{"id":88134,"name":"Sochaczew","state_code":"14","country_code":"PL"}},{"type":"Feature","geometry":{"type":"Point","coordinates":[20.47259,52.68715]},"properties":{"id":88135,"name":"Sochocin","state_code":"14","country_code":"PL"}},{"type":"Feature","geometry":{"type":"Point","coordinates":[22.25307,52.40677]},"properties":{"id":88140,"name":"Sokołów Podlaski","state_code":"14","country_code":"PL"}},{"type":"Feature","geometry":{"type":"Point","coordinates":[21.76563,51.13633]},"properties":{"id":88143,"name":"Solec Nad Wisłą","state_code":"14","country_code":"PL"}},{"type":"Feature","geometry":{"type":"Point","coordinates":[20.69901,52.78164]},"properties":{"id":88156,"name":"Sońsk","state_code":"14","country_code":"PL"}},{"type":"Feature","geometry":{"type":"Point","coordinates":[21.01644,52.22904]},"properties":{"id":88840,"name":"Śródmieście","state_code":"14","country_code":"PL"}},{"type":"Feature","geometry":{"type":"Point","coordinates":[21.54848,52.28937]},"properties":{"id":88169,"name":"Stanisławów","state_code":"14","country_code":"PL"}},{"type":"Feature","geometry":{"type":"Point","coordinates":[21.05184,52.37485]},"properties":{"id":88170,"name":"Stanisławów Pierwszy","state_code":"14","country_code":"PL"}},{"type":"Feature","geometry":{"type":"Point","coordinates":[20.97479,51.54676]},"properties":{"id":88173,"name":"Stara Błotnica","state_code":"14","country_code":"PL"}},{"type":"Feature","geometry":{"type":"Point","coordinates":[22.93752,52.18183]},"properties":{"id":88177,"name":"Stara Kornica","state_code":"14","country_code":"PL"}},{"type":"Feature","geometry":{"type":"Point","coordinates":[20.83403,52.26028]},"properties":{"id":88181,"name":"Stare Babice","state_code":"14","country_code":"PL"}},{"type":"Feature","geometry":{"type":"Point","coordinates":[19.9855,52.63265]},"properties":{"id":88193,"name":"Staroźreby","state_code":"14","country_code":"PL"}},{"type":"Feature","geometry":{"type":"Point","coordinates":[22.29358,52.58026]},"properties":{"id":88204,"name":"Sterdyń","state_code":"14","country_code":"PL"}},{"type":"Feature","geometry":{"type":"Point","coordinates":[21.90013,52.54332]},"properties":{"id":88205,"name":"Stoczek","state_code":"14","country_code":"PL"}},{"type":"Feature","geometry":{"type":"Point","coordinates":[21.635,52.42692]},"properties":{"id":88211,"name":"Strachówka","state_code":"14","country_code":"PL"}},{"type":"Feature","geometry":{"type":"Point","coordinates":[21.09229,51.647]},"properties":{"id":88215,"name":"Stromiec","state_code":"14","country_code":"PL"}},{"type":"Feature","geometry":{"type":"Point","coordinates":[20.28548,52.89394]},"properties":{"id":88225,"name":"Strzegowo","state_code":"14","country_code":"PL"}},{"type":"Feature","geometry":{"type":"Point","coordinates":[20.4368,53.02258]},"properties":{"id":88241,"name":"Stupsk","state_code":"14","country_code":"PL"}},{"type":"Feature","geometry":{"type":"Point","coordinates":[20.94887,51.61999]},"properties":{"id":88247,"name":"Sucha","state_code":"14","country_code":"PL"}},{"type":"Feature","geometry":{"type":"Point","coordinates":[22.25289,52.25948]},"properties":{"id":88252,"name":"Suchożebry","state_code":"14","country_code":"PL"}},{"type":"Feature","geometry":{"type":"Point","coordinates":[21.63174,51.87321]},"properties":{"id":88255,"name":"Sulbiny Górne","state_code":"14","country_code":"PL"}},{"type":"Feature","geometry":{"type":"Point","coordinates":[21.26902,52.25221]},"properties":{"id":88258,"name":"Sulejówek","state_code":"14","country_code":"PL"}},{"type":"Feature","geometry":{"type":"Point","coordinates":[21.08929,51.9231]},"properties":{"id":88270,"name":"Sułkowice","state_code":"14","country_code":"PL"}},{"type":"Feature","geometry":{"type":"Point","coordinates":[20.7639,52.67055]},"properties":{"id":88852,"name":"Świercze","state_code":"14","country_code":"PL"}},{"type":"Feature","geometry":{"type":"Point","coordinates":[21.3073,53.0058]},"properties":{"id":88279,"name":"Sypniewo","state_code":"14","country_code":"PL"}},{"type":"Feature","geometry":{"type":"Point","coordinates":[19.57438,52.94047]},"properties":{"id":88302,"name":"Szczutowo","state_code":"14","country_code":"PL"}},{"type":"Feature","geometry":{"type":"Point","coordinates":[21.21769,52.83487]},"properties":{"id":88306,"name":"Szelków","state_code":"14","country_code":"PL"}},{"type":"Feature","geometry":{"type":"Point","coordinates":[20.12009,53.01277]},"properties":{"id":88314,"name":"Szreńsk","state_code":"14","country_code":"PL"}},{"type":"Feature","geometry":{"type":"Point","coordinates":[20.86106,51.22823]},"properties":{"id":88319,"name":"Szydłowiec","state_code":"14","country_code":"PL"}},{"type":"Feature","geometry":{"type":"Point","coordinates":[20.45071,53.08062]},"properties":{"id":88320,"name":"Szydłowo","state_code":"14","country_code":"PL"}},{"type":"Feature","geometry":{"type":"Point","coordinates":[20.83394,51.98197]},"properties":{"id":88354,"name":"Tarczyn","state_code":"14","country_code":"PL"}},{"type":"Feature","geometry":{"type":"Point","coordinates":[21.04845,52.29185]},"properties":{"id":88357,"name":"Targówek","state_code":"14","country_code":"PL"}},{"type":"Feature","geometry":{"type":"Point","coordinates":[21.44677,51.326]},"properties":{"id":88370,"name":"Tczów","state_code":"14","country_code":"PL"}},{"type":"Feature","geometry":{"type":"Point","coordinates":[20.41672,52.19887]},"properties":{"id":88373,"name":"Teresin","state_code":"14","country_code":"PL"}},{"type":"Feature","geometry":{"type":"Point","coordinates":[21.43561,52.43058]},"properties":{"id":88445,"name":"Tłuszcz","state_code":"14","country_code":"PL"}},{"type":"Feature","geometry":{"type":"Point","coordinates":[21.59929,51.94792]},"properties":{"id":88415,"name":"Trąbki","state_code":"14","country_code":"PL"}},{"type":"Feature","geometry":{"type":"Point","coordinates":[21.12877,51.35249]},"properties":{"id":88387,"name":"Trablice","state_code":"14","country_code":"PL"}},{"type":"Feature","geometry":{"type":"Point","coordinates":[21.81112,51.69225]},"properties":{"id":88389,"name":"Trojanów","state_code":"14","country_code":"PL"}},{"type":"Feature","geometry":{"type":"Point","coordinates":[21.73083,53.03115]},"properties":{"id":88390,"name":"Troszyn","state_code":"14","country_code":"PL"}},{"type":"Feature","geometry":{"type":"Point","coordinates":[20.78244,52.30124]},"properties":{"id":88391,"name":"Truskaw","state_code":"14","country_code":"PL"}},{"type":"Feature","geometry":{"type":"Point","coordinates":[20.88419,52.19517]},"properties":{"id":88457,"name":"Ursus","state_code":"14","country_code":"PL"}},{"type":"Feature","geometry":{"type":"Point","coordinates":[21.05041,52.15051]},"properties":{"id":88458,"name":"Ursynów","state_code":"14","country_code":"PL"}},{"type":"Feature","geometry":{"type":"Point","coordinates":[21.19091,51.7843]},"properties":{"id":88477,"name":"Warka","state_code":"14","country_code":"PL"}},{"type":"Feature","geometry":{"type":"Point","coordinates":[21.01178,52.22977]},"properties":{"id":88480,"name":"Warsaw","state_code":"14","country_code":"PL"}},{"type":"Feature","geometry":{"type":"Point","coordinates":[21.04191,52.23547]},"properties":{"id":88481,"name":"Warszawa","state_code":"14","country_code":"PL"}},{"type":"Feature","geometry":{"type":"Point","coordinates":[21.17752,52.19656]},"properties":{"id":88485,"name":"Wawer","state_code":"14","country_code":"PL"}},{"type":"Feature","geometry":{"type":"Point","coordinates":[22.01634,52.39954]},"properties":{"id":88645,"name":"Węgrów","state_code":"14","country_code":"PL"}},{"type":"Feature","geometry":{"type":"Point","coordinates":[21.22407,52.25451]},"properties":{"id":88493,"name":"Wesoła","state_code":"14","country_code":"PL"}},{"type":"Feature","geometry":{"type":"Point","coordinates":[20.47637,53.19534]},"properties":{"id":88497,"name":"Wieczfnia Kościelna","state_code":"14","country_code":"PL"}},{"type":"Feature","geometry":{"type":"Point","coordinates":[20.96827,52.4513]},"properties":{"id":88503,"name":"Wieliszew","state_code":"14","country_code":"PL"}},{"type":"Feature","geometry":{"type":"Point","coordinates":[20.79489,51.36171]},"properties":{"id":88512,"name":"Wieniawa","state_code":"14","country_code":"PL"}},{"type":"Feature","geometry":{"type":"Point","coordinates":[21.08259,51.2494]},"properties":{"id":88517,"name":"Wierzbica","state_code":"14","country_code":"PL"}},{"type":"Feature","geometry":{"type":"Point","coordinates":[21.85902,52.31008]},"properties":{"id":88520,"name":"Wierzbno","state_code":"14","country_code":"PL"}},{"type":"Feature","geometry":{"type":"Point","coordinates":[21.08748,52.16311]},"properties":{"id":88531,"name":"Wilanów","state_code":"14","country_code":"PL"}},{"type":"Feature","geometry":{"type":"Point","coordinates":[21.37751,51.85211]},"properties":{"id":88537,"name":"Wilga","state_code":"14","country_code":"PL"}},{"type":"Feature","geometry":{"type":"Point","coordinates":[20.94114,52.64306]},"properties":{"id":88544,"name":"Winnica","state_code":"14","country_code":"PL"}},{"type":"Feature","geometry":{"type":"Point","coordinates":[20.38708,52.08831]},"properties":{"id":88545,"name":"Wiskitki","state_code":"14","country_code":"PL"}},{"type":"Feature","geometry":{"type":"Point","coordinates":[22.29392,52.07265]},"properties":{"id":88561,"name":"Wiśniew","state_code":"14","country_code":"PL"}},{"type":"Feature","geometry":{"type":"Point","coordinates":[20.34805,53.06474]},"properties":{"id":88562,"name":"Wiśniewo","state_code":"14","country_code":"PL"}},{"type":"Feature","geometry":{"type":"Point","coordinates":[20.94612,52.17941]},"properties":{"id":88648,"name":"Włochy","state_code":"14","country_code":"PL"}},{"type":"Feature","geometry":{"type":"Point","coordinates":[21.95575,52.0404]},"properties":{"id":88566,"name":"Wodynie","state_code":"14","country_code":"PL"}},{"type":"Feature","geometry":{"type":"Point","coordinates":[20.98869,52.2401]},"properties":{"id":88580,"name":"Wola","state_code":"14","country_code":"PL"}},{"type":"Feature","geometry":{"type":"Point","coordinates":[21.55818,51.90181]},"properties":{"id":88588,"name":"Wola Rębkowska","state_code":"14","country_code":"PL"}},{"type":"Feature","geometry":{"type":"Point","coordinates":[20.97702,51.3803]},"properties":{"id":88593,"name":"Wolanów","state_code":"14","country_code":"PL"}},{"type":"Feature","geometry":{"type":"Point","coordinates":[21.24207,52.34006]},"properties":{"id":88599,"name":"Wołomin","state_code":"14","country_code":"PL"}},{"type":"Feature","geometry":{"type":"Point","coordinates":[20.81394,51.62494]},"properties":{"id":88626,"name":"Wyśmierzyce","state_code":"14","country_code":"PL"}},{"type":"Feature","geometry":{"type":"Point","coordinates":[21.4584,52.59278]},"properties":{"id":88624,"name":"Wyszków","state_code":"14","country_code":"PL"}},{"type":"Feature","geometry":{"type":"Point","coordinates":[20.19081,52.38988]},"properties":{"id":88625,"name":"Wyszogród","state_code":"14","country_code":"PL"}},{"type":"Feature","geometry":{"type":"Point","coordinates":[20.69112,52.03169]},"properties":{"id":88868,"name":"Żabia Wola","state_code":"14","country_code":"PL"}},{"type":"Feature","geometry":{"type":"Point","coordinates":[21.04817,52.05856]},"properties":{"id":88869,"name":"Żabieniec","state_code":"14","country_code":"PL"}},{"type":"Feature","geometry":{"type":"Point","coordinates":[21.10539,52.29271]},"properties":{"id":88738,"name":"Ząbki","state_code":"14","country_code":"PL"}},{"type":"Feature","geometry":{"type":"Point","coordinates":[20.61207,52.43351]},"properties":{"id":88676,"name":"Zakroczym","state_code":"14","country_code":"PL"}},{"type":"Feature","geometry":{"type":"Point","coordinates":[21.00105,51.44095]},"properties":{"id":88677,"name":"Zakrzew","state_code":"14","country_code":"PL"}},{"type":"Feature","geometry":{"type":"Point","coordinates":[21.03659,52.02768]},"properties":{"id":88685,"name":"Zalesie Górne","state_code":"14","country_code":"PL"}},{"type":"Feature","geometry":{"type":"Point","coordinates":[20.52864,52.51152]},"properties":{"id":88707,"name":"Załuski","state_code":"14","country_code":"PL"}},{"type":"Feature","geometry":{"type":"Point","coordinates":[21.18258,52.59929]},"properties":{"id":88700,"name":"Zatory","state_code":"14","country_code":"PL"}},{"type":"Feature","geometry":{"type":"Point","coordinates":[19.87367,52.82745]},"properties":{"id":88703,"name":"Zawidz","state_code":"14","country_code":"PL"}},{"type":"Feature","geometry":{"type":"Point","coordinates":[22.43829,52.08974]},"properties":{"id":88710,"name":"Zbuczyn","state_code":"14","country_code":"PL"}},{"type":"Feature","geometry":{"type":"Point","coordinates":[21.89721,51.81051]},"properties":{"id":88882,"name":"Żelechów","state_code":"14","country_code":"PL"}},{"type":"Feature","geometry":{"type":"Point","coordinates":[21.16018,52.30376]},"properties":{"id":88729,"name":"Zielonka","state_code":"14","country_code":"PL"}},{"type":"Feature","geometry":{"type":"Point","coordinates":[20.98644,52.26896]},"properties":{"id":88889,"name":"Żoliborz","state_code":"14","country_code":"PL"}},{"type":"Feature","geometry":{"type":"Point","coordinates":[19.90894,53.06611]},"properties":{"id":88895,"name":"Żuromin","state_code":"14","country_code":"PL"}},{"type":"Feature","geometry":{"type":"Point","coordinates":[21.58768,51.35542]},"properties":{"id":88737,"name":"Zwoleń","state_code":"14","country_code":"PL"}},{"type":"Feature","geometry":{"type":"Point","coordinates":[20.44599,52.0488]},"properties":{"id":88899,"name":"Żyrardów","state_code":"14","country_code":"PL"}}]}