{"type":"FeatureCollection","features":[{"type":"Feature","geometry":{"type":"Point","coordinates":[17.98513,50.1576]},"properties":{"id":85792,"name":"Baborów","state_code":"16","country_code":"PL"}},{"type":"Feature","geometry":{"type":"Point","coordinates":[17.66035,50.38587]},"properties":{"id":85833,"name":"Biała","state_code":"16","country_code":"PL"}},{"type":"Feature","geometry":{"type":"Point","coordinates":[18.24177,50.28111]},"properties":{"id":85864,"name":"Bierawa","state_code":"16","country_code":"PL"}},{"type":"Feature","geometry":{"type":"Point","coordinates":[18.15808,50.81852]},"properties":{"id":85865,"name":"Bierdzany","state_code":"16","country_code":"PL"}},{"type":"Feature","geometry":{"type":"Point","coordinates":[17.79399,50.05108]},"properties":{"id":85935,"name":"Branice","state_code":"16","country_code":"PL"}},{"type":"Feature","geometry":{"type":"Point","coordinates":[17.4674,50.86079]},"properties":{"id":85958,"name":"Brzeg","state_code":"16","country_code":"PL"}},{"type":"Feature","geometry":{"type":"Point","coordinates":[18.21413,51.11387]},"properties":{"id":85998,"name":"Byczyna","state_code":"16","country_code":"PL"}},{"type":"Feature","geometry":{"type":"Point","coordinates":[17.86669,50.64957]},"properties":{"id":86037,"name":"Chmielowice","state_code":"16","country_code":"PL"}},{"type":"Feature","geometry":{"type":"Point","coordinates":[17.81227,50.78076]},"properties":{"id":86065,"name":"Chróścice","state_code":"16","country_code":"PL"}},{"type":"Feature","geometry":{"type":"Point","coordinates":[17.81759,50.66578]},"properties":{"id":86059,"name":"Chrościna","state_code":"16","country_code":"PL"}},{"type":"Feature","geometry":{"type":"Point","coordinates":[18.07294,50.66622]},"properties":{"id":86064,"name":"Chrząstowice","state_code":"16","country_code":"PL"}},{"type":"Feature","geometry":{"type":"Point","coordinates":[18.19988,50.28232]},"properties":{"id":86089,"name":"Cisek","state_code":"16","country_code":"PL"}},{"type":"Feature","geometry":{"type":"Point","coordinates":[17.89819,50.72858]},"properties":{"id":86115,"name":"Czarnowąsy","state_code":"16","country_code":"PL"}},{"type":"Feature","geometry":{"type":"Point","coordinates":[17.74957,50.68352]},"properties":{"id":86236,"name":"Dąbrowa","state_code":"16","country_code":"PL"}},{"type":"Feature","geometry":{"type":"Point","coordinates":[18.5784,51.07732]},"properties":{"id":86153,"name":"Dalachów","state_code":"16","country_code":"PL"}},{"type":"Feature","geometry":{"type":"Point","coordinates":[18.14873,50.28298]},"properties":{"id":86259,"name":"Długomiłowice","state_code":"16","country_code":"PL"}},{"type":"Feature","geometry":{"type":"Point","coordinates":[18.44501,50.72874]},"properties":{"id":86173,"name":"Dobrodzień","state_code":"16","country_code":"PL"}},{"type":"Feature","geometry":{"type":"Point","coordinates":[17.84652,50.76844]},"properties":{"id":86177,"name":"Dobrzeń Wielki","state_code":"16","country_code":"PL"}},{"type":"Feature","geometry":{"type":"Point","coordinates":[17.88875,51.0429]},"properties":{"id":86187,"name":"Domaszowice","state_code":"16","country_code":"PL"}},{"type":"Feature","geometry":{"type":"Point","coordinates":[18.28606,50.24248]},"properties":{"id":86221,"name":"Dziergowice","state_code":"16","country_code":"PL"}},{"type":"Feature","geometry":{"type":"Point","coordinates":[17.86405,50.35355]},"properties":{"id":86429,"name":"Głogówek","state_code":"16","country_code":"PL"}},{"type":"Feature","geometry":{"type":"Point","coordinates":[17.82858,50.20086]},"properties":{"id":86431,"name":"Głubczyce","state_code":"16","country_code":"PL"}},{"type":"Feature","geometry":{"type":"Point","coordinates":[17.38355,50.31505]},"properties":{"id":86432,"name":"Głuchołazy","state_code":"16","country_code":"PL"}},{"type":"Feature","geometry":{"type":"Point","coordinates":[18.01994,50.49222]},"properties":{"id":86323,"name":"Gogolin","state_code":"16","country_code":"PL"}},{"type":"Feature","geometry":{"type":"Point","coordinates":[18.01003,50.52903]},"properties":{"id":86412,"name":"Górażdże","state_code":"16","country_code":"PL"}},{"type":"Feature","geometry":{"type":"Point","coordinates":[18.42304,51.02871]},"properties":{"id":86343,"name":"Gorzów Śląski","state_code":"16","country_code":"PL"}},{"type":"Feature","geometry":{"type":"Point","coordinates":[17.38449,50.69836]},"properties":{"id":86373,"name":"Grodków","state_code":"16","country_code":"PL"}},{"type":"Feature","geometry":{"type":"Point","coordinates":[18.15585,50.57163]},"properties":{"id":86470,"name":"Izbicko","state_code":"16","country_code":"PL"}},{"type":"Feature","geometry":{"type":"Point","coordinates":[18.1368,50.39189]},"properties":{"id":86502,"name":"Januszkowice","state_code":"16","country_code":"PL"}},{"type":"Feature","geometry":{"type":"Point","coordinates":[18.37807,50.54573]},"properties":{"id":86552,"name":"Jemielnica","state_code":"16","country_code":"PL"}},{"type":"Feature","geometry":{"type":"Point","coordinates":[16.95396,50.45007]},"properties":{"id":86591,"name":"Kamienica","state_code":"16","country_code":"PL"}},{"type":"Feature","geometry":{"type":"Point","coordinates":[17.14979,50.57032]},"properties":{"id":86597,"name":"Kamiennik","state_code":"16","country_code":"PL"}},{"type":"Feature","geometry":{"type":"Point","coordinates":[18.22606,50.34984]},"properties":{"id":86853,"name":"Kędzierzyn-Koźle","state_code":"16","country_code":"PL"}},{"type":"Feature","geometry":{"type":"Point","coordinates":[18.00432,50.08042]},"properties":{"id":86635,"name":"Kietrz","state_code":"16","country_code":"PL"}},{"type":"Feature","geometry":{"type":"Point","coordinates":[18.21816,50.97281]},"properties":{"id":86653,"name":"Kluczbork","state_code":"16","country_code":"PL"}},{"type":"Feature","geometry":{"type":"Point","coordinates":[18.38493,50.65338]},"properties":{"id":86680,"name":"Kolonowskie","state_code":"16","country_code":"PL"}},{"type":"Feature","geometry":{"type":"Point","coordinates":[17.82635,50.63678]},"properties":{"id":86688,"name":"Komprachcice","state_code":"16","country_code":"PL"}},{"type":"Feature","geometry":{"type":"Point","coordinates":[17.59898,50.48894]},"properties":{"id":86703,"name":"Korfantów","state_code":"16","country_code":"PL"}},{"type":"Feature","geometry":{"type":"Point","coordinates":[18.14332,50.3356]},"properties":{"id":86757,"name":"Koźle","state_code":"16","country_code":"PL"}},{"type":"Feature","geometry":{"type":"Point","coordinates":[17.96539,50.47515]},"properties":{"id":86766,"name":"Krapkowice","state_code":"16","country_code":"PL"}},{"type":"Feature","geometry":{"type":"Point","coordinates":[17.88351,50.80659]},"properties":{"id":86840,"name":"Kup","state_code":"16","country_code":"PL"}},{"type":"Feature","geometry":{"type":"Point","coordinates":[18.18684,50.43083]},"properties":{"id":86892,"name":"Leśnica","state_code":"16","country_code":"PL"}},{"type":"Feature","geometry":{"type":"Point","coordinates":[17.61688,50.7487]},"properties":{"id":86885,"name":"Lewin Brzeski","state_code":"16","country_code":"PL"}},{"type":"Feature","geometry":{"type":"Point","coordinates":[17.62636,50.33631]},"properties":{"id":86959,"name":"Lubrza","state_code":"16","country_code":"PL"}},{"type":"Feature","geometry":{"type":"Point","coordinates":[17.52173,50.91591]},"properties":{"id":86961,"name":"Lubsza","state_code":"16","country_code":"PL"}},{"type":"Feature","geometry":{"type":"Point","coordinates":[17.52809,50.31061]},"properties":{"id":88815,"name":"Łąka Prudnicka","state_code":"16","country_code":"PL"}},{"type":"Feature","geometry":{"type":"Point","coordinates":[17.56096,50.53869]},"properties":{"id":88763,"name":"Łambinowice","state_code":"16","country_code":"PL"}},{"type":"Feature","geometry":{"type":"Point","coordinates":[17.56594,50.79096]},"properties":{"id":88793,"name":"Łosiów","state_code":"16","country_code":"PL"}},{"type":"Feature","geometry":{"type":"Point","coordinates":[18.0011,50.78597]},"properties":{"id":88797,"name":"Łubniany","state_code":"16","country_code":"PL"}},{"type":"Feature","geometry":{"type":"Point","coordinates":[17.49109,50.3002]},"properties":{"id":87097,"name":"Moszczanka","state_code":"16","country_code":"PL"}},{"type":"Feature","geometry":{"type":"Point","coordinates":[17.94557,50.86307]},"properties":{"id":87114,"name":"Murów","state_code":"16","country_code":"PL"}},{"type":"Feature","geometry":{"type":"Point","coordinates":[18.11817,50.57975]},"properties":{"id":87134,"name":"Nakło","state_code":"16","country_code":"PL"}},{"type":"Feature","geometry":{"type":"Point","coordinates":[17.72284,51.07592]},"properties":{"id":87136,"name":"Namysłów","state_code":"16","country_code":"PL"}},{"type":"Feature","geometry":{"type":"Point","coordinates":[17.61932,50.642]},"properties":{"id":87164,"name":"Niemodlin","state_code":"16","country_code":"PL"}},{"type":"Feature","geometry":{"type":"Point","coordinates":[17.33437,50.47379]},"properties":{"id":87214,"name":"Nysa","state_code":"16","country_code":"PL"}},{"type":"Feature","geometry":{"type":"Point","coordinates":[18.42094,50.87698]},"properties":{"id":87238,"name":"Olesno","state_code":"16","country_code":"PL"}},{"type":"Feature","geometry":{"type":"Point","coordinates":[17.4789,50.79514]},"properties":{"id":87246,"name":"Olszanka","state_code":"16","country_code":"PL"}},{"type":"Feature","geometry":{"type":"Point","coordinates":[17.92533,50.67211]},"properties":{"id":87262,"name":"Opole","state_code":"16","country_code":"PL"}},{"type":"Feature","geometry":{"type":"Point","coordinates":[17.17348,50.46627]},"properties":{"id":87315,"name":"Otmuchów","state_code":"16","country_code":"PL"}},{"type":"Feature","geometry":{"type":"Point","coordinates":[18.2137,50.67944]},"properties":{"id":87320,"name":"Ozimek","state_code":"16","country_code":"PL"}},{"type":"Feature","geometry":{"type":"Point","coordinates":[17.00658,50.46395]},"properties":{"id":87333,"name":"Paczków","state_code":"16","country_code":"PL"}},{"type":"Feature","geometry":{"type":"Point","coordinates":[17.36578,50.54474]},"properties":{"id":87337,"name":"Pakosławice","state_code":"16","country_code":"PL"}},{"type":"Feature","geometry":{"type":"Point","coordinates":[18.04865,50.2466]},"properties":{"id":87359,"name":"Pawłowiczki","state_code":"16","country_code":"PL"}},{"type":"Feature","geometry":{"type":"Point","coordinates":[17.83751,50.90265]},"properties":{"id":87429,"name":"Pokój","state_code":"16","country_code":"PL"}},{"type":"Feature","geometry":{"type":"Point","coordinates":[18.12675,50.22827]},"properties":{"id":87437,"name":"Polska Cerekiew","state_code":"16","country_code":"PL"}},{"type":"Feature","geometry":{"type":"Point","coordinates":[17.74378,50.82632]},"properties":{"id":87442,"name":"Popielów","state_code":"16","country_code":"PL"}},{"type":"Feature","geometry":{"type":"Point","coordinates":[18.45317,51.05375]},"properties":{"id":87787,"name":"Praszka","state_code":"16","country_code":"PL"}},{"type":"Feature","geometry":{"type":"Point","coordinates":[17.87143,50.5767]},"properties":{"id":87837,"name":"Prószków","state_code":"16","country_code":"PL"}},{"type":"Feature","geometry":{"type":"Point","coordinates":[17.57461,50.32124]},"properties":{"id":87795,"name":"Prudnik","state_code":"16","country_code":"PL"}},{"type":"Feature","geometry":{"type":"Point","coordinates":[17.77528,50.31204]},"properties":{"id":87878,"name":"Racławice Śląskie","state_code":"16","country_code":"PL"}},{"type":"Feature","geometry":{"type":"Point","coordinates":[18.17722,50.39779]},"properties":{"id":87915,"name":"Raszowa","state_code":"16","country_code":"PL"}},{"type":"Feature","geometry":{"type":"Point","coordinates":[18.12607,50.31587]},"properties":{"id":87941,"name":"Reńska Wieś","state_code":"16","country_code":"PL"}},{"type":"Feature","geometry":{"type":"Point","coordinates":[18.0998,50.43493]},"properties":{"id":87967,"name":"Rozwadza","state_code":"16","country_code":"PL"}},{"type":"Feature","geometry":{"type":"Point","coordinates":[17.44904,50.57375]},"properties":{"id":88062,"name":"Sidzina","state_code":"16","country_code":"PL"}},{"type":"Feature","geometry":{"type":"Point","coordinates":[17.41865,50.84584]},"properties":{"id":88097,"name":"Skarbimierz Osiedle","state_code":"16","country_code":"PL"}},{"type":"Feature","geometry":{"type":"Point","coordinates":[17.68198,50.75916]},"properties":{"id":88112,"name":"Skorogoszcz","state_code":"16","country_code":"PL"}},{"type":"Feature","geometry":{"type":"Point","coordinates":[17.38243,50.59648]},"properties":{"id":88113,"name":"Skoroszyce","state_code":"16","country_code":"PL"}},{"type":"Feature","geometry":{"type":"Point","coordinates":[18.32176,50.37207]},"properties":{"id":88336,"name":"Sławięcice","state_code":"16","country_code":"PL"}},{"type":"Feature","geometry":{"type":"Point","coordinates":[18.30056,50.5107]},"properties":{"id":88228,"name":"Strzelce Opolskie","state_code":"16","country_code":"PL"}},{"type":"Feature","geometry":{"type":"Point","coordinates":[17.85665,50.46215]},"properties":{"id":88230,"name":"Strzeleczki","state_code":"16","country_code":"PL"}},{"type":"Feature","geometry":{"type":"Point","coordinates":[17.7588,50.96016]},"properties":{"id":88853,"name":"Świerczów","state_code":"16","country_code":"PL"}},{"type":"Feature","geometry":{"type":"Point","coordinates":[18.08367,50.57631]},"properties":{"id":88366,"name":"Tarnów Opolski","state_code":"16","country_code":"PL"}},{"type":"Feature","geometry":{"type":"Point","coordinates":[17.65323,50.59577]},"properties":{"id":88430,"name":"Tułowice","state_code":"16","country_code":"PL"}},{"type":"Feature","geometry":{"type":"Point","coordinates":[17.99097,50.34349]},"properties":{"id":88431,"name":"Twardawa","state_code":"16","country_code":"PL"}},{"type":"Feature","geometry":{"type":"Point","coordinates":[18.34929,50.38938]},"properties":{"id":88450,"name":"Ujazd","state_code":"16","country_code":"PL"}},{"type":"Feature","geometry":{"type":"Point","coordinates":[18.00427,50.37322]},"properties":{"id":88473,"name":"Walce","state_code":"16","country_code":"PL"}},{"type":"Feature","geometry":{"type":"Point","coordinates":[18.01741,50.74319]},"properties":{"id":88643,"name":"Węgry","state_code":"16","country_code":"PL"}},{"type":"Feature","geometry":{"type":"Point","coordinates":[18.10221,50.33659]},"properties":{"id":88558,"name":"Większyce","state_code":"16","country_code":"PL"}},{"type":"Feature","geometry":{"type":"Point","coordinates":[17.66284,51.10158]},"properties":{"id":88542,"name":"Wilków","state_code":"16","country_code":"PL"}},{"type":"Feature","geometry":{"type":"Point","coordinates":[18.04994,51.01845]},"properties":{"id":88598,"name":"Wołczyn","state_code":"16","country_code":"PL"}},{"type":"Feature","geometry":{"type":"Point","coordinates":[18.48467,50.60503]},"properties":{"id":88701,"name":"Zawadzkie","state_code":"16","country_code":"PL"}},{"type":"Feature","geometry":{"type":"Point","coordinates":[18.12349,50.42482]},"properties":{"id":88719,"name":"Zdzieszowice","state_code":"16","country_code":"PL"}},{"type":"Feature","geometry":{"type":"Point","coordinates":[18.34434,50.7629]},"properties":{"id":88740,"name":"Zębowice","state_code":"16","country_code":"PL"}}]}