{"type":"FeatureCollection","features":[{"type":"Feature","geometry":{"type":"Point","coordinates":[21.23211,50.79194]},"properties":{"id":85819,"name":"Baćkowice","state_code":"26","country_code":"PL"}},{"type":"Feature","geometry":{"type":"Point","coordinates":[21.54385,51.01845]},"properties":{"id":85820,"name":"Bałtów","state_code":"26","country_code":"PL"}},{"type":"Feature","geometry":{"type":"Point","coordinates":[20.59834,50.23903]},"properties":{"id":85823,"name":"Bejsce","state_code":"26","country_code":"PL"}},{"type":"Feature","geometry":{"type":"Point","coordinates":[20.94149,50.84947]},"properties":{"id":85858,"name":"Bieliny","state_code":"26","country_code":"PL"}},{"type":"Feature","geometry":{"type":"Point","coordinates":[20.75935,51.10778]},"properties":{"id":85883,"name":"Bliżyn","state_code":"26","country_code":"PL"}},{"type":"Feature","geometry":{"type":"Point","coordinates":[20.95719,50.94115]},"properties":{"id":85894,"name":"Bodzentyn","state_code":"26","country_code":"PL"}},{"type":"Feature","geometry":{"type":"Point","coordinates":[21.26,50.65175]},"properties":{"id":85897,"name":"Bogoria","state_code":"26","country_code":"PL"}},{"type":"Feature","geometry":{"type":"Point","coordinates":[21.22147,51.02466]},"properties":{"id":85945,"name":"Brody","state_code":"26","country_code":"PL"}},{"type":"Feature","geometry":{"type":"Point","coordinates":[20.57319,50.77273]},"properties":{"id":85963,"name":"Brzeziny","state_code":"26","country_code":"PL"}},{"type":"Feature","geometry":{"type":"Point","coordinates":[20.71884,50.47078]},"properties":{"id":85996,"name":"Busko-Zdrój","state_code":"26","country_code":"PL"}},{"type":"Feature","geometry":{"type":"Point","coordinates":[20.46229,50.80021]},"properties":{"id":86073,"name":"Chęciny","state_code":"26","country_code":"PL"}},{"type":"Feature","geometry":{"type":"Point","coordinates":[20.75206,50.6144]},"properties":{"id":86034,"name":"Chmielnik","state_code":"26","country_code":"PL"}},{"type":"Feature","geometry":{"type":"Point","coordinates":[21.51426,50.89028]},"properties":{"id":88754,"name":"Ćmielów","state_code":"26","country_code":"PL"}},{"type":"Feature","geometry":{"type":"Point","coordinates":[20.5162,50.3408]},"properties":{"id":86113,"name":"Czarnocin","state_code":"26","country_code":"PL"}},{"type":"Feature","geometry":{"type":"Point","coordinates":[20.80791,50.80229]},"properties":{"id":86154,"name":"Daleszyce","state_code":"26","country_code":"PL"}},{"type":"Feature","geometry":{"type":"Point","coordinates":[20.68288,50.87488]},"properties":{"id":86186,"name":"Domaszowice","state_code":"26","country_code":"PL"}},{"type":"Feature","geometry":{"type":"Point","coordinates":[21.78864,50.73613]},"properties":{"id":86210,"name":"Dwikozy","state_code":"26","country_code":"PL"}},{"type":"Feature","geometry":{"type":"Point","coordinates":[20.35226,50.36534]},"properties":{"id":86217,"name":"Działoszyce","state_code":"26","country_code":"PL"}},{"type":"Feature","geometry":{"type":"Point","coordinates":[20.1061,51.13606]},"properties":{"id":86268,"name":"Fałków","state_code":"26","country_code":"PL"}},{"type":"Feature","geometry":{"type":"Point","coordinates":[20.84913,50.60263]},"properties":{"id":86316,"name":"Gnojno","state_code":"26","country_code":"PL"}},{"type":"Feature","geometry":{"type":"Point","coordinates":[20.82501,50.84774]},"properties":{"id":86415,"name":"Górno","state_code":"26","country_code":"PL"}},{"type":"Feature","geometry":{"type":"Point","coordinates":[20.43835,51.27845]},"properties":{"id":86350,"name":"Gowarczów","state_code":"26","country_code":"PL"}},{"type":"Feature","geometry":{"type":"Point","coordinates":[20.96174,51.13326]},"properties":{"id":86396,"name":"Grzybowa Góra","state_code":"26","country_code":"PL"}},{"type":"Feature","geometry":{"type":"Point","coordinates":[20.44813,50.58569]},"properties":{"id":86458,"name":"Imielno","state_code":"26","country_code":"PL"}},{"type":"Feature","geometry":{"type":"Point","coordinates":[21.2806,50.73146]},"properties":{"id":86463,"name":"Iwaniska","state_code":"26","country_code":"PL"}},{"type":"Feature","geometry":{"type":"Point","coordinates":[20.30454,50.63945]},"properties":{"id":86578,"name":"Jędrzejów","state_code":"26","country_code":"PL"}},{"type":"Feature","geometry":{"type":"Point","coordinates":[20.66391,50.98577]},"properties":{"id":86607,"name":"Kaniów","state_code":"26","country_code":"PL"}},{"type":"Feature","geometry":{"type":"Point","coordinates":[20.49358,50.26564]},"properties":{"id":86627,"name":"Kazimierza Wielka","state_code":"26","country_code":"PL"}},{"type":"Feature","geometry":{"type":"Point","coordinates":[20.62752,50.87033]},"properties":{"id":86633,"name":"Kielce","state_code":"26","country_code":"PL"}},{"type":"Feature","geometry":{"type":"Point","coordinates":[20.57121,50.60721]},"properties":{"id":86638,"name":"Kije","state_code":"26","country_code":"PL"}},{"type":"Feature","geometry":{"type":"Point","coordinates":[21.45587,50.65588]},"properties":{"id":86650,"name":"Klimontów","state_code":"26","country_code":"PL"}},{"type":"Feature","geometry":{"type":"Point","coordinates":[20.40607,51.19166]},"properties":{"id":86750,"name":"Końskie","state_code":"26","country_code":"PL"}},{"type":"Feature","geometry":{"type":"Point","coordinates":[21.5838,50.5934]},"properties":{"id":86699,"name":"Koprzywnica","state_code":"26","country_code":"PL"}},{"type":"Feature","geometry":{"type":"Point","coordinates":[20.56529,50.92684]},"properties":{"id":86712,"name":"Kostomłoty Drugie","state_code":"26","country_code":"PL"}},{"type":"Feature","geometry":{"type":"Point","coordinates":[20.5949,50.92322]},"properties":{"id":86713,"name":"Kostomłoty Pierwsze","state_code":"26","country_code":"PL"}},{"type":"Feature","geometry":{"type":"Point","coordinates":[20.11863,50.88874]},"properties":{"id":86774,"name":"Krasocin","state_code":"26","country_code":"PL"}},{"type":"Feature","geometry":{"type":"Point","coordinates":[21.28058,50.96156]},"properties":{"id":86839,"name":"Kunów","state_code":"26","country_code":"PL"}},{"type":"Feature","geometry":{"type":"Point","coordinates":[21.49389,50.72977]},"properties":{"id":86916,"name":"Lipnik","state_code":"26","country_code":"PL"}},{"type":"Feature","geometry":{"type":"Point","coordinates":[20.79712,51.00231]},"properties":{"id":88814,"name":"Łączna","state_code":"26","country_code":"PL"}},{"type":"Feature","geometry":{"type":"Point","coordinates":[21.08431,50.77517]},"properties":{"id":88759,"name":"Łagów","state_code":"26","country_code":"PL"}},{"type":"Feature","geometry":{"type":"Point","coordinates":[21.52599,50.56443]},"properties":{"id":88787,"name":"Łoniów","state_code":"26","country_code":"PL"}},{"type":"Feature","geometry":{"type":"Point","coordinates":[20.25081,50.94864]},"properties":{"id":88791,"name":"Łopuszno","state_code":"26","country_code":"PL"}},{"type":"Feature","geometry":{"type":"Point","coordinates":[21.15014,50.41164]},"properties":{"id":88798,"name":"Łubnice","state_code":"26","country_code":"PL"}},{"type":"Feature","geometry":{"type":"Point","coordinates":[20.26407,50.81214]},"properties":{"id":87008,"name":"Małogoszcz","state_code":"26","country_code":"PL"}},{"type":"Feature","geometry":{"type":"Point","coordinates":[20.72322,50.90065]},"properties":{"id":87003,"name":"Masłów","state_code":"26","country_code":"PL"}},{"type":"Feature","geometry":{"type":"Point","coordinates":[20.46178,50.49541]},"properties":{"id":87023,"name":"Michałów","state_code":"26","country_code":"PL"}},{"type":"Feature","geometry":{"type":"Point","coordinates":[20.55096,50.9368]},"properties":{"id":87028,"name":"Miedziana Góra","state_code":"26","country_code":"PL"}},{"type":"Feature","geometry":{"type":"Point","coordinates":[21.0571,51.13466]},"properties":{"id":87057,"name":"Mirzec","state_code":"26","country_code":"PL"}},{"type":"Feature","geometry":{"type":"Point","coordinates":[20.48427,51.01224]},"properties":{"id":87079,"name":"Mniów","state_code":"26","country_code":"PL"}},{"type":"Feature","geometry":{"type":"Point","coordinates":[20.61756,50.74678]},"properties":{"id":87090,"name":"Morawica","state_code":"26","country_code":"PL"}},{"type":"Feature","geometry":{"type":"Point","coordinates":[20.10661,50.67835]},"properties":{"id":87132,"name":"Nagłowice","state_code":"26","country_code":"PL"}},{"type":"Feature","geometry":{"type":"Point","coordinates":[21.09049,50.86432]},"properties":{"id":87176,"name":"Nowa Słupia","state_code":"26","country_code":"PL"}},{"type":"Feature","geometry":{"type":"Point","coordinates":[20.80759,50.30124]},"properties":{"id":87204,"name":"Nowy Korczyn","state_code":"26","country_code":"PL"}},{"type":"Feature","geometry":{"type":"Point","coordinates":[21.65045,50.69276]},"properties":{"id":87218,"name":"Obrazów","state_code":"26","country_code":"PL"}},{"type":"Feature","geometry":{"type":"Point","coordinates":[20.10086,50.72874]},"properties":{"id":87235,"name":"Oksa","state_code":"26","country_code":"PL"}},{"type":"Feature","geometry":{"type":"Point","coordinates":[21.06457,50.45357]},"properties":{"id":87240,"name":"Oleśnica","state_code":"26","country_code":"PL"}},{"type":"Feature","geometry":{"type":"Point","coordinates":[21.42538,50.80058]},"properties":{"id":87256,"name":"Opatów","state_code":"26","country_code":"PL"}},{"type":"Feature","geometry":{"type":"Point","coordinates":[20.72348,50.24314]},"properties":{"id":87255,"name":"Opatowiec","state_code":"26","country_code":"PL"}},{"type":"Feature","geometry":{"type":"Point","coordinates":[20.54117,50.8177]},"properties":{"id":87282,"name":"Osiedle-Nowiny","state_code":"26","country_code":"PL"}},{"type":"Feature","geometry":{"type":"Point","coordinates":[21.44192,50.51996]},"properties":{"id":87283,"name":"Osiek","state_code":"26","country_code":"PL"}},{"type":"Feature","geometry":{"type":"Point","coordinates":[21.38525,50.92936]},"properties":{"id":87299,"name":"Ostrowiec Świętokrzyski","state_code":"26","country_code":"PL"}},{"type":"Feature","geometry":{"type":"Point","coordinates":[21.66658,50.88798]},"properties":{"id":87327,"name":"Ożarów","state_code":"26","country_code":"PL"}},{"type":"Feature","geometry":{"type":"Point","coordinates":[21.04148,50.40031]},"properties":{"id":87331,"name":"Pacanów","state_code":"26","country_code":"PL"}},{"type":"Feature","geometry":{"type":"Point","coordinates":[21.12062,50.96216]},"properties":{"id":87360,"name":"Pawłów","state_code":"26","country_code":"PL"}},{"type":"Feature","geometry":{"type":"Point","coordinates":[20.46418,50.88035]},"properties":{"id":87378,"name":"Piekoszów","state_code":"26","country_code":"PL"}},{"type":"Feature","geometry":{"type":"Point","coordinates":[20.75489,50.69754]},"properties":{"id":87381,"name":"Pierzchnica","state_code":"26","country_code":"PL"}},{"type":"Feature","geometry":{"type":"Point","coordinates":[20.52649,50.52052]},"properties":{"id":87405,"name":"Pińczów","state_code":"26","country_code":"PL"}},{"type":"Feature","geometry":{"type":"Point","coordinates":[21.2812,50.43324]},"properties":{"id":87776,"name":"Połaniec","state_code":"26","country_code":"PL"}},{"type":"Feature","geometry":{"type":"Point","coordinates":[20.25836,51.07392]},"properties":{"id":87890,"name":"Radoszyce","state_code":"26","country_code":"PL"}},{"type":"Feature","geometry":{"type":"Point","coordinates":[21.04517,50.67427]},"properties":{"id":87911,"name":"Raków","state_code":"26","country_code":"PL"}},{"type":"Feature","geometry":{"type":"Point","coordinates":[20.43483,51.20414]},"properties":{"id":87947,"name":"Rogów","state_code":"26","country_code":"PL"}},{"type":"Feature","geometry":{"type":"Point","coordinates":[20.22377,51.14592]},"properties":{"id":87970,"name":"Ruda Maleniecka","state_code":"26","country_code":"PL"}},{"type":"Feature","geometry":{"type":"Point","coordinates":[21.20636,50.5292]},"properties":{"id":88014,"name":"Rytwiany","state_code":"26","country_code":"PL"}},{"type":"Feature","geometry":{"type":"Point","coordinates":[21.36884,50.85261]},"properties":{"id":88043,"name":"Sadowie","state_code":"26","country_code":"PL"}},{"type":"Feature","geometry":{"type":"Point","coordinates":[21.64822,50.64663]},"properties":{"id":88045,"name":"Samborzec","state_code":"26","country_code":"PL"}},{"type":"Feature","geometry":{"type":"Point","coordinates":[21.74898,50.68265]},"properties":{"id":88046,"name":"Sandomierz","state_code":"26","country_code":"PL"}},{"type":"Feature","geometry":{"type":"Point","coordinates":[19.83599,50.76676]},"properties":{"id":88054,"name":"Secemin","state_code":"26","country_code":"PL"}},{"type":"Feature","geometry":{"type":"Point","coordinates":[20.05563,50.5659]},"properties":{"id":88328,"name":"Sędziszów","state_code":"26","country_code":"PL"}},{"type":"Feature","geometry":{"type":"Point","coordinates":[20.39929,50.31993]},"properties":{"id":88095,"name":"Skalbmierz","state_code":"26","country_code":"PL"}},{"type":"Feature","geometry":{"type":"Point","coordinates":[20.91196,51.13822]},"properties":{"id":88100,"name":"Skarżysko Kościelne","state_code":"26","country_code":"PL"}},{"type":"Feature","geometry":{"type":"Point","coordinates":[20.87162,51.11311]},"properties":{"id":88101,"name":"Skarżysko-Kamienna","state_code":"26","country_code":"PL"}},{"type":"Feature","geometry":{"type":"Point","coordinates":[19.97435,50.60073]},"properties":{"id":88348,"name":"Słupia","state_code":"26","country_code":"PL"}},{"type":"Feature","geometry":{"type":"Point","coordinates":[20.40032,51.04442]},"properties":{"id":88127,"name":"Smyków","state_code":"26","country_code":"PL"}},{"type":"Feature","geometry":{"type":"Point","coordinates":[20.45062,50.69999]},"properties":{"id":88131,"name":"Sobków","state_code":"26","country_code":"PL"}},{"type":"Feature","geometry":{"type":"Point","coordinates":[20.88956,50.36594]},"properties":{"id":88144,"name":"Solec-Zdrój","state_code":"26","country_code":"PL"}},{"type":"Feature","geometry":{"type":"Point","coordinates":[20.57173,51.13762]},"properties":{"id":88242,"name":"Stąporków","state_code":"26","country_code":"PL"}},{"type":"Feature","geometry":{"type":"Point","coordinates":[21.07126,51.0374]},"properties":{"id":88179,"name":"Starachowice","state_code":"26","country_code":"PL"}},{"type":"Feature","geometry":{"type":"Point","coordinates":[21.16593,50.56307]},"properties":{"id":88198,"name":"Staszów","state_code":"26","country_code":"PL"}},{"type":"Feature","geometry":{"type":"Point","coordinates":[20.9378,50.44018]},"properties":{"id":88207,"name":"Stopnica","state_code":"26","country_code":"PL"}},{"type":"Feature","geometry":{"type":"Point","coordinates":[20.42135,50.94177]},"properties":{"id":88214,"name":"Strawczyn","state_code":"26","country_code":"PL"}},{"type":"Feature","geometry":{"type":"Point","coordinates":[20.82922,51.04776]},"properties":{"id":88250,"name":"Suchedniów","state_code":"26","country_code":"PL"}},{"type":"Feature","geometry":{"type":"Point","coordinates":[21.0068,50.59114]},"properties":{"id":88322,"name":"Szydłów","state_code":"26","country_code":"PL"}},{"type":"Feature","geometry":{"type":"Point","coordinates":[21.71474,51.0016]},"properties":{"id":88368,"name":"Tarłów","state_code":"26","country_code":"PL"}},{"type":"Feature","geometry":{"type":"Point","coordinates":[20.99187,50.51676]},"properties":{"id":88421,"name":"Tuczępy","state_code":"26","country_code":"PL"}},{"type":"Feature","geometry":{"type":"Point","coordinates":[21.01243,51.07391]},"properties":{"id":88632,"name":"Wąchock","state_code":"26","country_code":"PL"}},{"type":"Feature","geometry":{"type":"Point","coordinates":[21.22301,50.89914]},"properties":{"id":88489,"name":"Waśniów","state_code":"26","country_code":"PL"}},{"type":"Feature","geometry":{"type":"Point","coordinates":[20.96655,51.07107]},"properties":{"id":88506,"name":"Wielka Wieś","state_code":"26","country_code":"PL"}},{"type":"Feature","geometry":{"type":"Point","coordinates":[21.65783,50.74694]},"properties":{"id":88534,"name":"Wilczyce","state_code":"26","country_code":"PL"}},{"type":"Feature","geometry":{"type":"Point","coordinates":[20.67438,50.34891]},"properties":{"id":88560,"name":"Wiślica","state_code":"26","country_code":"PL"}},{"type":"Feature","geometry":{"type":"Point","coordinates":[19.96593,50.85256]},"properties":{"id":88654,"name":"Włoszczowa","state_code":"26","country_code":"PL"}},{"type":"Feature","geometry":{"type":"Point","coordinates":[20.1915,50.52047]},"properties":{"id":88568,"name":"Wodzisław","state_code":"26","country_code":"PL"}},{"type":"Feature","geometry":{"type":"Point","coordinates":[21.58942,50.84226]},"properties":{"id":88572,"name":"Wojciechowice","state_code":"26","country_code":"PL"}},{"type":"Feature","geometry":{"type":"Point","coordinates":[20.85814,50.84524]},"properties":{"id":88585,"name":"Wola Jachowa","state_code":"26","country_code":"PL"}},{"type":"Feature","geometry":{"type":"Point","coordinates":[20.66314,50.98037]},"properties":{"id":88666,"name":"Zagnańsk","state_code":"26","country_code":"PL"}},{"type":"Feature","geometry":{"type":"Point","coordinates":[21.85408,50.80743]},"properties":{"id":88702,"name":"Zawichost","state_code":"26","country_code":"PL"}},{"type":"Feature","geometry":{"type":"Point","coordinates":[20.59361,50.3816]},"properties":{"id":88744,"name":"Złota","state_code":"26","country_code":"PL"}}]}