{"type":"FeatureCollection","features":[{"type":"Feature","geometry":{"type":"Point","coordinates":[35.2371223,31.7636163]},"properties":{"id":154003,"name":"Abu Dis","state_code":"JEM","country_code":"PS"}},{"type":"Feature","geometry":{"type":"Point","coordinates":[35.2128893,31.8492863]},"properties":{"id":154004,"name":"Ar-Ram","state_code":"JEM","country_code":"PS"}},{"type":"Feature","geometry":{"type":"Point","coordinates":[35.0911193,31.8510993]},"properties":{"id":154006,"name":"Beit 'Anan","state_code":"JEM","country_code":"PS"}},{"type":"Feature","geometry":{"type":"Point","coordinates":[35.0744173,31.8344582]},"properties":{"id":154005,"name":"Biddu","state_code":"JEM","country_code":"PS"}},{"type":"Feature","geometry":{"type":"Point","coordinates":[35.1802353,31.8512163]},"properties":{"id":154007,"name":"Bir Nabala","state_code":"JEM","country_code":"PS"}},{"type":"Feature","geometry":{"type":"Point","coordinates":[35.0105434,31.7965043]},"properties":{"id":154002,"name":"East Jerusalem","state_code":"JEM","country_code":"PS"}},{"type":"Feature","geometry":{"type":"Point","coordinates":[35.2426313,31.8364954]},"properties":{"id":154008,"name":"Hizma","state_code":"JEM","country_code":"PS"}},{"type":"Feature","geometry":{"type":"Point","coordinates":[35.21724,31.8747227]},"properties":{"id":154009,"name":"Kafr Aqab","state_code":"JEM","country_code":"PS"}},{"type":"Feature","geometry":{"type":"Point","coordinates":[35.1873143,31.8616313]},"properties":{"id":154011,"name":"Qalandiya","state_code":"JEM","country_code":"PS"}},{"type":"Feature","geometry":{"type":"Point","coordinates":[35.0896003,31.8269573]},"properties":{"id":154010,"name":"Qatanna","state_code":"JEM","country_code":"PS"}}]}