{"type":"FeatureCollection","features":[{"type":"Feature","geometry":{"type":"Point","coordinates":[35.0353573,32.1771352]},"properties":{"id":154031,"name":"Azzun","state_code":"QQA","country_code":"PS"}},{"type":"Feature","geometry":{"type":"Point","coordinates":[34.9576803,32.1638782]},"properties":{"id":154032,"name":"Hableh","state_code":"QQA","country_code":"PS"}},{"type":"Feature","geometry":{"type":"Point","coordinates":[35.0246903,32.1528332]},"properties":{"id":154034,"name":"Kafr Thulth","state_code":"QQA","country_code":"PS"}},{"type":"Feature","geometry":{"type":"Point","coordinates":[34.9609133,32.1960491]},"properties":{"id":154033,"name":"Qalqilya","state_code":"QQA","country_code":"PS"}}]}