{"type":"FeatureCollection","features":[{"type":"Feature","geometry":{"type":"Point","coordinates":[34.2015753,31.3231655]},"properties":{"id":154037,"name":"Al Qarya as Suwaydiya","state_code":"RFH","country_code":"PS"}},{"type":"Feature","geometry":{"type":"Point","coordinates":[34.2609813,31.2634786]},"properties":{"id":154035,"name":"Al-Bayuk","state_code":"RFH","country_code":"PS"}},{"type":"Feature","geometry":{"type":"Point","coordinates":[34.2355363,31.3484496]},"properties":{"id":154036,"name":"Al-Mawasi","state_code":"RFH","country_code":"PS"}},{"type":"Feature","geometry":{"type":"Point","coordinates":[34.2228823,31.2968145]},"properties":{"id":154038,"name":"Rafah","state_code":"RFH","country_code":"PS"}},{"type":"Feature","geometry":{"type":"Point","coordinates":[34.2451672,31.2509125]},"properties":{"id":154039,"name":"Shokat as-Sufi","state_code":"RFH","country_code":"PS"}}]}