{"type":"FeatureCollection","features":[{"type":"Feature","geometry":{"type":"Point","coordinates":[35.0186763,32.0947052]},"properties":{"id":154071,"name":"az-Zawiya","state_code":"SLT","country_code":"PS"}},{"type":"Feature","geometry":{"type":"Point","coordinates":[35.0568653,32.1134002]},"properties":{"id":154055,"name":"Biddya","state_code":"SLT","country_code":"PS"}},{"type":"Feature","geometry":{"type":"Point","coordinates":[35.0778063,32.0726472]},"properties":{"id":154056,"name":"Bruqin","state_code":"SLT","country_code":"PS"}},{"type":"Feature","geometry":{"type":"Point","coordinates":[35.0049493,32.0650672]},"properties":{"id":154057,"name":"Deir Ballut","state_code":"SLT","country_code":"PS"}},{"type":"Feature","geometry":{"type":"Point","coordinates":[35.1195363,32.1307962]},"properties":{"id":154058,"name":"Deir Istiya","state_code":"SLT","country_code":"PS"}},{"type":"Feature","geometry":{"type":"Point","coordinates":[35.1302763,32.0687772]},"properties":{"id":154059,"name":"Farkha","state_code":"SLT","country_code":"PS"}},{"type":"Feature","geometry":{"type":"Point","coordinates":[35.1231163,32.1134492]},"properties":{"id":154060,"name":"Haris","state_code":"SLT","country_code":"PS"}},{"type":"Feature","geometry":{"type":"Point","coordinates":[35.2039493,32.1029552]},"properties":{"id":154061,"name":"Iskaka","state_code":"SLT","country_code":"PS"}},{"type":"Feature","geometry":{"type":"Point","coordinates":[35.0605081,32.0686354]},"properties":{"id":154062,"name":"Kafr ad-Dik","state_code":"SLT","country_code":"PS"}},{"type":"Feature","geometry":{"type":"Point","coordinates":[35.1363643,32.1169242]},"properties":{"id":154063,"name":"Kifl Hares","state_code":"SLT","country_code":"PS"}},{"type":"Feature","geometry":{"type":"Point","coordinates":[35.1752513,32.1142512]},"properties":{"id":154064,"name":"Marda","state_code":"SLT","country_code":"PS"}},{"type":"Feature","geometry":{"type":"Point","coordinates":[35.0303743,32.1072982]},"properties":{"id":154065,"name":"Mas-ha","state_code":"SLT","country_code":"PS"}},{"type":"Feature","geometry":{"type":"Point","coordinates":[35.0787783,32.1285392]},"properties":{"id":154066,"name":"Qarawat Bani Hassan","state_code":"SLT","country_code":"PS"}},{"type":"Feature","geometry":{"type":"Point","coordinates":[35.1506323,32.1221342]},"properties":{"id":154067,"name":"Qira","state_code":"SLT","country_code":"PS"}},{"type":"Feature","geometry":{"type":"Point","coordinates":[35.0246873,32.0787202]},"properties":{"id":154068,"name":"Rafat","state_code":"SLT","country_code":"PS"}},{"type":"Feature","geometry":{"type":"Point","coordinates":[35.0712383,32.1033692]},"properties":{"id":154069,"name":"Sarta","state_code":"SLT","country_code":"PS"}},{"type":"Feature","geometry":{"type":"Point","coordinates":[35.2191153,32.1094052]},"properties":{"id":154070,"name":"Yasuf","state_code":"SLT","country_code":"PS"}}]}