{"type":"FeatureCollection","features":[{"type":"Feature","geometry":{"type":"Point","coordinates":[35.3267476,32.3525706]},"properties":{"id":154073,"name":"Al 'Aqaba","state_code":"TBS","country_code":"PS"}},{"type":"Feature","geometry":{"type":"Point","coordinates":[35.3651893,32.2831551]},"properties":{"id":154074,"name":"Tammun","state_code":"TBS","country_code":"PS"}},{"type":"Feature","geometry":{"type":"Point","coordinates":[35.3493533,32.3211201]},"properties":{"id":154072,"name":"Tubas","state_code":"TBS","country_code":"PS"}}]}