{"type":"FeatureCollection","features":[{"type":"Feature","geometry":{"type":"Point","coordinates":[-8.39817,41.58732]},"properties":{"id":88909,"name":"Adaúfe","state_code":"03","country_code":"PT"}},{"type":"Feature","geometry":{"type":"Point","coordinates":[-8.35558,41.64718]},"properties":{"id":88962,"name":"Amares","state_code":"03","country_code":"PT"}},{"type":"Feature","geometry":{"type":"Point","coordinates":[-8.76413,41.48512]},"properties":{"id":88974,"name":"Apúlia","state_code":"03","country_code":"PT"}},{"type":"Feature","geometry":{"type":"Point","coordinates":[-8.77288,41.51194]},"properties":{"id":88975,"name":"Apúlia e Fão","state_code":"03","country_code":"PT"}},{"type":"Feature","geometry":{"type":"Point","coordinates":[-8.42151,41.52185]},"properties":{"id":88979,"name":"Arcos","state_code":"03","country_code":"PT"}},{"type":"Feature","geometry":{"type":"Point","coordinates":[-8.21419,41.45553]},"properties":{"id":88997,"name":"Arões","state_code":"03","country_code":"PT"}},{"type":"Feature","geometry":{"type":"Point","coordinates":[-8.46682,41.52113]},"properties":{"id":89004,"name":"Aveleda","state_code":"03","country_code":"PT"}},{"type":"Feature","geometry":{"type":"Point","coordinates":[-8.61843,41.53174]},"properties":{"id":89018,"name":"Barcelos","state_code":"03","country_code":"PT"}},{"type":"Feature","geometry":{"type":"Point","coordinates":[-8.73192,41.49111]},"properties":{"id":89019,"name":"Barqueiros","state_code":"03","country_code":"PT"}},{"type":"Feature","geometry":{"type":"Point","coordinates":[-8.42005,41.55032]},"properties":{"id":89046,"name":"Braga","state_code":"03","country_code":"PT"}},{"type":"Feature","geometry":{"type":"Point","coordinates":[-8.36103,41.45821]},"properties":{"id":89049,"name":"Brito","state_code":"03","country_code":"PT"}},{"type":"Feature","geometry":{"type":"Point","coordinates":[-7.97198,41.52079]},"properties":{"id":89055,"name":"Cabeceiras de Basto","state_code":"03","country_code":"PT"}},{"type":"Feature","geometry":{"type":"Point","coordinates":[-8.3485,41.48465]},"properties":{"id":89064,"name":"Caldas das Taipas","state_code":"03","country_code":"PT"}},{"type":"Feature","geometry":{"type":"Point","coordinates":[-8.3089,41.38212]},"properties":{"id":89065,"name":"Caldas de Vizela","state_code":"03","country_code":"PT"}},{"type":"Feature","geometry":{"type":"Point","coordinates":[-8.38148,41.67101]},"properties":{"id":89066,"name":"Caldelas","state_code":"03","country_code":"PT"}},{"type":"Feature","geometry":{"type":"Point","coordinates":[-8.52967,41.40361]},"properties":{"id":89067,"name":"Calendário","state_code":"03","country_code":"PT"}},{"type":"Feature","geometry":{"type":"Point","coordinates":[-8.32166,41.42768]},"properties":{"id":89081,"name":"Candoso","state_code":"03","country_code":"PT"}},{"type":"Feature","geometry":{"type":"Point","coordinates":[-8.03346,41.40278]},"properties":{"id":89114,"name":"Celorico de Basto","state_code":"03","country_code":"PT"}},{"type":"Feature","geometry":{"type":"Point","coordinates":[-8.60194,41.45235]},"properties":{"id":89120,"name":"Chavão","state_code":"03","country_code":"PT"}},{"type":"Feature","geometry":{"type":"Point","coordinates":[-8.69785,41.47964]},"properties":{"id":89135,"name":"Cristelo","state_code":"03","country_code":"PT"}},{"type":"Feature","geometry":{"type":"Point","coordinates":[-8.41729,41.51006]},"properties":{"id":89151,"name":"Esporões","state_code":"03","country_code":"PT"}},{"type":"Feature","geometry":{"type":"Point","coordinates":[-8.78201,41.5361]},"properties":{"id":89152,"name":"Esposende","state_code":"03","country_code":"PT"}},{"type":"Feature","geometry":{"type":"Point","coordinates":[-8.15863,41.46837]},"properties":{"id":89160,"name":"Fafe","state_code":"03","country_code":"PT"}},{"type":"Feature","geometry":{"type":"Point","coordinates":[-8.67152,41.48298]},"properties":{"id":89166,"name":"Faria","state_code":"03","country_code":"PT"}},{"type":"Feature","geometry":{"type":"Point","coordinates":[-8.55,41.35]},"properties":{"id":89179,"name":"Ferreiros","state_code":"03","country_code":"PT"}},{"type":"Feature","geometry":{"type":"Point","coordinates":[-8.59887,41.36846]},"properties":{"id":89191,"name":"Fradelos","state_code":"03","country_code":"PT"}},{"type":"Feature","geometry":{"type":"Point","coordinates":[-8.45134,41.5659]},"properties":{"id":89196,"name":"Frossos","state_code":"03","country_code":"PT"}},{"type":"Feature","geometry":{"type":"Point","coordinates":[-8.57204,41.56268]},"properties":{"id":89205,"name":"Galegos","state_code":"03","country_code":"PT"}},{"type":"Feature","geometry":{"type":"Point","coordinates":[-8.76185,41.52185]},"properties":{"id":89207,"name":"Gandra","state_code":"03","country_code":"PT"}},{"type":"Feature","geometry":{"type":"Point","coordinates":[-8.4557,41.54158]},"properties":{"id":89212,"name":"Gondizalves","state_code":"03","country_code":"PT"}},{"type":"Feature","geometry":{"type":"Point","coordinates":[-8.62946,41.45859]},"properties":{"id":89216,"name":"Gueral","state_code":"03","country_code":"PT"}},{"type":"Feature","geometry":{"type":"Point","coordinates":[-8.28918,41.44384]},"properties":{"id":89219,"name":"Guimarães","state_code":"03","country_code":"PT"}},{"type":"Feature","geometry":{"type":"Point","coordinates":[-8.44564,41.48264]},"properties":{"id":89220,"name":"Guisande","state_code":"03","country_code":"PT"}},{"type":"Feature","geometry":{"type":"Point","coordinates":[-8.40846,41.43906]},"properties":{"id":89225,"name":"Joane","state_code":"03","country_code":"PT"}},{"type":"Feature","geometry":{"type":"Point","coordinates":[-8.41258,41.62148]},"properties":{"id":89227,"name":"Lago","state_code":"03","country_code":"PT"}},{"type":"Feature","geometry":{"type":"Point","coordinates":[-8.38016,41.37411]},"properties":{"id":89248,"name":"Lordelo","state_code":"03","country_code":"PT"}},{"type":"Feature","geometry":{"type":"Point","coordinates":[-8.63426,41.44092]},"properties":{"id":89264,"name":"Macieira de Rates","state_code":"03","country_code":"PT"}},{"type":"Feature","geometry":{"type":"Point","coordinates":[-8.78297,41.55906]},"properties":{"id":89279,"name":"Marinhas","state_code":"03","country_code":"PT"}},{"type":"Feature","geometry":{"type":"Point","coordinates":[-8.67081,41.52823]},"properties":{"id":89280,"name":"Mariz","state_code":"03","country_code":"PT"}},{"type":"Feature","geometry":{"type":"Point","coordinates":[-8.46555,41.58568]},"properties":{"id":89293,"name":"Merelim","state_code":"03","country_code":"PT"}},{"type":"Feature","geometry":{"type":"Point","coordinates":[-8.3394,41.3868]},"properties":{"id":89330,"name":"Moreira de Conegos","state_code":"03","country_code":"PT"}},{"type":"Feature","geometry":{"type":"Point","coordinates":[-8.61398,41.43552]},"properties":{"id":89343,"name":"Negreiros","state_code":"03","country_code":"PT"}},{"type":"Feature","geometry":{"type":"Point","coordinates":[-8.46965,41.47819]},"properties":{"id":89362,"name":"Oliveira","state_code":"03","country_code":"PT"}},{"type":"Feature","geometry":{"type":"Point","coordinates":[-8.68982,41.53075]},"properties":{"id":89402,"name":"Perelhal","state_code":"03","country_code":"PT"}},{"type":"Feature","geometry":{"type":"Point","coordinates":[-8.3299,41.47057]},"properties":{"id":89415,"name":"Ponte","state_code":"03","country_code":"PT"}},{"type":"Feature","geometry":{"type":"Point","coordinates":[-8.27008,41.57599]},"properties":{"id":89442,"name":"Póvoa de Lanhoso","state_code":"03","country_code":"PT"}},{"type":"Feature","geometry":{"type":"Point","coordinates":[-8.46297,41.60246]},"properties":{"id":89435,"name":"Prado","state_code":"03","country_code":"PT"}},{"type":"Feature","geometry":{"type":"Point","coordinates":[-8.4433,41.55841]},"properties":{"id":89453,"name":"Real","state_code":"03","country_code":"PT"}},{"type":"Feature","geometry":{"type":"Point","coordinates":[-7.99517,41.51318]},"properties":{"id":89458,"name":"Refojos de Basto","state_code":"03","country_code":"PT"}},{"type":"Feature","geometry":{"type":"Point","coordinates":[-8.40858,41.62898]},"properties":{"id":89461,"name":"Rendufe","state_code":"03","country_code":"PT"}},{"type":"Feature","geometry":{"type":"Point","coordinates":[-8.38685,41.39648]},"properties":{"id":89464,"name":"Riba de Ave","state_code":"03","country_code":"PT"}},{"type":"Feature","geometry":{"type":"Point","coordinates":[-8.56774,41.36081]},"properties":{"id":89470,"name":"Ribeirão","state_code":"03","country_code":"PT"}},{"type":"Feature","geometry":{"type":"Point","coordinates":[-8.38412,41.44146]},"properties":{"id":89477,"name":"Ronfe","state_code":"03","country_code":"PT"}},{"type":"Feature","geometry":{"type":"Point","coordinates":[-8.39246,41.7019]},"properties":{"id":89490,"name":"Sande","state_code":"03","country_code":"PT"}},{"type":"Feature","geometry":{"type":"Point","coordinates":[-8.34599,41.41938]},"properties":{"id":89524,"name":"Selho","state_code":"03","country_code":"PT"}},{"type":"Feature","geometry":{"type":"Point","coordinates":[-8.46281,41.55437]},"properties":{"id":89525,"name":"Semelhe","state_code":"03","country_code":"PT"}},{"type":"Feature","geometry":{"type":"Point","coordinates":[-8.36888,41.40128]},"properties":{"id":89536,"name":"Serzedelo","state_code":"03","country_code":"PT"}},{"type":"Feature","geometry":{"type":"Point","coordinates":[-8.22926,41.40502]},"properties":{"id":89537,"name":"Serzedo","state_code":"03","country_code":"PT"}},{"type":"Feature","geometry":{"type":"Point","coordinates":[-8.48399,41.48253]},"properties":{"id":89598,"name":"Tebosa","state_code":"03","country_code":"PT"}},{"type":"Feature","geometry":{"type":"Point","coordinates":[-8.19109,41.73914]},"properties":{"id":89601,"name":"Terras de Bouro","state_code":"03","country_code":"PT"}},{"type":"Feature","geometry":{"type":"Point","coordinates":[-8.29796,41.4272]},"properties":{"id":89618,"name":"Urgeses","state_code":"03","country_code":"PT"}},{"type":"Feature","geometry":{"type":"Point","coordinates":[-8.584,41.51512]},"properties":{"id":89689,"name":"Várzea","state_code":"03","country_code":"PT"}},{"type":"Feature","geometry":{"type":"Point","coordinates":[-8.13244,41.63557]},"properties":{"id":89644,"name":"Vieira do Minho","state_code":"03","country_code":"PT"}},{"type":"Feature","geometry":{"type":"Point","coordinates":[-8.71645,41.55107]},"properties":{"id":89647,"name":"Vila Cova","state_code":"03","country_code":"PT"}},{"type":"Feature","geometry":{"type":"Point","coordinates":[-8.63971,41.53846]},"properties":{"id":89651,"name":"Vila Frescainha","state_code":"03","country_code":"PT"}},{"type":"Feature","geometry":{"type":"Point","coordinates":[-8.51978,41.40797]},"properties":{"id":89656,"name":"Vila Nova de Famalicão","state_code":"03","country_code":"PT"}},{"type":"Feature","geometry":{"type":"Point","coordinates":[-8.68525,41.50031]},"properties":{"id":89665,"name":"Vila Seca","state_code":"03","country_code":"PT"}},{"type":"Feature","geometry":{"type":"Point","coordinates":[-8.43628,41.64869]},"properties":{"id":89668,"name":"Vila Verde","state_code":"03","country_code":"PT"}},{"type":"Feature","geometry":{"type":"Point","coordinates":[-8.48357,41.51787]},"properties":{"id":89679,"name":"Vilaça","state_code":"03","country_code":"PT"}},{"type":"Feature","geometry":{"type":"Point","coordinates":[-8.65382,41.47555]},"properties":{"id":89676,"name":"Vilar de Figos","state_code":"03","country_code":"PT"}},{"type":"Feature","geometry":{"type":"Point","coordinates":[-8.2931,41.37529]},"properties":{"id":89686,"name":"Vizela","state_code":"03","country_code":"PT"}}]}