{"type":"FeatureCollection","features":[{"type":"Feature","geometry":{"type":"Point","coordinates":[-8.51444,38.37326]},"properties":{"id":88924,"name":"Alcácer do Sal","state_code":"15","country_code":"PT"}},{"type":"Feature","geometry":{"type":"Point","coordinates":[-8.97936,38.73827]},"properties":{"id":88921,"name":"Alcochete","state_code":"15","country_code":"PT"}},{"type":"Feature","geometry":{"type":"Point","coordinates":[-9.08333,38.61667]},"properties":{"id":88927,"name":"Aldeia de Paio Pires","state_code":"15","country_code":"PT"}},{"type":"Feature","geometry":{"type":"Point","coordinates":[-9.02368,38.65486]},"properties":{"id":88940,"name":"Alhos Vedros","state_code":"15","country_code":"PT"}},{"type":"Feature","geometry":{"type":"Point","coordinates":[-9.1569,38.67902]},"properties":{"id":88945,"name":"Almada","state_code":"15","country_code":"PT"}},{"type":"Feature","geometry":{"type":"Point","coordinates":[-9.11557,38.62961]},"properties":{"id":88965,"name":"Amora","state_code":"15","country_code":"PT"}},{"type":"Feature","geometry":{"type":"Point","coordinates":[-9.10151,38.625]},"properties":{"id":88992,"name":"Arrentela","state_code":"15","country_code":"PT"}},{"type":"Feature","geometry":{"type":"Point","coordinates":[-9.0139,38.51919]},"properties":{"id":89010,"name":"Azeitão","state_code":"15","country_code":"PT"}},{"type":"Feature","geometry":{"type":"Point","coordinates":[-9.0724,38.66314]},"properties":{"id":89021,"name":"Barreiro","state_code":"15","country_code":"PT"}},{"type":"Feature","geometry":{"type":"Point","coordinates":[-9.14938,38.68638]},"properties":{"id":89058,"name":"Cacilhas","state_code":"15","country_code":"PT"}},{"type":"Feature","geometry":{"type":"Point","coordinates":[-9.20032,38.66179]},"properties":{"id":89089,"name":"Caparica","state_code":"15","country_code":"PT"}},{"type":"Feature","geometry":{"type":"Point","coordinates":[-8.674,37.80129]},"properties":{"id":89115,"name":"Cercal","state_code":"15","country_code":"PT"}},{"type":"Feature","geometry":{"type":"Point","coordinates":[-9.19426,38.62032]},"properties":{"id":89118,"name":"Charneca de Caparica","state_code":"15","country_code":"PT"}},{"type":"Feature","geometry":{"type":"Point","coordinates":[-8.78608,38.38059]},"properties":{"id":89124,"name":"Comporta","state_code":"15","country_code":"PT"}},{"type":"Feature","geometry":{"type":"Point","coordinates":[-9.1508,38.64004]},"properties":{"id":89128,"name":"Corroios","state_code":"15","country_code":"PT"}},{"type":"Feature","geometry":{"type":"Point","coordinates":[-9.23556,38.64458]},"properties":{"id":89132,"name":"Costa de Caparica","state_code":"15","country_code":"PT"}},{"type":"Feature","geometry":{"type":"Point","coordinates":[-8.61197,38.18999]},"properties":{"id":89215,"name":"Grândola","state_code":"15","country_code":"PT"}},{"type":"Feature","geometry":{"type":"Point","coordinates":[-9.15376,38.65599]},"properties":{"id":89236,"name":"Laranjeira","state_code":"15","country_code":"PT"}},{"type":"Feature","geometry":{"type":"Point","coordinates":[-9.05204,38.66808]},"properties":{"id":89240,"name":"Lavradio","state_code":"15","country_code":"PT"}},{"type":"Feature","geometry":{"type":"Point","coordinates":[-9.0104,38.65854]},"properties":{"id":89309,"name":"Moita","state_code":"15","country_code":"PT"}},{"type":"Feature","geometry":{"type":"Point","coordinates":[-8.69364,38.7299]},"properties":{"id":89326,"name":"Montijo","state_code":"15","country_code":"PT"}},{"type":"Feature","geometry":{"type":"Point","coordinates":[-8.90126,38.56902]},"properties":{"id":89377,"name":"Palmela","state_code":"15","country_code":"PT"}},{"type":"Feature","geometry":{"type":"Point","coordinates":[-9.15852,38.67005]},"properties":{"id":89406,"name":"Piedade","state_code":"15","country_code":"PT"}},{"type":"Feature","geometry":{"type":"Point","coordinates":[-8.91376,38.63106]},"properties":{"id":89407,"name":"Pinhal Novo","state_code":"15","country_code":"PT"}},{"type":"Feature","geometry":{"type":"Point","coordinates":[-8.79018,37.85256]},"properties":{"id":89426,"name":"Porto Covo","state_code":"15","country_code":"PT"}},{"type":"Feature","geometry":{"type":"Point","coordinates":[-9.16981,38.67459]},"properties":{"id":89436,"name":"Pragal","state_code":"15","country_code":"PT"}},{"type":"Feature","geometry":{"type":"Point","coordinates":[-8.94228,38.56753]},"properties":{"id":89450,"name":"Quinta do Anjo","state_code":"15","country_code":"PT"}},{"type":"Feature","geometry":{"type":"Point","coordinates":[-9.04316,38.56528]},"properties":{"id":89449,"name":"Quinta Do Conde","state_code":"15","country_code":"PT"}},{"type":"Feature","geometry":{"type":"Point","coordinates":[-9.00836,38.67734]},"properties":{"id":89478,"name":"Rosairinho","state_code":"15","country_code":"PT"}},{"type":"Feature","geometry":{"type":"Point","coordinates":[-9.00471,38.72035]},"properties":{"id":89489,"name":"Samouco","state_code":"15","country_code":"PT"}},{"type":"Feature","geometry":{"type":"Point","coordinates":[-8.67577,38.02502]},"properties":{"id":89511,"name":"Santiago do Cacém","state_code":"15","country_code":"PT"}},{"type":"Feature","geometry":{"type":"Point","coordinates":[-8.7822,38.06078]},"properties":{"id":89512,"name":"Santo André","state_code":"15","country_code":"PT"}},{"type":"Feature","geometry":{"type":"Point","coordinates":[-9.03043,38.62561]},"properties":{"id":89515,"name":"Santo António da Charneca","state_code":"15","country_code":"PT"}},{"type":"Feature","geometry":{"type":"Point","coordinates":[-8.98231,38.68176]},"properties":{"id":89522,"name":"Sarilhos Pequenos","state_code":"15","country_code":"PT"}},{"type":"Feature","geometry":{"type":"Point","coordinates":[-9.10371,38.61173]},"properties":{"id":89523,"name":"Seixal","state_code":"15","country_code":"PT"}},{"type":"Feature","geometry":{"type":"Point","coordinates":[-9.12011,38.49486]},"properties":{"id":89539,"name":"Sesimbra","state_code":"15","country_code":"PT"}},{"type":"Feature","geometry":{"type":"Point","coordinates":[-8.8882,38.5244]},"properties":{"id":89540,"name":"Setúbal","state_code":"15","country_code":"PT"}},{"type":"Feature","geometry":{"type":"Point","coordinates":[-8.86979,37.95622]},"properties":{"id":89545,"name":"Sines","state_code":"15","country_code":"PT"}},{"type":"Feature","geometry":{"type":"Point","coordinates":[-9.18977,38.64961]},"properties":{"id":89550,"name":"Sobreda","state_code":"15","country_code":"PT"}},{"type":"Feature","geometry":{"type":"Point","coordinates":[-9.23268,38.67222]},"properties":{"id":89609,"name":"Trafaria","state_code":"15","country_code":"PT"}}]}