{"type":"FeatureCollection","features":[{"type":"Feature","geometry":{"type":"Point","coordinates":[-54.61667,-24.13333]},"properties":{"id":89747,"name":"Colonia Catuete","state_code":"14","country_code":"PY"}},{"type":"Feature","geometry":{"type":"Point","coordinates":[-54.93933,-24.0804]},"properties":{"id":89758,"name":"Corpus Christi","state_code":"14","country_code":"PY"}},{"type":"Feature","geometry":{"type":"Point","coordinates":[-54.61376,-24.12957]},"properties":{"id":89790,"name":"La Paloma","state_code":"14","country_code":"PY"}},{"type":"Feature","geometry":{"type":"Point","coordinates":[-54.8551,-24.5076]},"properties":{"id":89803,"name":"Nueva Esperanza","state_code":"14","country_code":"PY"}},{"type":"Feature","geometry":{"type":"Point","coordinates":[-54.30694,-24.0625]},"properties":{"id":89817,"name":"Salto del Guairá","state_code":"14","country_code":"PY"}},{"type":"Feature","geometry":{"type":"Point","coordinates":[-55.69227,-24.47184]},"properties":{"id":89822,"name":"San Isidro de Curuguaty","state_code":"14","country_code":"PY"}},{"type":"Feature","geometry":{"type":"Point","coordinates":[-55.64418,-24.12371]},"properties":{"id":89851,"name":"Ygatimi","state_code":"14","country_code":"PY"}}]}