{"type":"FeatureCollection","features":[{"type":"Feature","geometry":{"type":"Point","coordinates":[-57.25443,-25.26263]},"properties":{"id":89718,"name":"Altos","state_code":"3","country_code":"PY"}},{"type":"Feature","geometry":{"type":"Point","coordinates":[-57.09873,-25.05478]},"properties":{"id":89722,"name":"Arroyos y Esteros","state_code":"3","country_code":"PY"}},{"type":"Feature","geometry":{"type":"Point","coordinates":[-57.17192,-25.27876]},"properties":{"id":89723,"name":"Atyrá","state_code":"3","country_code":"PY"}},{"type":"Feature","geometry":{"type":"Point","coordinates":[-57.14217,-25.38575]},"properties":{"id":89729,"name":"Caacupé","state_code":"3","country_code":"PY"}},{"type":"Feature","geometry":{"type":"Point","coordinates":[-56.82693,-25.23844]},"properties":{"id":89738,"name":"Caraguatay","state_code":"3","country_code":"PY"}},{"type":"Feature","geometry":{"type":"Point","coordinates":[-57.35,-25.15]},"properties":{"id":89762,"name":"Emboscada","state_code":"3","country_code":"PY"}},{"type":"Feature","geometry":{"type":"Point","coordinates":[-56.96088,-25.38276]},"properties":{"id":89764,"name":"Eusebio Ayala","state_code":"3","country_code":"PY"}},{"type":"Feature","geometry":{"type":"Point","coordinates":[-56.89986,-25.30853]},"properties":{"id":89779,"name":"Isla Pucú","state_code":"3","country_code":"PY"}},{"type":"Feature","geometry":{"type":"Point","coordinates":[-56.85333,-25.46158]},"properties":{"id":89780,"name":"Itacurubí de la Cordillera","state_code":"3","country_code":"PY"}},{"type":"Feature","geometry":{"type":"Point","coordinates":[-57.04183,-25.46498]},"properties":{"id":89811,"name":"Piribebuy","state_code":"3","country_code":"PY"}},{"type":"Feature","geometry":{"type":"Point","coordinates":[-57.29628,-25.31067]},"properties":{"id":89820,"name":"San Bernardino","state_code":"3","country_code":"PY"}},{"type":"Feature","geometry":{"type":"Point","coordinates":[-56.79708,-25.41327]},"properties":{"id":89833,"name":"Santa Elena","state_code":"3","country_code":"PY"}},{"type":"Feature","geometry":{"type":"Point","coordinates":[-57.08329,-25.26111]},"properties":{"id":89840,"name":"Tobatí","state_code":"3","country_code":"PY"}}]}