{"type":"FeatureCollection","features":[{"type":"Feature","geometry":{"type":"Point","coordinates":[55.3731415,-21.1402675]},"properties":{"id":155029,"name":"Cilaos","state_code":"04","country_code":"RE"}},{"type":"Feature","geometry":{"type":"Point","coordinates":[55.4112594,-21.2107387]},"properties":{"id":155030,"name":"Entre-Deux","state_code":"04","country_code":"RE"}},{"type":"Feature","geometry":{"type":"Point","coordinates":[55.3163686,-21.2347408]},"properties":{"id":155031,"name":"L'Étang-Salé","state_code":"04","country_code":"RE"}},{"type":"Feature","geometry":{"type":"Point","coordinates":[55.4876541,-21.2250092]},"properties":{"id":155037,"name":"Le Tampon","state_code":"04","country_code":"RE"}},{"type":"Feature","geometry":{"type":"Point","coordinates":[55.3216609,-21.2018683]},"properties":{"id":155028,"name":"Les Avirons","state_code":"04","country_code":"RE"}},{"type":"Feature","geometry":{"type":"Point","coordinates":[55.5294205,-21.3329678]},"properties":{"id":155032,"name":"Petite-Île","state_code":"04","country_code":"RE"}},{"type":"Feature","geometry":{"type":"Point","coordinates":[55.5616173,-21.2921186]},"properties":{"id":155033,"name":"Saint-Joseph","state_code":"04","country_code":"RE"}},{"type":"Feature","geometry":{"type":"Point","coordinates":[55.340044,-21.2254829]},"properties":{"id":155034,"name":"Saint-Louis","state_code":"04","country_code":"RE"}},{"type":"Feature","geometry":{"type":"Point","coordinates":[55.6611834,-21.308375]},"properties":{"id":155035,"name":"Saint-Philippe","state_code":"04","country_code":"RE"}},{"type":"Feature","geometry":{"type":"Point","coordinates":[55.3395313,-21.3089303]},"properties":{"id":155036,"name":"Saint-Pierre","state_code":"04","country_code":"RE"}}]}