{"type":"FeatureCollection","features":[{"type":"Feature","geometry":{"type":"Point","coordinates":[55.418353,-20.9645672]},"properties":{"id":155020,"name":"Saint-Denis","state_code":"02","country_code":"RE"}},{"type":"Feature","geometry":{"type":"Point","coordinates":[55.4409587,-20.9462842]},"properties":{"id":155021,"name":"Sainte-Marie","state_code":"02","country_code":"RE"}},{"type":"Feature","geometry":{"type":"Point","coordinates":[55.5111475,-20.9506379]},"properties":{"id":155022,"name":"Sainte-Suzanne","state_code":"02","country_code":"RE"}}]}