{"type":"FeatureCollection","features":[{"type":"Feature","geometry":{"type":"Point","coordinates":[21.58433,46.55511]},"properties":{"id":89880,"name":"Adea","state_code":"AR","country_code":"RO"}},{"type":"Feature","geometry":{"type":"Point","coordinates":[21.75558,46.27243]},"properties":{"id":89902,"name":"Agrișu Mare","state_code":"AR","country_code":"RO"}},{"type":"Feature","geometry":{"type":"Point","coordinates":[22.23333,46.28333]},"properties":{"id":89935,"name":"Almaş","state_code":"AR","country_code":"RO"}},{"type":"Feature","geometry":{"type":"Point","coordinates":[21.39175,46.2881]},"properties":{"id":89955,"name":"Andrei Șaguna","state_code":"AR","country_code":"RO"}},{"type":"Feature","geometry":{"type":"Point","coordinates":[21.78333,46.61667]},"properties":{"id":89970,"name":"Apateu","state_code":"AR","country_code":"RO"}},{"type":"Feature","geometry":{"type":"Point","coordinates":[21.31667,46.18333]},"properties":{"id":89977,"name":"Arad","state_code":"AR","country_code":"RO"}},{"type":"Feature","geometry":{"type":"Point","coordinates":[22.05,46.48333]},"properties":{"id":89980,"name":"Archiş","state_code":"AR","country_code":"RO"}},{"type":"Feature","geometry":{"type":"Point","coordinates":[22.06667,46.38333]},"properties":{"id":90454,"name":"Bârsa","state_code":"AR","country_code":"RO"}},{"type":"Feature","geometry":{"type":"Point","coordinates":[21.98333,46.11667]},"properties":{"id":90460,"name":"Bârzava","state_code":"AR","country_code":"RO"}},{"type":"Feature","geometry":{"type":"Point","coordinates":[22.03333,46.01667]},"properties":{"id":90069,"name":"Bata","state_code":"AR","country_code":"RO"}},{"type":"Feature","geometry":{"type":"Point","coordinates":[21.98333,46.48333]},"properties":{"id":90090,"name":"Beliu","state_code":"AR","country_code":"RO"}},{"type":"Feature","geometry":{"type":"Point","coordinates":[22.16667,45.96667]},"properties":{"id":90139,"name":"Birchiş","state_code":"AR","country_code":"RO"}},{"type":"Feature","geometry":{"type":"Point","coordinates":[21.95,46.41667]},"properties":{"id":90176,"name":"Bocsig","state_code":"AR","country_code":"RO"}},{"type":"Feature","geometry":{"type":"Point","coordinates":[22.33333,46.23333]},"properties":{"id":90279,"name":"Brazii","state_code":"AR","country_code":"RO"}},{"type":"Feature","geometry":{"type":"Point","coordinates":[22.11667,46.31667]},"properties":{"id":90426,"name":"Buteni","state_code":"AR","country_code":"RO"}},{"type":"Feature","geometry":{"type":"Point","coordinates":[21.58316,46.33793]},"properties":{"id":90568,"name":"Caporal Alexa","state_code":"AR","country_code":"RO"}},{"type":"Feature","geometry":{"type":"Point","coordinates":[22.08333,46.45]},"properties":{"id":93866,"name":"Cărand","state_code":"AR","country_code":"RO"}},{"type":"Feature","geometry":{"type":"Point","coordinates":[21.85,46.55]},"properties":{"id":90627,"name":"Cermei","state_code":"AR","country_code":"RO"}},{"type":"Feature","geometry":{"type":"Point","coordinates":[21.70706,46.4686]},"properties":{"id":90657,"name":"Chereluș","state_code":"AR","country_code":"RO"}},{"type":"Feature","geometry":{"type":"Point","coordinates":[21.57944,46.04973]},"properties":{"id":90658,"name":"Chesinț","state_code":"AR","country_code":"RO"}},{"type":"Feature","geometry":{"type":"Point","coordinates":[21.82488,46.34199]},"properties":{"id":90664,"name":"Chier","state_code":"AR","country_code":"RO"}},{"type":"Feature","geometry":{"type":"Point","coordinates":[22.1,46.28333]},"properties":{"id":90683,"name":"Chisindia","state_code":"AR","country_code":"RO"}},{"type":"Feature","geometry":{"type":"Point","coordinates":[21.51844,46.52509]},"properties":{"id":90687,"name":"Chişineu-Criş","state_code":"AR","country_code":"RO"}},{"type":"Feature","geometry":{"type":"Point","coordinates":[21.56556,46.44434]},"properties":{"id":90704,"name":"Cintei","state_code":"AR","country_code":"RO"}},{"type":"Feature","geometry":{"type":"Point","coordinates":[22.23173,46.2848]},"properties":{"id":90855,"name":"Comuna Almaş","state_code":"AR","country_code":"RO"}},{"type":"Feature","geometry":{"type":"Point","coordinates":[21.8253,46.62598]},"properties":{"id":90877,"name":"Comuna Apateu","state_code":"AR","country_code":"RO"}},{"type":"Feature","geometry":{"type":"Point","coordinates":[22.09663,46.48333]},"properties":{"id":90884,"name":"Comuna Archiş","state_code":"AR","country_code":"RO"}},{"type":"Feature","geometry":{"type":"Point","coordinates":[22.04459,46.3841]},"properties":{"id":91191,"name":"Comuna Bârsa","state_code":"AR","country_code":"RO"}},{"type":"Feature","geometry":{"type":"Point","coordinates":[22.06096,46.0991]},"properties":{"id":91197,"name":"Comuna Bârzava","state_code":"AR","country_code":"RO"}},{"type":"Feature","geometry":{"type":"Point","coordinates":[22.07805,45.99641]},"properties":{"id":90939,"name":"Comuna Bata","state_code":"AR","country_code":"RO"}},{"type":"Feature","geometry":{"type":"Point","coordinates":[21.99566,46.52965]},"properties":{"id":90954,"name":"Comuna Beliu","state_code":"AR","country_code":"RO"}},{"type":"Feature","geometry":{"type":"Point","coordinates":[22.16845,45.96987]},"properties":{"id":90992,"name":"Comuna Birchiş","state_code":"AR","country_code":"RO"}},{"type":"Feature","geometry":{"type":"Point","coordinates":[21.98424,46.41893]},"properties":{"id":91015,"name":"Comuna Bocsig","state_code":"AR","country_code":"RO"}},{"type":"Feature","geometry":{"type":"Point","coordinates":[22.32613,46.22177]},"properties":{"id":91087,"name":"Comuna Brazii","state_code":"AR","country_code":"RO"}},{"type":"Feature","geometry":{"type":"Point","coordinates":[22.11472,46.33119]},"properties":{"id":91174,"name":"Comuna Buteni","state_code":"AR","country_code":"RO"}},{"type":"Feature","geometry":{"type":"Point","coordinates":[22.05755,46.45551]},"properties":{"id":91586,"name":"Comuna Cărand","state_code":"AR","country_code":"RO"}},{"type":"Feature","geometry":{"type":"Point","coordinates":[21.87084,46.55433]},"properties":{"id":91290,"name":"Comuna Cermei","state_code":"AR","country_code":"RO"}},{"type":"Feature","geometry":{"type":"Point","coordinates":[22.08572,46.26509]},"properties":{"id":91326,"name":"Comuna Chisindia","state_code":"AR","country_code":"RO"}},{"type":"Feature","geometry":{"type":"Point","coordinates":[21.88047,46.10401]},"properties":{"id":91412,"name":"Comuna Conop","state_code":"AR","country_code":"RO"}},{"type":"Feature","geometry":{"type":"Point","coordinates":[21.60944,46.20571]},"properties":{"id":91467,"name":"Comuna Covăsinţ","state_code":"AR","country_code":"RO"}},{"type":"Feature","geometry":{"type":"Point","coordinates":[21.97908,46.59969]},"properties":{"id":91485,"name":"Comuna Craiva","state_code":"AR","country_code":"RO"}},{"type":"Feature","geometry":{"type":"Point","coordinates":[22.22726,46.40997]},"properties":{"id":91621,"name":"Comuna Dezna","state_code":"AR","country_code":"RO"}},{"type":"Feature","geometry":{"type":"Point","coordinates":[22.22373,46.32071]},"properties":{"id":91625,"name":"Comuna Dieci","state_code":"AR","country_code":"RO"}},{"type":"Feature","geometry":{"type":"Point","coordinates":[21.38111,46.12441]},"properties":{"id":91810,"name":"Comuna Fântânele","state_code":"AR","country_code":"RO"}},{"type":"Feature","geometry":{"type":"Point","coordinates":[21.16704,46.12223]},"properties":{"id":91758,"name":"Comuna Felnac","state_code":"AR","country_code":"RO"}},{"type":"Feature","geometry":{"type":"Point","coordinates":[21.45836,46.1018]},"properties":{"id":91787,"name":"Comuna Frumuşeni","state_code":"AR","country_code":"RO"}},{"type":"Feature","geometry":{"type":"Point","coordinates":[21.59651,46.15322]},"properties":{"id":91861,"name":"Comuna Ghioroc","state_code":"AR","country_code":"RO"}},{"type":"Feature","geometry":{"type":"Point","coordinates":[21.33672,46.50539]},"properties":{"id":91943,"name":"Comuna Grăniceri","state_code":"AR","country_code":"RO"}},{"type":"Feature","geometry":{"type":"Point","coordinates":[22.33506,46.2922]},"properties":{"id":91957,"name":"Comuna Gurahonţ","state_code":"AR","country_code":"RO"}},{"type":"Feature","geometry":{"type":"Point","coordinates":[22.6318,46.27662]},"properties":{"id":92039,"name":"Comuna Hălmăgel","state_code":"AR","country_code":"RO"}},{"type":"Feature","geometry":{"type":"Point","coordinates":[22.58183,46.27536]},"properties":{"id":92038,"name":"Comuna Hălmagiu","state_code":"AR","country_code":"RO"}},{"type":"Feature","geometry":{"type":"Point","coordinates":[22.07003,46.52217]},"properties":{"id":92046,"name":"Comuna Hăşmaş","state_code":"AR","country_code":"RO"}},{"type":"Feature","geometry":{"type":"Point","coordinates":[22.18227,46.43388]},"properties":{"id":92067,"name":"Comuna Igneşti","state_code":"AR","country_code":"RO"}},{"type":"Feature","geometry":{"type":"Point","coordinates":[21.1875,46.29414]},"properties":{"id":92092,"name":"Comuna Iratoşu","state_code":"AR","country_code":"RO"}},{"type":"Feature","geometry":{"type":"Point","coordinates":[21.38746,46.21924]},"properties":{"id":92173,"name":"Comuna Livada","state_code":"AR","country_code":"RO"}},{"type":"Feature","geometry":{"type":"Point","coordinates":[21.33187,46.40094]},"properties":{"id":92227,"name":"Comuna Macea","state_code":"AR","country_code":"RO"}},{"type":"Feature","geometry":{"type":"Point","coordinates":[21.65353,46.62016]},"properties":{"id":92310,"name":"Comuna Mişca","state_code":"AR","country_code":"RO"}},{"type":"Feature","geometry":{"type":"Point","coordinates":[22.25323,46.44443]},"properties":{"id":92329,"name":"Comuna Moneasa","state_code":"AR","country_code":"RO"}},{"type":"Feature","geometry":{"type":"Point","coordinates":[21.54522,46.38673]},"properties":{"id":92493,"name":"Comuna Olari","state_code":"AR","country_code":"RO"}},{"type":"Feature","geometry":{"type":"Point","coordinates":[21.60246,46.12506]},"properties":{"id":92728,"name":"Comuna Păuliş","state_code":"AR","country_code":"RO"}},{"type":"Feature","geometry":{"type":"Point","coordinates":[20.90612,46.23377]},"properties":{"id":92546,"name":"Comuna Peregu Mare","state_code":"AR","country_code":"RO"}},{"type":"Feature","geometry":{"type":"Point","coordinates":[22.39523,46.0677]},"properties":{"id":92566,"name":"Comuna Petriş","state_code":"AR","country_code":"RO"}},{"type":"Feature","geometry":{"type":"Point","coordinates":[21.34711,46.59727]},"properties":{"id":92584,"name":"Comuna Pilu","state_code":"AR","country_code":"RO"}},{"type":"Feature","geometry":{"type":"Point","coordinates":[22.43178,46.28315]},"properties":{"id":92593,"name":"Comuna Pleşcuţa","state_code":"AR","country_code":"RO"}},{"type":"Feature","geometry":{"type":"Point","coordinates":[21.34239,46.04254]},"properties":{"id":93496,"name":"Comuna Şagu","state_code":"AR","country_code":"RO"}},{"type":"Feature","geometry":{"type":"Point","coordinates":[22.26514,46.02527]},"properties":{"id":93118,"name":"Comuna Săvârşin","state_code":"AR","country_code":"RO"}},{"type":"Feature","geometry":{"type":"Point","coordinates":[21.00295,46.0926]},"properties":{"id":92916,"name":"Comuna Secusigiu","state_code":"AR","country_code":"RO"}},{"type":"Feature","geometry":{"type":"Point","coordinates":[20.84464,46.10858]},"properties":{"id":93503,"name":"Comuna Şeitin","state_code":"AR","country_code":"RO"}},{"type":"Feature","geometry":{"type":"Point","coordinates":[21.74875,46.37886]},"properties":{"id":92920,"name":"Comuna Seleuş","state_code":"AR","country_code":"RO"}},{"type":"Feature","geometry":{"type":"Point","coordinates":[20.9321,46.1126]},"properties":{"id":92921,"name":"Comuna Semlac","state_code":"AR","country_code":"RO"}},{"type":"Feature","geometry":{"type":"Point","coordinates":[21.75137,46.45723]},"properties":{"id":93513,"name":"Comuna Şicula","state_code":"AR","country_code":"RO"}},{"type":"Feature","geometry":{"type":"Point","coordinates":[21.93488,46.33611]},"properties":{"id":93519,"name":"Comuna Şilindia","state_code":"AR","country_code":"RO"}},{"type":"Feature","geometry":{"type":"Point","coordinates":[21.45145,46.424]},"properties":{"id":93520,"name":"Comuna Şimand","state_code":"AR","country_code":"RO"}},{"type":"Feature","geometry":{"type":"Point","coordinates":[21.608,46.51684]},"properties":{"id":92941,"name":"Comuna Sintea Mare","state_code":"AR","country_code":"RO"}},{"type":"Feature","geometry":{"type":"Point","coordinates":[21.65419,46.2847]},"properties":{"id":93529,"name":"Comuna Şiria","state_code":"AR","country_code":"RO"}},{"type":"Feature","geometry":{"type":"Point","coordinates":[21.75589,45.98649]},"properties":{"id":93533,"name":"Comuna Şiştarovăţ","state_code":"AR","country_code":"RO"}},{"type":"Feature","geometry":{"type":"Point","coordinates":[21.44128,46.5101]},"properties":{"id":92968,"name":"Comuna Socodor","state_code":"AR","country_code":"RO"}},{"type":"Feature","geometry":{"type":"Point","coordinates":[21.29059,46.26814]},"properties":{"id":93535,"name":"Comuna Şofronea","state_code":"AR","country_code":"RO"}},{"type":"Feature","geometry":{"type":"Point","coordinates":[21.80388,46.29054]},"properties":{"id":93230,"name":"Comuna Târnova","state_code":"AR","country_code":"RO"}},{"type":"Feature","geometry":{"type":"Point","coordinates":[21.96747,46.26383]},"properties":{"id":93128,"name":"Comuna Tauţ","state_code":"AR","country_code":"RO"}},{"type":"Feature","geometry":{"type":"Point","coordinates":[21.8149,46.06781]},"properties":{"id":93288,"name":"Comuna Ususău","state_code":"AR","country_code":"RO"}},{"type":"Feature","geometry":{"type":"Point","coordinates":[22.15651,46.04619]},"properties":{"id":93465,"name":"Comuna Vărădia de Mureş","state_code":"AR","country_code":"RO"}},{"type":"Feature","geometry":{"type":"Point","coordinates":[22.51984,46.33689]},"properties":{"id":93441,"name":"Comuna Vârfurile","state_code":"AR","country_code":"RO"}},{"type":"Feature","geometry":{"type":"Point","coordinates":[21.15244,46.02249]},"properties":{"id":93365,"name":"Comuna Vinga","state_code":"AR","country_code":"RO"}},{"type":"Feature","geometry":{"type":"Point","coordinates":[21.40411,46.16509]},"properties":{"id":93383,"name":"Comuna Vladimirescu","state_code":"AR","country_code":"RO"}},{"type":"Feature","geometry":{"type":"Point","coordinates":[21.58529,46.0631]},"properties":{"id":93484,"name":"Comuna Zăbrani","state_code":"AR","country_code":"RO"}},{"type":"Feature","geometry":{"type":"Point","coordinates":[21.20866,46.13077]},"properties":{"id":93485,"name":"Comuna Zădăreni","state_code":"AR","country_code":"RO"}},{"type":"Feature","geometry":{"type":"Point","coordinates":[21.56909,46.43911]},"properties":{"id":93488,"name":"Comuna Zărand","state_code":"AR","country_code":"RO"}},{"type":"Feature","geometry":{"type":"Point","coordinates":[21.50777,46.63087]},"properties":{"id":93474,"name":"Comuna Zerind","state_code":"AR","country_code":"RO"}},{"type":"Feature","geometry":{"type":"Point","coordinates":[21.39162,46.27496]},"properties":{"id":93477,"name":"Comuna Zimandu Nou","state_code":"AR","country_code":"RO"}},{"type":"Feature","geometry":{"type":"Point","coordinates":[21.8797,46.10186]},"properties":{"id":93592,"name":"Conop","state_code":"AR","country_code":"RO"}},{"type":"Feature","geometry":{"type":"Point","coordinates":[21.6,46.2]},"properties":{"id":93682,"name":"Covăsinţ","state_code":"AR","country_code":"RO"}},{"type":"Feature","geometry":{"type":"Point","coordinates":[21.96667,46.58333]},"properties":{"id":93705,"name":"Craiva","state_code":"AR","country_code":"RO"}},{"type":"Feature","geometry":{"type":"Point","coordinates":[21.3,46.35]},"properties":{"id":93776,"name":"Curtici","state_code":"AR","country_code":"RO"}},{"type":"Feature","geometry":{"type":"Point","coordinates":[21.5936,46.17001]},"properties":{"id":93782,"name":"Cuvin","state_code":"AR","country_code":"RO"}},{"type":"Feature","geometry":{"type":"Point","coordinates":[22.25,46.4]},"properties":{"id":93932,"name":"Dezna","state_code":"AR","country_code":"RO"}},{"type":"Feature","geometry":{"type":"Point","coordinates":[22.25,46.31667]},"properties":{"id":93936,"name":"Dieci","state_code":"AR","country_code":"RO"}},{"type":"Feature","geometry":{"type":"Point","coordinates":[21.83333,46.05]},"properties":{"id":93996,"name":"Dorgoş","state_code":"AR","country_code":"RO"}},{"type":"Feature","geometry":{"type":"Point","coordinates":[21.2426611,46.3499646]},"properties":{"id":94003,"name":"Dorobanți","state_code":"AR","country_code":"RO"}},{"type":"Feature","geometry":{"type":"Point","coordinates":[21.80924,46.26048]},"properties":{"id":94029,"name":"Drauț","state_code":"AR","country_code":"RO"}},{"type":"Feature","geometry":{"type":"Point","coordinates":[21.3842,46.1237]},"properties":{"id":94238,"name":"Fântânele","state_code":"AR","country_code":"RO"}},{"type":"Feature","geometry":{"type":"Point","coordinates":[21.15,46.11667]},"properties":{"id":94156,"name":"Felnac","state_code":"AR","country_code":"RO"}},{"type":"Feature","geometry":{"type":"Point","coordinates":[21.46167,46.10252]},"properties":{"id":94214,"name":"Frumușeni","state_code":"AR","country_code":"RO"}},{"type":"Feature","geometry":{"type":"Point","coordinates":[21.65137,46.2881]},"properties":{"id":94281,"name":"Galșa","state_code":"AR","country_code":"RO"}},{"type":"Feature","geometry":{"type":"Point","coordinates":[21.58333,46.15]},"properties":{"id":94333,"name":"Ghioroc","state_code":"AR","country_code":"RO"}},{"type":"Feature","geometry":{"type":"Point","coordinates":[21.3,46.51667]},"properties":{"id":94444,"name":"Grăniceri","state_code":"AR","country_code":"RO"}},{"type":"Feature","geometry":{"type":"Point","coordinates":[22.35,46.26667]},"properties":{"id":94468,"name":"Gurahonţ","state_code":"AR","country_code":"RO"}},{"type":"Feature","geometry":{"type":"Point","coordinates":[21.78789,46.46756]},"properties":{"id":94470,"name":"Gurba","state_code":"AR","country_code":"RO"}},{"type":"Feature","geometry":{"type":"Point","coordinates":[22.61667,46.26667]},"properties":{"id":94600,"name":"Hălmăgel","state_code":"AR","country_code":"RO"}},{"type":"Feature","geometry":{"type":"Point","coordinates":[22.58333,46.26667]},"properties":{"id":94599,"name":"Hălmagiu","state_code":"AR","country_code":"RO"}},{"type":"Feature","geometry":{"type":"Point","coordinates":[22.08333,46.5]},"properties":{"id":94610,"name":"Hășmaș","state_code":"AR","country_code":"RO"}},{"type":"Feature","geometry":{"type":"Point","coordinates":[21.46287,46.20847]},"properties":{"id":94561,"name":"Horia","state_code":"AR","country_code":"RO"}},{"type":"Feature","geometry":{"type":"Point","coordinates":[22.16667,46.4]},"properties":{"id":94650,"name":"Igneşti","state_code":"AR","country_code":"RO"}},{"type":"Feature","geometry":{"type":"Point","coordinates":[21.84048,46.43372]},"properties":{"id":94667,"name":"Ineu","state_code":"AR","country_code":"RO"}},{"type":"Feature","geometry":{"type":"Point","coordinates":[21.2,46.31667]},"properties":{"id":94686,"name":"Iratoşu","state_code":"AR","country_code":"RO"}},{"type":"Feature","geometry":{"type":"Point","coordinates":[21.69628,46.09085]},"properties":{"id":94804,"name":"Lipova","state_code":"AR","country_code":"RO"}},{"type":"Feature","geometry":{"type":"Point","coordinates":[21.38403,46.22284]},"properties":{"id":94814,"name":"Livada","state_code":"AR","country_code":"RO"}},{"type":"Feature","geometry":{"type":"Point","coordinates":[21.3,46.38333]},"properties":{"id":94903,"name":"Macea","state_code":"AR","country_code":"RO"}},{"type":"Feature","geometry":{"type":"Point","coordinates":[21.71137,46.29493]},"properties":{"id":95230,"name":"Măderat","state_code":"AR","country_code":"RO"}},{"type":"Feature","geometry":{"type":"Point","coordinates":[21.10702,46.04189]},"properties":{"id":94908,"name":"Mailat","state_code":"AR","country_code":"RO"}},{"type":"Feature","geometry":{"type":"Point","coordinates":[21.13362,46.00949]},"properties":{"id":95264,"name":"Mănăștur","state_code":"AR","country_code":"RO"}},{"type":"Feature","geometry":{"type":"Point","coordinates":[21.4657,46.14863]},"properties":{"id":95215,"name":"Mândruloc","state_code":"AR","country_code":"RO"}},{"type":"Feature","geometry":{"type":"Point","coordinates":[21.68333,46.3]},"properties":{"id":95226,"name":"Mâsca","state_code":"AR","country_code":"RO"}},{"type":"Feature","geometry":{"type":"Point","coordinates":[21.59998,46.6028]},"properties":{"id":95035,"name":"Mișca","state_code":"AR","country_code":"RO"}},{"type":"Feature","geometry":{"type":"Point","coordinates":[22.25,46.45]},"properties":{"id":95068,"name":"Moneasa","state_code":"AR","country_code":"RO"}},{"type":"Feature","geometry":{"type":"Point","coordinates":[21.31348,46.17745]},"properties":{"id":95109,"name":"Municipiul Arad","state_code":"AR","country_code":"RO"}},{"type":"Feature","geometry":{"type":"Point","coordinates":[21.51178,46.48195]},"properties":{"id":95296,"name":"Nadab","state_code":"AR","country_code":"RO"}},{"type":"Feature","geometry":{"type":"Point","coordinates":[21.95036,46.2249]},"properties":{"id":95297,"name":"Nadăș","state_code":"AR","country_code":"RO"}},{"type":"Feature","geometry":{"type":"Point","coordinates":[20.75,46.16667]},"properties":{"id":95367,"name":"Nădlac","state_code":"AR","country_code":"RO"}},{"type":"Feature","geometry":{"type":"Point","coordinates":[21.61899,46.0696]},"properties":{"id":95332,"name":"Neudorf","state_code":"AR","country_code":"RO"}},{"type":"Feature","geometry":{"type":"Point","coordinates":[21.55,46.38333]},"properties":{"id":95424,"name":"Olari","state_code":"AR","country_code":"RO"}},{"type":"Feature","geometry":{"type":"Point","coordinates":[21.51295,46.52178]},"properties":{"id":95492,"name":"Oraş Chişineu-Criş","state_code":"AR","country_code":"RO"}},{"type":"Feature","geometry":{"type":"Point","coordinates":[21.31051,46.34358]},"properties":{"id":95502,"name":"Oraş Curtici","state_code":"AR","country_code":"RO"}},{"type":"Feature","geometry":{"type":"Point","coordinates":[21.84185,46.42709]},"properties":{"id":95534,"name":"Oraş Ineu","state_code":"AR","country_code":"RO"}},{"type":"Feature","geometry":{"type":"Point","coordinates":[21.69465,46.09061]},"properties":{"id":95538,"name":"Oraş Lipova","state_code":"AR","country_code":"RO"}},{"type":"Feature","geometry":{"type":"Point","coordinates":[20.74871,46.16664]},"properties":{"id":95553,"name":"Oraş Nãdlac","state_code":"AR","country_code":"RO"}},{"type":"Feature","geometry":{"type":"Point","coordinates":[21.70163,46.31205]},"properties":{"id":95575,"name":"Oraş Pâncota","state_code":"AR","country_code":"RO"}},{"type":"Feature","geometry":{"type":"Point","coordinates":[21.50402,46.34622]},"properties":{"id":95597,"name":"Oraş Sântana","state_code":"AR","country_code":"RO"}},{"type":"Feature","geometry":{"type":"Point","coordinates":[22.1548,46.38771]},"properties":{"id":95585,"name":"Oraş Sebiş","state_code":"AR","country_code":"RO"}},{"type":"Feature","geometry":{"type":"Point","coordinates":[21.7,46.33333]},"properties":{"id":95994,"name":"Pâncota","state_code":"AR","country_code":"RO"}},{"type":"Feature","geometry":{"type":"Point","coordinates":[21.58333,46.11667]},"properties":{"id":96032,"name":"Păuliş","state_code":"AR","country_code":"RO"}},{"type":"Feature","geometry":{"type":"Point","coordinates":[21.06667,46.16667]},"properties":{"id":95722,"name":"Pecica","state_code":"AR","country_code":"RO"}},{"type":"Feature","geometry":{"type":"Point","coordinates":[20.9,46.23333]},"properties":{"id":95725,"name":"Peregu Mare","state_code":"AR","country_code":"RO"}},{"type":"Feature","geometry":{"type":"Point","coordinates":[20.94885,46.25021]},"properties":{"id":95726,"name":"Peregu Mic","state_code":"AR","country_code":"RO"}},{"type":"Feature","geometry":{"type":"Point","coordinates":[22.38333,46.05]},"properties":{"id":95753,"name":"Petriş","state_code":"AR","country_code":"RO"}},{"type":"Feature","geometry":{"type":"Point","coordinates":[21.35,46.56667]},"properties":{"id":95793,"name":"Pilu","state_code":"AR","country_code":"RO"}},{"type":"Feature","geometry":{"type":"Point","coordinates":[22.43333,46.3]},"properties":{"id":95811,"name":"Pleşcuţa","state_code":"AR","country_code":"RO"}},{"type":"Feature","geometry":{"type":"Point","coordinates":[21.68732,46.09444]},"properties":{"id":96051,"name":"Radna","state_code":"AR","country_code":"RO"}},{"type":"Feature","geometry":{"type":"Point","coordinates":[21.28333,46.05]},"properties":{"id":97028,"name":"Şagu","state_code":"AR","country_code":"RO"}},{"type":"Feature","geometry":{"type":"Point","coordinates":[21.52689,46.1411]},"properties":{"id":96521,"name":"Sâmbăteni","state_code":"AR","country_code":"RO"}},{"type":"Feature","geometry":{"type":"Point","coordinates":[21.34821,46.41653]},"properties":{"id":96532,"name":"Sânmartin","state_code":"AR","country_code":"RO"}},{"type":"Feature","geometry":{"type":"Point","coordinates":[21.04932,46.11327]},"properties":{"id":96544,"name":"Sânpetru German","state_code":"AR","country_code":"RO"}},{"type":"Feature","geometry":{"type":"Point","coordinates":[21.5,46.35]},"properties":{"id":105976,"name":"Sântana","state_code":"AR","country_code":"RO"}},{"type":"Feature","geometry":{"type":"Point","coordinates":[20.95826,46.06628]},"properties":{"id":96254,"name":"Satu Mare","state_code":"AR","country_code":"RO"}},{"type":"Feature","geometry":{"type":"Point","coordinates":[22.23333,46.01667]},"properties":{"id":106048,"name":"Săvârşin","state_code":"AR","country_code":"RO"}},{"type":"Feature","geometry":{"type":"Point","coordinates":[22.11667,46.36667]},"properties":{"id":96304,"name":"Sebiş","state_code":"AR","country_code":"RO"}},{"type":"Feature","geometry":{"type":"Point","coordinates":[20.98333,46.08333]},"properties":{"id":96317,"name":"Secusigiu","state_code":"AR","country_code":"RO"}},{"type":"Feature","geometry":{"type":"Point","coordinates":[20.85,46.1]},"properties":{"id":97034,"name":"Şeitin","state_code":"AR","country_code":"RO"}},{"type":"Feature","geometry":{"type":"Point","coordinates":[21.71667,46.38333]},"properties":{"id":96324,"name":"Seleuş","state_code":"AR","country_code":"RO"}},{"type":"Feature","geometry":{"type":"Point","coordinates":[20.93333,46.11667]},"properties":{"id":96325,"name":"Semlac","state_code":"AR","country_code":"RO"}},{"type":"Feature","geometry":{"type":"Point","coordinates":[21.7341745,46.5712491]},"properties":{"id":97116,"name":"Șepreuș","state_code":"AR","country_code":"RO"}},{"type":"Feature","geometry":{"type":"Point","coordinates":[21.36834,46.49124]},"properties":{"id":97121,"name":"Șiclău","state_code":"AR","country_code":"RO"}},{"type":"Feature","geometry":{"type":"Point","coordinates":[21.75,46.43333]},"properties":{"id":97043,"name":"Şicula","state_code":"AR","country_code":"RO"}},{"type":"Feature","geometry":{"type":"Point","coordinates":[21.91667,46.35]},"properties":{"id":97048,"name":"Şilindia","state_code":"AR","country_code":"RO"}},{"type":"Feature","geometry":{"type":"Point","coordinates":[21.45,46.43333]},"properties":{"id":97049,"name":"Şimand","state_code":"AR","country_code":"RO"}},{"type":"Feature","geometry":{"type":"Point","coordinates":[21.6,46.51667]},"properties":{"id":96356,"name":"Sintea Mare","state_code":"AR","country_code":"RO"}},{"type":"Feature","geometry":{"type":"Point","coordinates":[21.63333,46.26667]},"properties":{"id":97058,"name":"Şiria","state_code":"AR","country_code":"RO"}},{"type":"Feature","geometry":{"type":"Point","coordinates":[21.73333,46.01667]},"properties":{"id":97062,"name":"Şiştarovăţ","state_code":"AR","country_code":"RO"}},{"type":"Feature","geometry":{"type":"Point","coordinates":[21.43333,46.51667]},"properties":{"id":96396,"name":"Socodor","state_code":"AR","country_code":"RO"}},{"type":"Feature","geometry":{"type":"Point","coordinates":[21.3,46.26667]},"properties":{"id":97064,"name":"Şofronea","state_code":"AR","country_code":"RO"}},{"type":"Feature","geometry":{"type":"Point","coordinates":[21.8,46.31667]},"properties":{"id":96595,"name":"Târnova","state_code":"AR","country_code":"RO"}},{"type":"Feature","geometry":{"type":"Point","coordinates":[21.91667,46.28333]},"properties":{"id":106063,"name":"Tauţ","state_code":"AR","country_code":"RO"}},{"type":"Feature","geometry":{"type":"Point","coordinates":[21.63431,46.47563]},"properties":{"id":97140,"name":"Țipar","state_code":"AR","country_code":"RO"}},{"type":"Feature","geometry":{"type":"Point","coordinates":[21.12657,46.25764]},"properties":{"id":96564,"name":"Turnu","state_code":"AR","country_code":"RO"}},{"type":"Feature","geometry":{"type":"Point","coordinates":[21.81371,46.07063]},"properties":{"id":96691,"name":"Ususău","state_code":"AR","country_code":"RO"}},{"type":"Feature","geometry":{"type":"Point","coordinates":[21.67332,46.62456]},"properties":{"id":96932,"name":"Vânători","state_code":"AR","country_code":"RO"}},{"type":"Feature","geometry":{"type":"Point","coordinates":[22.15,46.01667]},"properties":{"id":96973,"name":"Vărădia de Mureş","state_code":"AR","country_code":"RO"}},{"type":"Feature","geometry":{"type":"Point","coordinates":[22.51667,46.31667]},"properties":{"id":96940,"name":"Vârfurile","state_code":"AR","country_code":"RO"}},{"type":"Feature","geometry":{"type":"Point","coordinates":[21.2,46.01667]},"properties":{"id":96832,"name":"Vinga","state_code":"AR","country_code":"RO"}},{"type":"Feature","geometry":{"type":"Point","coordinates":[21.40102,46.16628]},"properties":{"id":96857,"name":"Vladimirescu","state_code":"AR","country_code":"RO"}},{"type":"Feature","geometry":{"type":"Point","coordinates":[21.55,46.06667]},"properties":{"id":97009,"name":"Zăbrani","state_code":"AR","country_code":"RO"}},{"type":"Feature","geometry":{"type":"Point","coordinates":[21.21821,46.13274]},"properties":{"id":97010,"name":"Zădăreni","state_code":"AR","country_code":"RO"}},{"type":"Feature","geometry":{"type":"Point","coordinates":[21.65,46.4]},"properties":{"id":97014,"name":"Zărand","state_code":"AR","country_code":"RO"}},{"type":"Feature","geometry":{"type":"Point","coordinates":[21.51667,46.61667]},"properties":{"id":96989,"name":"Zerind","state_code":"AR","country_code":"RO"}},{"type":"Feature","geometry":{"type":"Point","coordinates":[21.4,46.28333]},"properties":{"id":96993,"name":"Zimandu Nou","state_code":"AR","country_code":"RO"}}]}