{"type":"FeatureCollection","features":[{"type":"Feature","geometry":{"type":"Point","coordinates":[26.10626,44.43225]},"properties":{"id":90347,"name":"Bucharest","state_code":"B","country_code":"RO"}},{"type":"Feature","geometry":{"type":"Point","coordinates":[26.04831,44.49239]},"properties":{"id":96307,"name":"Sector 1","state_code":"B","country_code":"RO"}},{"type":"Feature","geometry":{"type":"Point","coordinates":[26.13321,44.4528]},"properties":{"id":96308,"name":"Sector 2","state_code":"B","country_code":"RO"}},{"type":"Feature","geometry":{"type":"Point","coordinates":[26.16874,44.4234]},"properties":{"id":96309,"name":"Sector 3","state_code":"B","country_code":"RO"}},{"type":"Feature","geometry":{"type":"Point","coordinates":[26.12085,44.37571]},"properties":{"id":96310,"name":"Sector 4","state_code":"B","country_code":"RO"}},{"type":"Feature","geometry":{"type":"Point","coordinates":[26.07144,44.38808]},"properties":{"id":96311,"name":"Sector 5","state_code":"B","country_code":"RO"}},{"type":"Feature","geometry":{"type":"Point","coordinates":[26.01649,44.43579]},"properties":{"id":96312,"name":"Sector 6","state_code":"B","country_code":"RO"}}]}