{"type":"FeatureCollection","features":[{"type":"Feature","geometry":{"type":"Point","coordinates":[26.93789,48.0692]},"properties":{"id":89889,"name":"Adășeni","state_code":"BT","country_code":"RO"}},{"type":"Feature","geometry":{"type":"Point","coordinates":[26.47736,48.15859]},"properties":{"id":89909,"name":"Alba","state_code":"BT","country_code":"RO"}},{"type":"Feature","geometry":{"type":"Point","coordinates":[27.06667,47.7]},"properties":{"id":89916,"name":"Albeşti","state_code":"BT","country_code":"RO"}},{"type":"Feature","geometry":{"type":"Point","coordinates":[26.95,48.01667]},"properties":{"id":90009,"name":"Avrămeni","state_code":"BT","country_code":"RO"}},{"type":"Feature","geometry":{"type":"Point","coordinates":[26.53987,48.20119]},"properties":{"id":90035,"name":"Bajura","state_code":"BT","country_code":"RO"}},{"type":"Feature","geometry":{"type":"Point","coordinates":[26.8,47.66667]},"properties":{"id":90517,"name":"Băluşeni","state_code":"BT","country_code":"RO"}},{"type":"Feature","geometry":{"type":"Point","coordinates":[26.47893,48.19651]},"properties":{"id":90057,"name":"Baranca","state_code":"BT","country_code":"RO"}},{"type":"Feature","geometry":{"type":"Point","coordinates":[26.86667,47.7]},"properties":{"id":90160,"name":"Blândeşti","state_code":"BT","country_code":"RO"}},{"type":"Feature","geometry":{"type":"Point","coordinates":[27.22697,47.75135]},"properties":{"id":90173,"name":"Bobulești","state_code":"BT","country_code":"RO"}},{"type":"Feature","geometry":{"type":"Point","coordinates":[26.66667,47.75]},"properties":{"id":90248,"name":"Botoşani","state_code":"BT","country_code":"RO"}},{"type":"Feature","geometry":{"type":"Point","coordinates":[26.45,47.86667]},"properties":{"id":90328,"name":"Brăeşti","state_code":"BT","country_code":"RO"}},{"type":"Feature","geometry":{"type":"Point","coordinates":[26.54472,47.70194]},"properties":{"id":90296,"name":"Brehuiești","state_code":"BT","country_code":"RO"}},{"type":"Feature","geometry":{"type":"Point","coordinates":[26.45,47.95]},"properties":{"id":90307,"name":"Broscăuţi","state_code":"BT","country_code":"RO"}},{"type":"Feature","geometry":{"type":"Point","coordinates":[26.43333,47.76667]},"properties":{"id":90343,"name":"Bucecea","state_code":"BT","country_code":"RO"}},{"type":"Feature","geometry":{"type":"Point","coordinates":[26.33333,47.85]},"properties":{"id":90359,"name":"Bucovineni","state_code":"BT","country_code":"RO"}},{"type":"Feature","geometry":{"type":"Point","coordinates":[27.26667,47.61667]},"properties":{"id":93849,"name":"Călăraşi","state_code":"BT","country_code":"RO"}},{"type":"Feature","geometry":{"type":"Point","coordinates":[26.2,47.93333]},"properties":{"id":93806,"name":"Cândeşti","state_code":"BT","country_code":"RO"}},{"type":"Feature","geometry":{"type":"Point","coordinates":[26.59897,47.76999]},"properties":{"id":93881,"name":"Cătămărești-Deal","state_code":"BT","country_code":"RO"}},{"type":"Feature","geometry":{"type":"Point","coordinates":[26.95205,48.06287]},"properties":{"id":90826,"name":"Comuna Adăşeni","state_code":"BT","country_code":"RO"}},{"type":"Feature","geometry":{"type":"Point","coordinates":[27.08704,47.68387]},"properties":{"id":90839,"name":"Comuna Albeşti","state_code":"BT","country_code":"RO"}},{"type":"Feature","geometry":{"type":"Point","coordinates":[26.95734,48.02439]},"properties":{"id":90906,"name":"Comuna Avrămeni","state_code":"BT","country_code":"RO"}},{"type":"Feature","geometry":{"type":"Point","coordinates":[26.77855,47.67758]},"properties":{"id":91220,"name":"Comuna Băluşeni","state_code":"BT","country_code":"RO"}},{"type":"Feature","geometry":{"type":"Point","coordinates":[26.89193,47.71218]},"properties":{"id":91004,"name":"Comuna Blândeşti","state_code":"BT","country_code":"RO"}},{"type":"Feature","geometry":{"type":"Point","coordinates":[26.45715,47.84903]},"properties":{"id":91119,"name":"Comuna Brăeşti","state_code":"BT","country_code":"RO"}},{"type":"Feature","geometry":{"type":"Point","coordinates":[26.46648,47.95596]},"properties":{"id":91102,"name":"Comuna Broscăuţi","state_code":"BT","country_code":"RO"}},{"type":"Feature","geometry":{"type":"Point","coordinates":[27.27766,47.6034]},"properties":{"id":91576,"name":"Comuna Călăraşi","state_code":"BT","country_code":"RO"}},{"type":"Feature","geometry":{"type":"Point","coordinates":[26.2205,47.92325]},"properties":{"id":91547,"name":"Comuna Cândeşti","state_code":"BT","country_code":"RO"}},{"type":"Feature","geometry":{"type":"Point","coordinates":[26.57937,48.14676]},"properties":{"id":91411,"name":"Comuna Conceşti","state_code":"BT","country_code":"RO"}},{"type":"Feature","geometry":{"type":"Point","coordinates":[26.86778,47.6112]},"properties":{"id":91421,"name":"Comuna Copălău","state_code":"BT","country_code":"RO"}},{"type":"Feature","geometry":{"type":"Point","coordinates":[26.59106,48.0042]},"properties":{"id":93582,"name":"Comună Cordăreni","state_code":"BT","country_code":"RO"}},{"type":"Feature","geometry":{"type":"Point","coordinates":[26.58515,47.93121]},"properties":{"id":91433,"name":"Comuna Corlăteni","state_code":"BT","country_code":"RO"}},{"type":"Feature","geometry":{"type":"Point","coordinates":[26.60869,47.64025]},"properties":{"id":91441,"name":"Comuna Corni","state_code":"BT","country_code":"RO"}},{"type":"Feature","geometry":{"type":"Point","coordinates":[26.78553,47.61915]},"properties":{"id":91479,"name":"Comuna Coşula","state_code":"BT","country_code":"RO"}},{"type":"Feature","geometry":{"type":"Point","coordinates":[26.87179,48.12109]},"properties":{"id":91483,"name":"Comuna Coţuşca","state_code":"BT","country_code":"RO"}},{"type":"Feature","geometry":{"type":"Point","coordinates":[26.71546,47.61482]},"properties":{"id":91497,"name":"Comuna Cristeşti","state_code":"BT","country_code":"RO"}},{"type":"Feature","geometry":{"type":"Point","coordinates":[26.36951,48.10199]},"properties":{"id":91500,"name":"Comuna Cristineşti","state_code":"BT","country_code":"RO"}},{"type":"Feature","geometry":{"type":"Point","coordinates":[26.64109,47.70275]},"properties":{"id":91529,"name":"Comuna Curteşti","state_code":"BT","country_code":"RO"}},{"type":"Feature","geometry":{"type":"Point","coordinates":[26.94817,47.84762]},"properties":{"id":91727,"name":"Comuna Dângeni","state_code":"BT","country_code":"RO"}},{"type":"Feature","geometry":{"type":"Point","coordinates":[26.21496,47.98958]},"properties":{"id":91616,"name":"Comuna Dersca","state_code":"BT","country_code":"RO"}},{"type":"Feature","geometry":{"type":"Point","coordinates":[26.54362,47.91832]},"properties":{"id":91627,"name":"Comuna Dimăcheni","state_code":"BT","country_code":"RO"}},{"type":"Feature","geometry":{"type":"Point","coordinates":[27.07611,47.83289]},"properties":{"id":91646,"name":"Comuna Dobârceni","state_code":"BT","country_code":"RO"}},{"type":"Feature","geometry":{"type":"Point","coordinates":[26.81987,48.0329]},"properties":{"id":91696,"name":"Comuna Drăguşeni","state_code":"BT","country_code":"RO"}},{"type":"Feature","geometry":{"type":"Point","coordinates":[27.09406,47.76992]},"properties":{"id":91725,"name":"Comuna Durneşti","state_code":"BT","country_code":"RO"}},{"type":"Feature","geometry":{"type":"Point","coordinates":[26.87967,47.52602]},"properties":{"id":91788,"name":"Comuna Frumuşica","state_code":"BT","country_code":"RO"}},{"type":"Feature","geometry":{"type":"Point","coordinates":[26.51437,48.03617]},"properties":{"id":91838,"name":"Comuna George Enescu","state_code":"BT","country_code":"RO"}},{"type":"Feature","geometry":{"type":"Point","coordinates":[26.88143,47.7745]},"properties":{"id":91901,"name":"Comuna Gorbăneşti","state_code":"BT","country_code":"RO"}},{"type":"Feature","geometry":{"type":"Point","coordinates":[27.01151,47.91987]},"properties":{"id":92041,"name":"Comuna Hăneşti","state_code":"BT","country_code":"RO"}},{"type":"Feature","geometry":{"type":"Point","coordinates":[26.68314,48.05683]},"properties":{"id":91993,"name":"Comuna Havârna","state_code":"BT","country_code":"RO"}},{"type":"Feature","geometry":{"type":"Point","coordinates":[26.29685,48.01336]},"properties":{"id":92001,"name":"Comuna Hilişeu-Horia","state_code":"BT","country_code":"RO"}},{"type":"Feature","geometry":{"type":"Point","coordinates":[27.1708,47.60401]},"properties":{"id":92003,"name":"Comuna Hlipiceni","state_code":"BT","country_code":"RO"}},{"type":"Feature","geometry":{"type":"Point","coordinates":[26.50102,48.1528]},"properties":{"id":92026,"name":"Comuna Hudeşti","state_code":"BT","country_code":"RO"}},{"type":"Feature","geometry":{"type":"Point","coordinates":[26.4045,48.04435]},"properties":{"id":92058,"name":"Comuna Ibăneşti","state_code":"BT","country_code":"RO"}},{"type":"Feature","geometry":{"type":"Point","coordinates":[26.45408,47.81862]},"properties":{"id":92151,"name":"Comuna Leorda","state_code":"BT","country_code":"RO"}},{"type":"Feature","geometry":{"type":"Point","coordinates":[26.28694,47.9441]},"properties":{"id":92187,"name":"Comuna Lozna","state_code":"BT","country_code":"RO"}},{"type":"Feature","geometry":{"type":"Point","coordinates":[26.9924,47.62751]},"properties":{"id":92199,"name":"Comuna Lunca","state_code":"BT","country_code":"RO"}},{"type":"Feature","geometry":{"type":"Point","coordinates":[27.07951,48.00852]},"properties":{"id":92239,"name":"Comuna Manoleasa","state_code":"BT","country_code":"RO"}},{"type":"Feature","geometry":{"type":"Point","coordinates":[26.56267,47.76632]},"properties":{"id":92272,"name":"Comuna Mihai Eminescu","state_code":"BT","country_code":"RO"}},{"type":"Feature","geometry":{"type":"Point","coordinates":[26.16204,47.95552]},"properties":{"id":92283,"name":"Comuna Mihăileni","state_code":"BT","country_code":"RO"}},{"type":"Feature","geometry":{"type":"Point","coordinates":[27.0962,47.87956]},"properties":{"id":92286,"name":"Comuna Mihălăşeni","state_code":"BT","country_code":"RO"}},{"type":"Feature","geometry":{"type":"Point","coordinates":[26.72965,48.09121]},"properties":{"id":92291,"name":"Comuna Mileanca","state_code":"BT","country_code":"RO"}},{"type":"Feature","geometry":{"type":"Point","coordinates":[27.00423,48.11288]},"properties":{"id":92306,"name":"Comuna Mitoc","state_code":"BT","country_code":"RO"}},{"type":"Feature","geometry":{"type":"Point","coordinates":[26.66023,47.8617]},"properties":{"id":92447,"name":"Comuna Nicşeni","state_code":"BT","country_code":"RO"}},{"type":"Feature","geometry":{"type":"Point","coordinates":[26.68555,48.23494]},"properties":{"id":92717,"name":"Comuna Păltiniş","state_code":"BT","country_code":"RO"}},{"type":"Feature","geometry":{"type":"Point","coordinates":[26.3209,48.06225]},"properties":{"id":92649,"name":"Comuna Pomârla","state_code":"BT","country_code":"RO"}},{"type":"Feature","geometry":{"type":"Point","coordinates":[27.02386,47.49577]},"properties":{"id":92688,"name":"Comuna Prăjeni","state_code":"BT","country_code":"RO"}},{"type":"Feature","geometry":{"type":"Point","coordinates":[26.68847,47.77282]},"properties":{"id":92838,"name":"Comuna Răchiţi","state_code":"BT","country_code":"RO"}},{"type":"Feature","geometry":{"type":"Point","coordinates":[26.81304,48.22492]},"properties":{"id":92831,"name":"Comuna Rãdãuţi-Prut","state_code":"BT","country_code":"RO"}},{"type":"Feature","geometry":{"type":"Point","coordinates":[27.22551,47.55941]},"properties":{"id":92853,"name":"Comuna Răuseni","state_code":"BT","country_code":"RO"}},{"type":"Feature","geometry":{"type":"Point","coordinates":[27.13958,47.91899]},"properties":{"id":92772,"name":"Comuna Ripiceni","state_code":"BT","country_code":"RO"}},{"type":"Feature","geometry":{"type":"Point","coordinates":[26.57084,47.84497]},"properties":{"id":92781,"name":"Comuna Roma","state_code":"BT","country_code":"RO"}},{"type":"Feature","geometry":{"type":"Point","coordinates":[27.23491,47.7086]},"properties":{"id":92786,"name":"Comuna Româneşti","state_code":"BT","country_code":"RO"}},{"type":"Feature","geometry":{"type":"Point","coordinates":[27.3026,47.63308]},"properties":{"id":92871,"name":"Comuna Santa Mare","state_code":"BT","country_code":"RO"}},{"type":"Feature","geometry":{"type":"Point","coordinates":[26.32957,47.94657]},"properties":{"id":93507,"name":"Comuna Şendriceni","state_code":"BT","country_code":"RO"}},{"type":"Feature","geometry":{"type":"Point","coordinates":[26.77471,47.72142]},"properties":{"id":93022,"name":"Comuna Stăuceni","state_code":"BT","country_code":"RO"}},{"type":"Feature","geometry":{"type":"Point","coordinates":[26.7642,47.97903]},"properties":{"id":93556,"name":"Comuna Ştiubieni","state_code":"BT","country_code":"RO"}},{"type":"Feature","geometry":{"type":"Point","coordinates":[26.44743,48.11697]},"properties":{"id":93030,"name":"Comuna Suharău","state_code":"BT","country_code":"RO"}},{"type":"Feature","geometry":{"type":"Point","coordinates":[26.9351,47.63723]},"properties":{"id":93032,"name":"Comuna Suliţa","state_code":"BT","country_code":"RO"}},{"type":"Feature","geometry":{"type":"Point","coordinates":[27.10122,47.61386]},"properties":{"id":93162,"name":"Comuna Todireni","state_code":"BT","country_code":"RO"}},{"type":"Feature","geometry":{"type":"Point","coordinates":[26.98911,47.78058]},"properties":{"id":93197,"name":"Comuna Truşeşti","state_code":"BT","country_code":"RO"}},{"type":"Feature","geometry":{"type":"Point","coordinates":[26.63397,47.50773]},"properties":{"id":93200,"name":"Comuna Tudora","state_code":"BT","country_code":"RO"}},{"type":"Feature","geometry":{"type":"Point","coordinates":[26.76051,47.90384]},"properties":{"id":93271,"name":"Comuna Ungureni","state_code":"BT","country_code":"RO"}},{"type":"Feature","geometry":{"type":"Point","coordinates":[26.77886,47.81164]},"properties":{"id":93278,"name":"Comuna Unţeni","state_code":"BT","country_code":"RO"}},{"type":"Feature","geometry":{"type":"Point","coordinates":[26.3859,47.88229]},"properties":{"id":93450,"name":"Comuna Văculeşti","state_code":"BT","country_code":"RO"}},{"type":"Feature","geometry":{"type":"Point","coordinates":[26.31529,47.86108]},"properties":{"id":93439,"name":"Comuna Vârfu Câmpului","state_code":"BT","country_code":"RO"}},{"type":"Feature","geometry":{"type":"Point","coordinates":[26.74267,48.16752]},"properties":{"id":93362,"name":"Comuna Viişoara","state_code":"BT","country_code":"RO"}},{"type":"Feature","geometry":{"type":"Point","coordinates":[26.5088,47.72216]},"properties":{"id":93385,"name":"Comuna Vlădeni","state_code":"BT","country_code":"RO"}},{"type":"Feature","geometry":{"type":"Point","coordinates":[26.91901,47.93988]},"properties":{"id":93393,"name":"Comuna Vlăsineşti","state_code":"BT","country_code":"RO"}},{"type":"Feature","geometry":{"type":"Point","coordinates":[26.64699,47.96004]},"properties":{"id":93405,"name":"Comuna Vorniceni","state_code":"BT","country_code":"RO"}},{"type":"Feature","geometry":{"type":"Point","coordinates":[26.6138,47.57859]},"properties":{"id":93406,"name":"Comuna Vorona","state_code":"BT","country_code":"RO"}},{"type":"Feature","geometry":{"type":"Point","coordinates":[26.55,48.16667]},"properties":{"id":93589,"name":"Conceşti","state_code":"BT","country_code":"RO"}},{"type":"Feature","geometry":{"type":"Point","coordinates":[26.83333,47.61667]},"properties":{"id":93608,"name":"Copălău","state_code":"BT","country_code":"RO"}},{"type":"Feature","geometry":{"type":"Point","coordinates":[26.58333,47.98333]},"properties":{"id":93624,"name":"Cordăreni","state_code":"BT","country_code":"RO"}},{"type":"Feature","geometry":{"type":"Point","coordinates":[26.55,47.93333]},"properties":{"id":93626,"name":"Corlăteni","state_code":"BT","country_code":"RO"}},{"type":"Feature","geometry":{"type":"Point","coordinates":[26.58333,47.65]},"properties":{"id":93636,"name":"Corni","state_code":"BT","country_code":"RO"}},{"type":"Feature","geometry":{"type":"Point","coordinates":[26.67584,47.80032]},"properties":{"id":93663,"name":"Costești","state_code":"BT","country_code":"RO"}},{"type":"Feature","geometry":{"type":"Point","coordinates":[26.77827,47.6257]},"properties":{"id":93699,"name":"Coșula","state_code":"BT","country_code":"RO"}},{"type":"Feature","geometry":{"type":"Point","coordinates":[26.85,48.13333]},"properties":{"id":93696,"name":"Coţuşca","state_code":"BT","country_code":"RO"}},{"type":"Feature","geometry":{"type":"Point","coordinates":[26.73333,47.63333]},"properties":{"id":93718,"name":"Cristeşti","state_code":"BT","country_code":"RO"}},{"type":"Feature","geometry":{"type":"Point","coordinates":[26.38333,48.1]},"properties":{"id":93724,"name":"Cristineşti","state_code":"BT","country_code":"RO"}},{"type":"Feature","geometry":{"type":"Point","coordinates":[26.65,47.71667]},"properties":{"id":93775,"name":"Curteşti","state_code":"BT","country_code":"RO"}},{"type":"Feature","geometry":{"type":"Point","coordinates":[26.96667,47.85]},"properties":{"id":94108,"name":"Dângeni","state_code":"BT","country_code":"RO"}},{"type":"Feature","geometry":{"type":"Point","coordinates":[26.58333,48.18333]},"properties":{"id":93894,"name":"Darabani","state_code":"BT","country_code":"RO"}},{"type":"Feature","geometry":{"type":"Point","coordinates":[26.2,47.98333]},"properties":{"id":93923,"name":"Dersca","state_code":"BT","country_code":"RO"}},{"type":"Feature","geometry":{"type":"Point","coordinates":[26.5456,47.91139]},"properties":{"id":93937,"name":"Dimăcheni","state_code":"BT","country_code":"RO"}},{"type":"Feature","geometry":{"type":"Point","coordinates":[27.06667,47.81667]},"properties":{"id":93972,"name":"Dobârceni","state_code":"BT","country_code":"RO"}},{"type":"Feature","geometry":{"type":"Point","coordinates":[26.64723,47.88234]},"properties":{"id":94002,"name":"Dorobanți","state_code":"BT","country_code":"RO"}},{"type":"Feature","geometry":{"type":"Point","coordinates":[26.4,47.95]},"properties":{"id":94006,"name":"Dorohoi","state_code":"BT","country_code":"RO"}},{"type":"Feature","geometry":{"type":"Point","coordinates":[26.93029,47.62945]},"properties":{"id":94010,"name":"Dracșani","state_code":"BT","country_code":"RO"}},{"type":"Feature","geometry":{"type":"Point","coordinates":[26.81667,48.01667]},"properties":{"id":94049,"name":"Drăguşeni","state_code":"BT","country_code":"RO"}},{"type":"Feature","geometry":{"type":"Point","coordinates":[26.81667,47.65]},"properties":{"id":94030,"name":"Draxini","state_code":"BT","country_code":"RO"}},{"type":"Feature","geometry":{"type":"Point","coordinates":[26.42724,48.019]},"properties":{"id":94093,"name":"Dumbrăvița","state_code":"BT","country_code":"RO"}},{"type":"Feature","geometry":{"type":"Point","coordinates":[26.54287,48.00724]},"properties":{"id":94094,"name":"Dumeni","state_code":"BT","country_code":"RO"}},{"type":"Feature","geometry":{"type":"Point","coordinates":[27.1,47.76667]},"properties":{"id":94102,"name":"Durneşti","state_code":"BT","country_code":"RO"}},{"type":"Feature","geometry":{"type":"Point","coordinates":[26.8945685,47.5590059]},"properties":{"id":94191,"name":"Flămânzi","state_code":"BT","country_code":"RO"}},{"type":"Feature","geometry":{"type":"Point","coordinates":[26.9,47.53333]},"properties":{"id":94211,"name":"Frumuşica","state_code":"BT","country_code":"RO"}},{"type":"Feature","geometry":{"type":"Point","coordinates":[26.48333,48.03333]},"properties":{"id":94293,"name":"George Enescu","state_code":"BT","country_code":"RO"}},{"type":"Feature","geometry":{"type":"Point","coordinates":[26.85,47.78333]},"properties":{"id":94383,"name":"Gorbăneşti","state_code":"BT","country_code":"RO"}},{"type":"Feature","geometry":{"type":"Point","coordinates":[26.98333,47.91667]},"properties":{"id":94603,"name":"Hăneşti","state_code":"BT","country_code":"RO"}},{"type":"Feature","geometry":{"type":"Point","coordinates":[26.65,48.06667]},"properties":{"id":94524,"name":"Havârna","state_code":"BT","country_code":"RO"}},{"type":"Feature","geometry":{"type":"Point","coordinates":[26.25,48.03333]},"properties":{"id":94536,"name":"Hilişeu-Horia","state_code":"BT","country_code":"RO"}},{"type":"Feature","geometry":{"type":"Point","coordinates":[27.15,47.6]},"properties":{"id":94538,"name":"Hlipiceni","state_code":"BT","country_code":"RO"}},{"type":"Feature","geometry":{"type":"Point","coordinates":[26.5,48.15]},"properties":{"id":94571,"name":"Hudeşti","state_code":"BT","country_code":"RO"}},{"type":"Feature","geometry":{"type":"Point","coordinates":[26.91304,47.86115]},"properties":{"id":94614,"name":"Iacobeni","state_code":"BT","country_code":"RO"}},{"type":"Feature","geometry":{"type":"Point","coordinates":[26.36667,48.06667]},"properties":{"id":94632,"name":"Ibăneşti","state_code":"BT","country_code":"RO"}},{"type":"Feature","geometry":{"type":"Point","coordinates":[26.59605,47.59269]},"properties":{"id":94638,"name":"Icușeni","state_code":"BT","country_code":"RO"}},{"type":"Feature","geometry":{"type":"Point","coordinates":[26.99329,47.73029]},"properties":{"id":94680,"name":"Ionășeni","state_code":"BT","country_code":"RO"}},{"type":"Feature","geometry":{"type":"Point","coordinates":[26.57705,47.56004]},"properties":{"id":94745,"name":"Joldești","state_code":"BT","country_code":"RO"}},{"type":"Feature","geometry":{"type":"Point","coordinates":[26.45,47.81667]},"properties":{"id":94778,"name":"Leorda","state_code":"BT","country_code":"RO"}},{"type":"Feature","geometry":{"type":"Point","coordinates":[26.27723,47.95144]},"properties":{"id":94836,"name":"Lozna","state_code":"BT","country_code":"RO"}},{"type":"Feature","geometry":{"type":"Point","coordinates":[26.98333,47.61667]},"properties":{"id":94859,"name":"Lunca","state_code":"BT","country_code":"RO"}},{"type":"Feature","geometry":{"type":"Point","coordinates":[26.48333,47.73333]},"properties":{"id":95214,"name":"Mândrești","state_code":"BT","country_code":"RO"}},{"type":"Feature","geometry":{"type":"Point","coordinates":[27.06667,47.98333]},"properties":{"id":94923,"name":"Manoleasa","state_code":"BT","country_code":"RO"}},{"type":"Feature","geometry":{"type":"Point","coordinates":[26.15,47.96667]},"properties":{"id":94993,"name":"Mihăileni","state_code":"BT","country_code":"RO"}},{"type":"Feature","geometry":{"type":"Point","coordinates":[27.06667,47.88333]},"properties":{"id":94997,"name":"Mihălăşeni","state_code":"BT","country_code":"RO"}},{"type":"Feature","geometry":{"type":"Point","coordinates":[26.7,48.08333]},"properties":{"id":95004,"name":"Mileanca","state_code":"BT","country_code":"RO"}},{"type":"Feature","geometry":{"type":"Point","coordinates":[26.85279,48.20223]},"properties":{"id":95010,"name":"Miorcani","state_code":"BT","country_code":"RO"}},{"type":"Feature","geometry":{"type":"Point","coordinates":[27.03333,48.1]},"properties":{"id":95030,"name":"Mitoc","state_code":"BT","country_code":"RO"}},{"type":"Feature","geometry":{"type":"Point","coordinates":[26.48961,48.12663]},"properties":{"id":95037,"name":"Mlenăuți","state_code":"BT","country_code":"RO"}},{"type":"Feature","geometry":{"type":"Point","coordinates":[26.67156,47.73984]},"properties":{"id":95115,"name":"Municipiul Botoşani","state_code":"BT","country_code":"RO"}},{"type":"Feature","geometry":{"type":"Point","coordinates":[26.41685,47.96772]},"properties":{"id":95137,"name":"Municipiul Dorohoi","state_code":"BT","country_code":"RO"}},{"type":"Feature","geometry":{"type":"Point","coordinates":[26.89629,47.56664]},"properties":{"id":95333,"name":"Nicolae Bălcescu","state_code":"BT","country_code":"RO"}},{"type":"Feature","geometry":{"type":"Point","coordinates":[26.63333,47.86667]},"properties":{"id":95344,"name":"Nicşeni","state_code":"BT","country_code":"RO"}},{"type":"Feature","geometry":{"type":"Point","coordinates":[26.73244,47.57626]},"properties":{"id":95438,"name":"Oneaga","state_code":"BT","country_code":"RO"}},{"type":"Feature","geometry":{"type":"Point","coordinates":[26.43966,47.77741]},"properties":{"id":95473,"name":"Oraş Bucecea","state_code":"BT","country_code":"RO"}},{"type":"Feature","geometry":{"type":"Point","coordinates":[26.61519,48.17429]},"properties":{"id":95507,"name":"Oraş Darabani","state_code":"BT","country_code":"RO"}},{"type":"Feature","geometry":{"type":"Point","coordinates":[26.90381,47.56193]},"properties":{"id":95518,"name":"Oraş Flãmânzi","state_code":"BT","country_code":"RO"}},{"type":"Feature","geometry":{"type":"Point","coordinates":[26.86677,47.95998]},"properties":{"id":95600,"name":"Oraş Sãveni","state_code":"BT","country_code":"RO"}},{"type":"Feature","geometry":{"type":"Point","coordinates":[27.20601,47.78834]},"properties":{"id":95630,"name":"Oraş Ştefãneşti","state_code":"BT","country_code":"RO"}},{"type":"Feature","geometry":{"type":"Point","coordinates":[26.67671,47.67597]},"properties":{"id":95668,"name":"Orășeni-Deal","state_code":"BT","country_code":"RO"}},{"type":"Feature","geometry":{"type":"Point","coordinates":[26.34856,48.17758]},"properties":{"id":95664,"name":"Oroftiana","state_code":"BT","country_code":"RO"}},{"type":"Feature","geometry":{"type":"Point","coordinates":[26.31672,47.97434]},"properties":{"id":96006,"name":"Pădureni","state_code":"BT","country_code":"RO"}},{"type":"Feature","geometry":{"type":"Point","coordinates":[26.65,48.21667]},"properties":{"id":96014,"name":"Păltiniş","state_code":"BT","country_code":"RO"}},{"type":"Feature","geometry":{"type":"Point","coordinates":[26.60826,47.60149]},"properties":{"id":95863,"name":"Poiana","state_code":"BT","country_code":"RO"}},{"type":"Feature","geometry":{"type":"Point","coordinates":[26.31667,48.06667]},"properties":{"id":95904,"name":"Pomârla","state_code":"BT","country_code":"RO"}},{"type":"Feature","geometry":{"type":"Point","coordinates":[27.01667,47.51667]},"properties":{"id":95970,"name":"Prăjeni","state_code":"BT","country_code":"RO"}},{"type":"Feature","geometry":{"type":"Point","coordinates":[26.68333,47.76667]},"properties":{"id":96188,"name":"Răchiţi","state_code":"BT","country_code":"RO"}},{"type":"Feature","geometry":{"type":"Point","coordinates":[26.8,48.23333]},"properties":{"id":96202,"name":"Rădăuți-Prut","state_code":"BT","country_code":"RO"}},{"type":"Feature","geometry":{"type":"Point","coordinates":[26.89249,47.51186]},"properties":{"id":96194,"name":"Rădeni","state_code":"BT","country_code":"RO"}},{"type":"Feature","geometry":{"type":"Point","coordinates":[27.2,47.56667]},"properties":{"id":96212,"name":"Răuseni","state_code":"BT","country_code":"RO"}},{"type":"Feature","geometry":{"type":"Point","coordinates":[26.77841,48.23075]},"properties":{"id":96078,"name":"Rediu","state_code":"BT","country_code":"RO"}},{"type":"Feature","geometry":{"type":"Point","coordinates":[27.13333,47.95]},"properties":{"id":96095,"name":"Ripiceni","state_code":"BT","country_code":"RO"}},{"type":"Feature","geometry":{"type":"Point","coordinates":[26.6,47.83333]},"properties":{"id":96104,"name":"Roma","state_code":"BT","country_code":"RO"}},{"type":"Feature","geometry":{"type":"Point","coordinates":[27.24027,47.73141]},"properties":{"id":96113,"name":"Românești","state_code":"BT","country_code":"RO"}},{"type":"Feature","geometry":{"type":"Point","coordinates":[26.72167,47.76095]},"properties":{"id":96139,"name":"Roșiori","state_code":"BT","country_code":"RO"}},{"type":"Feature","geometry":{"type":"Point","coordinates":[27.35,47.61667]},"properties":{"id":96240,"name":"Santa Mare","state_code":"BT","country_code":"RO"}},{"type":"Feature","geometry":{"type":"Point","coordinates":[26.6074,47.61708]},"properties":{"id":96242,"name":"Sarafinești","state_code":"BT","country_code":"RO"}},{"type":"Feature","geometry":{"type":"Point","coordinates":[26.91818,47.94268]},"properties":{"id":105985,"name":"Sârbi","state_code":"BT","country_code":"RO"}},{"type":"Feature","geometry":{"type":"Point","coordinates":[26.86667,47.95]},"properties":{"id":106046,"name":"Săveni","state_code":"BT","country_code":"RO"}},{"type":"Feature","geometry":{"type":"Point","coordinates":[26.32817,47.95171]},"properties":{"id":97038,"name":"Şendriceni","state_code":"BT","country_code":"RO"}},{"type":"Feature","geometry":{"type":"Point","coordinates":[26.6,47.75]},"properties":{"id":96472,"name":"Stâncești","state_code":"BT","country_code":"RO"}},{"type":"Feature","geometry":{"type":"Point","coordinates":[26.75,47.71667]},"properties":{"id":96483,"name":"Stăuceni","state_code":"BT","country_code":"RO"}},{"type":"Feature","geometry":{"type":"Point","coordinates":[27.20053,47.79169]},"properties":{"id":97133,"name":"Ștefănești","state_code":"BT","country_code":"RO"}},{"type":"Feature","geometry":{"type":"Point","coordinates":[27.18333,47.78333]},"properties":{"id":97086,"name":"Ştefăneşti-Sat","state_code":"BT","country_code":"RO"}},{"type":"Feature","geometry":{"type":"Point","coordinates":[26.78333,47.96667]},"properties":{"id":97088,"name":"Ştiubieni","state_code":"BT","country_code":"RO"}},{"type":"Feature","geometry":{"type":"Point","coordinates":[26.8672314,47.5437705]},"properties":{"id":96444,"name":"Storeşti","state_code":"BT","country_code":"RO"}},{"type":"Feature","geometry":{"type":"Point","coordinates":[26.29664,47.93677]},"properties":{"id":96464,"name":"Străteni","state_code":"BT","country_code":"RO"}},{"type":"Feature","geometry":{"type":"Point","coordinates":[26.96562,47.61042]},"properties":{"id":96456,"name":"Stroiești","state_code":"BT","country_code":"RO"}},{"type":"Feature","geometry":{"type":"Point","coordinates":[26.41667,48.13333]},"properties":{"id":96496,"name":"Suharău","state_code":"BT","country_code":"RO"}},{"type":"Feature","geometry":{"type":"Point","coordinates":[26.91667,47.65]},"properties":{"id":96500,"name":"Sulița","state_code":"BT","country_code":"RO"}},{"type":"Feature","geometry":{"type":"Point","coordinates":[26.78359,47.60941]},"properties":{"id":97135,"name":"Șupitca","state_code":"BT","country_code":"RO"}},{"type":"Feature","geometry":{"type":"Point","coordinates":[26.78657,47.71104]},"properties":{"id":106113,"name":"Tocileni","state_code":"BT","country_code":"RO"}},{"type":"Feature","geometry":{"type":"Point","coordinates":[27.11667,47.61667]},"properties":{"id":106114,"name":"Todireni","state_code":"BT","country_code":"RO"}},{"type":"Feature","geometry":{"type":"Point","coordinates":[27.01667,47.76667]},"properties":{"id":106162,"name":"Truşeşti","state_code":"BT","country_code":"RO"}},{"type":"Feature","geometry":{"type":"Point","coordinates":[27.17211,47.68635]},"properties":{"id":106166,"name":"Tudor Vladimirescu","state_code":"BT","country_code":"RO"}},{"type":"Feature","geometry":{"type":"Point","coordinates":[26.63333,47.51667]},"properties":{"id":106168,"name":"Tudora","state_code":"BT","country_code":"RO"}},{"type":"Feature","geometry":{"type":"Point","coordinates":[26.79899,47.88176]},"properties":{"id":96662,"name":"Ungureni","state_code":"BT","country_code":"RO"}},{"type":"Feature","geometry":{"type":"Point","coordinates":[26.78333,47.88333]},"properties":{"id":96663,"name":"Ungureni-Jianu","state_code":"BT","country_code":"RO"}},{"type":"Feature","geometry":{"type":"Point","coordinates":[26.78333,47.8]},"properties":{"id":96671,"name":"Unţeni","state_code":"BT","country_code":"RO"}},{"type":"Feature","geometry":{"type":"Point","coordinates":[26.41667,47.88333]},"properties":{"id":96950,"name":"Văculeşti","state_code":"BT","country_code":"RO"}},{"type":"Feature","geometry":{"type":"Point","coordinates":[26.33056,47.84566]},"properties":{"id":96938,"name":"Vârfu Câmpului","state_code":"BT","country_code":"RO"}},{"type":"Feature","geometry":{"type":"Point","coordinates":[27.1673,47.61018]},"properties":{"id":96804,"name":"Victoria","state_code":"BT","country_code":"RO"}},{"type":"Feature","geometry":{"type":"Point","coordinates":[26.73333,48.16667]},"properties":{"id":96821,"name":"Viişoara","state_code":"BT","country_code":"RO"}},{"type":"Feature","geometry":{"type":"Point","coordinates":[26.51667,47.71667]},"properties":{"id":96863,"name":"Vlădeni","state_code":"BT","country_code":"RO"}},{"type":"Feature","geometry":{"type":"Point","coordinates":[26.87295,47.5225]},"properties":{"id":96864,"name":"Vlădeni-Deal","state_code":"BT","country_code":"RO"}},{"type":"Feature","geometry":{"type":"Point","coordinates":[26.88333,47.93333]},"properties":{"id":96872,"name":"Vlăsineşti","state_code":"BT","country_code":"RO"}},{"type":"Feature","geometry":{"type":"Point","coordinates":[26.66667,47.98333]},"properties":{"id":96891,"name":"Vorniceni","state_code":"BT","country_code":"RO"}},{"type":"Feature","geometry":{"type":"Point","coordinates":[26.63078,47.57714]},"properties":{"id":96892,"name":"Vorona","state_code":"BT","country_code":"RO"}},{"type":"Feature","geometry":{"type":"Point","coordinates":[26.6,47.55]},"properties":{"id":96893,"name":"Vorona Teodoru","state_code":"BT","country_code":"RO"}},{"type":"Feature","geometry":{"type":"Point","coordinates":[27.00743,47.65026]},"properties":{"id":96999,"name":"Zlătunoaia","state_code":"BT","country_code":"RO"}}]}