{"type":"FeatureCollection","features":[{"type":"Feature","geometry":{"type":"Point","coordinates":[27.72206,46.09546]},"properties":{"id":90519,"name":"Bălăbănești","state_code":"GL","country_code":"RO"}},{"type":"Feature","geometry":{"type":"Point","coordinates":[27.66667,46.1]},"properties":{"id":90525,"name":"Bălăşeşti","state_code":"GL","country_code":"RO"}},{"type":"Feature","geometry":{"type":"Point","coordinates":[27.83333,45.81667]},"properties":{"id":90508,"name":"Băleni","state_code":"GL","country_code":"RO"}},{"type":"Feature","geometry":{"type":"Point","coordinates":[27.92201,46.02937]},"properties":{"id":90043,"name":"Balintești","state_code":"GL","country_code":"RO"}},{"type":"Feature","geometry":{"type":"Point","coordinates":[27.93333,45.93333]},"properties":{"id":90530,"name":"Băneasa","state_code":"GL","country_code":"RO"}},{"type":"Feature","geometry":{"type":"Point","coordinates":[27.46667,45.75]},"properties":{"id":90061,"name":"Barcea","state_code":"GL","country_code":"RO"}},{"type":"Feature","geometry":{"type":"Point","coordinates":[27.8862307,46.0964805]},"properties":{"id":90107,"name":"Berești","state_code":"GL","country_code":"RO"}},{"type":"Feature","geometry":{"type":"Point","coordinates":[27.65063,45.93575]},"properties":{"id":90162,"name":"Blânzi","state_code":"GL","country_code":"RO"}},{"type":"Feature","geometry":{"type":"Point","coordinates":[27.36667,46.03333]},"properties":{"id":90332,"name":"Brăhășești","state_code":"GL","country_code":"RO"}},{"type":"Feature","geometry":{"type":"Point","coordinates":[27.35,46.05]},"properties":{"id":90331,"name":"Brăhăşeştii de Sus","state_code":"GL","country_code":"RO"}},{"type":"Feature","geometry":{"type":"Point","coordinates":[27.85,45.45]},"properties":{"id":90270,"name":"Braniştea","state_code":"GL","country_code":"RO"}},{"type":"Feature","geometry":{"type":"Point","coordinates":[27.53008,45.6525]},"properties":{"id":90346,"name":"Bucești","state_code":"GL","country_code":"RO"}},{"type":"Feature","geometry":{"type":"Point","coordinates":[27.3,46]},"properties":{"id":90353,"name":"Buciumeni","state_code":"GL","country_code":"RO"}},{"type":"Feature","geometry":{"type":"Point","coordinates":[28.01694,46.06667]},"properties":{"id":90591,"name":"Cavadineşti","state_code":"GL","country_code":"RO"}},{"type":"Feature","geometry":{"type":"Point","coordinates":[27.61667,46.01667]},"properties":{"id":90645,"name":"Cerţeşti","state_code":"GL","country_code":"RO"}},{"type":"Feature","geometry":{"type":"Point","coordinates":[28.02716,45.7722]},"properties":{"id":90675,"name":"Chiraftei","state_code":"GL","country_code":"RO"}},{"type":"Feature","geometry":{"type":"Point","coordinates":[27.45311,46.1138]},"properties":{"id":90730,"name":"Ciorăști","state_code":"GL","country_code":"RO"}},{"type":"Feature","geometry":{"type":"Point","coordinates":[27.92975,45.51634]},"properties":{"id":90763,"name":"Cișmele","state_code":"GL","country_code":"RO"}},{"type":"Feature","geometry":{"type":"Point","coordinates":[27.75375,46.07623]},"properties":{"id":91221,"name":"Comuna Bălăbăneşti","state_code":"GL","country_code":"RO"}},{"type":"Feature","geometry":{"type":"Point","coordinates":[27.65844,46.09003]},"properties":{"id":91226,"name":"Comuna Bălăşeşti","state_code":"GL","country_code":"RO"}},{"type":"Feature","geometry":{"type":"Point","coordinates":[27.8502,45.80942]},"properties":{"id":91213,"name":"Comuna Băleni","state_code":"GL","country_code":"RO"}},{"type":"Feature","geometry":{"type":"Point","coordinates":[27.97963,45.93008]},"properties":{"id":91230,"name":"Comuna Băneasa","state_code":"GL","country_code":"RO"}},{"type":"Feature","geometry":{"type":"Point","coordinates":[27.46265,45.74744]},"properties":{"id":90937,"name":"Comuna Barcea","state_code":"GL","country_code":"RO"}},{"type":"Feature","geometry":{"type":"Point","coordinates":[27.92288,46.10362]},"properties":{"id":90966,"name":"Comuna Bereşti-Meria","state_code":"GL","country_code":"RO"}},{"type":"Feature","geometry":{"type":"Point","coordinates":[27.36196,46.0616]},"properties":{"id":91120,"name":"Comuna Brăhăşeşti","state_code":"GL","country_code":"RO"}},{"type":"Feature","geometry":{"type":"Point","coordinates":[27.8324,45.44141]},"properties":{"id":91078,"name":"Comuna Braniştea","state_code":"GL","country_code":"RO"}},{"type":"Feature","geometry":{"type":"Point","coordinates":[27.31922,45.97702]},"properties":{"id":91131,"name":"Comuna Buciumeni","state_code":"GL","country_code":"RO"}},{"type":"Feature","geometry":{"type":"Point","coordinates":[28.01638,46.0804]},"properties":{"id":91268,"name":"Comuna Cavadineşti","state_code":"GL","country_code":"RO"}},{"type":"Feature","geometry":{"type":"Point","coordinates":[27.62321,46.01758]},"properties":{"id":91302,"name":"Comuna Cerţeşti","state_code":"GL","country_code":"RO"}},{"type":"Feature","geometry":{"type":"Point","coordinates":[27.77693,45.86922]},"properties":{"id":91440,"name":"Comuna Corni","state_code":"GL","country_code":"RO"}},{"type":"Feature","geometry":{"type":"Point","coordinates":[27.6515,45.93693]},"properties":{"id":91445,"name":"Comuna Corod","state_code":"GL","country_code":"RO"}},{"type":"Feature","geometry":{"type":"Point","coordinates":[27.31605,45.84926]},"properties":{"id":91449,"name":"Comuna Cosmeşti","state_code":"GL","country_code":"RO"}},{"type":"Feature","geometry":{"type":"Point","coordinates":[27.72342,45.70518]},"properties":{"id":91453,"name":"Comuna Costache Negri","state_code":"GL","country_code":"RO"}},{"type":"Feature","geometry":{"type":"Point","coordinates":[27.89396,45.73246]},"properties":{"id":91519,"name":"Comuna Cuca","state_code":"GL","country_code":"RO"}},{"type":"Feature","geometry":{"type":"Point","coordinates":[27.68604,45.77622]},"properties":{"id":91521,"name":"Comuna Cudalbi","state_code":"GL","country_code":"RO"}},{"type":"Feature","geometry":{"type":"Point","coordinates":[27.46438,45.79281]},"properties":{"id":91698,"name":"Comuna Drăgăneşti","state_code":"GL","country_code":"RO"}},{"type":"Feature","geometry":{"type":"Point","coordinates":[27.73297,46.00203]},"properties":{"id":91695,"name":"Comuna Drăguşeni","state_code":"GL","country_code":"RO"}},{"type":"Feature","geometry":{"type":"Point","coordinates":[27.9695,45.79843]},"properties":{"id":91814,"name":"Comuna Fârţăneşti","state_code":"GL","country_code":"RO"}},{"type":"Feature","geometry":{"type":"Point","coordinates":[28.06995,45.72301]},"properties":{"id":91777,"name":"Comuna Folteşti","state_code":"GL","country_code":"RO"}},{"type":"Feature","geometry":{"type":"Point","coordinates":[28.06631,45.65593]},"properties":{"id":91789,"name":"Comuna Frumuşiţa","state_code":"GL","country_code":"RO"}},{"type":"Feature","geometry":{"type":"Point","coordinates":[27.55104,45.56736]},"properties":{"id":91800,"name":"Comuna Fundeni","state_code":"GL","country_code":"RO"}},{"type":"Feature","geometry":{"type":"Point","coordinates":[27.4921,46.03356]},"properties":{"id":91853,"name":"Comuna Ghidigeni","state_code":"GL","country_code":"RO"}},{"type":"Feature","geometry":{"type":"Point","coordinates":[27.42653,46.01539]},"properties":{"id":91893,"name":"Comuna Gohor","state_code":"GL","country_code":"RO"}},{"type":"Feature","geometry":{"type":"Point","coordinates":[27.64104,45.7004]},"properties":{"id":91922,"name":"Comuna Griviţa","state_code":"GL","country_code":"RO"}},{"type":"Feature","geometry":{"type":"Point","coordinates":[27.76025,45.47466]},"properties":{"id":92077,"name":"Comuna Independenţa","state_code":"GL","country_code":"RO"}},{"type":"Feature","geometry":{"type":"Point","coordinates":[27.52467,45.66843]},"properties":{"id":92098,"name":"Comuna Iveşti","state_code":"GL","country_code":"RO"}},{"type":"Feature","geometry":{"type":"Point","coordinates":[27.87215,45.98544]},"properties":{"id":92129,"name":"Comuna Jorăşti","state_code":"GL","country_code":"RO"}},{"type":"Feature","geometry":{"type":"Point","coordinates":[27.54132,45.62018]},"properties":{"id":92164,"name":"Comuna Lieşti","state_code":"GL","country_code":"RO"}},{"type":"Feature","geometry":{"type":"Point","coordinates":[28.04175,45.767]},"properties":{"id":92418,"name":"Comuna Măstăcani","state_code":"GL","country_code":"RO"}},{"type":"Feature","geometry":{"type":"Point","coordinates":[27.5366,45.85686]},"properties":{"id":92245,"name":"Comuna Matca","state_code":"GL","country_code":"RO"}},{"type":"Feature","geometry":{"type":"Point","coordinates":[27.37587,45.76584]},"properties":{"id":92340,"name":"Comuna Movileni","state_code":"GL","country_code":"RO"}},{"type":"Feature","geometry":{"type":"Point","coordinates":[27.44242,45.91503]},"properties":{"id":92356,"name":"Comuna Munteni","state_code":"GL","country_code":"RO"}},{"type":"Feature","geometry":{"type":"Point","coordinates":[27.56307,45.52383]},"properties":{"id":92462,"name":"Comuna Nămoloasa","state_code":"GL","country_code":"RO"}},{"type":"Feature","geometry":{"type":"Point","coordinates":[27.48018,45.94768]},"properties":{"id":92434,"name":"Comuna Negrileşti","state_code":"GL","country_code":"RO"}},{"type":"Feature","geometry":{"type":"Point","coordinates":[27.29735,45.93603]},"properties":{"id":92444,"name":"Comuna Nicoreşti","state_code":"GL","country_code":"RO"}},{"type":"Feature","geometry":{"type":"Point","coordinates":[28.11118,45.90648]},"properties":{"id":92467,"name":"Comuna Oancea","state_code":"GL","country_code":"RO"}},{"type":"Feature","geometry":{"type":"Point","coordinates":[27.82756,45.64303]},"properties":{"id":92543,"name":"Comuna Pechea","state_code":"GL","country_code":"RO"}},{"type":"Feature","geometry":{"type":"Point","coordinates":[27.71645,45.51681]},"properties":{"id":92587,"name":"Comuna Piscu","state_code":"GL","country_code":"RO"}},{"type":"Feature","geometry":{"type":"Point","coordinates":[27.26693,45.99554]},"properties":{"id":92622,"name":"Comuna Poiana","state_code":"GL","country_code":"RO"}},{"type":"Feature","geometry":{"type":"Point","coordinates":[27.43939,46.1015]},"properties":{"id":92676,"name":"Comuna Priponeşti","state_code":"GL","country_code":"RO"}},{"type":"Feature","geometry":{"type":"Point","coordinates":[27.79606,46.08312]},"properties":{"id":92843,"name":"Comuna Rădeşti","state_code":"GL","country_code":"RO"}},{"type":"Feature","geometry":{"type":"Point","coordinates":[27.84647,45.72065]},"properties":{"id":92760,"name":"Comuna Rediu","state_code":"GL","country_code":"RO"}},{"type":"Feature","geometry":{"type":"Point","coordinates":[28.00432,45.68833]},"properties":{"id":92903,"name":"Comuna Scânteieşti","state_code":"GL","country_code":"RO"}},{"type":"Feature","geometry":{"type":"Point","coordinates":[27.85229,45.5181]},"properties":{"id":92885,"name":"Comuna Schela","state_code":"GL","country_code":"RO"}},{"type":"Feature","geometry":{"type":"Point","coordinates":[27.92253,45.4132]},"properties":{"id":93506,"name":"Comuna Şendreni","state_code":"GL","country_code":"RO"}},{"type":"Feature","geometry":{"type":"Point","coordinates":[27.77143,45.5643]},"properties":{"id":92956,"name":"Comuna Slobozia Conachi","state_code":"GL","country_code":"RO"}},{"type":"Feature","geometry":{"type":"Point","coordinates":[27.93554,45.49694]},"properties":{"id":92964,"name":"Comuna Smârdan","state_code":"GL","country_code":"RO"}},{"type":"Feature","geometry":{"type":"Point","coordinates":[27.75488,45.93246]},"properties":{"id":92963,"name":"Comuna Smulţi","state_code":"GL","country_code":"RO"}},{"type":"Feature","geometry":{"type":"Point","coordinates":[28.05748,45.99495]},"properties":{"id":93025,"name":"Comuna Suceveni","state_code":"GL","country_code":"RO"}},{"type":"Feature","geometry":{"type":"Point","coordinates":[27.37677,45.97734]},"properties":{"id":93568,"name":"Comuna Ţepu","state_code":"GL","country_code":"RO"}},{"type":"Feature","geometry":{"type":"Point","coordinates":[27.65075,45.56466]},"properties":{"id":93198,"name":"Comuna Tudor Vladimirescu","state_code":"GL","country_code":"RO"}},{"type":"Feature","geometry":{"type":"Point","coordinates":[28.05239,45.59242]},"properties":{"id":93206,"name":"Comuna Tuluceşti","state_code":"GL","country_code":"RO"}},{"type":"Feature","geometry":{"type":"Point","coordinates":[27.45893,45.71386]},"properties":{"id":93266,"name":"Comuna Umbrăreşti","state_code":"GL","country_code":"RO"}},{"type":"Feature","geometry":{"type":"Point","coordinates":[27.69554,45.85934]},"properties":{"id":93317,"name":"Comuna Valea Mãrului","state_code":"GL","country_code":"RO"}},{"type":"Feature","geometry":{"type":"Point","coordinates":[28.00892,45.52597]},"properties":{"id":93434,"name":"Comuna Vânători","state_code":"GL","country_code":"RO"}},{"type":"Feature","geometry":{"type":"Point","coordinates":[27.82966,45.92244]},"properties":{"id":93443,"name":"Comuna Vârlezi","state_code":"GL","country_code":"RO"}},{"type":"Feature","geometry":{"type":"Point","coordinates":[28.08845,45.81991]},"properties":{"id":93390,"name":"Comuna Vlădeşti","state_code":"GL","country_code":"RO"}},{"type":"Feature","geometry":{"type":"Point","coordinates":[27.76667,45.85]},"properties":{"id":93637,"name":"Corni","state_code":"GL","country_code":"RO"}},{"type":"Feature","geometry":{"type":"Point","coordinates":[27.61667,45.9]},"properties":{"id":93646,"name":"Corod","state_code":"GL","country_code":"RO"}},{"type":"Feature","geometry":{"type":"Point","coordinates":[27.31115,45.87017]},"properties":{"id":93652,"name":"Cosmeşti","state_code":"GL","country_code":"RO"}},{"type":"Feature","geometry":{"type":"Point","coordinates":[27.28771,45.86931]},"properties":{"id":93654,"name":"Cosmeștii-Vale","state_code":"GL","country_code":"RO"}},{"type":"Feature","geometry":{"type":"Point","coordinates":[27.71667,45.7]},"properties":{"id":93657,"name":"Costache Negri","state_code":"GL","country_code":"RO"}},{"type":"Feature","geometry":{"type":"Point","coordinates":[27.81136,45.94314]},"properties":{"id":93754,"name":"Crăiești","state_code":"GL","country_code":"RO"}},{"type":"Feature","geometry":{"type":"Point","coordinates":[27.88333,45.73333]},"properties":{"id":93756,"name":"Cuca","state_code":"GL","country_code":"RO"}},{"type":"Feature","geometry":{"type":"Point","coordinates":[27.7,45.78333]},"properties":{"id":93763,"name":"Cudalbi","state_code":"GL","country_code":"RO"}},{"type":"Feature","geometry":{"type":"Point","coordinates":[27.7885764,45.5951518]},"properties":{"id":93786,"name":"Cuza Vodă","state_code":"GL","country_code":"RO"}},{"type":"Feature","geometry":{"type":"Point","coordinates":[27.46667,45.78333]},"properties":{"id":94058,"name":"Drăgăneşti","state_code":"GL","country_code":"RO"}},{"type":"Feature","geometry":{"type":"Point","coordinates":[27.75,45.96667]},"properties":{"id":94048,"name":"Drăguşeni","state_code":"GL","country_code":"RO"}},{"type":"Feature","geometry":{"type":"Point","coordinates":[28.00354,45.70152]},"properties":{"id":94242,"name":"Fântânele","state_code":"GL","country_code":"RO"}},{"type":"Feature","geometry":{"type":"Point","coordinates":[27.98333,45.81667]},"properties":{"id":94246,"name":"Fârţăneşti","state_code":"GL","country_code":"RO"}},{"type":"Feature","geometry":{"type":"Point","coordinates":[28.05,45.75]},"properties":{"id":94197,"name":"Folteşti","state_code":"GL","country_code":"RO"}},{"type":"Feature","geometry":{"type":"Point","coordinates":[28.06667,45.66667]},"properties":{"id":94212,"name":"Frumuşiţa","state_code":"GL","country_code":"RO"}},{"type":"Feature","geometry":{"type":"Point","coordinates":[27.54056,45.54123]},"properties":{"id":94227,"name":"Fundeni","state_code":"GL","country_code":"RO"}},{"type":"Feature","geometry":{"type":"Point","coordinates":[27.33954,45.81118]},"properties":{"id":94232,"name":"Furcenii Noi","state_code":"GL","country_code":"RO"}},{"type":"Feature","geometry":{"type":"Point","coordinates":[28.05028,45.43687]},"properties":{"id":94272,"name":"Galaţi","state_code":"GL","country_code":"RO"}},{"type":"Feature","geometry":{"type":"Point","coordinates":[27.99337,46.0897]},"properties":{"id":94511,"name":"Gănești","state_code":"GL","country_code":"RO"}},{"type":"Feature","geometry":{"type":"Point","coordinates":[27.5,46.05]},"properties":{"id":94318,"name":"Ghidigeni","state_code":"GL","country_code":"RO"}},{"type":"Feature","geometry":{"type":"Point","coordinates":[27.4,46.06667]},"properties":{"id":94374,"name":"Gohor","state_code":"GL","country_code":"RO"}},{"type":"Feature","geometry":{"type":"Point","coordinates":[27.65,45.71667]},"properties":{"id":94417,"name":"Griviţa","state_code":"GL","country_code":"RO"}},{"type":"Feature","geometry":{"type":"Point","coordinates":[27.59481,45.5865]},"properties":{"id":94523,"name":"Hanu Conachi","state_code":"GL","country_code":"RO"}},{"type":"Feature","geometry":{"type":"Point","coordinates":[27.75,45.48333]},"properties":{"id":94665,"name":"Independenţa","state_code":"GL","country_code":"RO"}},{"type":"Feature","geometry":{"type":"Point","coordinates":[27.51667,45.68333]},"properties":{"id":94696,"name":"Iveşti","state_code":"GL","country_code":"RO"}},{"type":"Feature","geometry":{"type":"Point","coordinates":[27.86667,45.98333]},"properties":{"id":94746,"name":"Jorăşti","state_code":"GL","country_code":"RO"}},{"type":"Feature","geometry":{"type":"Point","coordinates":[27.51667,45.61667]},"properties":{"id":94795,"name":"Lieşti","state_code":"GL","country_code":"RO"}},{"type":"Feature","geometry":{"type":"Point","coordinates":[27.7,45.88333]},"properties":{"id":95213,"name":"Mândrești","state_code":"GL","country_code":"RO"}},{"type":"Feature","geometry":{"type":"Point","coordinates":[28.03333,45.78333]},"properties":{"id":95287,"name":"Măstăcani","state_code":"GL","country_code":"RO"}},{"type":"Feature","geometry":{"type":"Point","coordinates":[27.53333,45.85]},"properties":{"id":94934,"name":"Matca","state_code":"GL","country_code":"RO"}},{"type":"Feature","geometry":{"type":"Point","coordinates":[27.9312,45.9026]},"properties":{"id":95076,"name":"Moscu","state_code":"GL","country_code":"RO"}},{"type":"Feature","geometry":{"type":"Point","coordinates":[27.37184,45.76154]},"properties":{"id":95084,"name":"Movileni","state_code":"GL","country_code":"RO"}},{"type":"Feature","geometry":{"type":"Point","coordinates":[28.04118,45.44078]},"properties":{"id":95144,"name":"Municipiul Galaţi","state_code":"GL","country_code":"RO"}},{"type":"Feature","geometry":{"type":"Point","coordinates":[27.42826,45.85155]},"properties":{"id":95186,"name":"Municipiul Tecuci","state_code":"GL","country_code":"RO"}},{"type":"Feature","geometry":{"type":"Point","coordinates":[27.43333,45.93333]},"properties":{"id":95200,"name":"Munteni","state_code":"GL","country_code":"RO"}},{"type":"Feature","geometry":{"type":"Point","coordinates":[27.55226,45.5361]},"properties":{"id":95370,"name":"Nămoloasa","state_code":"GL","country_code":"RO"}},{"type":"Feature","geometry":{"type":"Point","coordinates":[27.58333,45.53333]},"properties":{"id":95371,"name":"Nămoloasa-Sat","state_code":"GL","country_code":"RO"}},{"type":"Feature","geometry":{"type":"Point","coordinates":[27.48085,45.95729]},"properties":{"id":95323,"name":"Negrilești","state_code":"GL","country_code":"RO"}},{"type":"Feature","geometry":{"type":"Point","coordinates":[27.30866,45.93223]},"properties":{"id":95341,"name":"Nicoreşti","state_code":"GL","country_code":"RO"}},{"type":"Feature","geometry":{"type":"Point","coordinates":[28.1,45.91667]},"properties":{"id":95379,"name":"Oancea","state_code":"GL","country_code":"RO"}},{"type":"Feature","geometry":{"type":"Point","coordinates":[27.99057,45.54897]},"properties":{"id":95404,"name":"Odaia Manolache","state_code":"GL","country_code":"RO"}},{"type":"Feature","geometry":{"type":"Point","coordinates":[27.88623,46.09648]},"properties":{"id":95462,"name":"Oraş Bereşti","state_code":"GL","country_code":"RO"}},{"type":"Feature","geometry":{"type":"Point","coordinates":[27.92304,45.87398]},"properties":{"id":95647,"name":"Oraș Târgu Bujor","state_code":"GL","country_code":"RO"}},{"type":"Feature","geometry":{"type":"Point","coordinates":[27.8,45.63333]},"properties":{"id":95721,"name":"Pechea","state_code":"GL","country_code":"RO"}},{"type":"Feature","geometry":{"type":"Point","coordinates":[27.73333,45.5]},"properties":{"id":95797,"name":"Piscu","state_code":"GL","country_code":"RO"}},{"type":"Feature","geometry":{"type":"Point","coordinates":[27.44661,45.7483]},"properties":{"id":95847,"name":"Podoleni","state_code":"GL","country_code":"RO"}},{"type":"Feature","geometry":{"type":"Point","coordinates":[27.25609,45.99228]},"properties":{"id":95867,"name":"Poiana","state_code":"GL","country_code":"RO"}},{"type":"Feature","geometry":{"type":"Point","coordinates":[27.43333,46.08333]},"properties":{"id":95953,"name":"Priponeşti","state_code":"GL","country_code":"RO"}},{"type":"Feature","geometry":{"type":"Point","coordinates":[27.78936,46.07263]},"properties":{"id":96196,"name":"Rădești","state_code":"GL","country_code":"RO"}},{"type":"Feature","geometry":{"type":"Point","coordinates":[27.83333,45.71667]},"properties":{"id":96079,"name":"Rediu","state_code":"GL","country_code":"RO"}},{"type":"Feature","geometry":{"type":"Point","coordinates":[27.98333,45.68333]},"properties":{"id":96294,"name":"Scânteiești","state_code":"GL","country_code":"RO"}},{"type":"Feature","geometry":{"type":"Point","coordinates":[27.81667,45.5]},"properties":{"id":96268,"name":"Schela","state_code":"GL","country_code":"RO"}},{"type":"Feature","geometry":{"type":"Point","coordinates":[27.91667,45.4]},"properties":{"id":97037,"name":"Şendreni","state_code":"GL","country_code":"RO"}},{"type":"Feature","geometry":{"type":"Point","coordinates":[28.05757,45.61285]},"properties":{"id":97130,"name":"Șivița","state_code":"GL","country_code":"RO"}},{"type":"Feature","geometry":{"type":"Point","coordinates":[27.78333,45.58333]},"properties":{"id":96375,"name":"Slobozia Conachi","state_code":"GL","country_code":"RO"}},{"type":"Feature","geometry":{"type":"Point","coordinates":[27.93333,45.48333]},"properties":{"id":96390,"name":"Smârdan","state_code":"GL","country_code":"RO"}},{"type":"Feature","geometry":{"type":"Point","coordinates":[27.75,45.93333]},"properties":{"id":96388,"name":"Smulţi","state_code":"GL","country_code":"RO"}},{"type":"Feature","geometry":{"type":"Point","coordinates":[28.01806,46.01222]},"properties":{"id":96489,"name":"Suceveni","state_code":"GL","country_code":"RO"}},{"type":"Feature","geometry":{"type":"Point","coordinates":[27.8262874,45.7285372]},"properties":{"id":96498,"name":"Suhurlui","state_code":"GL","country_code":"RO"}},{"type":"Feature","geometry":{"type":"Point","coordinates":[27.47247,46.00796]},"properties":{"id":96604,"name":"Tălpigi","state_code":"GL","country_code":"RO"}},{"type":"Feature","geometry":{"type":"Point","coordinates":[27.9,45.86667]},"properties":{"id":96581,"name":"Târgu Bujor","state_code":"GL","country_code":"RO"}},{"type":"Feature","geometry":{"type":"Point","coordinates":[27.43441,45.84973]},"properties":{"id":106069,"name":"Tecuci","state_code":"GL","country_code":"RO"}},{"type":"Feature","geometry":{"type":"Point","coordinates":[27.36667,45.96667]},"properties":{"id":97100,"name":"Ţepu","state_code":"GL","country_code":"RO"}},{"type":"Feature","geometry":{"type":"Point","coordinates":[27.33411,46.06372]},"properties":{"id":106118,"name":"Toflea","state_code":"GL","country_code":"RO"}},{"type":"Feature","geometry":{"type":"Point","coordinates":[27.65,45.56667]},"properties":{"id":106165,"name":"Tudor Vladimirescu","state_code":"GL","country_code":"RO"}},{"type":"Feature","geometry":{"type":"Point","coordinates":[28.03333,45.56667]},"properties":{"id":96547,"name":"Tuluceşti","state_code":"GL","country_code":"RO"}},{"type":"Feature","geometry":{"type":"Point","coordinates":[27.46667,45.71667]},"properties":{"id":96652,"name":"Umbrăreşti","state_code":"GL","country_code":"RO"}},{"type":"Feature","geometry":{"type":"Point","coordinates":[27.46667,45.7]},"properties":{"id":96654,"name":"Umbrărești-Deal","state_code":"GL","country_code":"RO"}},{"type":"Feature","geometry":{"type":"Point","coordinates":[27.47,45.91307]},"properties":{"id":96659,"name":"Ungureni","state_code":"GL","country_code":"RO"}},{"type":"Feature","geometry":{"type":"Point","coordinates":[27.69138,45.83866]},"properties":{"id":96743,"name":"Valea Mărului","state_code":"GL","country_code":"RO"}},{"type":"Feature","geometry":{"type":"Point","coordinates":[28.01667,45.53333]},"properties":{"id":96931,"name":"Vânători","state_code":"GL","country_code":"RO"}},{"type":"Feature","geometry":{"type":"Point","coordinates":[27.85,45.9]},"properties":{"id":96942,"name":"Vârlezi","state_code":"GL","country_code":"RO"}},{"type":"Feature","geometry":{"type":"Point","coordinates":[27.94748,45.80691]},"properties":{"id":96814,"name":"Viile","state_code":"GL","country_code":"RO"}},{"type":"Feature","geometry":{"type":"Point","coordinates":[28.08333,45.85]},"properties":{"id":96865,"name":"Vlădeşti","state_code":"GL","country_code":"RO"}}]}