{"type":"FeatureCollection","features":[{"type":"Feature","geometry":{"type":"Point","coordinates":[23.6,45.03333]},"properties":{"id":89912,"name":"Albeni","state_code":"GJ","country_code":"RO"}},{"type":"Feature","geometry":{"type":"Point","coordinates":[23.8,45.08333]},"properties":{"id":89932,"name":"Alimpeşti","state_code":"GJ","country_code":"RO"}},{"type":"Feature","geometry":{"type":"Point","coordinates":[23.55099,44.78948]},"properties":{"id":89954,"name":"Andreești","state_code":"GJ","country_code":"RO"}},{"type":"Feature","geometry":{"type":"Point","coordinates":[23.48333,44.75]},"properties":{"id":89963,"name":"Aninoasa","state_code":"GJ","country_code":"RO"}},{"type":"Feature","geometry":{"type":"Point","coordinates":[23.13333,45.08333]},"properties":{"id":89979,"name":"Arcani","state_code":"GJ","country_code":"RO"}},{"type":"Feature","geometry":{"type":"Point","coordinates":[23.76667,45.16667]},"properties":{"id":90034,"name":"Baia de Fier","state_code":"GJ","country_code":"RO"}},{"type":"Feature","geometry":{"type":"Point","coordinates":[23.6329,45.10516]},"properties":{"id":90506,"name":"Bălcești","state_code":"GJ","country_code":"RO"}},{"type":"Feature","geometry":{"type":"Point","coordinates":[23.21667,45.01667]},"properties":{"id":90510,"name":"Băleşti","state_code":"GJ","country_code":"RO"}},{"type":"Feature","geometry":{"type":"Point","coordinates":[23.1022,45.11791]},"properties":{"id":90441,"name":"Bâlta","state_code":"GJ","country_code":"RO"}},{"type":"Feature","geometry":{"type":"Point","coordinates":[23.27311,44.86919]},"properties":{"id":90443,"name":"Bâlteni","state_code":"GJ","country_code":"RO"}},{"type":"Feature","geometry":{"type":"Point","coordinates":[23.5,44.86667]},"properties":{"id":90541,"name":"Bărbăteşti","state_code":"GJ","country_code":"RO"}},{"type":"Feature","geometry":{"type":"Point","coordinates":[23.6,45.06667]},"properties":{"id":90094,"name":"Bengești","state_code":"GJ","country_code":"RO"}},{"type":"Feature","geometry":{"type":"Point","coordinates":[23.66667,44.91667]},"properties":{"id":90112,"name":"Berleşti","state_code":"GJ","country_code":"RO"}},{"type":"Feature","geometry":{"type":"Point","coordinates":[23.21667,44.75]},"properties":{"id":90208,"name":"Bolboşi","state_code":"GJ","country_code":"RO"}},{"type":"Feature","geometry":{"type":"Point","coordinates":[23.28333,44.7]},"properties":{"id":90236,"name":"Borăscu","state_code":"GJ","country_code":"RO"}},{"type":"Feature","geometry":{"type":"Point","coordinates":[23.46667,44.65]},"properties":{"id":90336,"name":"Brăneşti","state_code":"GJ","country_code":"RO"}},{"type":"Feature","geometry":{"type":"Point","coordinates":[23.4,45.16667]},"properties":{"id":90407,"name":"Bumbeşti-Jiu","state_code":"GJ","country_code":"RO"}},{"type":"Feature","geometry":{"type":"Point","coordinates":[23.73333,44.96667]},"properties":{"id":90424,"name":"Bustuchin","state_code":"GJ","country_code":"RO"}},{"type":"Feature","geometry":{"type":"Point","coordinates":[23.08333,44.95]},"properties":{"id":93793,"name":"Câlnic","state_code":"GJ","country_code":"RO"}},{"type":"Feature","geometry":{"type":"Point","coordinates":[23.61667,44.75]},"properties":{"id":93859,"name":"Căpreni","state_code":"GJ","country_code":"RO"}},{"type":"Feature","geometry":{"type":"Point","coordinates":[23.58052,45.18407]},"properties":{"id":93871,"name":"Cărpiniș","state_code":"GJ","country_code":"RO"}},{"type":"Feature","geometry":{"type":"Point","coordinates":[22.90707,44.86442]},"properties":{"id":93880,"name":"Cătunele","state_code":"GJ","country_code":"RO"}},{"type":"Feature","geometry":{"type":"Point","coordinates":[23.20211,45.01175]},"properties":{"id":90605,"name":"Ceauru","state_code":"GJ","country_code":"RO"}},{"type":"Feature","geometry":{"type":"Point","coordinates":[23.01667,44.93333]},"properties":{"id":90753,"name":"Ciuperceni","state_code":"GJ","country_code":"RO"}},{"type":"Feature","geometry":{"type":"Point","coordinates":[22.8025,45.06897]},"properties":{"id":90770,"name":"Cloșani","state_code":"GJ","country_code":"RO"}},{"type":"Feature","geometry":{"type":"Point","coordinates":[23.31405,44.82772]},"properties":{"id":90781,"name":"Cocoreni","state_code":"GJ","country_code":"RO"}},{"type":"Feature","geometry":{"type":"Point","coordinates":[23.60208,45.01363]},"properties":{"id":90838,"name":"Comuna Albeni","state_code":"GJ","country_code":"RO"}},{"type":"Feature","geometry":{"type":"Point","coordinates":[23.79651,45.10542]},"properties":{"id":90853,"name":"Comuna Alimpeşti","state_code":"GJ","country_code":"RO"}},{"type":"Feature","geometry":{"type":"Point","coordinates":[23.47372,44.74836]},"properties":{"id":90873,"name":"Comuna Aninoasa","state_code":"GJ","country_code":"RO"}},{"type":"Feature","geometry":{"type":"Point","coordinates":[23.14108,45.07232]},"properties":{"id":90883,"name":"Comuna Arcani","state_code":"GJ","country_code":"RO"}},{"type":"Feature","geometry":{"type":"Point","coordinates":[23.74152,45.17402]},"properties":{"id":90919,"name":"Comuna Baia de Fier","state_code":"GJ","country_code":"RO"}},{"type":"Feature","geometry":{"type":"Point","coordinates":[23.44674,45.09028]},"properties":{"id":91225,"name":"Comuna Bălăneşti","state_code":"GJ","country_code":"RO"}},{"type":"Feature","geometry":{"type":"Point","coordinates":[23.18145,45.01898]},"properties":{"id":91216,"name":"Comuna Băleşti","state_code":"GJ","country_code":"RO"}},{"type":"Feature","geometry":{"type":"Point","coordinates":[23.26736,44.86667]},"properties":{"id":91182,"name":"Comuna Bâlteni","state_code":"GJ","country_code":"RO"}},{"type":"Feature","geometry":{"type":"Point","coordinates":[23.5076,44.85916]},"properties":{"id":91238,"name":"Comuna Bărbăteşti","state_code":"GJ","country_code":"RO"}},{"type":"Feature","geometry":{"type":"Point","coordinates":[23.60621,45.09845]},"properties":{"id":90958,"name":"Comuna Bengeşti-Ciocadia","state_code":"GJ","country_code":"RO"}},{"type":"Feature","geometry":{"type":"Point","coordinates":[23.22157,44.7374]},"properties":{"id":91037,"name":"Comuna Bolboşi","state_code":"GJ","country_code":"RO"}},{"type":"Feature","geometry":{"type":"Point","coordinates":[23.26739,44.70105]},"properties":{"id":91055,"name":"Comuna Borăscu","state_code":"GJ","country_code":"RO"}},{"type":"Feature","geometry":{"type":"Point","coordinates":[23.47213,44.66555]},"properties":{"id":91121,"name":"Comuna Brăneşti","state_code":"GJ","country_code":"RO"}},{"type":"Feature","geometry":{"type":"Point","coordinates":[23.70348,45.12413]},"properties":{"id":91162,"name":"Comuna Bumbeşti-Piţic","state_code":"GJ","country_code":"RO"}},{"type":"Feature","geometry":{"type":"Point","coordinates":[23.70347,44.96835]},"properties":{"id":91172,"name":"Comuna Bustuchin","state_code":"GJ","country_code":"RO"}},{"type":"Feature","geometry":{"type":"Point","coordinates":[23.06292,44.94202]},"properties":{"id":91541,"name":"Comuna Câlnic","state_code":"GJ","country_code":"RO"}},{"type":"Feature","geometry":{"type":"Point","coordinates":[23.62033,44.74439]},"properties":{"id":91584,"name":"Comuna Căpreni","state_code":"GJ","country_code":"RO"}},{"type":"Feature","geometry":{"type":"Point","coordinates":[22.92465,44.83902]},"properties":{"id":91595,"name":"Comuna Cătunele","state_code":"GJ","country_code":"RO"}},{"type":"Feature","geometry":{"type":"Point","coordinates":[22.99173,44.928]},"properties":{"id":91372,"name":"Comuna Ciuperceni","state_code":"GJ","country_code":"RO"}},{"type":"Feature","geometry":{"type":"Point","coordinates":[23.55625,45.17065]},"properties":{"id":91486,"name":"Comuna Crasna","state_code":"GJ","country_code":"RO"}},{"type":"Feature","geometry":{"type":"Point","coordinates":[23.67247,44.63848]},"properties":{"id":91511,"name":"Comuna Crușeț","state_code":"GJ","country_code":"RO"}},{"type":"Feature","geometry":{"type":"Point","coordinates":[23.76023,44.77004]},"properties":{"id":91736,"name":"Comuna Dănciuleşti","state_code":"GJ","country_code":"RO"}},{"type":"Feature","geometry":{"type":"Point","coordinates":[23.3439,44.96735]},"properties":{"id":91739,"name":"Comuna Dăneşti","state_code":"GJ","country_code":"RO"}},{"type":"Feature","geometry":{"type":"Point","coordinates":[23.16192,44.79957]},"properties":{"id":91691,"name":"Comuna Drăgoteşti","state_code":"GJ","country_code":"RO"}},{"type":"Feature","geometry":{"type":"Point","coordinates":[23.2348,44.9637]},"properties":{"id":91684,"name":"Comuna Drãguţeşti","state_code":"GJ","country_code":"RO"}},{"type":"Feature","geometry":{"type":"Point","coordinates":[23.19279,44.87069]},"properties":{"id":91816,"name":"Comuna Fãrcãşeşti","state_code":"GJ","country_code":"RO"}},{"type":"Feature","geometry":{"type":"Point","coordinates":[22.9081,44.91623]},"properties":{"id":91884,"name":"Comuna Glogova","state_code":"GJ","country_code":"RO"}},{"type":"Feature","geometry":{"type":"Point","coordinates":[22.96093,44.97634]},"properties":{"id":91889,"name":"Comuna Godineşti","state_code":"GJ","country_code":"RO"}},{"type":"Feature","geometry":{"type":"Point","coordinates":[23.63617,44.80305]},"properties":{"id":92028,"name":"Comuna Hurezani","state_code":"GJ","country_code":"RO"}},{"type":"Feature","geometry":{"type":"Point","coordinates":[23.42688,44.61636]},"properties":{"id":92086,"name":"Comuna Ioneşti","state_code":"GJ","country_code":"RO"}},{"type":"Feature","geometry":{"type":"Point","coordinates":[23.52325,44.91241]},"properties":{"id":92134,"name":"Comuna Jupâneşti","state_code":"GJ","country_code":"RO"}},{"type":"Feature","geometry":{"type":"Point","coordinates":[23.19761,45.09875]},"properties":{"id":92147,"name":"Comuna Leleşti","state_code":"GJ","country_code":"RO"}},{"type":"Feature","geometry":{"type":"Point","coordinates":[23.62641,44.87544]},"properties":{"id":92162,"name":"Comuna Licurici","state_code":"GJ","country_code":"RO"}},{"type":"Feature","geometry":{"type":"Point","coordinates":[23.71256,44.88848]},"properties":{"id":92182,"name":"Comuna Logreşti-Moşteni","state_code":"GJ","country_code":"RO"}},{"type":"Feature","geometry":{"type":"Point","coordinates":[23.06819,44.85764]},"properties":{"id":92419,"name":"Comuna Mătăsari","state_code":"GJ","country_code":"RO"}},{"type":"Feature","geometry":{"type":"Point","coordinates":[23.45022,45.15231]},"properties":{"id":92364,"name":"Comuna Muşeteşti","state_code":"GJ","country_code":"RO"}},{"type":"Feature","geometry":{"type":"Point","coordinates":[23.22744,44.78593]},"properties":{"id":92429,"name":"Comuna Negomir","state_code":"GJ","country_code":"RO"}},{"type":"Feature","geometry":{"type":"Point","coordinates":[22.80954,45.05089]},"properties":{"id":92527,"name":"Comuna Padeş","state_code":"GJ","country_code":"RO"}},{"type":"Feature","geometry":{"type":"Point","coordinates":[23.04902,45.07061]},"properties":{"id":92571,"name":"Comuna Peştişani","state_code":"GJ","country_code":"RO"}},{"type":"Feature","geometry":{"type":"Point","coordinates":[23.39053,44.73869]},"properties":{"id":92600,"name":"Comuna Plopşoru","state_code":"GJ","country_code":"RO"}},{"type":"Feature","geometry":{"type":"Point","coordinates":[23.82134,45.17196]},"properties":{"id":92646,"name":"Comuna Polovragi","state_code":"GJ","country_code":"RO"}},{"type":"Feature","geometry":{"type":"Point","coordinates":[23.68453,45.05711]},"properties":{"id":92675,"name":"Comuna Prigoria","state_code":"GJ","country_code":"RO"}},{"type":"Feature","geometry":{"type":"Point","coordinates":[23.75991,45.04419]},"properties":{"id":92797,"name":"Comuna Roşia De Amaradia","state_code":"GJ","country_code":"RO"}},{"type":"Feature","geometry":{"type":"Point","coordinates":[23.13974,45.12041]},"properties":{"id":92810,"name":"Comuna Runcu","state_code":"GJ","country_code":"RO"}},{"type":"Feature","geometry":{"type":"Point","coordinates":[23.53717,45.10648]},"properties":{"id":93083,"name":"Comuna Săcelu","state_code":"GJ","country_code":"RO"}},{"type":"Feature","geometry":{"type":"Point","coordinates":[23.04889,44.77152]},"properties":{"id":92869,"name":"Comuna Samarineşti","state_code":"GJ","country_code":"RO"}},{"type":"Feature","geometry":{"type":"Point","coordinates":[23.48767,44.81247]},"properties":{"id":93115,"name":"Comuna Săuleşti","state_code":"GJ","country_code":"RO"}},{"type":"Feature","geometry":{"type":"Point","coordinates":[23.32395,45.15883]},"properties":{"id":92886,"name":"Comuna Schela","state_code":"GJ","country_code":"RO"}},{"type":"Feature","geometry":{"type":"Point","coordinates":[23.47131,45.02872]},"properties":{"id":92891,"name":"Comuna Scoarţa","state_code":"GJ","country_code":"RO"}},{"type":"Feature","geometry":{"type":"Point","coordinates":[23.10761,44.79198]},"properties":{"id":92951,"name":"Comuna Slivileşti","state_code":"GJ","country_code":"RO"}},{"type":"Feature","geometry":{"type":"Point","coordinates":[23.25328,45.1305]},"properties":{"id":93017,"name":"Comuna Stăneşti","state_code":"GJ","country_code":"RO"}},{"type":"Feature","geometry":{"type":"Point","coordinates":[23.70567,44.77359]},"properties":{"id":92987,"name":"Comuna Stejari","state_code":"GJ","country_code":"RO"}},{"type":"Feature","geometry":{"type":"Point","coordinates":[23.64563,44.67998]},"properties":{"id":92997,"name":"Comuna Stoina","state_code":"GJ","country_code":"RO"}},{"type":"Feature","geometry":{"type":"Point","coordinates":[23.54285,44.61874]},"properties":{"id":93579,"name":"Comuna Ţânţăreni","state_code":"GJ","country_code":"RO"}},{"type":"Feature","geometry":{"type":"Point","coordinates":[23.10843,44.98175]},"properties":{"id":93137,"name":"Comuna Teleşti","state_code":"GJ","country_code":"RO"}},{"type":"Feature","geometry":{"type":"Point","coordinates":[23.53171,44.68249]},"properties":{"id":93209,"name":"Comuna Turburea","state_code":"GJ","country_code":"RO"}},{"type":"Feature","geometry":{"type":"Point","coordinates":[23.30333,45.12744]},"properties":{"id":93210,"name":"Comuna Turcineşti","state_code":"GJ","country_code":"RO"}},{"type":"Feature","geometry":{"type":"Point","coordinates":[23.296,44.79934]},"properties":{"id":93279,"name":"Comuna Urdari","state_code":"GJ","country_code":"RO"}},{"type":"Feature","geometry":{"type":"Point","coordinates":[23.10113,44.7298]},"properties":{"id":93456,"name":"Comuna Văgiuleşti","state_code":"GJ","country_code":"RO"}},{"type":"Feature","geometry":{"type":"Point","coordinates":[23.5552,44.82235]},"properties":{"id":93382,"name":"Comuna Vladimir","state_code":"GJ","country_code":"RO"}},{"type":"Feature","geometry":{"type":"Point","coordinates":[23.44491,44.73264]},"properties":{"id":93664,"name":"Costești","state_code":"GJ","country_code":"RO"}},{"type":"Feature","geometry":{"type":"Point","coordinates":[23.14921,44.73825]},"properties":{"id":93681,"name":"Covrigi","state_code":"GJ","country_code":"RO"}},{"type":"Feature","geometry":{"type":"Point","coordinates":[23.5,45.16667]},"properties":{"id":93706,"name":"Crasna","state_code":"GJ","country_code":"RO"}},{"type":"Feature","geometry":{"type":"Point","coordinates":[23.66667,44.63333]},"properties":{"id":93744,"name":"Crușeț","state_code":"GJ","country_code":"RO"}},{"type":"Feature","geometry":{"type":"Point","coordinates":[23.75,44.73333]},"properties":{"id":94124,"name":"Dănciuleşti","state_code":"GJ","country_code":"RO"}},{"type":"Feature","geometry":{"type":"Point","coordinates":[23.33333,44.96667]},"properties":{"id":94127,"name":"Dăneşti","state_code":"GJ","country_code":"RO"}},{"type":"Feature","geometry":{"type":"Point","coordinates":[23.17406,45.13504]},"properties":{"id":93960,"name":"Dobrița","state_code":"GJ","country_code":"RO"}},{"type":"Feature","geometry":{"type":"Point","coordinates":[23.16667,44.8]},"properties":{"id":94046,"name":"Drăgoteşti","state_code":"GJ","country_code":"RO"}},{"type":"Feature","geometry":{"type":"Point","coordinates":[23.23333,44.96667]},"properties":{"id":94051,"name":"Drăguţeşti","state_code":"GJ","country_code":"RO"}},{"type":"Feature","geometry":{"type":"Point","coordinates":[23.2,44.86667]},"properties":{"id":94265,"name":"Fărcăşeşti","state_code":"GJ","country_code":"RO"}},{"type":"Feature","geometry":{"type":"Point","coordinates":[23.52838,44.61918]},"properties":{"id":94188,"name":"Florești","state_code":"GJ","country_code":"RO"}},{"type":"Feature","geometry":{"type":"Point","coordinates":[22.90667,44.92806]},"properties":{"id":94364,"name":"Glogova","state_code":"GJ","country_code":"RO"}},{"type":"Feature","geometry":{"type":"Point","coordinates":[22.96667,45]},"properties":{"id":94369,"name":"Godineşti","state_code":"GJ","country_code":"RO"}},{"type":"Feature","geometry":{"type":"Point","coordinates":[23.65,44.8]},"properties":{"id":94581,"name":"Hurezani","state_code":"GJ","country_code":"RO"}},{"type":"Feature","geometry":{"type":"Point","coordinates":[23.43333,44.61667]},"properties":{"id":94677,"name":"Ioneşti","state_code":"GJ","country_code":"RO"}},{"type":"Feature","geometry":{"type":"Point","coordinates":[23.53333,44.9]},"properties":{"id":94753,"name":"Jupâneşti","state_code":"GJ","country_code":"RO"}},{"type":"Feature","geometry":{"type":"Point","coordinates":[23.2,45.1]},"properties":{"id":94774,"name":"Leleşti","state_code":"GJ","country_code":"RO"}},{"type":"Feature","geometry":{"type":"Point","coordinates":[23.61667,44.91667]},"properties":{"id":94793,"name":"Licurici","state_code":"GJ","country_code":"RO"}},{"type":"Feature","geometry":{"type":"Point","coordinates":[23.7,44.9]},"properties":{"id":94829,"name":"Logreşti","state_code":"GJ","country_code":"RO"}},{"type":"Feature","geometry":{"type":"Point","coordinates":[23.7048,44.90663]},"properties":{"id":94830,"name":"Logrești Moșteni","state_code":"GJ","country_code":"RO"}},{"type":"Feature","geometry":{"type":"Point","coordinates":[23.08333,44.85]},"properties":{"id":95290,"name":"Mătăsari","state_code":"GJ","country_code":"RO"}},{"type":"Feature","geometry":{"type":"Point","coordinates":[22.97194,44.80333]},"properties":{"id":95078,"name":"Motru","state_code":"GJ","country_code":"RO"}},{"type":"Feature","geometry":{"type":"Point","coordinates":[22.98229,44.81422]},"properties":{"id":95159,"name":"Municipiul Motru","state_code":"GJ","country_code":"RO"}},{"type":"Feature","geometry":{"type":"Point","coordinates":[23.27708,45.05278]},"properties":{"id":95192,"name":"Municipiul Târgu Jiu","state_code":"GJ","country_code":"RO"}},{"type":"Feature","geometry":{"type":"Point","coordinates":[23.46667,45.15]},"properties":{"id":95210,"name":"Muşeteşti","state_code":"GJ","country_code":"RO"}},{"type":"Feature","geometry":{"type":"Point","coordinates":[23.16667,44.83333]},"properties":{"id":95311,"name":"Negomir","state_code":"GJ","country_code":"RO"}},{"type":"Feature","geometry":{"type":"Point","coordinates":[23.66839,45.16462]},"properties":{"id":95357,"name":"Novaci","state_code":"GJ","country_code":"RO"}},{"type":"Feature","geometry":{"type":"Point","coordinates":[23.38185,45.14429]},"properties":{"id":95477,"name":"Oraş Bumbeşti-Jiu","state_code":"GJ","country_code":"RO"}},{"type":"Feature","geometry":{"type":"Point","coordinates":[23.15598,44.93857]},"properties":{"id":95578,"name":"Oraş Rovinari","state_code":"GJ","country_code":"RO"}},{"type":"Feature","geometry":{"type":"Point","coordinates":[23.49567,44.9655]},"properties":{"id":95606,"name":"Oraş Târgu Cãrbuneşti","state_code":"GJ","country_code":"RO"}},{"type":"Feature","geometry":{"type":"Point","coordinates":[23.38921,44.88344]},"properties":{"id":95632,"name":"Oraş Ţicleni","state_code":"GJ","country_code":"RO"}},{"type":"Feature","geometry":{"type":"Point","coordinates":[22.93803,45.04464]},"properties":{"id":95603,"name":"Oraş Tismana","state_code":"GJ","country_code":"RO"}},{"type":"Feature","geometry":{"type":"Point","coordinates":[23.35419,44.71779]},"properties":{"id":95605,"name":"Oraş Turceni","state_code":"GJ","country_code":"RO"}},{"type":"Feature","geometry":{"type":"Point","coordinates":[22.85,45.01667]},"properties":{"id":95693,"name":"Padeş","state_code":"GJ","country_code":"RO"}},{"type":"Feature","geometry":{"type":"Point","coordinates":[23.26974,44.83333]},"properties":{"id":95763,"name":"Peșteana de Jos","state_code":"GJ","country_code":"RO"}},{"type":"Feature","geometry":{"type":"Point","coordinates":[23.30401,44.84695]},"properties":{"id":95762,"name":"Peșteana Jiu","state_code":"GJ","country_code":"RO"}},{"type":"Feature","geometry":{"type":"Point","coordinates":[23.03333,45.06667]},"properties":{"id":95760,"name":"Peştişani","state_code":"GJ","country_code":"RO"}},{"type":"Feature","geometry":{"type":"Point","coordinates":[23.75387,44.85211]},"properties":{"id":95796,"name":"Piscoiu","state_code":"GJ","country_code":"RO"}},{"type":"Feature","geometry":{"type":"Point","coordinates":[23.35,44.78333]},"properties":{"id":95825,"name":"Plopşoru","state_code":"GJ","country_code":"RO"}},{"type":"Feature","geometry":{"type":"Point","coordinates":[22.98791,44.82398]},"properties":{"id":95830,"name":"Ploștina","state_code":"GJ","country_code":"RO"}},{"type":"Feature","geometry":{"type":"Point","coordinates":[23.64392,45.15315]},"properties":{"id":95839,"name":"Pociovaliștea","state_code":"GJ","country_code":"RO"}},{"type":"Feature","geometry":{"type":"Point","coordinates":[22.92495,45.0447]},"properties":{"id":95841,"name":"Pocruia","state_code":"GJ","country_code":"RO"}},{"type":"Feature","geometry":{"type":"Point","coordinates":[23.53148,44.65174]},"properties":{"id":95861,"name":"Poiana","state_code":"GJ","country_code":"RO"}},{"type":"Feature","geometry":{"type":"Point","coordinates":[23.48425,44.99119]},"properties":{"id":95898,"name":"Pojogeni","state_code":"GJ","country_code":"RO"}},{"type":"Feature","geometry":{"type":"Point","coordinates":[23.8,45.18333]},"properties":{"id":95901,"name":"Polovragi","state_code":"GJ","country_code":"RO"}},{"type":"Feature","geometry":{"type":"Point","coordinates":[23.68333,45.06667]},"properties":{"id":95952,"name":"Prigoria","state_code":"GJ","country_code":"RO"}},{"type":"Feature","geometry":{"type":"Point","coordinates":[23.75,45.05]},"properties":{"id":96128,"name":"Roşia de Amaradia","state_code":"GJ","country_code":"RO"}},{"type":"Feature","geometry":{"type":"Point","coordinates":[23.18333,44.91667]},"properties":{"id":96122,"name":"Rovinari","state_code":"GJ","country_code":"RO"}},{"type":"Feature","geometry":{"type":"Point","coordinates":[23.13333,45.11667]},"properties":{"id":96154,"name":"Runcu","state_code":"GJ","country_code":"RO"}},{"type":"Feature","geometry":{"type":"Point","coordinates":[23.53333,45.1]},"properties":{"id":105994,"name":"Săcelu","state_code":"GJ","country_code":"RO"}},{"type":"Feature","geometry":{"type":"Point","coordinates":[23.05,44.75]},"properties":{"id":96238,"name":"Samarineşti","state_code":"GJ","country_code":"RO"}},{"type":"Feature","geometry":{"type":"Point","coordinates":[23.33333,45.13333]},"properties":{"id":96517,"name":"Sâmbotin","state_code":"GJ","country_code":"RO"}},{"type":"Feature","geometry":{"type":"Point","coordinates":[23.48333,44.8]},"properties":{"id":106044,"name":"Săuleşti","state_code":"GJ","country_code":"RO"}},{"type":"Feature","geometry":{"type":"Point","coordinates":[23.45,45.01667]},"properties":{"id":96276,"name":"Scoarţa","state_code":"GJ","country_code":"RO"}},{"type":"Feature","geometry":{"type":"Point","coordinates":[23.13333,44.78333]},"properties":{"id":96367,"name":"Slivileşti","state_code":"GJ","country_code":"RO"}},{"type":"Feature","geometry":{"type":"Point","coordinates":[22.88194,45.05531]},"properties":{"id":96402,"name":"Sohodol","state_code":"GJ","country_code":"RO"}},{"type":"Feature","geometry":{"type":"Point","coordinates":[23.25,45.11667]},"properties":{"id":96478,"name":"Stăneşti","state_code":"GJ","country_code":"RO"}},{"type":"Feature","geometry":{"type":"Point","coordinates":[23.68333,44.76667]},"properties":{"id":96425,"name":"Stejari","state_code":"GJ","country_code":"RO"}},{"type":"Feature","geometry":{"type":"Point","coordinates":[23.43601,44.79058]},"properties":{"id":96430,"name":"Sterpoaia","state_code":"GJ","country_code":"RO"}},{"type":"Feature","geometry":{"type":"Point","coordinates":[23.63333,44.68333]},"properties":{"id":96440,"name":"Stoina","state_code":"GJ","country_code":"RO"}},{"type":"Feature","geometry":{"type":"Point","coordinates":[23.48333,44.6]},"properties":{"id":97111,"name":"Ţânţăreni","state_code":"GJ","country_code":"RO"}},{"type":"Feature","geometry":{"type":"Point","coordinates":[23.51667,44.95]},"properties":{"id":96582,"name":"Târgu Cărbuneşti","state_code":"GJ","country_code":"RO"}},{"type":"Feature","geometry":{"type":"Point","coordinates":[23.28333,45.05]},"properties":{"id":96584,"name":"Târgu Jiu","state_code":"GJ","country_code":"RO"}},{"type":"Feature","geometry":{"type":"Point","coordinates":[23.08333,45]},"properties":{"id":106080,"name":"Teleşti","state_code":"GJ","country_code":"RO"}},{"type":"Feature","geometry":{"type":"Point","coordinates":[23.4,44.88333]},"properties":{"id":97104,"name":"Ţicleni","state_code":"GJ","country_code":"RO"}},{"type":"Feature","geometry":{"type":"Point","coordinates":[22.96667,45.05]},"properties":{"id":106107,"name":"Tismana","state_code":"GJ","country_code":"RO"}},{"type":"Feature","geometry":{"type":"Point","coordinates":[23.51667,44.71667]},"properties":{"id":96552,"name":"Turburea","state_code":"GJ","country_code":"RO"}},{"type":"Feature","geometry":{"type":"Point","coordinates":[23.36667,44.68333]},"properties":{"id":96553,"name":"Turceni","state_code":"GJ","country_code":"RO"}},{"type":"Feature","geometry":{"type":"Point","coordinates":[23.33333,45.1]},"properties":{"id":96555,"name":"Turcineşti","state_code":"GJ","country_code":"RO"}},{"type":"Feature","geometry":{"type":"Point","coordinates":[23.3,44.8]},"properties":{"id":96673,"name":"Urdari","state_code":"GJ","country_code":"RO"}},{"type":"Feature","geometry":{"type":"Point","coordinates":[23.08333,44.71667]},"properties":{"id":96957,"name":"Văgiuleşti","state_code":"GJ","country_code":"RO"}},{"type":"Feature","geometry":{"type":"Point","coordinates":[23.08004,45.11263]},"properties":{"id":96737,"name":"Valea Mare","state_code":"GJ","country_code":"RO"}},{"type":"Feature","geometry":{"type":"Point","coordinates":[23.5312,44.87875]},"properties":{"id":96812,"name":"Vierșani","state_code":"GJ","country_code":"RO"}},{"type":"Feature","geometry":{"type":"Point","coordinates":[23.23727,44.88857]},"properties":{"id":96869,"name":"Vlăduleni","state_code":"GJ","country_code":"RO"}},{"type":"Feature","geometry":{"type":"Point","coordinates":[23.42145,45.08746]},"properties":{"id":96884,"name":"Voiteștii din Vale","state_code":"GJ","country_code":"RO"}}]}