{"type":"FeatureCollection","features":[{"type":"Feature","geometry":{"type":"Point","coordinates":[24.53895,44.25693]},"properties":{"id":89933,"name":"Alimănești","state_code":"OT","country_code":"RO"}},{"type":"Feature","geometry":{"type":"Point","coordinates":[24.55,44.71667]},"properties":{"id":89942,"name":"Alunișu","state_code":"OT","country_code":"RO"}},{"type":"Feature","geometry":{"type":"Point","coordinates":[24.56667,44.03333]},"properties":{"id":90472,"name":"Băbiciu","state_code":"OT","country_code":"RO"}},{"type":"Feature","geometry":{"type":"Point","coordinates":[24.63759,44.39824]},"properties":{"id":90021,"name":"Bacea","state_code":"OT","country_code":"RO"}},{"type":"Feature","geometry":{"type":"Point","coordinates":[24.48216,44.2497]},"properties":{"id":90524,"name":"Bălănești","state_code":"OT","country_code":"RO"}},{"type":"Feature","geometry":{"type":"Point","coordinates":[24.05,44.38333]},"properties":{"id":90041,"name":"Baldovineşti","state_code":"OT","country_code":"RO"}},{"type":"Feature","geometry":{"type":"Point","coordinates":[24.1,44.35]},"properties":{"id":90050,"name":"Balş","state_code":"OT","country_code":"RO"}},{"type":"Feature","geometry":{"type":"Point","coordinates":[24.5364373,44.4475543]},"properties":{"id":90515,"name":"Bălteni","state_code":"OT","country_code":"RO"}},{"type":"Feature","geometry":{"type":"Point","coordinates":[24.65919,44.71601]},"properties":{"id":90549,"name":"Bărăștii de Vede","state_code":"OT","country_code":"RO"}},{"type":"Feature","geometry":{"type":"Point","coordinates":[24.78333,44.33333]},"properties":{"id":90065,"name":"Barza","state_code":"OT","country_code":"RO"}},{"type":"Feature","geometry":{"type":"Point","coordinates":[24.60324,44.51673]},"properties":{"id":90140,"name":"Bircii","state_code":"OT","country_code":"RO"}},{"type":"Feature","geometry":{"type":"Point","coordinates":[24.15,44.38333]},"properties":{"id":90168,"name":"Bobiceşti","state_code":"OT","country_code":"RO"}},{"type":"Feature","geometry":{"type":"Point","coordinates":[24.3,44.31667]},"properties":{"id":90320,"name":"Brâncoveni","state_code":"OT","country_code":"RO"}},{"type":"Feature","geometry":{"type":"Point","coordinates":[24.17792,44.32576]},"properties":{"id":90267,"name":"Braneț","state_code":"OT","country_code":"RO"}},{"type":"Feature","geometry":{"type":"Point","coordinates":[24.40784,43.90634]},"properties":{"id":90273,"name":"Brastavățu","state_code":"OT","country_code":"RO"}},{"type":"Feature","geometry":{"type":"Point","coordinates":[24.45,44.36667]},"properties":{"id":90291,"name":"Brebeni","state_code":"OT","country_code":"RO"}},{"type":"Feature","geometry":{"type":"Point","coordinates":[24.25,43.95]},"properties":{"id":90349,"name":"Bucinişu","state_code":"OT","country_code":"RO"}},{"type":"Feature","geometry":{"type":"Point","coordinates":[24.80238,44.11166]},"properties":{"id":90437,"name":"Bușca","state_code":"OT","country_code":"RO"}},{"type":"Feature","geometry":{"type":"Point","coordinates":[24.68796,44.07727]},"properties":{"id":93841,"name":"Călinești","state_code":"OT","country_code":"RO"}},{"type":"Feature","geometry":{"type":"Point","coordinates":[24.0636,44.45297]},"properties":{"id":93847,"name":"Călui","state_code":"OT","country_code":"RO"}},{"type":"Feature","geometry":{"type":"Point","coordinates":[24.35,44.11667]},"properties":{"id":90572,"name":"Caracal","state_code":"OT","country_code":"RO"}},{"type":"Feature","geometry":{"type":"Point","coordinates":[24.15,44.51667]},"properties":{"id":93816,"name":"Cârlogani","state_code":"OT","country_code":"RO"}},{"type":"Feature","geometry":{"type":"Point","coordinates":[24.56145,44.38199]},"properties":{"id":90590,"name":"Catanele","state_code":"OT","country_code":"RO"}},{"type":"Feature","geometry":{"type":"Point","coordinates":[24.17122,44.49733]},"properties":{"id":90616,"name":"Cepari","state_code":"OT","country_code":"RO"}},{"type":"Feature","geometry":{"type":"Point","coordinates":[24.26667,44.18333]},"properties":{"id":90651,"name":"Cezieni","state_code":"OT","country_code":"RO"}},{"type":"Feature","geometry":{"type":"Point","coordinates":[24.61667,43.9]},"properties":{"id":90702,"name":"Cilieni","state_code":"OT","country_code":"RO"}},{"type":"Feature","geometry":{"type":"Point","coordinates":[24.66667,44.65]},"properties":{"id":90798,"name":"Coloneşti","state_code":"OT","country_code":"RO"}},{"type":"Feature","geometry":{"type":"Point","coordinates":[24.35863,44.0779]},"properties":{"id":90807,"name":"Comanca","state_code":"OT","country_code":"RO"}},{"type":"Feature","geometry":{"type":"Point","coordinates":[24.4916,44.18286]},"properties":{"id":90810,"name":"Comani","state_code":"OT","country_code":"RO"}},{"type":"Feature","geometry":{"type":"Point","coordinates":[24.56533,44.0323]},"properties":{"id":91201,"name":"Comuna Băbiciu","state_code":"OT","country_code":"RO"}},{"type":"Feature","geometry":{"type":"Point","coordinates":[24.03898,44.39195]},"properties":{"id":90925,"name":"Comuna Baldovineşti","state_code":"OT","country_code":"RO"}},{"type":"Feature","geometry":{"type":"Point","coordinates":[24.6447,44.70852]},"properties":{"id":91198,"name":"Comuna Bãrãşti","state_code":"OT","country_code":"RO"}},{"type":"Feature","geometry":{"type":"Point","coordinates":[24.1599,44.32693]},"properties":{"id":91196,"name":"Comuna Bârza","state_code":"OT","country_code":"RO"}},{"type":"Feature","geometry":{"type":"Point","coordinates":[24.14215,44.39321]},"properties":{"id":91011,"name":"Comuna Bobiceşti","state_code":"OT","country_code":"RO"}},{"type":"Feature","geometry":{"type":"Point","coordinates":[24.32941,44.31488]},"properties":{"id":91110,"name":"Comuna Brâncoveni","state_code":"OT","country_code":"RO"}},{"type":"Feature","geometry":{"type":"Point","coordinates":[24.41135,43.91553]},"properties":{"id":91081,"name":"Comuna Brastavăţu","state_code":"OT","country_code":"RO"}},{"type":"Feature","geometry":{"type":"Point","coordinates":[24.4436,44.35956]},"properties":{"id":91091,"name":"Comuna Brebeni","state_code":"OT","country_code":"RO"}},{"type":"Feature","geometry":{"type":"Point","coordinates":[24.25463,43.94202]},"properties":{"id":91128,"name":"Comuna Bucinişu","state_code":"OT","country_code":"RO"}},{"type":"Feature","geometry":{"type":"Point","coordinates":[24.04953,44.456]},"properties":{"id":91562,"name":"Comuna Cãlui","state_code":"OT","country_code":"RO"}},{"type":"Feature","geometry":{"type":"Point","coordinates":[24.16007,44.5199]},"properties":{"id":91553,"name":"Comuna Cârlogani","state_code":"OT","country_code":"RO"}},{"type":"Feature","geometry":{"type":"Point","coordinates":[24.26846,44.18245]},"properties":{"id":91307,"name":"Comuna Cezieni","state_code":"OT","country_code":"RO"}},{"type":"Feature","geometry":{"type":"Point","coordinates":[24.6147,43.90206]},"properties":{"id":91337,"name":"Comuna Cilieni","state_code":"OT","country_code":"RO"}},{"type":"Feature","geometry":{"type":"Point","coordinates":[24.67666,44.62345]},"properties":{"id":91399,"name":"Comuna Coloneşti","state_code":"OT","country_code":"RO"}},{"type":"Feature","geometry":{"type":"Point","coordinates":[24.71639,44.45514]},"properties":{"id":91428,"name":"Comuna Corbu","state_code":"OT","country_code":"RO"}},{"type":"Feature","geometry":{"type":"Point","coordinates":[24.46638,44.30133]},"properties":{"id":91463,"name":"Comuna Coteana","state_code":"OT","country_code":"RO"}},{"type":"Feature","geometry":{"type":"Point","coordinates":[24.72742,44.30513]},"properties":{"id":91512,"name":"Comuna Crâmpoia","state_code":"OT","country_code":"RO"}},{"type":"Feature","geometry":{"type":"Point","coordinates":[24.39274,44.68497]},"properties":{"id":91525,"name":"Comuna Cungrea","state_code":"OT","country_code":"RO"}},{"type":"Feature","geometry":{"type":"Point","coordinates":[24.34214,44.48175]},"properties":{"id":91530,"name":"Comuna Curtişoara","state_code":"OT","country_code":"RO"}},{"type":"Feature","geometry":{"type":"Point","coordinates":[24.56597,44.1139]},"properties":{"id":91737,"name":"Comuna Dăneasa","state_code":"OT","country_code":"RO"}},{"type":"Feature","geometry":{"type":"Point","coordinates":[24.37351,44.06569]},"properties":{"id":91620,"name":"Comuna Deveselu","state_code":"OT","country_code":"RO"}},{"type":"Feature","geometry":{"type":"Point","coordinates":[23.95302,44.49164]},"properties":{"id":91638,"name":"Comuna Dobreţu","state_code":"OT","country_code":"RO"}},{"type":"Feature","geometry":{"type":"Point","coordinates":[24.36558,44.17356]},"properties":{"id":91640,"name":"Comuna Dobrosloveni","state_code":"OT","country_code":"RO"}},{"type":"Feature","geometry":{"type":"Point","coordinates":[24.3281,44.77107]},"properties":{"id":91641,"name":"Comuna Dobroteasa","state_code":"OT","country_code":"RO"}},{"type":"Feature","geometry":{"type":"Point","coordinates":[24.23299,44.25323]},"properties":{"id":91645,"name":"Comuna Dobrun","state_code":"OT","country_code":"RO"}},{"type":"Feature","geometry":{"type":"Point","coordinates":[24.25611,44.12694]},"properties":{"id":91688,"name":"Comuna Drăghiceni","state_code":"OT","country_code":"RO"}},{"type":"Feature","geometry":{"type":"Point","coordinates":[24.54421,44.78429]},"properties":{"id":91819,"name":"Comuna Făgeţelu","state_code":"OT","country_code":"RO"}},{"type":"Feature","geometry":{"type":"Point","coordinates":[24.37601,44.23774]},"properties":{"id":91821,"name":"Comuna Fălcoiu","state_code":"OT","country_code":"RO"}},{"type":"Feature","geometry":{"type":"Point","coordinates":[24.43283,44.15057]},"properties":{"id":91824,"name":"Comuna Fărcaşele","state_code":"OT","country_code":"RO"}},{"type":"Feature","geometry":{"type":"Point","coordinates":[24.26774,44.42129]},"properties":{"id":91986,"name":"Comuna Găneasa","state_code":"OT","country_code":"RO"}},{"type":"Feature","geometry":{"type":"Point","coordinates":[24.62709,43.77342]},"properties":{"id":91970,"name":"Comuna Gârcov","state_code":"OT","country_code":"RO"}},{"type":"Feature","geometry":{"type":"Point","coordinates":[24.00867,44.41403]},"properties":{"id":91988,"name":"Comuna Găvăneşti","state_code":"OT","country_code":"RO"}},{"type":"Feature","geometry":{"type":"Point","coordinates":[24.78303,44.29002]},"properties":{"id":91857,"name":"Comuna Ghimpeţeni","state_code":"OT","country_code":"RO"}},{"type":"Feature","geometry":{"type":"Point","coordinates":[24.68729,43.79412]},"properties":{"id":91878,"name":"Comuna Giuvărăşti","state_code":"OT","country_code":"RO"}},{"type":"Feature","geometry":{"type":"Point","coordinates":[24.53283,44.08028]},"properties":{"id":91906,"name":"Comuna Gostavăţu","state_code":"OT","country_code":"RO"}},{"type":"Feature","geometry":{"type":"Point","coordinates":[24.27761,44.56736]},"properties":{"id":91933,"name":"Comuna Grãdinari","state_code":"OT","country_code":"RO"}},{"type":"Feature","geometry":{"type":"Point","coordinates":[24.39228,43.94973]},"properties":{"id":91934,"name":"Comuna Grãdinile","state_code":"OT","country_code":"RO"}},{"type":"Feature","geometry":{"type":"Point","coordinates":[24.26073,43.75562]},"properties":{"id":91923,"name":"Comuna Grojdibodu","state_code":"OT","country_code":"RO"}},{"type":"Feature","geometry":{"type":"Point","coordinates":[24.3169,43.76276]},"properties":{"id":91950,"name":"Comuna Gura Padinii","state_code":"OT","country_code":"RO"}},{"type":"Feature","geometry":{"type":"Point","coordinates":[24.19165,43.77472]},"properties":{"id":92053,"name":"Comuna Ianca","state_code":"OT","country_code":"RO"}},{"type":"Feature","geometry":{"type":"Point","coordinates":[24.01257,44.51807]},"properties":{"id":92054,"name":"Comuna Iancu Jianu","state_code":"OT","country_code":"RO"}},{"type":"Feature","geometry":{"type":"Point","coordinates":[24.72551,44.40682]},"properties":{"id":92060,"name":"Comuna Icoana","state_code":"OT","country_code":"RO"}},{"type":"Feature","geometry":{"type":"Point","coordinates":[24.66415,43.82418]},"properties":{"id":92101,"name":"Comuna Izbiceni","state_code":"OT","country_code":"RO"}},{"type":"Feature","geometry":{"type":"Point","coordinates":[24.53144,44.25958]},"properties":{"id":92104,"name":"Comuna Izvoarele","state_code":"OT","country_code":"RO"}},{"type":"Feature","geometry":{"type":"Point","coordinates":[24.43708,44.75768]},"properties":{"id":92145,"name":"Comuna Leleasca","state_code":"OT","country_code":"RO"}},{"type":"Feature","geometry":{"type":"Point","coordinates":[24.46583,44.23679]},"properties":{"id":92415,"name":"Comuna Mărunţei","state_code":"OT","country_code":"RO"}},{"type":"Feature","geometry":{"type":"Point","coordinates":[24.79663,44.1187]},"properties":{"id":92279,"name":"Comuna Mihăeşti","state_code":"OT","country_code":"RO"}},{"type":"Feature","geometry":{"type":"Point","coordinates":[24.38004,44.37396]},"properties":{"id":92289,"name":"Comuna Milcov","state_code":"OT","country_code":"RO"}},{"type":"Feature","geometry":{"type":"Point","coordinates":[24.11686,44.47266]},"properties":{"id":92334,"name":"Comuna Morunglav","state_code":"OT","country_code":"RO"}},{"type":"Feature","geometry":{"type":"Point","coordinates":[24.64075,44.38368]},"properties":{"id":92342,"name":"Comuna Movileni","state_code":"OT","country_code":"RO"}},{"type":"Feature","geometry":{"type":"Point","coordinates":[24.75897,44.27008]},"properties":{"id":92443,"name":"Comuna Nicolae Titulescu","state_code":"OT","country_code":"RO"}},{"type":"Feature","geometry":{"type":"Point","coordinates":[24.32188,43.89063]},"properties":{"id":92473,"name":"Comuna Obârşia","state_code":"OT","country_code":"RO"}},{"type":"Feature","geometry":{"type":"Point","coordinates":[24.08724,44.42448]},"properties":{"id":92470,"name":"Comuna Oboga","state_code":"OT","country_code":"RO"}},{"type":"Feature","geometry":{"type":"Point","coordinates":[24.4241,44.58682]},"properties":{"id":92502,"name":"Comuna Oporelu","state_code":"OT","country_code":"RO"}},{"type":"Feature","geometry":{"type":"Point","coordinates":[24.65183,44.57944]},"properties":{"id":92504,"name":"Comuna Optaşi-Mãgura","state_code":"OT","country_code":"RO"}},{"type":"Feature","geometry":{"type":"Point","coordinates":[24.36775,43.7543]},"properties":{"id":92509,"name":"Comuna Orlea","state_code":"OT","country_code":"RO"}},{"type":"Feature","geometry":{"type":"Point","coordinates":[24.29502,44.238]},"properties":{"id":92515,"name":"Comuna Osica de Jos","state_code":"OT","country_code":"RO"}},{"type":"Feature","geometry":{"type":"Point","coordinates":[24.3373,44.27268]},"properties":{"id":92516,"name":"Comuna Osica de Sus","state_code":"OT","country_code":"RO"}},{"type":"Feature","geometry":{"type":"Point","coordinates":[24.21836,44.29678]},"properties":{"id":92709,"name":"Comuna Pârşcoveni","state_code":"OT","country_code":"RO"}},{"type":"Feature","geometry":{"type":"Point","coordinates":[24.55611,44.40468]},"properties":{"id":92552,"name":"Comuna Perieţi","state_code":"OT","country_code":"RO"}},{"type":"Feature","geometry":{"type":"Point","coordinates":[24.24212,44.48165]},"properties":{"id":92595,"name":"Comuna Pleşoiu","state_code":"OT","country_code":"RO"}},{"type":"Feature","geometry":{"type":"Point","coordinates":[24.48678,44.68335]},"properties":{"id":92608,"name":"Comuna Poboru","state_code":"OT","country_code":"RO"}},{"type":"Feature","geometry":{"type":"Point","coordinates":[24.43787,44.51206]},"properties":{"id":92677,"name":"Comuna Priseaca","state_code":"OT","country_code":"RO"}},{"type":"Feature","geometry":{"type":"Point","coordinates":[24.67816,44.11049]},"properties":{"id":92742,"name":"Comuna Radomireşti","state_code":"OT","country_code":"RO"}},{"type":"Feature","geometry":{"type":"Point","coordinates":[24.30677,44.04157]},"properties":{"id":92758,"name":"Comuna Redea","state_code":"OT","country_code":"RO"}},{"type":"Feature","geometry":{"type":"Point","coordinates":[24.31402,43.98427]},"properties":{"id":92792,"name":"Comuna Rotunda","state_code":"OT","country_code":"RO"}},{"type":"Feature","geometry":{"type":"Point","coordinates":[24.59498,43.94385]},"properties":{"id":92816,"name":"Comuna Rusăneşti","state_code":"OT","country_code":"RO"}},{"type":"Feature","geometry":{"type":"Point","coordinates":[24.39922,44.81131]},"properties":{"id":93045,"name":"Comuna Sâmbureşti","state_code":"OT","country_code":"RO"}},{"type":"Feature","geometry":{"type":"Point","coordinates":[24.58333,43.98528]},"properties":{"id":92906,"name":"Comuna Scărişoara","state_code":"OT","country_code":"RO"}},{"type":"Feature","geometry":{"type":"Point","coordinates":[24.55926,44.35679]},"properties":{"id":92887,"name":"Comuna Schitu","state_code":"OT","country_code":"RO"}},{"type":"Feature","geometry":{"type":"Point","coordinates":[24.76149,44.15159]},"properties":{"id":92907,"name":"Comuna Seaca","state_code":"OT","country_code":"RO"}},{"type":"Feature","geometry":{"type":"Point","coordinates":[24.68782,44.33607]},"properties":{"id":93509,"name":"Comuna Şerbăneşti","state_code":"OT","country_code":"RO"}},{"type":"Feature","geometry":{"type":"Point","coordinates":[24.32082,44.41545]},"properties":{"id":92961,"name":"Comuna Slătioara","state_code":"OT","country_code":"RO"}},{"type":"Feature","geometry":{"type":"Point","coordinates":[24.27743,44.27705]},"properties":{"id":93542,"name":"Comuna Şopârliţa","state_code":"OT","country_code":"RO"}},{"type":"Feature","geometry":{"type":"Point","coordinates":[24.55897,44.71808]},"properties":{"id":92982,"name":"Comuna Spineni","state_code":"OT","country_code":"RO"}},{"type":"Feature","geometry":{"type":"Point","coordinates":[24.63984,44.0611]},"properties":{"id":92984,"name":"Comuna Sprâncenata","state_code":"OT","country_code":"RO"}},{"type":"Feature","geometry":{"type":"Point","coordinates":[24.22262,43.81174]},"properties":{"id":93549,"name":"Comuna Ştefan cel Mare","state_code":"OT","country_code":"RO"}},{"type":"Feature","geometry":{"type":"Point","coordinates":[24.4972,44.11675]},"properties":{"id":92991,"name":"Comuna Stoeneşti","state_code":"OT","country_code":"RO"}},{"type":"Feature","geometry":{"type":"Point","coordinates":[24.64267,44.18568]},"properties":{"id":92995,"name":"Comuna Stoicăneşti","state_code":"OT","country_code":"RO"}},{"type":"Feature","geometry":{"type":"Point","coordinates":[24.27036,44.52733]},"properties":{"id":93002,"name":"Comuna Strejeşti","state_code":"OT","country_code":"RO"}},{"type":"Feature","geometry":{"type":"Point","coordinates":[24.42136,43.96784]},"properties":{"id":93010,"name":"Comuna Studina","state_code":"OT","country_code":"RO"}},{"type":"Feature","geometry":{"type":"Point","coordinates":[24.61405,44.66386]},"properties":{"id":93243,"name":"Comuna Tătuleşti","state_code":"OT","country_code":"RO"}},{"type":"Feature","geometry":{"type":"Point","coordinates":[24.356,44.51316]},"properties":{"id":93144,"name":"Comuna Teslui","state_code":"OT","country_code":"RO"}},{"type":"Feature","geometry":{"type":"Point","coordinates":[24.63883,43.86417]},"properties":{"id":93147,"name":"Comuna Tia Mare","state_code":"OT","country_code":"RO"}},{"type":"Feature","geometry":{"type":"Point","coordinates":[24.52827,44.84319]},"properties":{"id":93174,"name":"Comuna Topana","state_code":"OT","country_code":"RO"}},{"type":"Feature","geometry":{"type":"Point","coordinates":[24.45586,44.02337]},"properties":{"id":93186,"name":"Comuna Traian","state_code":"OT","country_code":"RO"}},{"type":"Feature","geometry":{"type":"Point","coordinates":[24.78986,44.34718]},"properties":{"id":93201,"name":"Comuna Tufeni","state_code":"OT","country_code":"RO"}},{"type":"Feature","geometry":{"type":"Point","coordinates":[24.27497,43.86055]},"properties":{"id":93285,"name":"Comuna Urzica","state_code":"OT","country_code":"RO"}},{"type":"Feature","geometry":{"type":"Point","coordinates":[24.38069,43.86497]},"properties":{"id":93453,"name":"Comuna Vădastra","state_code":"OT","country_code":"RO"}},{"type":"Feature","geometry":{"type":"Point","coordinates":[24.34017,43.84531]},"properties":{"id":93455,"name":"Comuna Vădăstriţa","state_code":"OT","country_code":"RO"}},{"type":"Feature","geometry":{"type":"Point","coordinates":[24.54968,44.28923]},"properties":{"id":93427,"name":"Comuna Vâlcele","state_code":"OT","country_code":"RO"}},{"type":"Feature","geometry":{"type":"Point","coordinates":[24.4612,44.44188]},"properties":{"id":93312,"name":"Comuna Valea Mare","state_code":"OT","country_code":"RO"}},{"type":"Feature","geometry":{"type":"Point","coordinates":[24.79748,44.21882]},"properties":{"id":93459,"name":"Comuna Văleni","state_code":"OT","country_code":"RO"}},{"type":"Feature","geometry":{"type":"Point","coordinates":[24.34234,44.64128]},"properties":{"id":93344,"name":"Comuna Verguleasa","state_code":"OT","country_code":"RO"}},{"type":"Feature","geometry":{"type":"Point","coordinates":[24.45469,43.86618]},"properties":{"id":93377,"name":"Comuna Vişina","state_code":"OT","country_code":"RO"}},{"type":"Feature","geometry":{"type":"Point","coordinates":[24.37704,44.85194]},"properties":{"id":93370,"name":"Comuna Vitomireşti","state_code":"OT","country_code":"RO"}},{"type":"Feature","geometry":{"type":"Point","coordinates":[24.40993,44.00114]},"properties":{"id":93392,"name":"Comuna Vlădila","state_code":"OT","country_code":"RO"}},{"type":"Feature","geometry":{"type":"Point","coordinates":[24.15529,44.28949]},"properties":{"id":93396,"name":"Comuna Voineasa","state_code":"OT","country_code":"RO"}},{"type":"Feature","geometry":{"type":"Point","coordinates":[23.92718,44.45854]},"properties":{"id":93415,"name":"Comuna Vulpeni","state_code":"OT","country_code":"RO"}},{"type":"Feature","geometry":{"type":"Point","coordinates":[24.33354,44.72993]},"properties":{"id":93419,"name":"Comuna Vultureşti","state_code":"OT","country_code":"RO"}},{"type":"Feature","geometry":{"type":"Point","coordinates":[24.50146,43.77513]},"properties":{"id":93610,"name":"Corabia","state_code":"OT","country_code":"RO"}},{"type":"Feature","geometry":{"type":"Point","coordinates":[24.71667,44.48333]},"properties":{"id":93617,"name":"Corbu","state_code":"OT","country_code":"RO"}},{"type":"Feature","geometry":{"type":"Point","coordinates":[24.46667,44.3]},"properties":{"id":93672,"name":"Coteana","state_code":"OT","country_code":"RO"}},{"type":"Feature","geometry":{"type":"Point","coordinates":[24.66309,44.14575]},"properties":{"id":93750,"name":"Crăciunei","state_code":"OT","country_code":"RO"}},{"type":"Feature","geometry":{"type":"Point","coordinates":[24.74513,44.30215]},"properties":{"id":93746,"name":"Crâmpoia","state_code":"OT","country_code":"RO"}},{"type":"Feature","geometry":{"type":"Point","coordinates":[24.41486,43.92473]},"properties":{"id":93745,"name":"Crușovu","state_code":"OT","country_code":"RO"}},{"type":"Feature","geometry":{"type":"Point","coordinates":[24.38333,44.66667]},"properties":{"id":93770,"name":"Cungrea","state_code":"OT","country_code":"RO"}},{"type":"Feature","geometry":{"type":"Point","coordinates":[24.33333,44.5]},"properties":{"id":93777,"name":"Curtişoara","state_code":"OT","country_code":"RO"}},{"type":"Feature","geometry":{"type":"Point","coordinates":[24.56667,44.15]},"properties":{"id":94125,"name":"Dăneasa","state_code":"OT","country_code":"RO"}},{"type":"Feature","geometry":{"type":"Point","coordinates":[24.35648,44.83093]},"properties":{"id":93912,"name":"Dejești","state_code":"OT","country_code":"RO"}},{"type":"Feature","geometry":{"type":"Point","coordinates":[24.38333,44.06667]},"properties":{"id":93930,"name":"Deveselu","state_code":"OT","country_code":"RO"}},{"type":"Feature","geometry":{"type":"Point","coordinates":[24.64949,43.8487]},"properties":{"id":93943,"name":"Doanca","state_code":"OT","country_code":"RO"}},{"type":"Feature","geometry":{"type":"Point","coordinates":[23.95,44.5]},"properties":{"id":93956,"name":"Dobreţu","state_code":"OT","country_code":"RO"}},{"type":"Feature","geometry":{"type":"Point","coordinates":[24.36667,44.18333]},"properties":{"id":93963,"name":"Dobrosloveni","state_code":"OT","country_code":"RO"}},{"type":"Feature","geometry":{"type":"Point","coordinates":[24.38333,44.78333]},"properties":{"id":93964,"name":"Dobroteasa","state_code":"OT","country_code":"RO"}},{"type":"Feature","geometry":{"type":"Point","coordinates":[24.3473,44.47957]},"properties":{"id":93967,"name":"Dobrotinet","state_code":"OT","country_code":"RO"}},{"type":"Feature","geometry":{"type":"Point","coordinates":[24.21667,44.26667]},"properties":{"id":93970,"name":"Dobrun","state_code":"OT","country_code":"RO"}},{"type":"Feature","geometry":{"type":"Point","coordinates":[24.53333,44.16667]},"properties":{"id":94061,"name":"Drăgăneşti-Olt","state_code":"OT","country_code":"RO"}},{"type":"Feature","geometry":{"type":"Point","coordinates":[24.25,44.13333]},"properties":{"id":94038,"name":"Drăghiceni","state_code":"OT","country_code":"RO"}},{"type":"Feature","geometry":{"type":"Point","coordinates":[24.27894,44.43619]},"properties":{"id":94028,"name":"Dranovățu","state_code":"OT","country_code":"RO"}},{"type":"Feature","geometry":{"type":"Point","coordinates":[24.31628,44.6837]},"properties":{"id":94098,"name":"Dumitrești","state_code":"OT","country_code":"RO"}},{"type":"Feature","geometry":{"type":"Point","coordinates":[24.53333,44.78333]},"properties":{"id":94255,"name":"Făgeţelu","state_code":"OT","country_code":"RO"}},{"type":"Feature","geometry":{"type":"Point","coordinates":[24.36667,44.23333]},"properties":{"id":94258,"name":"Fălcoiu","state_code":"OT","country_code":"RO"}},{"type":"Feature","geometry":{"type":"Point","coordinates":[24.43333,44.15]},"properties":{"id":94262,"name":"Fărcaşele","state_code":"OT","country_code":"RO"}},{"type":"Feature","geometry":{"type":"Point","coordinates":[24.45901,44.13539]},"properties":{"id":94264,"name":"Fărcașu de Jos","state_code":"OT","country_code":"RO"}},{"type":"Feature","geometry":{"type":"Point","coordinates":[24.28333,44.41667]},"properties":{"id":94509,"name":"Găneasa","state_code":"OT","country_code":"RO"}},{"type":"Feature","geometry":{"type":"Point","coordinates":[24.61577,43.7591]},"properties":{"id":94488,"name":"Gârcov","state_code":"OT","country_code":"RO"}},{"type":"Feature","geometry":{"type":"Point","coordinates":[24.01654,44.41724]},"properties":{"id":94516,"name":"Găvănești","state_code":"OT","country_code":"RO"}},{"type":"Feature","geometry":{"type":"Point","coordinates":[24.42698,44.15359]},"properties":{"id":94324,"name":"Ghimpați","state_code":"OT","country_code":"RO"}},{"type":"Feature","geometry":{"type":"Point","coordinates":[24.77458,44.28101]},"properties":{"id":94326,"name":"Ghimpețeni","state_code":"OT","country_code":"RO"}},{"type":"Feature","geometry":{"type":"Point","coordinates":[24.73333,44.31667]},"properties":{"id":94331,"name":"Ghioca","state_code":"OT","country_code":"RO"}},{"type":"Feature","geometry":{"type":"Point","coordinates":[24.7,43.8]},"properties":{"id":94356,"name":"Giuvărăşti","state_code":"OT","country_code":"RO"}},{"type":"Feature","geometry":{"type":"Point","coordinates":[24.53333,44.08333]},"properties":{"id":94392,"name":"Gostavăţu","state_code":"OT","country_code":"RO"}},{"type":"Feature","geometry":{"type":"Point","coordinates":[24.26667,44.56667]},"properties":{"id":94434,"name":"Grădinari","state_code":"OT","country_code":"RO"}},{"type":"Feature","geometry":{"type":"Point","coordinates":[24.55923,44.33025]},"properties":{"id":94410,"name":"Greci","state_code":"OT","country_code":"RO"}},{"type":"Feature","geometry":{"type":"Point","coordinates":[24.26667,43.75]},"properties":{"id":94418,"name":"Grojdibodu","state_code":"OT","country_code":"RO"}},{"type":"Feature","geometry":{"type":"Point","coordinates":[23.97047,44.44072]},"properties":{"id":94421,"name":"Gropșani","state_code":"OT","country_code":"RO"}},{"type":"Feature","geometry":{"type":"Point","coordinates":[24.03547,44.45903]},"properties":{"id":94452,"name":"Gura Căluiu","state_code":"OT","country_code":"RO"}},{"type":"Feature","geometry":{"type":"Point","coordinates":[24.31615,43.75704]},"properties":{"id":94457,"name":"Gura Padinii","state_code":"OT","country_code":"RO"}},{"type":"Feature","geometry":{"type":"Point","coordinates":[24.18333,43.78333]},"properties":{"id":94619,"name":"Ianca","state_code":"OT","country_code":"RO"}},{"type":"Feature","geometry":{"type":"Point","coordinates":[24.03333,44.5]},"properties":{"id":94621,"name":"Iancu Jianu","state_code":"OT","country_code":"RO"}},{"type":"Feature","geometry":{"type":"Point","coordinates":[24.71667,44.41667]},"properties":{"id":94635,"name":"Icoana","state_code":"OT","country_code":"RO"}},{"type":"Feature","geometry":{"type":"Point","coordinates":[24.3984153,44.3156042]},"properties":{"id":94685,"name":"Ipotești","state_code":"OT","country_code":"RO"}},{"type":"Feature","geometry":{"type":"Point","coordinates":[24.65,43.83333]},"properties":{"id":94699,"name":"Izbiceni","state_code":"OT","country_code":"RO"}},{"type":"Feature","geometry":{"type":"Point","coordinates":[24.51667,44.26667]},"properties":{"id":94704,"name":"Izvoarele","state_code":"OT","country_code":"RO"}},{"type":"Feature","geometry":{"type":"Point","coordinates":[24.59349,43.95095]},"properties":{"id":94734,"name":"Jieni","state_code":"OT","country_code":"RO"}},{"type":"Feature","geometry":{"type":"Point","coordinates":[24.43333,44.78333]},"properties":{"id":94772,"name":"Leleasca","state_code":"OT","country_code":"RO"}},{"type":"Feature","geometry":{"type":"Point","coordinates":[24.55675,44.53121]},"properties":{"id":95270,"name":"Mărgineni Slobozia","state_code":"OT","country_code":"RO"}},{"type":"Feature","geometry":{"type":"Point","coordinates":[24.46667,44.2]},"properties":{"id":95282,"name":"Mărunţei","state_code":"OT","country_code":"RO"}},{"type":"Feature","geometry":{"type":"Point","coordinates":[24.78333,44.13333]},"properties":{"id":94989,"name":"Mihăeşti","state_code":"OT","country_code":"RO"}},{"type":"Feature","geometry":{"type":"Point","coordinates":[24.11667,44.46667]},"properties":{"id":95074,"name":"Morunglav","state_code":"OT","country_code":"RO"}},{"type":"Feature","geometry":{"type":"Point","coordinates":[24.65,44.36667]},"properties":{"id":95082,"name":"Movileni","state_code":"OT","country_code":"RO"}},{"type":"Feature","geometry":{"type":"Point","coordinates":[24.35089,44.11273]},"properties":{"id":95123,"name":"Municipiul Caracal","state_code":"OT","country_code":"RO"}},{"type":"Feature","geometry":{"type":"Point","coordinates":[24.36745,44.44276]},"properties":{"id":95183,"name":"Municipiul Slatina","state_code":"OT","country_code":"RO"}},{"type":"Feature","geometry":{"type":"Point","coordinates":[24.59535,44.56848]},"properties":{"id":95315,"name":"Negreni","state_code":"OT","country_code":"RO"}},{"type":"Feature","geometry":{"type":"Point","coordinates":[24.8,44.3]},"properties":{"id":95339,"name":"Nicolae Titulescu","state_code":"OT","country_code":"RO"}},{"type":"Feature","geometry":{"type":"Point","coordinates":[24.33333,43.88333]},"properties":{"id":95389,"name":"Obârşia","state_code":"OT","country_code":"RO"}},{"type":"Feature","geometry":{"type":"Point","coordinates":[24.1,44.41667]},"properties":{"id":95386,"name":"Oboga","state_code":"OT","country_code":"RO"}},{"type":"Feature","geometry":{"type":"Point","coordinates":[24.20857,44.30783]},"properties":{"id":95425,"name":"Olari","state_code":"OT","country_code":"RO"}},{"type":"Feature","geometry":{"type":"Point","coordinates":[24.41667,44.6]},"properties":{"id":95442,"name":"Oporelu","state_code":"OT","country_code":"RO"}},{"type":"Feature","geometry":{"type":"Point","coordinates":[24.65,44.58333]},"properties":{"id":95444,"name":"Optaşi","state_code":"OT","country_code":"RO"}},{"type":"Feature","geometry":{"type":"Point","coordinates":[24.11321,44.36546]},"properties":{"id":95457,"name":"Oraş Balş","state_code":"OT","country_code":"RO"}},{"type":"Feature","geometry":{"type":"Point","coordinates":[24.47028,43.80248]},"properties":{"id":95498,"name":"Oraş Corabia","state_code":"OT","country_code":"RO"}},{"type":"Feature","geometry":{"type":"Point","coordinates":[24.50836,44.17618]},"properties":{"id":95510,"name":"Oraş Drãgãneşti-Olt","state_code":"OT","country_code":"RO"}},{"type":"Feature","geometry":{"type":"Point","coordinates":[24.28332,44.3756]},"properties":{"id":95567,"name":"Oraş Piatra-Olt","state_code":"OT","country_code":"RO"}},{"type":"Feature","geometry":{"type":"Point","coordinates":[24.64172,44.47992]},"properties":{"id":95572,"name":"Oraş Potcoava","state_code":"OT","country_code":"RO"}},{"type":"Feature","geometry":{"type":"Point","coordinates":[24.55394,44.5679]},"properties":{"id":95584,"name":"Oraş Scorniceşti","state_code":"OT","country_code":"RO"}},{"type":"Feature","geometry":{"type":"Point","coordinates":[24.38333,43.75]},"properties":{"id":95659,"name":"Orlea","state_code":"OT","country_code":"RO"}},{"type":"Feature","geometry":{"type":"Point","coordinates":[24.35834,43.75522]},"properties":{"id":95660,"name":"Orlea Nouă","state_code":"OT","country_code":"RO"}},{"type":"Feature","geometry":{"type":"Point","coordinates":[24.27926,44.24439]},"properties":{"id":95672,"name":"Osica de Jos","state_code":"OT","country_code":"RO"}},{"type":"Feature","geometry":{"type":"Point","coordinates":[24.31667,44.25]},"properties":{"id":95673,"name":"Osica de Sus","state_code":"OT","country_code":"RO"}},{"type":"Feature","geometry":{"type":"Point","coordinates":[24.23333,44.3]},"properties":{"id":96003,"name":"Pârşcoveni","state_code":"OT","country_code":"RO"}},{"type":"Feature","geometry":{"type":"Point","coordinates":[24.55,44.4]},"properties":{"id":95733,"name":"Perieţi","state_code":"OT","country_code":"RO"}},{"type":"Feature","geometry":{"type":"Point","coordinates":[24.29557,44.36054]},"properties":{"id":95768,"name":"Piatra","state_code":"OT","country_code":"RO"}},{"type":"Feature","geometry":{"type":"Point","coordinates":[24.26667,44.36667]},"properties":{"id":95772,"name":"Piatra Olt","state_code":"OT","country_code":"RO"}},{"type":"Feature","geometry":{"type":"Point","coordinates":[24.26667,44.46667]},"properties":{"id":95812,"name":"Pleşoiu","state_code":"OT","country_code":"RO"}},{"type":"Feature","geometry":{"type":"Point","coordinates":[24.5,44.66667]},"properties":{"id":95837,"name":"Poboru","state_code":"OT","country_code":"RO"}},{"type":"Feature","geometry":{"type":"Point","coordinates":[24.65,44.48333]},"properties":{"id":95928,"name":"Potcoava","state_code":"OT","country_code":"RO"}},{"type":"Feature","geometry":{"type":"Point","coordinates":[24.6165,44.49484]},"properties":{"id":95929,"name":"Potcoava Fălcoeni","state_code":"OT","country_code":"RO"}},{"type":"Feature","geometry":{"type":"Point","coordinates":[24.20535,43.76577]},"properties":{"id":95930,"name":"Potelu","state_code":"OT","country_code":"RO"}},{"type":"Feature","geometry":{"type":"Point","coordinates":[24.63092,43.87995]},"properties":{"id":95932,"name":"Potlogeni","state_code":"OT","country_code":"RO"}},{"type":"Feature","geometry":{"type":"Point","coordinates":[24.45,44.51667]},"properties":{"id":95954,"name":"Priseaca","state_code":"OT","country_code":"RO"}},{"type":"Feature","geometry":{"type":"Point","coordinates":[24.68333,44.11667]},"properties":{"id":96053,"name":"Radomireşti","state_code":"OT","country_code":"RO"}},{"type":"Feature","geometry":{"type":"Point","coordinates":[24.3,44.05]},"properties":{"id":96074,"name":"Redea","state_code":"OT","country_code":"RO"}},{"type":"Feature","geometry":{"type":"Point","coordinates":[24.31667,43.98333]},"properties":{"id":96121,"name":"Rotunda","state_code":"OT","country_code":"RO"}},{"type":"Feature","geometry":{"type":"Point","coordinates":[24.6,43.93333]},"properties":{"id":96162,"name":"Rusăneşti","state_code":"OT","country_code":"RO"}},{"type":"Feature","geometry":{"type":"Point","coordinates":[24.41667,44.8]},"properties":{"id":96518,"name":"Sâmbureşti","state_code":"OT","country_code":"RO"}},{"type":"Feature","geometry":{"type":"Point","coordinates":[24.56667,44]},"properties":{"id":96297,"name":"Scărişoara","state_code":"OT","country_code":"RO"}},{"type":"Feature","geometry":{"type":"Point","coordinates":[24.56667,44.35]},"properties":{"id":96269,"name":"Schitu","state_code":"OT","country_code":"RO"}},{"type":"Feature","geometry":{"type":"Point","coordinates":[24.55,44.56667]},"properties":{"id":96278,"name":"Scorniceşti","state_code":"OT","country_code":"RO"}},{"type":"Feature","geometry":{"type":"Point","coordinates":[24.75,44.16667]},"properties":{"id":96298,"name":"Seaca","state_code":"OT","country_code":"RO"}},{"type":"Feature","geometry":{"type":"Point","coordinates":[24.7,44.33333]},"properties":{"id":97039,"name":"Şerbăneşti","state_code":"OT","country_code":"RO"}},{"type":"Feature","geometry":{"type":"Point","coordinates":[24.66585,44.46777]},"properties":{"id":96354,"name":"Sinești","state_code":"OT","country_code":"RO"}},{"type":"Feature","geometry":{"type":"Point","coordinates":[24.36667,44.43333]},"properties":{"id":96361,"name":"Slatina","state_code":"OT","country_code":"RO"}},{"type":"Feature","geometry":{"type":"Point","coordinates":[24.31667,44.4]},"properties":{"id":96384,"name":"Slătioara","state_code":"OT","country_code":"RO"}},{"type":"Feature","geometry":{"type":"Point","coordinates":[24.52843,44.08558]},"properties":{"id":96385,"name":"Slăveni","state_code":"OT","country_code":"RO"}},{"type":"Feature","geometry":{"type":"Point","coordinates":[24.28333,44.28333]},"properties":{"id":97072,"name":"Şopârliţa","state_code":"OT","country_code":"RO"}},{"type":"Feature","geometry":{"type":"Point","coordinates":[24.63333,44.08333]},"properties":{"id":96418,"name":"Sprâncenata","state_code":"OT","country_code":"RO"}},{"type":"Feature","geometry":{"type":"Point","coordinates":[24.25902,43.86445]},"properties":{"id":96484,"name":"Stăvaru","state_code":"OT","country_code":"RO"}},{"type":"Feature","geometry":{"type":"Point","coordinates":[24.22039,43.81124]},"properties":{"id":97079,"name":"Ştefan cel Mare","state_code":"OT","country_code":"RO"}},{"type":"Feature","geometry":{"type":"Point","coordinates":[24.5,44.11667]},"properties":{"id":96432,"name":"Stoeneşti","state_code":"OT","country_code":"RO"}},{"type":"Feature","geometry":{"type":"Point","coordinates":[24.63333,44.18333]},"properties":{"id":96438,"name":"Stoicăneşti","state_code":"OT","country_code":"RO"}},{"type":"Feature","geometry":{"type":"Point","coordinates":[24.26667,44.53333]},"properties":{"id":96450,"name":"Strejeşti","state_code":"OT","country_code":"RO"}},{"type":"Feature","geometry":{"type":"Point","coordinates":[24.22772,44.54389]},"properties":{"id":96451,"name":"Strejeștii de Sus","state_code":"OT","country_code":"RO"}},{"type":"Feature","geometry":{"type":"Point","coordinates":[24.41667,43.96667]},"properties":{"id":96465,"name":"Studina","state_code":"OT","country_code":"RO"}},{"type":"Feature","geometry":{"type":"Point","coordinates":[24.42668,43.97691]},"properties":{"id":96466,"name":"Studinița","state_code":"OT","country_code":"RO"}},{"type":"Feature","geometry":{"type":"Point","coordinates":[24.63333,44.63333]},"properties":{"id":96616,"name":"Tătuleşti","state_code":"OT","country_code":"RO"}},{"type":"Feature","geometry":{"type":"Point","coordinates":[24.36667,44.51667]},"properties":{"id":106087,"name":"Teslui","state_code":"OT","country_code":"RO"}},{"type":"Feature","geometry":{"type":"Point","coordinates":[24.63333,43.86667]},"properties":{"id":106092,"name":"Tia Mare","state_code":"OT","country_code":"RO"}},{"type":"Feature","geometry":{"type":"Point","coordinates":[24.51667,44.81667]},"properties":{"id":106128,"name":"Topana","state_code":"OT","country_code":"RO"}},{"type":"Feature","geometry":{"type":"Point","coordinates":[24.45,44.01667]},"properties":{"id":106150,"name":"Traian","state_code":"OT","country_code":"RO"}},{"type":"Feature","geometry":{"type":"Point","coordinates":[24.78333,44.36667]},"properties":{"id":106170,"name":"Tufeni","state_code":"OT","country_code":"RO"}},{"type":"Feature","geometry":{"type":"Point","coordinates":[24.63787,43.78783]},"properties":{"id":96683,"name":"Ursa","state_code":"OT","country_code":"RO"}},{"type":"Feature","geometry":{"type":"Point","coordinates":[24.28952,43.8567]},"properties":{"id":96685,"name":"Urzica","state_code":"OT","country_code":"RO"}},{"type":"Feature","geometry":{"type":"Point","coordinates":[24.36667,43.86667]},"properties":{"id":96953,"name":"Vădastra","state_code":"OT","country_code":"RO"}},{"type":"Feature","geometry":{"type":"Point","coordinates":[24.33333,43.85]},"properties":{"id":96956,"name":"Vădăstriţa","state_code":"OT","country_code":"RO"}},{"type":"Feature","geometry":{"type":"Point","coordinates":[24.54376,44.28263]},"properties":{"id":96919,"name":"Vâlcele","state_code":"OT","country_code":"RO"}},{"type":"Feature","geometry":{"type":"Point","coordinates":[24.55821,44.28461]},"properties":{"id":96924,"name":"Vâlcelele de Sus","state_code":"OT","country_code":"RO"}},{"type":"Feature","geometry":{"type":"Point","coordinates":[24.43333,44.46667]},"properties":{"id":96733,"name":"Valea Mare","state_code":"OT","country_code":"RO"}},{"type":"Feature","geometry":{"type":"Point","coordinates":[24.65611,44.47169]},"properties":{"id":96740,"name":"Valea Merilor","state_code":"OT","country_code":"RO"}},{"type":"Feature","geometry":{"type":"Point","coordinates":[24.78333,44.23333]},"properties":{"id":96961,"name":"Văleni","state_code":"OT","country_code":"RO"}},{"type":"Feature","geometry":{"type":"Point","coordinates":[24.31667,44.65]},"properties":{"id":96788,"name":"Verguleasa","state_code":"OT","country_code":"RO"}},{"type":"Feature","geometry":{"type":"Point","coordinates":[24.45,43.86667]},"properties":{"id":96850,"name":"Vişina","state_code":"OT","country_code":"RO"}},{"type":"Feature","geometry":{"type":"Point","coordinates":[24.4141253,43.8713144]},"properties":{"id":96853,"name":"Vișina Nouă","state_code":"OT","country_code":"RO"}},{"type":"Feature","geometry":{"type":"Point","coordinates":[24.6950252,44.5272241]},"properties":{"id":96842,"name":"Vitănești","state_code":"OT","country_code":"RO"}},{"type":"Feature","geometry":{"type":"Point","coordinates":[24.4,44.86667]},"properties":{"id":96840,"name":"Vitomireşti","state_code":"OT","country_code":"RO"}},{"type":"Feature","geometry":{"type":"Point","coordinates":[24.4,44]},"properties":{"id":96868,"name":"Vlădila","state_code":"OT","country_code":"RO"}},{"type":"Feature","geometry":{"type":"Point","coordinates":[24.13333,44.28333]},"properties":{"id":96878,"name":"Voineasa","state_code":"OT","country_code":"RO"}},{"type":"Feature","geometry":{"type":"Point","coordinates":[23.91667,44.46667]},"properties":{"id":96906,"name":"Vulpeni","state_code":"OT","country_code":"RO"}},{"type":"Feature","geometry":{"type":"Point","coordinates":[24.31667,44.73333]},"properties":{"id":96909,"name":"Vultureşti","state_code":"OT","country_code":"RO"}}]}