{"type":"FeatureCollection","features":[{"type":"Feature","geometry":{"type":"Point","coordinates":[20.30137,45.38346]},"properties":{"id":97146,"name":"Aradac","state_code":"02","country_code":"RS"}},{"type":"Feature","geometry":{"type":"Point","coordinates":[20.66407,45.36606]},"properties":{"id":97152,"name":"Banatski Despotovac","state_code":"02","country_code":"RS"}},{"type":"Feature","geometry":{"type":"Point","coordinates":[20.51146,45.51866]},"properties":{"id":97153,"name":"Banatski Dvor","state_code":"02","country_code":"RS"}},{"type":"Feature","geometry":{"type":"Point","coordinates":[20.56421,45.58693]},"properties":{"id":97155,"name":"Banatsko Karađorđevo","state_code":"02","country_code":"RS"}},{"type":"Feature","geometry":{"type":"Point","coordinates":[20.375,45.27278]},"properties":{"id":97171,"name":"Belo Blato","state_code":"02","country_code":"RS"}},{"type":"Feature","geometry":{"type":"Point","coordinates":[20.2839,45.76994]},"properties":{"id":97185,"name":"Bočar","state_code":"02","country_code":"RS"}},{"type":"Feature","geometry":{"type":"Point","coordinates":[20.82987,45.3554]},"properties":{"id":97180,"name":"Boka","state_code":"02","country_code":"RS"}},{"type":"Feature","geometry":{"type":"Point","coordinates":[20.63514,45.30837]},"properties":{"id":97184,"name":"Botoš","state_code":"02","country_code":"RS"}},{"type":"Feature","geometry":{"type":"Point","coordinates":[20.38947,45.10814]},"properties":{"id":97459,"name":"Čenta","state_code":"02","country_code":"RS"}},{"type":"Feature","geometry":{"type":"Point","coordinates":[20.53194,45.56361]},"properties":{"id":97460,"name":"Čestereg","state_code":"02","country_code":"RS"}},{"type":"Feature","geometry":{"type":"Point","coordinates":[20.44294,45.32328]},"properties":{"id":97204,"name":"Ečka","state_code":"02","country_code":"RS"}},{"type":"Feature","geometry":{"type":"Point","coordinates":[20.30003,45.44263]},"properties":{"id":97203,"name":"Elemir","state_code":"02","country_code":"RS"}},{"type":"Feature","geometry":{"type":"Point","coordinates":[20.47239,45.19172]},"properties":{"id":97205,"name":"Farkaždin","state_code":"02","country_code":"RS"}},{"type":"Feature","geometry":{"type":"Point","coordinates":[20.79138,45.66202]},"properties":{"id":97219,"name":"Hetin","state_code":"02","country_code":"RS"}},{"type":"Feature","geometry":{"type":"Point","coordinates":[20.76078,45.26985]},"properties":{"id":97232,"name":"Jarkovac","state_code":"02","country_code":"RS"}},{"type":"Feature","geometry":{"type":"Point","coordinates":[20.85546,45.44725]},"properties":{"id":97234,"name":"Jaša Tomić","state_code":"02","country_code":"RS"}},{"type":"Feature","geometry":{"type":"Point","coordinates":[20.48049,45.42254]},"properties":{"id":97243,"name":"Klek","state_code":"02","country_code":"RS"}},{"type":"Feature","geometry":{"type":"Point","coordinates":[20.319,45.18675]},"properties":{"id":97246,"name":"Knićanin","state_code":"02","country_code":"RS"}},{"type":"Feature","geometry":{"type":"Point","coordinates":[20.91468,45.31575]},"properties":{"id":97250,"name":"Konak","state_code":"02","country_code":"RS"}},{"type":"Feature","geometry":{"type":"Point","coordinates":[20.72976,45.45283]},"properties":{"id":97257,"name":"Krajišnik","state_code":"02","country_code":"RS"}},{"type":"Feature","geometry":{"type":"Point","coordinates":[20.22902,45.53946]},"properties":{"id":97264,"name":"Kumane","state_code":"02","country_code":"RS"}},{"type":"Feature","geometry":{"type":"Point","coordinates":[20.53999,45.38893]},"properties":{"id":97271,"name":"Lazarevo","state_code":"02","country_code":"RS"}},{"type":"Feature","geometry":{"type":"Point","coordinates":[20.49895,45.33815]},"properties":{"id":97282,"name":"Lukićevo","state_code":"02","country_code":"RS"}},{"type":"Feature","geometry":{"type":"Point","coordinates":[20.80677,45.53815]},"properties":{"id":97293,"name":"Međa","state_code":"02","country_code":"RS"}},{"type":"Feature","geometry":{"type":"Point","coordinates":[20.31961,45.5168]},"properties":{"id":97291,"name":"Melenci","state_code":"02","country_code":"RS"}},{"type":"Feature","geometry":{"type":"Point","coordinates":[20.41508,45.47085]},"properties":{"id":97294,"name":"Mihajlovo","state_code":"02","country_code":"RS"}},{"type":"Feature","geometry":{"type":"Point","coordinates":[20.71418,45.3446]},"properties":{"id":97302,"name":"Neuzina","state_code":"02","country_code":"RS"}},{"type":"Feature","geometry":{"type":"Point","coordinates":[20.5100528,45.6871254]},"properties":{"id":97307,"name":"Nova Crnja","state_code":"02","country_code":"RS"}},{"type":"Feature","geometry":{"type":"Point","coordinates":[20.1885258,45.5943515]},"properties":{"id":155045,"name":"Novi Bečej","state_code":"02","country_code":"RS"}},{"type":"Feature","geometry":{"type":"Point","coordinates":[20.7003,45.55918]},"properties":{"id":97310,"name":"Novi Itebej","state_code":"02","country_code":"RS"}},{"type":"Feature","geometry":{"type":"Point","coordinates":[20.30364,45.71916]},"properties":{"id":97317,"name":"Novo Miloševo","state_code":"02","country_code":"RS"}},{"type":"Feature","geometry":{"type":"Point","coordinates":[20.58089,45.24171]},"properties":{"id":97322,"name":"Orlovat","state_code":"02","country_code":"RS"}},{"type":"Feature","geometry":{"type":"Point","coordinates":[20.38197,45.20813]},"properties":{"id":97333,"name":"Perlez","state_code":"02","country_code":"RS"}},{"type":"Feature","geometry":{"type":"Point","coordinates":[20.78917,45.74617]},"properties":{"id":97354,"name":"Radojevo","state_code":"02","country_code":"RS"}},{"type":"Feature","geometry":{"type":"Point","coordinates":[20.56939,45.46082]},"properties":{"id":97358,"name":"Ravni Topolovac","state_code":"02","country_code":"RS"}},{"type":"Feature","geometry":{"type":"Point","coordinates":[20.6723321,45.32387]},"properties":{"id":97379,"name":"Sečanj","state_code":"02","country_code":"RS"}},{"type":"Feature","geometry":{"type":"Point","coordinates":[20.69008,45.72538]},"properties":{"id":97391,"name":"Srpska Crnja","state_code":"02","country_code":"RS"}},{"type":"Feature","geometry":{"type":"Point","coordinates":[20.7135,45.56715]},"properties":{"id":97392,"name":"Srpski Itebej","state_code":"02","country_code":"RS"}},{"type":"Feature","geometry":{"type":"Point","coordinates":[20.45845,45.29489]},"properties":{"id":97393,"name":"Stajićevo","state_code":"02","country_code":"RS"}},{"type":"Feature","geometry":{"type":"Point","coordinates":[20.6962,45.38312]},"properties":{"id":97405,"name":"Sutjeska","state_code":"02","country_code":"RS"}},{"type":"Feature","geometry":{"type":"Point","coordinates":[20.19867,45.46737]},"properties":{"id":97407,"name":"Taraš","state_code":"02","country_code":"RS"}},{"type":"Feature","geometry":{"type":"Point","coordinates":[20.55714,45.68943]},"properties":{"id":97410,"name":"Toba","state_code":"02","country_code":"RS"}},{"type":"Feature","geometry":{"type":"Point","coordinates":[20.62272,45.26855]},"properties":{"id":97411,"name":"Tomaševac","state_code":"02","country_code":"RS"}},{"type":"Feature","geometry":{"type":"Point","coordinates":[20.609,45.50928]},"properties":{"id":97413,"name":"Torak","state_code":"02","country_code":"RS"}},{"type":"Feature","geometry":{"type":"Point","coordinates":[20.459,45.58423]},"properties":{"id":97414,"name":"Torda","state_code":"02","country_code":"RS"}},{"type":"Feature","geometry":{"type":"Point","coordinates":[20.65536,45.68537]},"properties":{"id":97438,"name":"Vojvoda Stepa","state_code":"02","country_code":"RS"}},{"type":"Feature","geometry":{"type":"Point","coordinates":[20.2931049,45.5415019]},"properties":{"id":97474,"name":"Žitište","state_code":"02","country_code":"RS"}},{"type":"Feature","geometry":{"type":"Point","coordinates":[20.38194,45.38361]},"properties":{"id":97450,"name":"Zrenjanin","state_code":"02","country_code":"RS"}}]}