{"type":"FeatureCollection","features":[{"type":"Feature","geometry":{"type":"Point","coordinates":[20.25941,44.6507]},"properties":{"id":97160,"name":"Barič","state_code":"00","country_code":"RS"}},{"type":"Feature","geometry":{"type":"Point","coordinates":[20.20577,44.77983]},"properties":{"id":97174,"name":"Bečmen","state_code":"00","country_code":"RS"}},{"type":"Feature","geometry":{"type":"Point","coordinates":[20.22487,44.82631]},"properties":{"id":97193,"name":"Dobanovci","state_code":"00","country_code":"RS"}},{"type":"Feature","geometry":{"type":"Point","coordinates":[20.2557,44.38534]},"properties":{"id":97270,"name":"Lazarevac","state_code":"00","country_code":"RS"}},{"type":"Feature","geometry":{"type":"Point","coordinates":[20.306,44.63834]},"properties":{"id":97286,"name":"Mala Moštanica","state_code":"00","country_code":"RS"}},{"type":"Feature","geometry":{"type":"Point","coordinates":[20.20017,44.65486]},"properties":{"id":97319,"name":"Obrenovac","state_code":"00","country_code":"RS"}},{"type":"Feature","geometry":{"type":"Point","coordinates":[20.31845,44.72769]},"properties":{"id":97326,"name":"Ostružnica","state_code":"00","country_code":"RS"}},{"type":"Feature","geometry":{"type":"Point","coordinates":[20.53336,44.88349]},"properties":{"id":97327,"name":"Ovča","state_code":"00","country_code":"RS"}},{"type":"Feature","geometry":{"type":"Point","coordinates":[20.44993,44.68477]},"properties":{"id":97368,"name":"Rušanj","state_code":"00","country_code":"RS"}},{"type":"Feature","geometry":{"type":"Point","coordinates":[20.39232,44.67653]},"properties":{"id":97390,"name":"Sremčica","state_code":"00","country_code":"RS"}},{"type":"Feature","geometry":{"type":"Point","coordinates":[20.295,44.51278]},"properties":{"id":97399,"name":"Stepojevac","state_code":"00","country_code":"RS"}},{"type":"Feature","geometry":{"type":"Point","coordinates":[20.13477,44.57476]},"properties":{"id":97400,"name":"Stubline","state_code":"00","country_code":"RS"}},{"type":"Feature","geometry":{"type":"Point","coordinates":[20.28028,44.79306]},"properties":{"id":97404,"name":"Surčin","state_code":"00","country_code":"RS"}},{"type":"Feature","geometry":{"type":"Point","coordinates":[19.64128,44.82018]},"properties":{"id":97406,"name":"Tabanović","state_code":"00","country_code":"RS"}},{"type":"Feature","geometry":{"type":"Point","coordinates":[20.18763,44.87635]},"properties":{"id":97419,"name":"Ugrinovci","state_code":"00","country_code":"RS"}},{"type":"Feature","geometry":{"type":"Point","coordinates":[20.30472,44.67806]},"properties":{"id":97421,"name":"Umka","state_code":"00","country_code":"RS"}},{"type":"Feature","geometry":{"type":"Point","coordinates":[20.35395,44.66486]},"properties":{"id":97428,"name":"Velika Moštanica","state_code":"00","country_code":"RS"}},{"type":"Feature","geometry":{"type":"Point","coordinates":[20.32872,44.60237]},"properties":{"id":97439,"name":"Vranić","state_code":"00","country_code":"RS"}},{"type":"Feature","geometry":{"type":"Point","coordinates":[20.40116,44.8458]},"properties":{"id":97446,"name":"Zemun","state_code":"00","country_code":"RS"}},{"type":"Feature","geometry":{"type":"Point","coordinates":[20.16432,44.64025]},"properties":{"id":97451,"name":"Zvečka","state_code":"00","country_code":"RS"}}]}