{"type":"FeatureCollection","features":[{"type":"Feature","geometry":{"type":"Point","coordinates":[21.74781,42.35518]},"properties":{"id":97176,"name":"Biljača","state_code":"24","country_code":"RS"}},{"type":"Feature","geometry":{"type":"Point","coordinates":[22.4194044,42.5023374]},"properties":{"id":155065,"name":"Bosilegrad","state_code":"24","country_code":"RS"}},{"type":"Feature","geometry":{"type":"Point","coordinates":[21.7472647,42.4567548]},"properties":{"id":155066,"name":"Bujanovac","state_code":"24","country_code":"RS"}},{"type":"Feature","geometry":{"type":"Point","coordinates":[21.66456,42.25846]},"properties":{"id":97295,"name":"Miratovac","state_code":"24","country_code":"RS"}},{"type":"Feature","geometry":{"type":"Point","coordinates":[21.5714486,42.3158134]},"properties":{"id":155068,"name":"Preševo","state_code":"24","country_code":"RS"}},{"type":"Feature","geometry":{"type":"Point","coordinates":[22.22861,42.43364]},"properties":{"id":97355,"name":"Radovnica","state_code":"24","country_code":"RS"}},{"type":"Feature","geometry":{"type":"Point","coordinates":[21.69591,42.3787]},"properties":{"id":97356,"name":"Rajince","state_code":"24","country_code":"RS"}},{"type":"Feature","geometry":{"type":"Point","coordinates":[21.73708,42.38445]},"properties":{"id":97373,"name":"Samoljica","state_code":"24","country_code":"RS"}},{"type":"Feature","geometry":{"type":"Point","coordinates":[22.1559905,42.6900819]},"properties":{"id":155069,"name":"Surdulica","state_code":"24","country_code":"RS"}},{"type":"Feature","geometry":{"type":"Point","coordinates":[22.0235102,42.3565985]},"properties":{"id":155070,"name":"Trgovište","state_code":"24","country_code":"RS"}},{"type":"Feature","geometry":{"type":"Point","coordinates":[22.0441392,42.7073832]},"properties":{"id":155067,"name":"Vladičin Han","state_code":"24","country_code":"RS"}},{"type":"Feature","geometry":{"type":"Point","coordinates":[21.90028,42.55139]},"properties":{"id":97440,"name":"Vranje","state_code":"24","country_code":"RS"}},{"type":"Feature","geometry":{"type":"Point","coordinates":[21.70212,42.31568]},"properties":{"id":97475,"name":"Žujince","state_code":"24","country_code":"RS"}}]}