{"type":"FeatureCollection","features":[{"type":"Feature","geometry":{"type":"Point","coordinates":[46.17217,48.27955]},"properties":{"id":97530,"name":"Akhtubinsk","state_code":"AST","country_code":"RU"}},{"type":"Feature","geometry":{"type":"Point","coordinates":[46.25,48.16667]},"properties":{"id":97531,"name":"Akhtubinskiy Rayon","state_code":"AST","country_code":"RU"}},{"type":"Feature","geometry":{"type":"Point","coordinates":[48.01188,46.79244]},"properties":{"id":97539,"name":"Aksarayskiy","state_code":"AST","country_code":"RU"}},{"type":"Feature","geometry":{"type":"Point","coordinates":[48.04076,46.34968]},"properties":{"id":97706,"name":"Astrakhan","state_code":"AST","country_code":"RU"}},{"type":"Feature","geometry":{"type":"Point","coordinates":[46.10911,48.06242]},"properties":{"id":98228,"name":"Chyorny Yar","state_code":"AST","country_code":"RU"}},{"type":"Feature","geometry":{"type":"Point","coordinates":[47.73078,46.09323]},"properties":{"id":98640,"name":"Ikryanoye","state_code":"AST","country_code":"RU"}},{"type":"Feature","geometry":{"type":"Point","coordinates":[48.07364,46.10995]},"properties":{"id":98831,"name":"Kamyzyak","state_code":"AST","country_code":"RU"}},{"type":"Feature","geometry":{"type":"Point","coordinates":[45.74481,48.58175]},"properties":{"id":98849,"name":"Kapustin Yar","state_code":"AST","country_code":"RU"}},{"type":"Feature","geometry":{"type":"Point","coordinates":[48.30683,45.91555]},"properties":{"id":98867,"name":"Karalat","state_code":"AST","country_code":"RU"}},{"type":"Feature","geometry":{"type":"Point","coordinates":[47.25678,47.41958]},"properties":{"id":98963,"name":"Kharabali","state_code":"AST","country_code":"RU"}},{"type":"Feature","geometry":{"type":"Point","coordinates":[48.12472,45.84639]},"properties":{"id":99067,"name":"Kirovskiy","state_code":"AST","country_code":"RU"}},{"type":"Feature","geometry":{"type":"Point","coordinates":[48.25,46.83333]},"properties":{"id":99347,"name":"Krasnoyarskiy Rayon","state_code":"AST","country_code":"RU"}},{"type":"Feature","geometry":{"type":"Point","coordinates":[48.34559,46.53314]},"properties":{"id":99377,"name":"Krasnyy Yar","state_code":"AST","country_code":"RU"}},{"type":"Feature","geometry":{"type":"Point","coordinates":[47.8535,46.2045]},"properties":{"id":99382,"name":"Krasnyye Barrikady","state_code":"AST","country_code":"RU"}},{"type":"Feature","geometry":{"type":"Point","coordinates":[47.22405,45.78457]},"properties":{"id":99628,"name":"Liman","state_code":"AST","country_code":"RU"}},{"type":"Feature","geometry":{"type":"Point","coordinates":[47.25,45.83333]},"properties":{"id":99629,"name":"Limanskiy Rayon","state_code":"AST","country_code":"RU"}},{"type":"Feature","geometry":{"type":"Point","coordinates":[48.71398,46.40852]},"properties":{"id":99792,"name":"Marfino","state_code":"AST","country_code":"RU"}},{"type":"Feature","geometry":{"type":"Point","coordinates":[47.65398,45.77251]},"properties":{"id":100002,"name":"Mumra","state_code":"AST","country_code":"RU"}},{"type":"Feature","geometry":{"type":"Point","coordinates":[48.20128,46.338]},"properties":{"id":100038,"name":"Nachalovo","state_code":"AST","country_code":"RU"}},{"type":"Feature","geometry":{"type":"Point","coordinates":[47.8498,46.6927]},"properties":{"id":100058,"name":"Narimanov","state_code":"AST","country_code":"RU"}},{"type":"Feature","geometry":{"type":"Point","coordinates":[46.83105,48.21978]},"properties":{"id":100163,"name":"Nizhniy Baskunchak","state_code":"AST","country_code":"RU"}},{"type":"Feature","geometry":{"type":"Point","coordinates":[47.56635,45.84756]},"properties":{"id":100456,"name":"Oranzherei","state_code":"AST","country_code":"RU"}},{"type":"Feature","geometry":{"type":"Point","coordinates":[47.95241,45.85568]},"properties":{"id":100752,"name":"Poldnëvoye","state_code":"AST","country_code":"RU"}},{"type":"Feature","geometry":{"type":"Point","coordinates":[48.16667,46.25]},"properties":{"id":100849,"name":"Privolzhskiy Rayon","state_code":"AST","country_code":"RU"}},{"type":"Feature","geometry":{"type":"Point","coordinates":[46.99679,47.55153]},"properties":{"id":101129,"name":"Sasykoli","state_code":"AST","country_code":"RU"}},{"type":"Feature","geometry":{"type":"Point","coordinates":[48.50462,46.21343]},"properties":{"id":101386,"name":"Sizyy Bugor","state_code":"AST","country_code":"RU"}},{"type":"Feature","geometry":{"type":"Point","coordinates":[48.01755,46.3889]},"properties":{"id":101471,"name":"Solyanka","state_code":"AST","country_code":"RU"}},{"type":"Feature","geometry":{"type":"Point","coordinates":[47.9555,46.32476]},"properties":{"id":101583,"name":"Starokucherganovka","state_code":"AST","country_code":"RU"}},{"type":"Feature","geometry":{"type":"Point","coordinates":[47.37773,47.31528]},"properties":{"id":101762,"name":"Tambovka","state_code":"AST","country_code":"RU"}},{"type":"Feature","geometry":{"type":"Point","coordinates":[47.66929,45.9346]},"properties":{"id":101931,"name":"Trudfront","state_code":"AST","country_code":"RU"}},{"type":"Feature","geometry":{"type":"Point","coordinates":[48.50627,46.23436]},"properties":{"id":101968,"name":"Tumak","state_code":"AST","country_code":"RU"}},{"type":"Feature","geometry":{"type":"Point","coordinates":[48.03558,46.04575]},"properties":{"id":102156,"name":"Uvary","state_code":"AST","country_code":"RU"}},{"type":"Feature","geometry":{"type":"Point","coordinates":[46.72169,48.22564]},"properties":{"id":102250,"name":"Verkhniy Baskunchak","state_code":"AST","country_code":"RU"}},{"type":"Feature","geometry":{"type":"Point","coordinates":[47.91869,46.20306]},"properties":{"id":102343,"name":"Volgo-Kaspiyskiy","state_code":"AST","country_code":"RU"}},{"type":"Feature","geometry":{"type":"Point","coordinates":[48.54093,46.40134]},"properties":{"id":102352,"name":"Volodarskiy","state_code":"AST","country_code":"RU"}},{"type":"Feature","geometry":{"type":"Point","coordinates":[48.01514,46.24343]},"properties":{"id":102472,"name":"Yaksatovo","state_code":"AST","country_code":"RU"}},{"type":"Feature","geometry":{"type":"Point","coordinates":[47.12577,45.76913]},"properties":{"id":102482,"name":"Yandyki","state_code":"AST","country_code":"RU"}},{"type":"Feature","geometry":{"type":"Point","coordinates":[47.02814,47.24559]},"properties":{"id":102562,"name":"Yenotayevka","state_code":"AST","country_code":"RU"}},{"type":"Feature","geometry":{"type":"Point","coordinates":[47.04739,45.92407]},"properties":{"id":102706,"name":"Zenzeli","state_code":"AST","country_code":"RU"}},{"type":"Feature","geometry":{"type":"Point","coordinates":[45.7338,48.5842]},"properties":{"id":102759,"name":"Znamensk","state_code":"AST","country_code":"RU"}}]}