{"type":"FeatureCollection","features":[{"type":"Feature","geometry":{"type":"Point","coordinates":[130.08569,49.42447]},"properties":{"id":97666,"name":"Arkhara","state_code":"AMU","country_code":"RU"}},{"type":"Feature","geometry":{"type":"Point","coordinates":[130.66667,49.5]},"properties":{"id":97667,"name":"Arkharinskiy Rayon","state_code":"AMU","country_code":"RU"}},{"type":"Feature","geometry":{"type":"Point","coordinates":[128.47726,50.91644]},"properties":{"id":97853,"name":"Belogorsk","state_code":"AMU","country_code":"RU"}},{"type":"Feature","geometry":{"type":"Point","coordinates":[128.5,50.75]},"properties":{"id":97854,"name":"Belogorskiy Rayon","state_code":"AMU","country_code":"RU"}},{"type":"Feature","geometry":{"type":"Point","coordinates":[127.5405,50.27961]},"properties":{"id":97949,"name":"Blagoveshchensk","state_code":"AMU","country_code":"RU"}},{"type":"Feature","geometry":{"type":"Point","coordinates":[127.5,50.75]},"properties":{"id":97950,"name":"Blagoveshchenskiy Rayon","state_code":"AMU","country_code":"RU"}},{"type":"Feature","geometry":{"type":"Point","coordinates":[129.81278,49.81212]},"properties":{"id":98079,"name":"Bureya","state_code":"AMU","country_code":"RU"}},{"type":"Feature","geometry":{"type":"Point","coordinates":[130,50]},"properties":{"id":98080,"name":"Bureyskiy Rayon","state_code":"AMU","country_code":"RU"}},{"type":"Feature","geometry":{"type":"Point","coordinates":[132.94011,53.06972]},"properties":{"id":98383,"name":"Ekimchan","state_code":"AMU","country_code":"RU"}},{"type":"Feature","geometry":{"type":"Point","coordinates":[127.6,50.4]},"properties":{"id":98546,"name":"Gorod Blagoveshchensk","state_code":"AMU","country_code":"RU"}},{"type":"Feature","geometry":{"type":"Point","coordinates":[129.41667,49.75]},"properties":{"id":98554,"name":"Gorod Raychikhinsk","state_code":"AMU","country_code":"RU"}},{"type":"Feature","geometry":{"type":"Point","coordinates":[127.99778,50.45611]},"properties":{"id":98733,"name":"Ivanovskiy Rayon","state_code":"AMU","country_code":"RU"}},{"type":"Feature","geometry":{"type":"Point","coordinates":[127.99025,49.61876]},"properties":{"id":99187,"name":"Konstantinovka","state_code":"AMU","country_code":"RU"}},{"type":"Feature","geometry":{"type":"Point","coordinates":[128.16667,49.75]},"properties":{"id":99193,"name":"Konstantinovskiy Rayon","state_code":"AMU","country_code":"RU"}},{"type":"Feature","geometry":{"type":"Point","coordinates":[125.80932,53.45398]},"properties":{"id":99735,"name":"Magdagachi","state_code":"AMU","country_code":"RU"}},{"type":"Feature","geometry":{"type":"Point","coordinates":[126,53.33333]},"properties":{"id":99736,"name":"Magdagachinskiy Rayon","state_code":"AMU","country_code":"RU"}},{"type":"Feature","geometry":{"type":"Point","coordinates":[129.5,52.16667]},"properties":{"id":99837,"name":"Mazanovskiy Rayon","state_code":"AMU","country_code":"RU"}},{"type":"Feature","geometry":{"type":"Point","coordinates":[128.75,49.75]},"properties":{"id":99904,"name":"Mikhaylovskiy Rayon","state_code":"AMU","country_code":"RU"}},{"type":"Feature","geometry":{"type":"Point","coordinates":[124.15777,53.97946]},"properties":{"id":100117,"name":"Never","state_code":"AMU","country_code":"RU"}},{"type":"Feature","geometry":{"type":"Point","coordinates":[129.87443,49.79695]},"properties":{"id":100232,"name":"Novobureyskiy","state_code":"AMU","country_code":"RU"}},{"type":"Feature","geometry":{"type":"Point","coordinates":[129.59051,49.78423]},"properties":{"id":100287,"name":"Novoraychikhinsk","state_code":"AMU","country_code":"RU"}},{"type":"Feature","geometry":{"type":"Point","coordinates":[129,50.33333]},"properties":{"id":100414,"name":"Oktyabr’skiy Rayon","state_code":"AMU","country_code":"RU"}},{"type":"Feature","geometry":{"type":"Point","coordinates":[126.89623,53.57868]},"properties":{"id":100514,"name":"Ovsyanka","state_code":"AMU","country_code":"RU"}},{"type":"Feature","geometry":{"type":"Point","coordinates":[128.65352,49.62678]},"properties":{"id":100797,"name":"Poyarkovo","state_code":"AMU","country_code":"RU"}},{"type":"Feature","geometry":{"type":"Point","coordinates":[129.40992,49.78998]},"properties":{"id":100946,"name":"Raychikhinsk","state_code":"AMU","country_code":"RU"}},{"type":"Feature","geometry":{"type":"Point","coordinates":[130,51]},"properties":{"id":100992,"name":"Romnenskiy Rayon","state_code":"AMU","country_code":"RU"}},{"type":"Feature","geometry":{"type":"Point","coordinates":[129.29122,50.7207]},"properties":{"id":100993,"name":"Romny","state_code":"AMU","country_code":"RU"}},{"type":"Feature","geometry":{"type":"Point","coordinates":[132,52.5]},"properties":{"id":101150,"name":"Selemdzhinskiy Rayon","state_code":"AMU","country_code":"RU"}},{"type":"Feature","geometry":{"type":"Point","coordinates":[128.38258,51.09391]},"properties":{"id":101194,"name":"Seryshevo","state_code":"AMU","country_code":"RU"}},{"type":"Feature","geometry":{"type":"Point","coordinates":[128.5,51.16667]},"properties":{"id":101195,"name":"Seryshevskiy Rayon","state_code":"AMU","country_code":"RU"}},{"type":"Feature","geometry":{"type":"Point","coordinates":[127.67756,52.00575]},"properties":{"id":101318,"name":"Shimanovsk","state_code":"AMU","country_code":"RU"}},{"type":"Feature","geometry":{"type":"Point","coordinates":[127.5,52.16667]},"properties":{"id":101319,"name":"Shimanovskiy Rayon","state_code":"AMU","country_code":"RU"}},{"type":"Feature","geometry":{"type":"Point","coordinates":[129.51988,49.75907]},"properties":{"id":101330,"name":"Shirokiy","state_code":"AMU","country_code":"RU"}},{"type":"Feature","geometry":{"type":"Point","coordinates":[126.74777,52.6343]},"properties":{"id":101383,"name":"Sivaki","state_code":"AMU","country_code":"RU"}},{"type":"Feature","geometry":{"type":"Point","coordinates":[123.9403,53.98473]},"properties":{"id":101392,"name":"Skovorodino","state_code":"AMU","country_code":"RU"}},{"type":"Feature","geometry":{"type":"Point","coordinates":[123.5,53.83333]},"properties":{"id":101393,"name":"Skovorodinskiy Rayon","state_code":"AMU","country_code":"RU"}},{"type":"Feature","geometry":{"type":"Point","coordinates":[124.43333,54.23333]},"properties":{"id":101467,"name":"Solovjevsk","state_code":"AMU","country_code":"RU"}},{"type":"Feature","geometry":{"type":"Point","coordinates":[128.00932,50.65854]},"properties":{"id":101541,"name":"Srednebelaya","state_code":"AMU","country_code":"RU"}},{"type":"Feature","geometry":{"type":"Point","coordinates":[127.83333,51.5]},"properties":{"id":101712,"name":"Svobodnenskiy Rayon","state_code":"AMU","country_code":"RU"}},{"type":"Feature","geometry":{"type":"Point","coordinates":[128.14097,51.37525]},"properties":{"id":101714,"name":"Svobodnyy","state_code":"AMU","country_code":"RU"}},{"type":"Feature","geometry":{"type":"Point","coordinates":[123.60802,54.11031]},"properties":{"id":101744,"name":"Takhtamygda","state_code":"AMU","country_code":"RU"}},{"type":"Feature","geometry":{"type":"Point","coordinates":[130.26755,50.26378]},"properties":{"id":101746,"name":"Talakan","state_code":"AMU","country_code":"RU"}},{"type":"Feature","geometry":{"type":"Point","coordinates":[124.8149,53.68981]},"properties":{"id":101749,"name":"Taldan","state_code":"AMU","country_code":"RU"}},{"type":"Feature","geometry":{"type":"Point","coordinates":[128.05724,50.09968]},"properties":{"id":101763,"name":"Tambovka","state_code":"AMU","country_code":"RU"}},{"type":"Feature","geometry":{"type":"Point","coordinates":[128,50.08333]},"properties":{"id":101764,"name":"Tambovskiy Rayon","state_code":"AMU","country_code":"RU"}},{"type":"Feature","geometry":{"type":"Point","coordinates":[132.88996,53.13531]},"properties":{"id":101875,"name":"Tokur","state_code":"AMU","country_code":"RU"}},{"type":"Feature","geometry":{"type":"Point","coordinates":[128.11472,51.76694]},"properties":{"id":101950,"name":"Tsiolkovskiy","state_code":"AMU","country_code":"RU"}},{"type":"Feature","geometry":{"type":"Point","coordinates":[126.32907,53.11169]},"properties":{"id":101991,"name":"Tygda","state_code":"AMU","country_code":"RU"}},{"type":"Feature","geometry":{"type":"Point","coordinates":[124.72479,55.156]},"properties":{"id":101993,"name":"Tynda","state_code":"AMU","country_code":"RU"}},{"type":"Feature","geometry":{"type":"Point","coordinates":[123.5,55.33333]},"properties":{"id":101994,"name":"Tyndinskiy Rayon","state_code":"AMU","country_code":"RU"}},{"type":"Feature","geometry":{"type":"Point","coordinates":[122.88561,54.05303]},"properties":{"id":102089,"name":"Urusha","state_code":"AMU","country_code":"RU"}},{"type":"Feature","geometry":{"type":"Point","coordinates":[126.53767,52.78633]},"properties":{"id":102095,"name":"Ushumun","state_code":"AMU","country_code":"RU"}},{"type":"Feature","geometry":{"type":"Point","coordinates":[129.10957,50.37344]},"properties":{"id":102528,"name":"Yekaterinoslavka","state_code":"AMU","country_code":"RU"}},{"type":"Feature","geometry":{"type":"Point","coordinates":[121.95805,53.96305]},"properties":{"id":102570,"name":"Yerofey Pavlovich","state_code":"AMU","country_code":"RU"}},{"type":"Feature","geometry":{"type":"Point","coordinates":[129.44156,50.11118]},"properties":{"id":102673,"name":"Zavitinsk","state_code":"AMU","country_code":"RU"}},{"type":"Feature","geometry":{"type":"Point","coordinates":[129.5,50.16667]},"properties":{"id":102674,"name":"Zavitinskiy Rayon","state_code":"AMU","country_code":"RU"}},{"type":"Feature","geometry":{"type":"Point","coordinates":[127.257,53.73601]},"properties":{"id":102708,"name":"Zeya","state_code":"AMU","country_code":"RU"}},{"type":"Feature","geometry":{"type":"Point","coordinates":[128.5,54.5]},"properties":{"id":102709,"name":"Zeyskiy Rayon","state_code":"AMU","country_code":"RU"}}]}