{"type":"FeatureCollection","features":[{"type":"Feature","geometry":{"type":"Point","coordinates":[105.86472,51.71222]},"properties":{"id":97745,"name":"Babushkin","state_code":"BU","country_code":"RU"}},{"type":"Feature","geometry":{"type":"Point","coordinates":[113.6,54.43333]},"properties":{"id":97753,"name":"Bagdarin","state_code":"BU","country_code":"RU"}},{"type":"Feature","geometry":{"type":"Point","coordinates":[109.63904,53.61875]},"properties":{"id":97794,"name":"Barguzin","state_code":"BU","country_code":"RU"}},{"type":"Feature","geometry":{"type":"Point","coordinates":[103.4656,50.6977]},"properties":{"id":97822,"name":"Bayangol","state_code":"BU","country_code":"RU"}},{"type":"Feature","geometry":{"type":"Point","coordinates":[107.60222,50.58806]},"properties":{"id":97925,"name":"Bichura","state_code":"BU","country_code":"RU"}},{"type":"Feature","geometry":{"type":"Point","coordinates":[107.6089,51.43203]},"properties":{"id":98011,"name":"Bol’shoy Kunaley","state_code":"BU","country_code":"RU"}},{"type":"Feature","geometry":{"type":"Point","coordinates":[106.18056,50.67722]},"properties":{"id":98377,"name":"Dzhida","state_code":"BU","country_code":"RU"}},{"type":"Feature","geometry":{"type":"Point","coordinates":[106.5,51.28333]},"properties":{"id":98620,"name":"Gusinoozyorsk","state_code":"BU","country_code":"RU"}},{"type":"Feature","geometry":{"type":"Point","coordinates":[106.26139,51.11444]},"properties":{"id":98621,"name":"Gusinoye Ozero","state_code":"BU","country_code":"RU"}},{"type":"Feature","geometry":{"type":"Point","coordinates":[107.27083,52.11944]},"properties":{"id":98652,"name":"Il’inka","state_code":"BU","country_code":"RU"}},{"type":"Feature","geometry":{"type":"Point","coordinates":[108.52169,51.72114]},"properties":{"id":98659,"name":"Il’ka","state_code":"BU","country_code":"RU"}},{"type":"Feature","geometry":{"type":"Point","coordinates":[106.2475,52.09528]},"properties":{"id":98718,"name":"Istok","state_code":"BU","country_code":"RU"}},{"type":"Feature","geometry":{"type":"Point","coordinates":[107.28374,51.74919]},"properties":{"id":98741,"name":"Ivolginsk","state_code":"BU","country_code":"RU"}},{"type":"Feature","geometry":{"type":"Point","coordinates":[107.33333,51.83333]},"properties":{"id":98742,"name":"Ivolginskiy Rayon","state_code":"BU","country_code":"RU"}},{"type":"Feature","geometry":{"type":"Point","coordinates":[106.65278,52.04861]},"properties":{"id":98764,"name":"Kabansk","state_code":"BU","country_code":"RU"}},{"type":"Feature","geometry":{"type":"Point","coordinates":[103.3097,50.2981]},"properties":{"id":99000,"name":"Kholtoson","state_code":"BU","country_code":"RU"}},{"type":"Feature","geometry":{"type":"Point","coordinates":[108.22515,51.13186]},"properties":{"id":99003,"name":"Khonkholoy","state_code":"BU","country_code":"RU"}},{"type":"Feature","geometry":{"type":"Point","coordinates":[109.77626,52.16631]},"properties":{"id":99005,"name":"Khorinsk","state_code":"BU","country_code":"RU"}},{"type":"Feature","geometry":{"type":"Point","coordinates":[110.10122,55.93874]},"properties":{"id":99031,"name":"Kichera","state_code":"BU","country_code":"RU"}},{"type":"Feature","geometry":{"type":"Point","coordinates":[109.90795,51.8476]},"properties":{"id":99089,"name":"Kizhinga","state_code":"BU","country_code":"RU"}},{"type":"Feature","geometry":{"type":"Point","coordinates":[107.40139,50.15472]},"properties":{"id":99418,"name":"Kudara-Somon","state_code":"BU","country_code":"RU"}},{"type":"Feature","geometry":{"type":"Point","coordinates":[110.30651,54.32093]},"properties":{"id":99478,"name":"Kurumkan","state_code":"BU","country_code":"RU"}},{"type":"Feature","geometry":{"type":"Point","coordinates":[106.45033,50.35737]},"properties":{"id":99516,"name":"Kyakhta","state_code":"BU","country_code":"RU"}},{"type":"Feature","geometry":{"type":"Point","coordinates":[102.1408,51.6828]},"properties":{"id":99519,"name":"Kyren","state_code":"BU","country_code":"RU"}},{"type":"Feature","geometry":{"type":"Point","coordinates":[107.82997,51.04986]},"properties":{"id":99998,"name":"Mukhorshibir’","state_code":"BU","country_code":"RU"}},{"type":"Feature","geometry":{"type":"Point","coordinates":[107.75,51.08333]},"properties":{"id":99997,"name":"Mukhorshibirskiy Rayon","state_code":"BU","country_code":"RU"}},{"type":"Feature","geometry":{"type":"Point","coordinates":[115,56.33333]},"properties":{"id":100024,"name":"Muyskiy Rayon","state_code":"BU","country_code":"RU"}},{"type":"Feature","geometry":{"type":"Point","coordinates":[106.10556,50.38278]},"properties":{"id":100069,"name":"Naushki","state_code":"BU","country_code":"RU"}},{"type":"Feature","geometry":{"type":"Point","coordinates":[108.32187,51.18867]},"properties":{"id":100145,"name":"Nikol’sk","state_code":"BU","country_code":"RU"}},{"type":"Feature","geometry":{"type":"Point","coordinates":[107.80068,51.65526]},"properties":{"id":100138,"name":"Nikolayevskiy","state_code":"BU","country_code":"RU"}},{"type":"Feature","geometry":{"type":"Point","coordinates":[109.58029,55.79326]},"properties":{"id":100150,"name":"Nizhneangarsk","state_code":"BU","country_code":"RU"}},{"type":"Feature","geometry":{"type":"Point","coordinates":[107.51308,51.73751]},"properties":{"id":100175,"name":"Nizhniy Sayantuy","state_code":"BU","country_code":"RU"}},{"type":"Feature","geometry":{"type":"Point","coordinates":[108.27014,51.71699]},"properties":{"id":100200,"name":"Novaya Bryan’","state_code":"BU","country_code":"RU"}},{"type":"Feature","geometry":{"type":"Point","coordinates":[109.60265,51.6162]},"properties":{"id":100251,"name":"Novokizhinginsk","state_code":"BU","country_code":"RU"}},{"type":"Feature","geometry":{"type":"Point","coordinates":[111.70556,56.15722]},"properties":{"id":100351,"name":"Novyy Uoyan","state_code":"BU","country_code":"RU"}},{"type":"Feature","geometry":{"type":"Point","coordinates":[107.76376,51.02858]},"properties":{"id":100355,"name":"Novyy Zagan","state_code":"BU","country_code":"RU"}},{"type":"Feature","geometry":{"type":"Point","coordinates":[107.10944,50.59389]},"properties":{"id":100404,"name":"Okino-Klyuchi","state_code":"BU","country_code":"RU"}},{"type":"Feature","geometry":{"type":"Point","coordinates":[100.5,52.5]},"properties":{"id":100405,"name":"Okinskiy Rayon","state_code":"BU","country_code":"RU"}},{"type":"Feature","geometry":{"type":"Point","coordinates":[108.06693,51.92859]},"properties":{"id":100451,"name":"Onokhoy","state_code":"BU","country_code":"RU"}},{"type":"Feature","geometry":{"type":"Point","coordinates":[99.825,52.5178]},"properties":{"id":100469,"name":"Orlik","state_code":"BU","country_code":"RU"}},{"type":"Feature","geometry":{"type":"Point","coordinates":[105.3196,50.6114]},"properties":{"id":100651,"name":"Petropavlovka","state_code":"BU","country_code":"RU"}},{"type":"Feature","geometry":{"type":"Point","coordinates":[108,52.5]},"properties":{"id":100816,"name":"Pribaykal’skiy Rayon","state_code":"BU","country_code":"RU"}},{"type":"Feature","geometry":{"type":"Point","coordinates":[104.8429,51.4892]},"properties":{"id":100957,"name":"Rechka-Vydrino","state_code":"BU","country_code":"RU"}},{"type":"Feature","geometry":{"type":"Point","coordinates":[108.4449,51.3436]},"properties":{"id":101072,"name":"Sagan-Nur","state_code":"BU","country_code":"RU"}},{"type":"Feature","geometry":{"type":"Point","coordinates":[106.24056,50.91306]},"properties":{"id":101151,"name":"Selenduma","state_code":"BU","country_code":"RU"}},{"type":"Feature","geometry":{"type":"Point","coordinates":[106.33333,51.16667]},"properties":{"id":101152,"name":"Selenginskiy Rayon","state_code":"BU","country_code":"RU"}},{"type":"Feature","geometry":{"type":"Point","coordinates":[111.5,56]},"properties":{"id":101211,"name":"Severo-Baykal’skiy Rayon","state_code":"BU","country_code":"RU"}},{"type":"Feature","geometry":{"type":"Point","coordinates":[109.32297,55.63695]},"properties":{"id":101216,"name":"Severobaykal’sk","state_code":"BU","country_code":"RU"}},{"type":"Feature","geometry":{"type":"Point","coordinates":[113.42667,56.14806]},"properties":{"id":101220,"name":"Severomuysk","state_code":"BU","country_code":"RU"}},{"type":"Feature","geometry":{"type":"Point","coordinates":[107.64487,51.02528]},"properties":{"id":101257,"name":"Sharalday","state_code":"BU","country_code":"RU"}},{"type":"Feature","geometry":{"type":"Point","coordinates":[107.44437,51.80036]},"properties":{"id":101434,"name":"Sokol","state_code":"BU","country_code":"RU"}},{"type":"Feature","geometry":{"type":"Point","coordinates":[111.54124,52.52466]},"properties":{"id":101492,"name":"Sosnovo-Ozerskoye","state_code":"BU","country_code":"RU"}},{"type":"Feature","geometry":{"type":"Point","coordinates":[107.4825,51.88448]},"properties":{"id":101500,"name":"Sotnikovo","state_code":"BU","country_code":"RU"}},{"type":"Feature","geometry":{"type":"Point","coordinates":[114.90048,56.34162]},"properties":{"id":101745,"name":"Taksimo","state_code":"BU","country_code":"RU"}},{"type":"Feature","geometry":{"type":"Point","coordinates":[105.1262,51.55683]},"properties":{"id":101766,"name":"Tankhoy","state_code":"BU","country_code":"RU"}},{"type":"Feature","geometry":{"type":"Point","coordinates":[107.36158,51.48195]},"properties":{"id":101772,"name":"Tarbagatay","state_code":"BU","country_code":"RU"}},{"type":"Feature","geometry":{"type":"Point","coordinates":[107.44054,52.14182]},"properties":{"id":101796,"name":"Tataurovo","state_code":"BU","country_code":"RU"}},{"type":"Feature","geometry":{"type":"Point","coordinates":[108.2217,52.9492]},"properties":{"id":101978,"name":"Turka","state_code":"BU","country_code":"RU"}},{"type":"Feature","geometry":{"type":"Point","coordinates":[107.64484,52.20203]},"properties":{"id":101983,"name":"Turuntayevo","state_code":"BU","country_code":"RU"}},{"type":"Feature","geometry":{"type":"Point","coordinates":[107.60627,51.82721]},"properties":{"id":102044,"name":"Ulan-Ude","state_code":"BU","country_code":"RU"}},{"type":"Feature","geometry":{"type":"Point","coordinates":[109.03103,53.41116]},"properties":{"id":102115,"name":"Ust’-Barguzin","state_code":"BU","country_code":"RU"}},{"type":"Feature","geometry":{"type":"Point","coordinates":[104.6425,51.463]},"properties":{"id":102428,"name":"Vydrino","state_code":"BU","country_code":"RU"}},{"type":"Feature","geometry":{"type":"Point","coordinates":[108.267,51.83487]},"properties":{"id":102630,"name":"Zaigrayevo","state_code":"BU","country_code":"RU"}},{"type":"Feature","geometry":{"type":"Point","coordinates":[103.2863,50.3741]},"properties":{"id":102633,"name":"Zakamensk","state_code":"BU","country_code":"RU"}},{"type":"Feature","geometry":{"type":"Point","coordinates":[107.521,51.84928]},"properties":{"id":102655,"name":"Zarechnyy","state_code":"BU","country_code":"RU"}},{"type":"Feature","geometry":{"type":"Point","coordinates":[102.459,51.6861]},"properties":{"id":102723,"name":"Zhemchug","state_code":"BU","country_code":"RU"}}]}