{"type":"FeatureCollection","features":[{"type":"Feature","geometry":{"type":"Point","coordinates":[58.59333,53.82861]},"properties":{"id":97492,"name":"Abzakovo","state_code":"BA","country_code":"RU"}},{"type":"Feature","geometry":{"type":"Point","coordinates":[58.5,53.41667]},"properties":{"id":97493,"name":"Abzelilovskiy Rayon","state_code":"BA","country_code":"RU"}},{"type":"Feature","geometry":{"type":"Point","coordinates":[53.9355,55.9077]},"properties":{"id":97516,"name":"Agidel’","state_code":"BA","country_code":"RU"}},{"type":"Feature","geometry":{"type":"Point","coordinates":[58.22136,51.85905]},"properties":{"id":97552,"name":"Ak”yar","state_code":"BA","country_code":"RU"}},{"type":"Feature","geometry":{"type":"Point","coordinates":[59.6017,54.2079]},"properties":{"id":97535,"name":"Akhunovo","state_code":"BA","country_code":"RU"}},{"type":"Feature","geometry":{"type":"Point","coordinates":[54.15,54.03333]},"properties":{"id":97538,"name":"Aksakovo","state_code":"BA","country_code":"RU"}},{"type":"Feature","geometry":{"type":"Point","coordinates":[55,54]},"properties":{"id":97610,"name":"Al’sheyevskiy Rayon","state_code":"BA","country_code":"RU"}},{"type":"Feature","geometry":{"type":"Point","coordinates":[55.23333,54.85]},"properties":{"id":97577,"name":"Alekseyevka","state_code":"BA","country_code":"RU"}},{"type":"Feature","geometry":{"type":"Point","coordinates":[54.385,56.2346]},"properties":{"id":97616,"name":"Amzya","state_code":"BA","country_code":"RU"}},{"type":"Feature","geometry":{"type":"Point","coordinates":[55.49083,54.89418]},"properties":{"id":97692,"name":"Asanovo","state_code":"BA","country_code":"RU"}},{"type":"Feature","geometry":{"type":"Point","coordinates":[56.57831,56.09013]},"properties":{"id":97702,"name":"Askino","state_code":"BA","country_code":"RU"}},{"type":"Feature","geometry":{"type":"Point","coordinates":[56.58333,56.08333]},"properties":{"id":97703,"name":"Askinskiy Rayon","state_code":"BA","country_code":"RU"}},{"type":"Feature","geometry":{"type":"Point","coordinates":[55.71667,54.66667]},"properties":{"id":97721,"name":"Avdon","state_code":"BA","country_code":"RU"}},{"type":"Feature","geometry":{"type":"Point","coordinates":[53.75,55.16667]},"properties":{"id":97757,"name":"Bakalinskiy Rayon","state_code":"BA","country_code":"RU"}},{"type":"Feature","geometry":{"type":"Point","coordinates":[53.80278,55.17889]},"properties":{"id":97758,"name":"Bakaly","state_code":"BA","country_code":"RU"}},{"type":"Feature","geometry":{"type":"Point","coordinates":[58.3225,52.59333]},"properties":{"id":97826,"name":"Baymak","state_code":"BA","country_code":"RU"}},{"type":"Feature","geometry":{"type":"Point","coordinates":[56.38882,55.32345]},"properties":{"id":97833,"name":"Bedeyeva Polyana","state_code":"BA","country_code":"RU"}},{"type":"Feature","geometry":{"type":"Point","coordinates":[54.107811,54.106495]},"properties":{"id":97846,"name":"Belebey","state_code":"BA","country_code":"RU"}},{"type":"Feature","geometry":{"type":"Point","coordinates":[58.39806,53.96306]},"properties":{"id":97864,"name":"Beloretsk","state_code":"BA","country_code":"RU"}},{"type":"Feature","geometry":{"type":"Point","coordinates":[58,54]},"properties":{"id":97865,"name":"Beloretskiy Rayon","state_code":"BA","country_code":"RU"}},{"type":"Feature","geometry":{"type":"Point","coordinates":[55.54278,55.42111]},"properties":{"id":97937,"name":"Birsk","state_code":"BA","country_code":"RU"}},{"type":"Feature","geometry":{"type":"Point","coordinates":[54.2642,53.6967]},"properties":{"id":97943,"name":"Bizhbulyak","state_code":"BA","country_code":"RU"}},{"type":"Feature","geometry":{"type":"Point","coordinates":[55.97806,55.035]},"properties":{"id":97948,"name":"Blagoveshchensk","state_code":"BA","country_code":"RU"}},{"type":"Feature","geometry":{"type":"Point","coordinates":[55.8843,54.4968]},"properties":{"id":98075,"name":"Bulgakovo","state_code":"BA","country_code":"RU"}},{"type":"Feature","geometry":{"type":"Point","coordinates":[55.40834,55.84069]},"properties":{"id":98077,"name":"Burayevo","state_code":"BA","country_code":"RU"}},{"type":"Feature","geometry":{"type":"Point","coordinates":[58.15917,51.96167]},"properties":{"id":98081,"name":"Buribay","state_code":"BA","country_code":"RU"}},{"type":"Feature","geometry":{"type":"Point","coordinates":[54.55,54.58333]},"properties":{"id":98094,"name":"Buzdyak","state_code":"BA","country_code":"RU"}},{"type":"Feature","geometry":{"type":"Point","coordinates":[54.5,54.58333]},"properties":{"id":98095,"name":"Buzdyakskiy Rayon","state_code":"BA","country_code":"RU"}},{"type":"Feature","geometry":{"type":"Point","coordinates":[54.65556,55.13194]},"properties":{"id":98137,"name":"Chekmagush","state_code":"BA","country_code":"RU"}},{"type":"Feature","geometry":{"type":"Point","coordinates":[55.94575,54.61242]},"properties":{"id":98193,"name":"Chesnokovka","state_code":"BA","country_code":"RU"}},{"type":"Feature","geometry":{"type":"Point","coordinates":[55.37642,54.57648]},"properties":{"id":98198,"name":"Chishmy","state_code":"BA","country_code":"RU"}},{"type":"Feature","geometry":{"type":"Point","coordinates":[55.03434,54.22145]},"properties":{"id":98249,"name":"Davlekanovo","state_code":"BA","country_code":"RU"}},{"type":"Feature","geometry":{"type":"Point","coordinates":[55.33333,54.75]},"properties":{"id":98282,"name":"Dmitriyevka","state_code":"BA","country_code":"RU"}},{"type":"Feature","geometry":{"type":"Point","coordinates":[57.90237,55.69497]},"properties":{"id":98357,"name":"Duvan","state_code":"BA","country_code":"RU"}},{"type":"Feature","geometry":{"type":"Point","coordinates":[54.86883,55.49106]},"properties":{"id":98366,"name":"Dyurtyuli","state_code":"BA","country_code":"RU"}},{"type":"Feature","geometry":{"type":"Point","coordinates":[55.25,53.08333]},"properties":{"id":98443,"name":"Fëdorovskiy Rayon","state_code":"BA","country_code":"RU"}},{"type":"Feature","geometry":{"type":"Point","coordinates":[56.41264,54.83244]},"properties":{"id":98632,"name":"Iglino","state_code":"BA","country_code":"RU"}},{"type":"Feature","geometry":{"type":"Point","coordinates":[57.5556,54.2167]},"properties":{"id":98682,"name":"Inzer","state_code":"BA","country_code":"RU"}},{"type":"Feature","geometry":{"type":"Point","coordinates":[56.04149,53.45446]},"properties":{"id":98705,"name":"Ishimbay","state_code":"BA","country_code":"RU"}},{"type":"Feature","geometry":{"type":"Point","coordinates":[56.58043,52.18584]},"properties":{"id":98722,"name":"Isyangulovo","state_code":"BA","country_code":"RU"}},{"type":"Feature","geometry":{"type":"Point","coordinates":[56.1517,54.5369]},"properties":{"id":98762,"name":"Kabakovo","state_code":"BA","country_code":"RU"}},{"type":"Feature","geometry":{"type":"Point","coordinates":[54.80321,55.96926]},"properties":{"id":98800,"name":"Kaltasy","state_code":"BA","country_code":"RU"}},{"type":"Feature","geometry":{"type":"Point","coordinates":[54.11667,54.56667]},"properties":{"id":98839,"name":"Kandry","state_code":"BA","country_code":"RU"}},{"type":"Feature","geometry":{"type":"Point","coordinates":[56.90692,55.83373]},"properties":{"id":98864,"name":"Karaidel’","state_code":"BA","country_code":"RU"}},{"type":"Feature","geometry":{"type":"Point","coordinates":[56.1837,54.3709]},"properties":{"id":98882,"name":"Karmaskaly","state_code":"BA","country_code":"RU"}},{"type":"Feature","geometry":{"type":"Point","coordinates":[58.25,52]},"properties":{"id":98975,"name":"Khaybullinskiy Rayon","state_code":"BA","country_code":"RU"}},{"type":"Feature","geometry":{"type":"Point","coordinates":[54.7979,53.6324]},"properties":{"id":99054,"name":"Kirgiz-Miyaki","state_code":"BA","country_code":"RU"}},{"type":"Feature","geometry":{"type":"Point","coordinates":[56.66727,55.19617]},"properties":{"id":99280,"name":"Krasnaya Gorka","state_code":"BA","country_code":"RU"}},{"type":"Feature","geometry":{"type":"Point","coordinates":[55.04659,55.98729]},"properties":{"id":99324,"name":"Krasnokholmskiy","state_code":"BA","country_code":"RU"}},{"type":"Feature","geometry":{"type":"Point","coordinates":[56.65287,55.38625]},"properties":{"id":99364,"name":"Krasnyy Klyuch","state_code":"BA","country_code":"RU"}},{"type":"Feature","geometry":{"type":"Point","coordinates":[56.75667,54.87583]},"properties":{"id":99420,"name":"Kudeyevskiy","state_code":"BA","country_code":"RU"}},{"type":"Feature","geometry":{"type":"Point","coordinates":[55.78333,52.76667]},"properties":{"id":99440,"name":"Kumertau","state_code":"BA","country_code":"RU"}},{"type":"Feature","geometry":{"type":"Point","coordinates":[55.35083,55.105]},"properties":{"id":99487,"name":"Kushnarënkovo","state_code":"BA","country_code":"RU"}},{"type":"Feature","geometry":{"type":"Point","coordinates":[58.36722,53.91944]},"properties":{"id":99659,"name":"Lomovka","state_code":"BA","country_code":"RU"}},{"type":"Feature","geometry":{"type":"Point","coordinates":[56.96583,55.76338]},"properties":{"id":99737,"name":"Maginsk","state_code":"BA","country_code":"RU"}},{"type":"Feature","geometry":{"type":"Point","coordinates":[55.685,52.6839]},"properties":{"id":99818,"name":"Mayachnyy","state_code":"BA","country_code":"RU"}},{"type":"Feature","geometry":{"type":"Point","coordinates":[58.25,55.91667]},"properties":{"id":99839,"name":"Mechetlinskiy Rayon","state_code":"BA","country_code":"RU"}},{"type":"Feature","geometry":{"type":"Point","coordinates":[55.93277,52.96467]},"properties":{"id":99855,"name":"Meleuz","state_code":"BA","country_code":"RU"}},{"type":"Feature","geometry":{"type":"Point","coordinates":[58.25278,55.53028]},"properties":{"id":99872,"name":"Mesyagutovo","state_code":"BA","country_code":"RU"}},{"type":"Feature","geometry":{"type":"Point","coordinates":[57.81713,54.04976]},"properties":{"id":99877,"name":"Mezgor'e","state_code":"BA","country_code":"RU"}},{"type":"Feature","geometry":{"type":"Point","coordinates":[55.89193,54.805]},"properties":{"id":99897,"name":"Mikhaylovka","state_code":"BA","country_code":"RU"}},{"type":"Feature","geometry":{"type":"Point","coordinates":[58.7891,54.0231]},"properties":{"id":99916,"name":"Mindyak","state_code":"BA","country_code":"RU"}},{"type":"Feature","geometry":{"type":"Point","coordinates":[59.1064,53.9997]},"properties":{"id":99928,"name":"Mishkino","state_code":"BA","country_code":"RU"}},{"type":"Feature","geometry":{"type":"Point","coordinates":[56,55.58333]},"properties":{"id":99930,"name":"Mishkinskiy Rayon","state_code":"BA","country_code":"RU"}},{"type":"Feature","geometry":{"type":"Point","coordinates":[54.83333,53.58333]},"properties":{"id":99933,"name":"Miyakinskiy Rayon","state_code":"BA","country_code":"RU"}},{"type":"Feature","geometry":{"type":"Point","coordinates":[56.62444,52.71611]},"properties":{"id":99988,"name":"Mrakovo","state_code":"BA","country_code":"RU"}},{"type":"Feature","geometry":{"type":"Point","coordinates":[58.5585,55.0379]},"properties":{"id":100017,"name":"Mursalimkino","state_code":"BA","country_code":"RU"}},{"type":"Feature","geometry":{"type":"Point","coordinates":[54.2661,56.092]},"properties":{"id":100086,"name":"Neftekamsk","state_code":"BA","country_code":"RU"}},{"type":"Feature","geometry":{"type":"Point","coordinates":[54.15573,56.12422]},"properties":{"id":100140,"name":"Nikolo-Berëzovka","state_code":"BA","country_code":"RU"}},{"type":"Feature","geometry":{"type":"Point","coordinates":[53.68329,54.33852]},"properties":{"id":100159,"name":"Nizhnetroitskiy","state_code":"BA","country_code":"RU"}},{"type":"Feature","geometry":{"type":"Point","coordinates":[58.9549,55.7062]},"properties":{"id":100227,"name":"Novobelokatay","state_code":"BA","country_code":"RU"}},{"type":"Feature","geometry":{"type":"Point","coordinates":[56.66667,54.75]},"properties":{"id":100369,"name":"Nurimanovskiy Rayon","state_code":"BA","country_code":"RU"}},{"type":"Feature","geometry":{"type":"Point","coordinates":[53.47103,54.48147]},"properties":{"id":100411,"name":"Oktyabr’skiy","state_code":"BA","country_code":"RU"}},{"type":"Feature","geometry":{"type":"Point","coordinates":[56.55426,55.42094]},"properties":{"id":100567,"name":"Pavlovka","state_code":"BA","country_code":"RU"}},{"type":"Feature","geometry":{"type":"Point","coordinates":[53.93333,53.9]},"properties":{"id":100853,"name":"Priyutovo","state_code":"BA","country_code":"RU"}},{"type":"Feature","geometry":{"type":"Point","coordinates":[54.9468,54.0658]},"properties":{"id":100948,"name":"Rayevskiy","state_code":"BA","country_code":"RU"}},{"type":"Feature","geometry":{"type":"Point","coordinates":[55.90773,53.38365]},"properties":{"id":101078,"name":"Salavat","state_code":"BA","country_code":"RU"}},{"type":"Feature","geometry":{"type":"Point","coordinates":[54.61528,55.36028]},"properties":{"id":101164,"name":"Semiletka","state_code":"BA","country_code":"RU"}},{"type":"Feature","geometry":{"type":"Point","coordinates":[53.7964,54.42408]},"properties":{"id":101173,"name":"Serafimovskiy","state_code":"BA","country_code":"RU"}},{"type":"Feature","geometry":{"type":"Point","coordinates":[54.76667,53.96667]},"properties":{"id":101234,"name":"Shafranovo","state_code":"BA","country_code":"RU"}},{"type":"Feature","geometry":{"type":"Point","coordinates":[54,54.81667]},"properties":{"id":101258,"name":"Sharan","state_code":"BA","country_code":"RU"}},{"type":"Feature","geometry":{"type":"Point","coordinates":[58.66583,52.71806]},"properties":{"id":101366,"name":"Sibay","state_code":"BA","country_code":"RU"}},{"type":"Feature","geometry":{"type":"Point","coordinates":[55.928,56.0017]},"properties":{"id":101573,"name":"Starobaltachevo","state_code":"BA","country_code":"RU"}},{"type":"Feature","geometry":{"type":"Point","coordinates":[57.4423,53.1031]},"properties":{"id":101595,"name":"Starosubkhangulovo","state_code":"BA","country_code":"RU"}},{"type":"Feature","geometry":{"type":"Point","coordinates":[55.2578,53.43755]},"properties":{"id":101618,"name":"Sterlibashevo","state_code":"BA","country_code":"RU"}},{"type":"Feature","geometry":{"type":"Point","coordinates":[55.95015,53.62462]},"properties":{"id":101619,"name":"Sterlitamak","state_code":"BA","country_code":"RU"}},{"type":"Feature","geometry":{"type":"Point","coordinates":[53.81153,54.55741]},"properties":{"id":101640,"name":"Subkhankulovo","state_code":"BA","country_code":"RU"}},{"type":"Feature","geometry":{"type":"Point","coordinates":[58.10139,52.99333]},"properties":{"id":101822,"name":"Temyasovo","state_code":"BA","country_code":"RU"}},{"type":"Feature","geometry":{"type":"Point","coordinates":[58.5806,54.2109]},"properties":{"id":101862,"name":"Tirlyanskiy","state_code":"BA","country_code":"RU"}},{"type":"Feature","geometry":{"type":"Point","coordinates":[55.88248,54.02408]},"properties":{"id":101876,"name":"Tolbazy","state_code":"BA","country_code":"RU"}},{"type":"Feature","geometry":{"type":"Point","coordinates":[58.2225,52.88917]},"properties":{"id":101959,"name":"Tubinskiy","state_code":"BA","country_code":"RU"}},{"type":"Feature","geometry":{"type":"Point","coordinates":[57.4552,53.8409]},"properties":{"id":101964,"name":"Tukan","state_code":"BA","country_code":"RU"}},{"type":"Feature","geometry":{"type":"Point","coordinates":[53.7097,54.60666]},"properties":{"id":101986,"name":"Tuymazy","state_code":"BA","country_code":"RU"}},{"type":"Feature","geometry":{"type":"Point","coordinates":[59.43611,54.35806]},"properties":{"id":102013,"name":"Uchaly","state_code":"BA","country_code":"RU"}},{"type":"Feature","geometry":{"type":"Point","coordinates":[55.96779,54.74306]},"properties":{"id":102025,"name":"Ufa","state_code":"BA","country_code":"RU"}},{"type":"Feature","geometry":{"type":"Point","coordinates":[56.9827,54.9157]},"properties":{"id":102049,"name":"Ulu-Telyak","state_code":"BA","country_code":"RU"}},{"type":"Feature","geometry":{"type":"Point","coordinates":[56.3221,54.4355]},"properties":{"id":102050,"name":"Ulukulevo","state_code":"BA","country_code":"RU"}},{"type":"Feature","geometry":{"type":"Point","coordinates":[56.87417,54.88314]},"properties":{"id":102080,"name":"Urman","state_code":"BA","country_code":"RU"}},{"type":"Feature","geometry":{"type":"Point","coordinates":[54.31455,55.45046]},"properties":{"id":102246,"name":"Verkhneyarkeyevo","state_code":"BA","country_code":"RU"}},{"type":"Feature","geometry":{"type":"Point","coordinates":[57.53722,53.52889]},"properties":{"id":102249,"name":"Verkhniy Avzyan","state_code":"BA","country_code":"RU"}},{"type":"Feature","geometry":{"type":"Point","coordinates":[58.60444,55.40833]},"properties":{"id":102261,"name":"Verkhniye Kigi","state_code":"BA","country_code":"RU"}},{"type":"Feature","geometry":{"type":"Point","coordinates":[55.8575,56.29117]},"properties":{"id":102264,"name":"Verkhniye Tatyshly","state_code":"BA","country_code":"RU"}},{"type":"Feature","geometry":{"type":"Point","coordinates":[56.14664,53.12336]},"properties":{"id":102394,"name":"Voskresenskoye","state_code":"BA","country_code":"RU"}},{"type":"Feature","geometry":{"type":"Point","coordinates":[54.9338,56.2751]},"properties":{"id":102480,"name":"Yanaul","state_code":"BA","country_code":"RU"}},{"type":"Feature","geometry":{"type":"Point","coordinates":[54.91667,56.25]},"properties":{"id":102481,"name":"Yanaul’skiy Rayon","state_code":"BA","country_code":"RU"}},{"type":"Feature","geometry":{"type":"Point","coordinates":[56.13532,55.21988]},"properties":{"id":102520,"name":"Yazykovo","state_code":"BA","country_code":"RU"}},{"type":"Feature","geometry":{"type":"Point","coordinates":[53.67125,54.07614]},"properties":{"id":102565,"name":"Yermekeyevo","state_code":"BA","country_code":"RU"}},{"type":"Feature","geometry":{"type":"Point","coordinates":[55.8,52.71667]},"properties":{"id":102567,"name":"Yermolayevo","state_code":"BA","country_code":"RU"}},{"type":"Feature","geometry":{"type":"Point","coordinates":[56.39329,52.90412]},"properties":{"id":102592,"name":"Yumaguzino","state_code":"BA","country_code":"RU"}},{"type":"Feature","geometry":{"type":"Point","coordinates":[57.4392,52.2332]},"properties":{"id":102747,"name":"Zilair","state_code":"BA","country_code":"RU"}},{"type":"Feature","geometry":{"type":"Point","coordinates":[55.9185,53.2222]},"properties":{"id":102749,"name":"Zirgan","state_code":"BA","country_code":"RU"}}]}