{"type":"FeatureCollection","features":[{"type":"Feature","geometry":{"type":"Point","coordinates":[177.5103,64.73424]},"properties":{"id":97618,"name":"Anadyr","state_code":"CHU","country_code":"RU"}},{"type":"Feature","geometry":{"type":"Point","coordinates":[173,65]},"properties":{"id":97619,"name":"Anadyrskiy Rayon","state_code":"CHU","country_code":"RU"}},{"type":"Feature","geometry":{"type":"Point","coordinates":[179.35046,63.06101]},"properties":{"id":97897,"name":"Beringovskiy","state_code":"CHU","country_code":"RU"}},{"type":"Feature","geometry":{"type":"Point","coordinates":[166.43721,68.05464]},"properties":{"id":97928,"name":"Bilibino","state_code":"CHU","country_code":"RU"}},{"type":"Feature","geometry":{"type":"Point","coordinates":[-179.12198,66.32166]},"properties":{"id":98381,"name":"Egvekinot","state_code":"CHU","country_code":"RU"}},{"type":"Feature","geometry":{"type":"Point","coordinates":[-171.02082,65.58604]},"properties":{"id":99547,"name":"Lavrentiya","state_code":"CHU","country_code":"RU"}},{"type":"Feature","geometry":{"type":"Point","coordinates":[-171.70387,65.50306]},"properties":{"id":99664,"name":"Lorino","state_code":"CHU","country_code":"RU"}},{"type":"Feature","geometry":{"type":"Point","coordinates":[170.29993,69.70287]},"properties":{"id":100669,"name":"Pevek","state_code":"CHU","country_code":"RU"}},{"type":"Feature","geometry":{"type":"Point","coordinates":[-173.22641,64.42289]},"properties":{"id":100872,"name":"Provideniya","state_code":"CHU","country_code":"RU"}},{"type":"Feature","geometry":{"type":"Point","coordinates":[-175,65.25]},"properties":{"id":100873,"name":"Providenskiy Rayon","state_code":"CHU","country_code":"RU"}}]}