{"type":"FeatureCollection","features":[{"type":"Feature","geometry":{"type":"Point","coordinates":[45.28373,43.18997]},"properties":{"id":97499,"name":"Achkhoy-Martan","state_code":"CE","country_code":"RU"}},{"type":"Feature","geometry":{"type":"Point","coordinates":[45.25,43.08333]},"properties":{"id":97500,"name":"Achkhoy-Martanovskiy Rayon","state_code":"CE","country_code":"RU"}},{"type":"Feature","geometry":{"type":"Point","coordinates":[45.53917,43.25861]},"properties":{"id":97593,"name":"Alkhan-Kala","state_code":"CE","country_code":"RU"}},{"type":"Feature","geometry":{"type":"Point","coordinates":[45.57228,43.23179]},"properties":{"id":97594,"name":"Alkhan-Yurt","state_code":"CE","country_code":"RU"}},{"type":"Feature","geometry":{"type":"Point","coordinates":[45.65134,43.0639]},"properties":{"id":97595,"name":"Alkhazurovo","state_code":"CE","country_code":"RU"}},{"type":"Feature","geometry":{"type":"Point","coordinates":[46.28209,43.21711]},"properties":{"id":97597,"name":"Alleroy","state_code":"CE","country_code":"RU"}},{"type":"Feature","geometry":{"type":"Point","coordinates":[45.24154,43.7028]},"properties":{"id":97601,"name":"Alpatovo","state_code":"CE","country_code":"RU"}},{"type":"Feature","geometry":{"type":"Point","coordinates":[45.87454,43.29713]},"properties":{"id":97662,"name":"Argun","state_code":"CE","country_code":"RU"}},{"type":"Feature","geometry":{"type":"Point","coordinates":[45.18194,43.24167]},"properties":{"id":97705,"name":"Assinovskaya","state_code":"CE","country_code":"RU"}},{"type":"Feature","geometry":{"type":"Point","coordinates":[46.00152,43.16345]},"properties":{"id":97725,"name":"Avtury","state_code":"CE","country_code":"RU"}},{"type":"Feature","geometry":{"type":"Point","coordinates":[46.19423,43.22417]},"properties":{"id":97749,"name":"Bachi-Yurt","state_code":"CE","country_code":"RU"}},{"type":"Feature","geometry":{"type":"Point","coordinates":[45.19734,43.15986]},"properties":{"id":97787,"name":"Bamut","state_code":"CE","country_code":"RU"}},{"type":"Feature","geometry":{"type":"Point","coordinates":[45.83082,43.18995]},"properties":{"id":97847,"name":"Belgatoy","state_code":"CE","country_code":"RU"}},{"type":"Feature","geometry":{"type":"Point","coordinates":[45.05025,43.69305]},"properties":{"id":97886,"name":"Benoy-Yurt","state_code":"CE","country_code":"RU"}},{"type":"Feature","geometry":{"type":"Point","coordinates":[45.62746,42.84147]},"properties":{"id":98045,"name":"Borzoy","state_code":"CE","country_code":"RU"}},{"type":"Feature","geometry":{"type":"Point","coordinates":[45.78889,43.2]},"properties":{"id":98130,"name":"Chechen-Aul","state_code":"CE","country_code":"RU"}},{"type":"Feature","geometry":{"type":"Point","coordinates":[45.74323,43.08869]},"properties":{"id":98196,"name":"Chiri-Yurt","state_code":"CE","country_code":"RU"}},{"type":"Feature","geometry":{"type":"Point","coordinates":[45.73046,43.03534]},"properties":{"id":98333,"name":"Duba-Yurt","state_code":"CE","country_code":"RU"}},{"type":"Feature","geometry":{"type":"Point","coordinates":[46.11578,42.96435]},"properties":{"id":98365,"name":"Dyshne-Vedeno","state_code":"CE","country_code":"RU"}},{"type":"Feature","geometry":{"type":"Point","coordinates":[45.98787,43.3186]},"properties":{"id":98373,"name":"Dzhalka","state_code":"CE","country_code":"RU"}},{"type":"Feature","geometry":{"type":"Point","coordinates":[44.95889,43.67306]},"properties":{"id":98388,"name":"Elin-Yurt","state_code":"CE","country_code":"RU"}},{"type":"Feature","geometry":{"type":"Point","coordinates":[46.36048,43.32633]},"properties":{"id":98397,"name":"Engel’-Yurt","state_code":"CE","country_code":"RU"}},{"type":"Feature","geometry":{"type":"Point","coordinates":[45.47238,43.16354]},"properties":{"id":98473,"name":"Gekhi","state_code":"CE","country_code":"RU"}},{"type":"Feature","geometry":{"type":"Point","coordinates":[45.921,43.1857]},"properties":{"id":98484,"name":"Germenchuk","state_code":"CE","country_code":"RU"}},{"type":"Feature","geometry":{"type":"Point","coordinates":[46.40249,43.24728]},"properties":{"id":98485,"name":"Gerzel’-Aul","state_code":"CE","country_code":"RU"}},{"type":"Feature","geometry":{"type":"Point","coordinates":[45.08574,43.5002]},"properties":{"id":98516,"name":"Goragorskiy","state_code":"CE","country_code":"RU"}},{"type":"Feature","geometry":{"type":"Point","coordinates":[45.62278,43.16417]},"properties":{"id":98573,"name":"Goyty","state_code":"CE","country_code":"RU"}},{"type":"Feature","geometry":{"type":"Point","coordinates":[46.37174,43.53086]},"properties":{"id":98582,"name":"Grebenskaya","state_code":"CE","country_code":"RU"}},{"type":"Feature","geometry":{"type":"Point","coordinates":[45.5,43.33333]},"properties":{"id":98593,"name":"Groznenskiy Rayon","state_code":"CE","country_code":"RU"}},{"type":"Feature","geometry":{"type":"Point","coordinates":[45.68895,43.31195]},"properties":{"id":98594,"name":"Groznyy","state_code":"CE","country_code":"RU"}},{"type":"Feature","geometry":{"type":"Point","coordinates":[46.10925,43.35071]},"properties":{"id":98606,"name":"Gudermes","state_code":"CE","country_code":"RU"}},{"type":"Feature","geometry":{"type":"Point","coordinates":[46.16667,43.33333]},"properties":{"id":98607,"name":"Gudermesskiy Rayon","state_code":"CE","country_code":"RU"}},{"type":"Feature","geometry":{"type":"Point","coordinates":[46.10229,43.2791]},"properties":{"id":98644,"name":"Ilaskhan-Yurt","state_code":"CE","country_code":"RU"}},{"type":"Feature","geometry":{"type":"Point","coordinates":[45.13371,43.71359]},"properties":{"id":98702,"name":"Ishcherskaya","state_code":"CE","country_code":"RU"}},{"type":"Feature","geometry":{"type":"Point","coordinates":[46.38936,43.21278]},"properties":{"id":98707,"name":"Ishkhoy-Yurt","state_code":"CE","country_code":"RU"}},{"type":"Feature","geometry":{"type":"Point","coordinates":[45.57574,42.73552]},"properties":{"id":98724,"name":"Itum-Kali","state_code":"CE","country_code":"RU"}},{"type":"Feature","geometry":{"type":"Point","coordinates":[45.5725,42.73611]},"properties":{"id":98725,"name":"Itum-Kalinskiy Rayon","state_code":"CE","country_code":"RU"}},{"type":"Feature","geometry":{"type":"Point","coordinates":[45.5209,43.57383]},"properties":{"id":98794,"name":"Kalinovskaya","state_code":"CE","country_code":"RU"}},{"type":"Feature","geometry":{"type":"Point","coordinates":[46.47821,43.74381]},"properties":{"id":98876,"name":"Kargalinskaya","state_code":"CE","country_code":"RU"}},{"type":"Feature","geometry":{"type":"Point","coordinates":[45.36991,43.17164]},"properties":{"id":98911,"name":"Katyr-Yurt","state_code":"CE","country_code":"RU"}},{"type":"Feature","geometry":{"type":"Point","coordinates":[45.45302,43.23502]},"properties":{"id":98956,"name":"Khambi-Irze","state_code":"CE","country_code":"RU"}},{"type":"Feature","geometry":{"type":"Point","coordinates":[45.75564,43.30212]},"properties":{"id":98960,"name":"Khankala","state_code":"CE","country_code":"RU"}},{"type":"Feature","geometry":{"type":"Point","coordinates":[45.50417,43.23972]},"properties":{"id":99429,"name":"Kulary","state_code":"CE","country_code":"RU"}},{"type":"Feature","geometry":{"type":"Point","coordinates":[46.0881,43.20184]},"properties":{"id":99456,"name":"Kurchaloy","state_code":"CE","country_code":"RU"}},{"type":"Feature","geometry":{"type":"Point","coordinates":[45.33969,43.62271]},"properties":{"id":99537,"name":"Lakha Nëvre","state_code":"CE","country_code":"RU"}},{"type":"Feature","geometry":{"type":"Point","coordinates":[45.24542,43.61033]},"properties":{"id":99541,"name":"Lakkha Nëvre","state_code":"CE","country_code":"RU"}},{"type":"Feature","geometry":{"type":"Point","coordinates":[45.56217,43.06366]},"properties":{"id":99804,"name":"Martan-Chu","state_code":"CE","country_code":"RU"}},{"type":"Feature","geometry":{"type":"Point","coordinates":[46.13215,43.20348]},"properties":{"id":99829,"name":"Mayrtup","state_code":"CE","country_code":"RU"}},{"type":"Feature","geometry":{"type":"Point","coordinates":[45.90716,43.25147]},"properties":{"id":99871,"name":"Mesker-Yurt","state_code":"CE","country_code":"RU"}},{"type":"Feature","geometry":{"type":"Point","coordinates":[45.25,43.58333]},"properties":{"id":100041,"name":"Nadterechnyy Rayon","state_code":"CE","country_code":"RU"}},{"type":"Feature","geometry":{"type":"Point","coordinates":[45.31173,43.65075]},"properties":{"id":100067,"name":"Naurskaya","state_code":"CE","country_code":"RU"}},{"type":"Feature","geometry":{"type":"Point","coordinates":[45.5,43.66667]},"properties":{"id":100068,"name":"Naurskiy Rayon","state_code":"CE","country_code":"RU"}},{"type":"Feature","geometry":{"type":"Point","coordinates":[44.88889,43.65361]},"properties":{"id":100189,"name":"Nogamerzin-Yurt","state_code":"CE","country_code":"RU"}},{"type":"Feature","geometry":{"type":"Point","coordinates":[45.77306,43.13528]},"properties":{"id":100356,"name":"Novyye Atagi","state_code":"CE","country_code":"RU"}},{"type":"Feature","geometry":{"type":"Point","coordinates":[46.37868,43.0929]},"properties":{"id":100365,"name":"Nozhay-Yurt","state_code":"CE","country_code":"RU"}},{"type":"Feature","geometry":{"type":"Point","coordinates":[46.41667,43.08333]},"properties":{"id":100366,"name":"Nozhay-Yurtovskiy Rayon","state_code":"CE","country_code":"RU"}},{"type":"Feature","geometry":{"type":"Point","coordinates":[46.24803,43.26402]},"properties":{"id":100516,"name":"Oyskhara","state_code":"CE","country_code":"RU"}},{"type":"Feature","geometry":{"type":"Point","coordinates":[45.52343,43.40331]},"properties":{"id":100615,"name":"Pervomayskaya","state_code":"CE","country_code":"RU"}},{"type":"Feature","geometry":{"type":"Point","coordinates":[45.82611,43.37944]},"properties":{"id":100654,"name":"Petropavlovskaya","state_code":"CE","country_code":"RU"}},{"type":"Feature","geometry":{"type":"Point","coordinates":[45.75808,43.25303]},"properties":{"id":100820,"name":"Prigorodnoye","state_code":"CE","country_code":"RU"}},{"type":"Feature","geometry":{"type":"Point","coordinates":[45.45435,43.08954]},"properties":{"id":101000,"name":"Roshni-Chu","state_code":"CE","country_code":"RU"}},{"type":"Feature","geometry":{"type":"Point","coordinates":[45.29786,43.28935]},"properties":{"id":101087,"name":"Samashki","state_code":"CE","country_code":"RU"}},{"type":"Feature","geometry":{"type":"Point","coordinates":[45.15969,43.31277]},"properties":{"id":101186,"name":"Sernovodsk","state_code":"CE","country_code":"RU"}},{"type":"Feature","geometry":{"type":"Point","coordinates":[45.98583,43.12265]},"properties":{"id":101196,"name":"Serzhen’-Yurt","state_code":"CE","country_code":"RU"}},{"type":"Feature","geometry":{"type":"Point","coordinates":[45.38815,43.22647]},"properties":{"id":101227,"name":"Shaami-Yurt","state_code":"CE","country_code":"RU"}},{"type":"Feature","geometry":{"type":"Point","coordinates":[45.35898,43.09476]},"properties":{"id":101244,"name":"Shalazhi","state_code":"CE","country_code":"RU"}},{"type":"Feature","geometry":{"type":"Point","coordinates":[45.90194,43.14806]},"properties":{"id":101245,"name":"Shali","state_code":"CE","country_code":"RU"}},{"type":"Feature","geometry":{"type":"Point","coordinates":[45.91667,43.16667]},"properties":{"id":101246,"name":"Shalinskiy Rayon","state_code":"CE","country_code":"RU"}},{"type":"Feature","geometry":{"type":"Point","coordinates":[45.68865,42.87143]},"properties":{"id":101269,"name":"Shatoy","state_code":"CE","country_code":"RU"}},{"type":"Feature","geometry":{"type":"Point","coordinates":[46.34016,43.50804]},"properties":{"id":101365,"name":"Shëlkovskaya","state_code":"CE","country_code":"RU"}},{"type":"Feature","geometry":{"type":"Point","coordinates":[46,43.58333]},"properties":{"id":101292,"name":"Shelkovskiy Rayon","state_code":"CE","country_code":"RU"}},{"type":"Feature","geometry":{"type":"Point","coordinates":[45.74377,43.33542]},"properties":{"id":101566,"name":"Staraya Sunzha","state_code":"CE","country_code":"RU"}},{"type":"Feature","geometry":{"type":"Point","coordinates":[45.74056,43.12028]},"properties":{"id":101610,"name":"Staryye Atagi","state_code":"CE","country_code":"RU"}},{"type":"Feature","geometry":{"type":"Point","coordinates":[45.77901,43.44548]},"properties":{"id":101880,"name":"Tolstoy-Yurt","state_code":"CE","country_code":"RU"}},{"type":"Feature","geometry":{"type":"Point","coordinates":[46.22235,43.00658]},"properties":{"id":101943,"name":"Tsentoroy","state_code":"CE","country_code":"RU"}},{"type":"Feature","geometry":{"type":"Point","coordinates":[46.00013,43.24206]},"properties":{"id":101953,"name":"Tsotsin-Yurt","state_code":"CE","country_code":"RU"}},{"type":"Feature","geometry":{"type":"Point","coordinates":[45.53791,43.13053]},"properties":{"id":102087,"name":"Urus-Martan","state_code":"CE","country_code":"RU"}},{"type":"Feature","geometry":{"type":"Point","coordinates":[45.58333,43.08333]},"properties":{"id":102088,"name":"Urus-Martanovskiy Rayon","state_code":"CE","country_code":"RU"}},{"type":"Feature","geometry":{"type":"Point","coordinates":[45.40806,43.17972]},"properties":{"id":102182,"name":"Valerik","state_code":"CE","country_code":"RU"}},{"type":"Feature","geometry":{"type":"Point","coordinates":[46.09611,42.96892]},"properties":{"id":102208,"name":"Vedeno","state_code":"CE","country_code":"RU"}},{"type":"Feature","geometry":{"type":"Point","coordinates":[46.08333,43]},"properties":{"id":102209,"name":"Vedenskiy Rayon","state_code":"CE","country_code":"RU"}},{"type":"Feature","geometry":{"type":"Point","coordinates":[46.19045,43.10528]},"properties":{"id":102474,"name":"Yalkhoy-Mokhk","state_code":"CE","country_code":"RU"}},{"type":"Feature","geometry":{"type":"Point","coordinates":[45.42307,43.26224]},"properties":{"id":102634,"name":"Zakan-Yurt","state_code":"CE","country_code":"RU"}},{"type":"Feature","geometry":{"type":"Point","coordinates":[46.45566,43.0571]},"properties":{"id":102642,"name":"Zandak","state_code":"CE","country_code":"RU"}},{"type":"Feature","geometry":{"type":"Point","coordinates":[45.12867,43.67898]},"properties":{"id":102761,"name":"Znamenskoye","state_code":"CE","country_code":"RU"}}]}