{"type":"FeatureCollection","features":[{"type":"Feature","geometry":{"type":"Point","coordinates":[100.61755,54.63958]},"properties":{"id":105829,"name":"Afanas’yeva","state_code":"IRK","country_code":"RU"}},{"type":"Feature","geometry":{"type":"Point","coordinates":[103,53.33333]},"properties":{"id":105830,"name":"Alarskiy Rayon","state_code":"IRK","country_code":"RU"}},{"type":"Feature","geometry":{"type":"Point","coordinates":[108.4,57.85]},"properties":{"id":105831,"name":"Alekseyevskaya","state_code":"IRK","country_code":"RU"}},{"type":"Feature","geometry":{"type":"Point","coordinates":[100.255,54.4009]},"properties":{"id":105832,"name":"Algatuy","state_code":"IRK","country_code":"RU"}},{"type":"Feature","geometry":{"type":"Point","coordinates":[98.6644,55.5562]},"properties":{"id":105833,"name":"Alzamay","state_code":"IRK","country_code":"RU"}},{"type":"Feature","geometry":{"type":"Point","coordinates":[103.88639,52.53667]},"properties":{"id":105835,"name":"Angarsk","state_code":"IRK","country_code":"RU"}},{"type":"Feature","geometry":{"type":"Point","coordinates":[103.66667,52.33333]},"properties":{"id":105836,"name":"Angarskiy Rayon","state_code":"IRK","country_code":"RU"}},{"type":"Feature","geometry":{"type":"Point","coordinates":[99.3875,55.1033]},"properties":{"id":105837,"name":"Atagay","state_code":"IRK","country_code":"RU"}},{"type":"Feature","geometry":{"type":"Point","coordinates":[100.59436,54.39948]},"properties":{"id":105838,"name":"Badar","state_code":"IRK","country_code":"RU"}},{"type":"Feature","geometry":{"type":"Point","coordinates":[104.04861,52.22556]},"properties":{"id":105839,"name":"Baklashi","state_code":"IRK","country_code":"RU"}},{"type":"Feature","geometry":{"type":"Point","coordinates":[103.05234,54.0057]},"properties":{"id":105840,"name":"Balagansk","state_code":"IRK","country_code":"RU"}},{"type":"Feature","geometry":{"type":"Point","coordinates":[102.83333,54.66667]},"properties":{"id":105841,"name":"Balaganskiy Rayon","state_code":"IRK","country_code":"RU"}},{"type":"Feature","geometry":{"type":"Point","coordinates":[114.27694,58.01056]},"properties":{"id":105842,"name":"Balakhninskiy","state_code":"IRK","country_code":"RU"}},{"type":"Feature","geometry":{"type":"Point","coordinates":[105.51389,53.06611]},"properties":{"id":105845,"name":"Bayanday","state_code":"IRK","country_code":"RU"}},{"type":"Feature","geometry":{"type":"Point","coordinates":[105.58333,53.08333]},"properties":{"id":105846,"name":"Bayandayevskiy Rayon","state_code":"IRK","country_code":"RU"}},{"type":"Feature","geometry":{"type":"Point","coordinates":[104.1402,51.5151]},"properties":{"id":105847,"name":"Baykal’sk","state_code":"IRK","country_code":"RU"}},{"type":"Feature","geometry":{"type":"Point","coordinates":[103.5851,56.9366]},"properties":{"id":105848,"name":"Bereznyaki","state_code":"IRK","country_code":"RU"}},{"type":"Feature","geometry":{"type":"Point","coordinates":[97.8235,55.9634]},"properties":{"id":105849,"name":"Biryusinsk","state_code":"IRK","country_code":"RU"}},{"type":"Feature","geometry":{"type":"Point","coordinates":[114.19333,57.85056]},"properties":{"id":105850,"name":"Bodaybo","state_code":"IRK","country_code":"RU"}},{"type":"Feature","geometry":{"type":"Point","coordinates":[103.7714,53.153]},"properties":{"id":105851,"name":"Bokhan","state_code":"IRK","country_code":"RU"}},{"type":"Feature","geometry":{"type":"Point","coordinates":[104,53.16667]},"properties":{"id":105852,"name":"Bokhanskiy Rayon","state_code":"IRK","country_code":"RU"}},{"type":"Feature","geometry":{"type":"Point","coordinates":[104.7335,51.9536]},"properties":{"id":105853,"name":"Bol’shaya Rechka","state_code":"IRK","country_code":"RU"}},{"type":"Feature","geometry":{"type":"Point","coordinates":[101.61417,56.1325]},"properties":{"id":105854,"name":"Bratsk","state_code":"IRK","country_code":"RU"}},{"type":"Feature","geometry":{"type":"Point","coordinates":[102,56]},"properties":{"id":105855,"name":"Bratskiy Rayon","state_code":"IRK","country_code":"RU"}},{"type":"Feature","geometry":{"type":"Point","coordinates":[100.13109,54.6255]},"properties":{"id":105856,"name":"Budagovo","state_code":"IRK","country_code":"RU"}},{"type":"Feature","geometry":{"type":"Point","coordinates":[103.0675,53.15611]},"properties":{"id":105857,"name":"Cheremkhovo","state_code":"IRK","country_code":"RU"}},{"type":"Feature","geometry":{"type":"Point","coordinates":[102.33333,52.66667]},"properties":{"id":105858,"name":"Cheremkhovskiy Rayon","state_code":"IRK","country_code":"RU"}},{"type":"Feature","geometry":{"type":"Point","coordinates":[99.6342,56.0815]},"properties":{"id":105859,"name":"Chunskiy","state_code":"IRK","country_code":"RU"}},{"type":"Feature","geometry":{"type":"Point","coordinates":[104.38694,52.28028]},"properties":{"id":105860,"name":"Dzerzhinsk","state_code":"IRK","country_code":"RU"}},{"type":"Feature","geometry":{"type":"Point","coordinates":[104.83333,53]},"properties":{"id":105861,"name":"Ekhirit-Bulagatskiy Rayon","state_code":"IRK","country_code":"RU"}},{"type":"Feature","geometry":{"type":"Point","coordinates":[100.74093,54.40318]},"properties":{"id":105863,"name":"Gadaley","state_code":"IRK","country_code":"RU"}},{"type":"Feature","geometry":{"type":"Point","coordinates":[100.64399,54.76127]},"properties":{"id":105864,"name":"Guran","state_code":"IRK","country_code":"RU"}},{"type":"Feature","geometry":{"type":"Point","coordinates":[100.08111,54.19194]},"properties":{"id":105866,"name":"Ikey","state_code":"IRK","country_code":"RU"}},{"type":"Feature","geometry":{"type":"Point","coordinates":[100.68498,55.22473]},"properties":{"id":105867,"name":"Ilir","state_code":"IRK","country_code":"RU"}},{"type":"Feature","geometry":{"type":"Point","coordinates":[104.29639,52.29778]},"properties":{"id":105869,"name":"Irkutsk","state_code":"IRK","country_code":"RU"}},{"type":"Feature","geometry":{"type":"Point","coordinates":[104.66667,52.33333]},"properties":{"id":105870,"name":"Irkutskiy Rayon","state_code":"IRK","country_code":"RU"}},{"type":"Feature","geometry":{"type":"Point","coordinates":[105.88167,53.96056]},"properties":{"id":105872,"name":"Kachug","state_code":"IRK","country_code":"RU"}},{"type":"Feature","geometry":{"type":"Point","coordinates":[106.5,54]},"properties":{"id":105873,"name":"Kachugskiy Rayon","state_code":"IRK","country_code":"RU"}},{"type":"Feature","geometry":{"type":"Point","coordinates":[108,61]},"properties":{"id":105874,"name":"Katangskiy Rayon","state_code":"IRK","country_code":"RU"}},{"type":"Feature","geometry":{"type":"Point","coordinates":[108,56]},"properties":{"id":105875,"name":"Kazachinsko-Lenskiy Rayon","state_code":"IRK","country_code":"RU"}},{"type":"Feature","geometry":{"type":"Point","coordinates":[107.57624,56.26974]},"properties":{"id":105876,"name":"Kazachinskoye","state_code":"IRK","country_code":"RU"}},{"type":"Feature","geometry":{"type":"Point","coordinates":[104.4025,52.46583]},"properties":{"id":105877,"name":"Khomutovo","state_code":"IRK","country_code":"RU"}},{"type":"Feature","geometry":{"type":"Point","coordinates":[104.2494,56.7032]},"properties":{"id":105878,"name":"Khrebtovaya","state_code":"IRK","country_code":"RU"}},{"type":"Feature","geometry":{"type":"Point","coordinates":[99.63042,54.70375]},"properties":{"id":105879,"name":"Khudoyelanskoye","state_code":"IRK","country_code":"RU"}},{"type":"Feature","geometry":{"type":"Point","coordinates":[107.33972,53.19389]},"properties":{"id":105880,"name":"Khuzhir","state_code":"IRK","country_code":"RU"}},{"type":"Feature","geometry":{"type":"Point","coordinates":[101.9811,54.1337]},"properties":{"id":105881,"name":"Kimil’tey","state_code":"IRK","country_code":"RU"}},{"type":"Feature","geometry":{"type":"Point","coordinates":[108.11194,57.78528]},"properties":{"id":105882,"name":"Kirensk","state_code":"IRK","country_code":"RU"}},{"type":"Feature","geometry":{"type":"Point","coordinates":[109.25,58]},"properties":{"id":105883,"name":"Kirenskiy Rayon","state_code":"IRK","country_code":"RU"}},{"type":"Feature","geometry":{"type":"Point","coordinates":[103.9,52.6]},"properties":{"id":105884,"name":"Kitoy","state_code":"IRK","country_code":"RU"}},{"type":"Feature","geometry":{"type":"Point","coordinates":[100.45395,54.65057]},"properties":{"id":105885,"name":"Kotik","state_code":"IRK","country_code":"RU"}},{"type":"Feature","geometry":{"type":"Point","coordinates":[115.32167,58.50944]},"properties":{"id":105886,"name":"Kropotkin","state_code":"IRK","country_code":"RU"}},{"type":"Feature","geometry":{"type":"Point","coordinates":[103.69556,51.72083]},"properties":{"id":105887,"name":"Kultuk","state_code":"IRK","country_code":"RU"}},{"type":"Feature","geometry":{"type":"Point","coordinates":[102.78389,53.3508]},"properties":{"id":105888,"name":"Kutulik","state_code":"IRK","country_code":"RU"}},{"type":"Feature","geometry":{"type":"Point","coordinates":[101.50917,54.34241]},"properties":{"id":105889,"name":"Kuytun","state_code":"IRK","country_code":"RU"}},{"type":"Feature","geometry":{"type":"Point","coordinates":[101.66667,54.5]},"properties":{"id":105890,"name":"Kuytunskiy Rayon","state_code":"IRK","country_code":"RU"}},{"type":"Feature","geometry":{"type":"Point","coordinates":[98.4813,56.0724]},"properties":{"id":105891,"name":"Kvitok","state_code":"IRK","country_code":"RU"}},{"type":"Feature","geometry":{"type":"Point","coordinates":[99.5136,56.0458]},"properties":{"id":105893,"name":"Lesogorsk","state_code":"IRK","country_code":"RU"}},{"type":"Feature","geometry":{"type":"Point","coordinates":[104.8693,51.8535]},"properties":{"id":105894,"name":"Listvyanka","state_code":"IRK","country_code":"RU"}},{"type":"Feature","geometry":{"type":"Point","coordinates":[107.44166,56.17148]},"properties":{"id":105895,"name":"Magistral’nyy","state_code":"IRK","country_code":"RU"}},{"type":"Feature","geometry":{"type":"Point","coordinates":[112.89861,58.31056]},"properties":{"id":105896,"name":"Mama","state_code":"IRK","country_code":"RU"}},{"type":"Feature","geometry":{"type":"Point","coordinates":[114.00278,57.81611]},"properties":{"id":105897,"name":"Mamakan","state_code":"IRK","country_code":"RU"}},{"type":"Feature","geometry":{"type":"Point","coordinates":[112.5,58]},"properties":{"id":105898,"name":"Mamsko-Chuyskiy Rayon","state_code":"IRK","country_code":"RU"}},{"type":"Feature","geometry":{"type":"Point","coordinates":[106.05444,53.48556]},"properties":{"id":105899,"name":"Manzurka","state_code":"IRK","country_code":"RU"}},{"type":"Feature","geometry":{"type":"Point","coordinates":[104.21083,52.20889]},"properties":{"id":105900,"name":"Markova","state_code":"IRK","country_code":"RU"}},{"type":"Feature","geometry":{"type":"Point","coordinates":[107.08806,57.32056]},"properties":{"id":105901,"name":"Markovo","state_code":"IRK","country_code":"RU"}},{"type":"Feature","geometry":{"type":"Point","coordinates":[104.04944,52.415]},"properties":{"id":105902,"name":"Meget","state_code":"IRK","country_code":"RU"}},{"type":"Feature","geometry":{"type":"Point","coordinates":[103.17194,52.8575]},"properties":{"id":105903,"name":"Mishelevka","state_code":"IRK","country_code":"RU"}},{"type":"Feature","geometry":{"type":"Point","coordinates":[100.24831,54.47143]},"properties":{"id":105904,"name":"Mugun","state_code":"IRK","country_code":"RU"}},{"type":"Feature","geometry":{"type":"Point","coordinates":[103.5,57]},"properties":{"id":105906,"name":"Nizhneilimskiy Rayon","state_code":"IRK","country_code":"RU"}},{"type":"Feature","geometry":{"type":"Point","coordinates":[99.0276,54.9076]},"properties":{"id":105907,"name":"Nizhneudinsk","state_code":"IRK","country_code":"RU"}},{"type":"Feature","geometry":{"type":"Point","coordinates":[98.5,54.33333]},"properties":{"id":105908,"name":"Nizhneudinskiy Rayon","state_code":"IRK","country_code":"RU"}},{"type":"Feature","geometry":{"type":"Point","coordinates":[103.9112,57.1334]},"properties":{"id":105909,"name":"Novaya Igirma","state_code":"IRK","country_code":"RU"}},{"type":"Feature","geometry":{"type":"Point","coordinates":[97.7076,56.9578]},"properties":{"id":105910,"name":"Novobiryusinskiy","state_code":"IRK","country_code":"RU"}},{"type":"Feature","geometry":{"type":"Point","coordinates":[102.7117,53.7]},"properties":{"id":105911,"name":"Novonukutskiy","state_code":"IRK","country_code":"RU"}},{"type":"Feature","geometry":{"type":"Point","coordinates":[106.5,53]},"properties":{"id":105912,"name":"Ol’khonskiy Rayon","state_code":"IRK","country_code":"RU"}},{"type":"Feature","geometry":{"type":"Point","coordinates":[103.87694,53.38722]},"properties":{"id":105914,"name":"Osa","state_code":"IRK","country_code":"RU"}},{"type":"Feature","geometry":{"type":"Point","coordinates":[104.45556,52.58611]},"properties":{"id":105915,"name":"Oyëk","state_code":"IRK","country_code":"RU"}},{"type":"Feature","geometry":{"type":"Point","coordinates":[104.38,52.16]},"properties":{"id":105916,"name":"Pad’ Mel’nichnaya","state_code":"IRK","country_code":"RU"}},{"type":"Feature","geometry":{"type":"Point","coordinates":[100.48454,54.41083]},"properties":{"id":105917,"name":"Perfilovo","state_code":"IRK","country_code":"RU"}},{"type":"Feature","geometry":{"type":"Point","coordinates":[104.44583,52.27056]},"properties":{"id":105918,"name":"Pivovarikha","state_code":"IRK","country_code":"RU"}},{"type":"Feature","geometry":{"type":"Point","coordinates":[101.05361,55.52583]},"properties":{"id":105919,"name":"Pokosnoye","state_code":"IRK","country_code":"RU"}},{"type":"Feature","geometry":{"type":"Point","coordinates":[103.7519,57.2639]},"properties":{"id":105921,"name":"Rudnogorsk","state_code":"IRK","country_code":"RU"}},{"type":"Feature","geometry":{"type":"Point","coordinates":[102.1648,54.1088]},"properties":{"id":105923,"name":"Sayansk","state_code":"IRK","country_code":"RU"}},{"type":"Feature","geometry":{"type":"Point","coordinates":[103.82028,52.06667]},"properties":{"id":105925,"name":"Shamanka","state_code":"IRK","country_code":"RU"}},{"type":"Feature","geometry":{"type":"Point","coordinates":[99.89209,54.64178]},"properties":{"id":105926,"name":"Sheberta","state_code":"IRK","country_code":"RU"}},{"type":"Feature","geometry":{"type":"Point","coordinates":[104.1,52.21389]},"properties":{"id":105927,"name":"Shelekhov","state_code":"IRK","country_code":"RU"}},{"type":"Feature","geometry":{"type":"Point","coordinates":[100.90994,54.46243]},"properties":{"id":105928,"name":"Sheragul","state_code":"IRK","country_code":"RU"}},{"type":"Feature","geometry":{"type":"Point","coordinates":[103.96,56.4915]},"properties":{"id":105929,"name":"Shestakovo","state_code":"IRK","country_code":"RU"}},{"type":"Feature","geometry":{"type":"Point","coordinates":[98.3543,56.3703]},"properties":{"id":105930,"name":"Shitkino","state_code":"IRK","country_code":"RU"}},{"type":"Feature","geometry":{"type":"Point","coordinates":[99.1328,54.8318]},"properties":{"id":105932,"name":"Shumskiy","state_code":"IRK","country_code":"RU"}},{"type":"Feature","geometry":{"type":"Point","coordinates":[103.70611,51.65944]},"properties":{"id":105933,"name":"Slyudyanka","state_code":"IRK","country_code":"RU"}},{"type":"Feature","geometry":{"type":"Point","coordinates":[104,51.5]},"properties":{"id":105934,"name":"Slyudyanskiy Rayon","state_code":"IRK","country_code":"RU"}},{"type":"Feature","geometry":{"type":"Point","coordinates":[104.12806,52.25528]},"properties":{"id":105935,"name":"Smolenshchina","state_code":"IRK","country_code":"RU"}},{"type":"Feature","geometry":{"type":"Point","coordinates":[103.4904,52.8884]},"properties":{"id":105937,"name":"Sredniy","state_code":"IRK","country_code":"RU"}},{"type":"Feature","geometry":{"type":"Point","coordinates":[103.3325,53.08583]},"properties":{"id":105938,"name":"Svirsk","state_code":"IRK","country_code":"RU"}},{"type":"Feature","geometry":{"type":"Point","coordinates":[98.0044,55.9342]},"properties":{"id":105939,"name":"Tayshet","state_code":"IRK","country_code":"RU"}},{"type":"Feature","geometry":{"type":"Point","coordinates":[98,56]},"properties":{"id":105940,"name":"Tayshetskiy Rayon","state_code":"IRK","country_code":"RU"}},{"type":"Feature","geometry":{"type":"Point","coordinates":[103.46083,52.86917]},"properties":{"id":105941,"name":"Tayturka","state_code":"IRK","country_code":"RU"}},{"type":"Feature","geometry":{"type":"Point","coordinates":[103.7138,52.6981]},"properties":{"id":105942,"name":"Tel’ma","state_code":"IRK","country_code":"RU"}},{"type":"Feature","geometry":{"type":"Point","coordinates":[100.58143,54.56358]},"properties":{"id":105944,"name":"Tulun","state_code":"IRK","country_code":"RU"}},{"type":"Feature","geometry":{"type":"Point","coordinates":[100.33333,54.16667]},"properties":{"id":105945,"name":"Tulunskiy Rayon","state_code":"IRK","country_code":"RU"}},{"type":"Feature","geometry":{"type":"Point","coordinates":[101.17054,54.45851]},"properties":{"id":105946,"name":"Tulyushka","state_code":"IRK","country_code":"RU"}},{"type":"Feature","geometry":{"type":"Point","coordinates":[102.31056,53.67028]},"properties":{"id":105947,"name":"Tyret’ Pervaya","state_code":"IRK","country_code":"RU"}},{"type":"Feature","geometry":{"type":"Point","coordinates":[98.8586,55.079]},"properties":{"id":105948,"name":"Uk","state_code":"IRK","country_code":"RU"}},{"type":"Feature","geometry":{"type":"Point","coordinates":[104.24016,52.46051]},"properties":{"id":105949,"name":"Urik","state_code":"IRK","country_code":"RU"}},{"type":"Feature","geometry":{"type":"Point","coordinates":[103.25,52.5]},"properties":{"id":105950,"name":"Usol’skiy Rayon","state_code":"IRK","country_code":"RU"}},{"type":"Feature","geometry":{"type":"Point","coordinates":[103.64528,52.75194]},"properties":{"id":105951,"name":"Usol’ye-Sibirskoye","state_code":"IRK","country_code":"RU"}},{"type":"Feature","geometry":{"type":"Point","coordinates":[102.66194,58.00056]},"properties":{"id":105952,"name":"Ust’-Ilimsk","state_code":"IRK","country_code":"RU"}},{"type":"Feature","geometry":{"type":"Point","coordinates":[105.7672,56.7938]},"properties":{"id":105953,"name":"Ust’-Kut","state_code":"IRK","country_code":"RU"}},{"type":"Feature","geometry":{"type":"Point","coordinates":[106,57]},"properties":{"id":105954,"name":"Ust’-Kutskiy Rayon","state_code":"IRK","country_code":"RU"}},{"type":"Feature","geometry":{"type":"Point","coordinates":[104.75083,52.805]},"properties":{"id":105955,"name":"Ust’-Ordynskiy","state_code":"IRK","country_code":"RU"}},{"type":"Feature","geometry":{"type":"Point","coordinates":[103.0304,54.1742]},"properties":{"id":105956,"name":"Ust’-Uda","state_code":"IRK","country_code":"RU"}},{"type":"Feature","geometry":{"type":"Point","coordinates":[103.66667,55]},"properties":{"id":105957,"name":"Ust’-Udinskiy Rayon","state_code":"IRK","country_code":"RU"}},{"type":"Feature","geometry":{"type":"Point","coordinates":[103.1106,56.4088]},"properties":{"id":105959,"name":"Vidim","state_code":"IRK","country_code":"RU"}},{"type":"Feature","geometry":{"type":"Point","coordinates":[101.17767,56.12128]},"properties":{"id":105960,"name":"Vikhorevka","state_code":"IRK","country_code":"RU"}},{"type":"Feature","geometry":{"type":"Point","coordinates":[99.1031,54.8968]},"properties":{"id":105961,"name":"Voznesenskiy","state_code":"IRK","country_code":"RU"}},{"type":"Feature","geometry":{"type":"Point","coordinates":[105.2542,56.8471]},"properties":{"id":105962,"name":"Yantal’","state_code":"IRK","country_code":"RU"}},{"type":"Feature","geometry":{"type":"Point","coordinates":[100.2385,54.2549]},"properties":{"id":105963,"name":"Yedogon","state_code":"IRK","country_code":"RU"}},{"type":"Feature","geometry":{"type":"Point","coordinates":[106.40466,52.80286]},"properties":{"id":105964,"name":"Yelantsy","state_code":"IRK","country_code":"RU"}},{"type":"Feature","geometry":{"type":"Point","coordinates":[108.01535,61.28016]},"properties":{"id":105965,"name":"Yerbogachen","state_code":"IRK","country_code":"RU"}},{"type":"Feature","geometry":{"type":"Point","coordinates":[97.6348,56.0498]},"properties":{"id":105966,"name":"Yurty","state_code":"IRK","country_code":"RU"}},{"type":"Feature","geometry":{"type":"Point","coordinates":[102.5065,53.5584]},"properties":{"id":105967,"name":"Zalari","state_code":"IRK","country_code":"RU"}},{"type":"Feature","geometry":{"type":"Point","coordinates":[101.5,53.16667]},"properties":{"id":105968,"name":"Zalarinskiy Rayon","state_code":"IRK","country_code":"RU"}},{"type":"Feature","geometry":{"type":"Point","coordinates":[102.77838,57.90525]},"properties":{"id":105969,"name":"Zheleznodorozhnyy","state_code":"IRK","country_code":"RU"}},{"type":"Feature","geometry":{"type":"Point","coordinates":[104.1217,56.5768]},"properties":{"id":105970,"name":"Zheleznogorsk-Ilimskiy","state_code":"IRK","country_code":"RU"}},{"type":"Feature","geometry":{"type":"Point","coordinates":[105.15808,54.81061]},"properties":{"id":105971,"name":"Zhigalovo","state_code":"IRK","country_code":"RU"}},{"type":"Feature","geometry":{"type":"Point","coordinates":[105.5,55]},"properties":{"id":105972,"name":"Zhigalovskiy Rayon","state_code":"IRK","country_code":"RU"}},{"type":"Feature","geometry":{"type":"Point","coordinates":[102.0442,53.9202]},"properties":{"id":105973,"name":"Zima","state_code":"IRK","country_code":"RU"}},{"type":"Feature","geometry":{"type":"Point","coordinates":[101.66667,55.83333]},"properties":{"id":105974,"name":"Ziminskiy Rayon","state_code":"IRK","country_code":"RU"}},{"type":"Feature","geometry":{"type":"Point","coordinates":[106.4799,56.7492]},"properties":{"id":105975,"name":"Zvëzdnyy","state_code":"IRK","country_code":"RU"}}]}