{"type":"FeatureCollection","features":[{"type":"Feature","geometry":{"type":"Point","coordinates":[91.42917,53.71556]},"properties":{"id":97478,"name":"Abakan","state_code":"KK","country_code":"RU"}},{"type":"Feature","geometry":{"type":"Point","coordinates":[91.43333,53.71667]},"properties":{"id":97479,"name":"Abakan Gorod","state_code":"KK","country_code":"RU"}},{"type":"Feature","geometry":{"type":"Point","coordinates":[90.09278,52.655]},"properties":{"id":97484,"name":"Abaza","state_code":"KK","country_code":"RU"}},{"type":"Feature","geometry":{"type":"Point","coordinates":[91.5,53.5]},"properties":{"id":97602,"name":"Altayskiy Rayon","state_code":"KK","country_code":"RU"}},{"type":"Feature","geometry":{"type":"Point","coordinates":[90.52639,53.13194]},"properties":{"id":97704,"name":"Askiz","state_code":"KK","country_code":"RU"}},{"type":"Feature","geometry":{"type":"Point","coordinates":[91.39028,53.60389]},"properties":{"id":97880,"name":"Belyy Yar","state_code":"KK","country_code":"RU"}},{"type":"Feature","geometry":{"type":"Point","coordinates":[90.91389,53.05333]},"properties":{"id":97917,"name":"Beya","state_code":"KK","country_code":"RU"}},{"type":"Feature","geometry":{"type":"Point","coordinates":[89.52722,53.44972]},"properties":{"id":97941,"name":"Biskamzha","state_code":"KK","country_code":"RU"}},{"type":"Feature","geometry":{"type":"Point","coordinates":[90.83278,54.23444]},"properties":{"id":97979,"name":"Bograd","state_code":"KK","country_code":"RU"}},{"type":"Feature","geometry":{"type":"Point","coordinates":[91,54.33333]},"properties":{"id":97980,"name":"Bogradskiy Rayon","state_code":"KK","country_code":"RU"}},{"type":"Feature","geometry":{"type":"Point","coordinates":[91.41672,52.85576]},"properties":{"id":98191,"name":"Cherëmushki","state_code":"KK","country_code":"RU"}},{"type":"Feature","geometry":{"type":"Point","coordinates":[91.28417,53.82361]},"properties":{"id":98170,"name":"Chernogorsk","state_code":"KK","country_code":"RU"}},{"type":"Feature","geometry":{"type":"Point","coordinates":[89.28297,54.34835]},"properties":{"id":99165,"name":"Kommunar","state_code":"KK","country_code":"RU"}},{"type":"Feature","geometry":{"type":"Point","coordinates":[91.48361,53.00639]},"properties":{"id":99827,"name":"Mayna","state_code":"KK","country_code":"RU"}},{"type":"Feature","geometry":{"type":"Point","coordinates":[91.53639,53.66583]},"properties":{"id":100730,"name":"Podsineye","state_code":"KK","country_code":"RU"}},{"type":"Feature","geometry":{"type":"Point","coordinates":[91.39972,53.0875]},"properties":{"id":101139,"name":"Sayanogorsk","state_code":"KK","country_code":"RU"}},{"type":"Feature","geometry":{"type":"Point","coordinates":[89.95306,54.49111]},"properties":{"id":101326,"name":"Shira","state_code":"KK","country_code":"RU"}},{"type":"Feature","geometry":{"type":"Point","coordinates":[90.24667,54.00333]},"properties":{"id":101479,"name":"Sorsk","state_code":"KK","country_code":"RU"}},{"type":"Feature","geometry":{"type":"Point","coordinates":[89.89477,52.79542]},"properties":{"id":101790,"name":"Tashtyp","state_code":"KK","country_code":"RU"}},{"type":"Feature","geometry":{"type":"Point","coordinates":[89.94586,54.33949]},"properties":{"id":101963,"name":"Tuim","state_code":"KK","country_code":"RU"}},{"type":"Feature","geometry":{"type":"Point","coordinates":[91.39077,53.83651]},"properties":{"id":102113,"name":"Ust’-Abakan","state_code":"KK","country_code":"RU"}},{"type":"Feature","geometry":{"type":"Point","coordinates":[89.56008,53.26858]},"properties":{"id":102284,"name":"Vershina Tei","state_code":"KK","country_code":"RU"}}]}