{"type":"FeatureCollection","features":[{"type":"Feature","geometry":{"type":"Point","coordinates":[35.71611,51.05444]},"properties":{"id":97839,"name":"Belaya","state_code":"KRS","country_code":"RU"}},{"type":"Feature","geometry":{"type":"Point","coordinates":[37.2646,51.8855]},"properties":{"id":98147,"name":"Cheremisinovo","state_code":"KRS","country_code":"RU"}},{"type":"Feature","geometry":{"type":"Point","coordinates":[37.16667,51.91667]},"properties":{"id":98148,"name":"Cheremisinovskiy Rayon","state_code":"KRS","country_code":"RU"}},{"type":"Feature","geometry":{"type":"Point","coordinates":[36.05101,51.50739]},"properties":{"id":98168,"name":"Chernitsyno","state_code":"KRS","country_code":"RU"}},{"type":"Feature","geometry":{"type":"Point","coordinates":[35.8632,52.0891]},"properties":{"id":98415,"name":"Fatezh","state_code":"KRS","country_code":"RU"}},{"type":"Feature","geometry":{"type":"Point","coordinates":[35.75,52]},"properties":{"id":98416,"name":"Fatezhskiy Rayon","state_code":"KRS","country_code":"RU"}},{"type":"Feature","geometry":{"type":"Point","coordinates":[34.63278,51.33917]},"properties":{"id":98503,"name":"Glushkovo","state_code":"KRS","country_code":"RU"}},{"type":"Feature","geometry":{"type":"Point","coordinates":[38,51.5]},"properties":{"id":98565,"name":"Gorshechenskiy Rayon","state_code":"KRS","country_code":"RU"}},{"type":"Feature","geometry":{"type":"Point","coordinates":[38.0365,51.5244]},"properties":{"id":98566,"name":"Gorshechnoye","state_code":"KRS","country_code":"RU"}},{"type":"Feature","geometry":{"type":"Point","coordinates":[35.5769,51.6434]},"properties":{"id":98727,"name":"Ivanino","state_code":"KRS","country_code":"RU"}},{"type":"Feature","geometry":{"type":"Point","coordinates":[38.16667,51.75]},"properties":{"id":98903,"name":"Kastorenskiy Rayon","state_code":"KRS","country_code":"RU"}},{"type":"Feature","geometry":{"type":"Point","coordinates":[38.1302,51.8334]},"properties":{"id":98904,"name":"Kastornoye","state_code":"KRS","country_code":"RU"}},{"type":"Feature","geometry":{"type":"Point","coordinates":[34.5619,51.9207]},"properties":{"id":99001,"name":"Khomutovka","state_code":"KRS","country_code":"RU"}},{"type":"Feature","geometry":{"type":"Point","coordinates":[36.66667,51.41667]},"properties":{"id":99068,"name":"Kirovskiy","state_code":"KRS","country_code":"RU"}},{"type":"Feature","geometry":{"type":"Point","coordinates":[35.2941,51.8418]},"properties":{"id":99196,"name":"Konyshevka","state_code":"KRS","country_code":"RU"}},{"type":"Feature","geometry":{"type":"Point","coordinates":[34.908,51.4119]},"properties":{"id":99204,"name":"Korenëvo","state_code":"KRS","country_code":"RU"}},{"type":"Feature","geometry":{"type":"Point","coordinates":[37.71361,51.84083]},"properties":{"id":99410,"name":"Kshenskiy","state_code":"KRS","country_code":"RU"}},{"type":"Feature","geometry":{"type":"Point","coordinates":[35.6521,51.6601]},"properties":{"id":99457,"name":"Kurchatov","state_code":"KRS","country_code":"RU"}},{"type":"Feature","geometry":{"type":"Point","coordinates":[36.18735,51.73733]},"properties":{"id":99474,"name":"Kursk","state_code":"KRS","country_code":"RU"}},{"type":"Feature","geometry":{"type":"Point","coordinates":[36.16667,51.75]},"properties":{"id":99476,"name":"Kurskiy Rayon","state_code":"KRS","country_code":"RU"}},{"type":"Feature","geometry":{"type":"Point","coordinates":[35.2775,51.63069]},"properties":{"id":99726,"name":"L’govskiy","state_code":"KRS","country_code":"RU"}},{"type":"Feature","geometry":{"type":"Point","coordinates":[35.25,51.58333]},"properties":{"id":99727,"name":"L’govskiy Rayon","state_code":"KRS","country_code":"RU"}},{"type":"Feature","geometry":{"type":"Point","coordinates":[37.1282,51.4547]},"properties":{"id":99784,"name":"Manturovo","state_code":"KRS","country_code":"RU"}},{"type":"Feature","geometry":{"type":"Point","coordinates":[36.11667,51.41667]},"properties":{"id":99846,"name":"Medvenskiy Rayon","state_code":"KRS","country_code":"RU"}},{"type":"Feature","geometry":{"type":"Point","coordinates":[35.3767,52.2317]},"properties":{"id":99896,"name":"Mikhaylovka","state_code":"KRS","country_code":"RU"}},{"type":"Feature","geometry":{"type":"Point","coordinates":[36.27919,51.20981]},"properties":{"id":100389,"name":"Oboyan’","state_code":"KRS","country_code":"RU"}},{"type":"Feature","geometry":{"type":"Point","coordinates":[36.16667,51.25]},"properties":{"id":100388,"name":"Oboyanskiy Rayon","state_code":"KRS","country_code":"RU"}},{"type":"Feature","geometry":{"type":"Point","coordinates":[38.1758,51.6798]},"properties":{"id":100427,"name":"Olym","state_code":"KRS","country_code":"RU"}},{"type":"Feature","geometry":{"type":"Point","coordinates":[35.0552,52.2264]},"properties":{"id":100613,"name":"Pervoavgustovskiy","state_code":"KRS","country_code":"RU"}},{"type":"Feature","geometry":{"type":"Point","coordinates":[36.22461,52.27994]},"properties":{"id":100770,"name":"Ponyri Vtoryye","state_code":"KRS","country_code":"RU"}},{"type":"Feature","geometry":{"type":"Point","coordinates":[36.69594,51.23551]},"properties":{"id":100841,"name":"Pristen’","state_code":"KRS","country_code":"RU"}},{"type":"Feature","geometry":{"type":"Point","coordinates":[36.75,51.25]},"properties":{"id":100840,"name":"Pristenskiy Rayon","state_code":"KRS","country_code":"RU"}},{"type":"Feature","geometry":{"type":"Point","coordinates":[35.9314,51.6561]},"properties":{"id":100875,"name":"Pryamitsyno","state_code":"KRS","country_code":"RU"}},{"type":"Feature","geometry":{"type":"Point","coordinates":[34.6822,51.5655]},"properties":{"id":101055,"name":"Ryl’sk","state_code":"KRS","country_code":"RU"}},{"type":"Feature","geometry":{"type":"Point","coordinates":[36.90432,51.87555]},"properties":{"id":101278,"name":"Shchigry","state_code":"KRS","country_code":"RU"}},{"type":"Feature","geometry":{"type":"Point","coordinates":[36.7499,51.41853]},"properties":{"id":101461,"name":"Solntsevo","state_code":"KRS","country_code":"RU"}},{"type":"Feature","geometry":{"type":"Point","coordinates":[36.75,51.5]},"properties":{"id":101462,"name":"Solntsevskiy Rayon","state_code":"KRS","country_code":"RU"}},{"type":"Feature","geometry":{"type":"Point","coordinates":[37.58333,51.83333]},"properties":{"id":101515,"name":"Sovetskiy Rayon","state_code":"KRS","country_code":"RU"}},{"type":"Feature","geometry":{"type":"Point","coordinates":[35.2726,51.1976]},"properties":{"id":101647,"name":"Sudzha","state_code":"KRS","country_code":"RU"}},{"type":"Feature","geometry":{"type":"Point","coordinates":[37.12444,51.62222]},"properties":{"id":101857,"name":"Tim","state_code":"KRS","country_code":"RU"}},{"type":"Feature","geometry":{"type":"Point","coordinates":[36.01722,51.65278]},"properties":{"id":102383,"name":"Voroshnëvo","state_code":"KRS","country_code":"RU"}},{"type":"Feature","geometry":{"type":"Point","coordinates":[35.3711,52.331]},"properties":{"id":102720,"name":"Zheleznogorsk","state_code":"KRS","country_code":"RU"}},{"type":"Feature","geometry":{"type":"Point","coordinates":[36.37777,52.0842]},"properties":{"id":102765,"name":"Zolotukhino","state_code":"KRS","country_code":"RU"}},{"type":"Feature","geometry":{"type":"Point","coordinates":[36.5,52.08333]},"properties":{"id":102766,"name":"Zolotukhinskiy Rayon","state_code":"KRS","country_code":"RU"}}]}