{"type":"FeatureCollection","features":[{"type":"Feature","geometry":{"type":"Point","coordinates":[165.98333,55.21667]},"properties":{"id":97585,"name":"Aleutskiy Rayon","state_code":"KAM","country_code":"RU"}},{"type":"Feature","geometry":{"type":"Point","coordinates":[159.64266,55.6065]},"properties":{"id":97715,"name":"Atlasovo","state_code":"KAM","country_code":"RU"}},{"type":"Feature","geometry":{"type":"Point","coordinates":[158.5,56]},"properties":{"id":98100,"name":"Bystrinskiy Rayon","state_code":"KAM","country_code":"RU"}},{"type":"Feature","geometry":{"type":"Point","coordinates":[158.70708,55.92738]},"properties":{"id":98404,"name":"Esso","state_code":"KAM","country_code":"RU"}},{"type":"Feature","geometry":{"type":"Point","coordinates":[159.83333,58]},"properties":{"id":98863,"name":"Karaginsky","state_code":"KAM","country_code":"RU"}},{"type":"Feature","geometry":{"type":"Point","coordinates":[160.84541,56.32035]},"properties":{"id":99112,"name":"Klyuchi","state_code":"KAM","country_code":"RU"}},{"type":"Feature","geometry":{"type":"Point","coordinates":[159.8715,56.0486]},"properties":{"id":99270,"name":"Kozyrëvsk","state_code":"KAM","country_code":"RU"}},{"type":"Feature","geometry":{"type":"Point","coordinates":[158.62067,54.6961]},"properties":{"id":99914,"name":"Mil’kovo","state_code":"KAM","country_code":"RU"}},{"type":"Feature","geometry":{"type":"Point","coordinates":[159,55]},"properties":{"id":99915,"name":"Mil’kovskiy Rayon","state_code":"KAM","country_code":"RU"}},{"type":"Feature","geometry":{"type":"Point","coordinates":[169,61]},"properties":{"id":100430,"name":"Olyutorskiy Rayon","state_code":"KAM","country_code":"RU"}},{"type":"Feature","geometry":{"type":"Point","coordinates":[163.07034,59.24781]},"properties":{"id":100489,"name":"Ossora","state_code":"KAM","country_code":"RU"}},{"type":"Feature","geometry":{"type":"Point","coordinates":[156.50102,51.49604]},"properties":{"id":100518,"name":"Ozernovskiy","state_code":"KAM","country_code":"RU"}},{"type":"Feature","geometry":{"type":"Point","coordinates":[159.9563,59.08384]},"properties":{"id":100527,"name":"Palana","state_code":"KAM","country_code":"RU"}},{"type":"Feature","geometry":{"type":"Point","coordinates":[158.25723,52.96202]},"properties":{"id":100543,"name":"Paratunka","state_code":"KAM","country_code":"RU"}},{"type":"Feature","geometry":{"type":"Point","coordinates":[167,63]},"properties":{"id":100596,"name":"Penzhinskiy Rayon","state_code":"KAM","country_code":"RU"}},{"type":"Feature","geometry":{"type":"Point","coordinates":[158.65076,53.04444]},"properties":{"id":100652,"name":"Petropavlovsk-Kamchatsky","state_code":"KAM","country_code":"RU"}},{"type":"Feature","geometry":{"type":"Point","coordinates":[156.5,54.58333]},"properties":{"id":101428,"name":"Sobolevskiy Rayon","state_code":"KAM","country_code":"RU"}},{"type":"Feature","geometry":{"type":"Point","coordinates":[158.68161,57.75979]},"properties":{"id":101849,"name":"Tigil’","state_code":"KAM","country_code":"RU"}},{"type":"Feature","geometry":{"type":"Point","coordinates":[158.68687,57.76046]},"properties":{"id":101850,"name":"Tigil’skiy Rayon","state_code":"KAM","country_code":"RU"}},{"type":"Feature","geometry":{"type":"Point","coordinates":[166.05764,60.42795]},"properties":{"id":101856,"name":"Tilichiki","state_code":"KAM","country_code":"RU"}},{"type":"Feature","geometry":{"type":"Point","coordinates":[157,52.66667]},"properties":{"id":102116,"name":"Ust’-Bol’sheretskiy Rayon","state_code":"KAM","country_code":"RU"}},{"type":"Feature","geometry":{"type":"Point","coordinates":[162.47778,56.22778]},"properties":{"id":102125,"name":"Ust’-Kamchatsk Staryy","state_code":"KAM","country_code":"RU"}},{"type":"Feature","geometry":{"type":"Point","coordinates":[161,56]},"properties":{"id":102126,"name":"Ust’-Kamchatskiy Rayon","state_code":"KAM","country_code":"RU"}},{"type":"Feature","geometry":{"type":"Point","coordinates":[158.40469,52.9311]},"properties":{"id":102308,"name":"Vilyuchinsk","state_code":"KAM","country_code":"RU"}},{"type":"Feature","geometry":{"type":"Point","coordinates":[158.38135,53.18909]},"properties":{"id":102544,"name":"Yelizovo","state_code":"KAM","country_code":"RU"}},{"type":"Feature","geometry":{"type":"Point","coordinates":[159,53.66667]},"properties":{"id":102545,"name":"Yelizovskiy Rayon","state_code":"KAM","country_code":"RU"}}]}