{"type":"FeatureCollection","features":[{"type":"Feature","geometry":{"type":"Point","coordinates":[44.22,46.2732]},"properties":{"id":97680,"name":"Arshan’","state_code":"KL","country_code":"RU"}},{"type":"Feature","geometry":{"type":"Point","coordinates":[44.25583,46.30778]},"properties":{"id":98389,"name":"Elista","state_code":"KL","country_code":"RU"}},{"type":"Feature","geometry":{"type":"Point","coordinates":[41.96556,46.13528]},"properties":{"id":98562,"name":"Gorodoviki","state_code":"KL","country_code":"RU"}},{"type":"Feature","geometry":{"type":"Point","coordinates":[41.93353,46.08785]},"properties":{"id":98563,"name":"Gorodovikovsk","state_code":"KL","country_code":"RU"}},{"type":"Feature","geometry":{"type":"Point","coordinates":[44.64722,45.82083]},"properties":{"id":98636,"name":"Iki-Burul","state_code":"KL","country_code":"RU"}},{"type":"Feature","geometry":{"type":"Point","coordinates":[44.66667,45.83333]},"properties":{"id":98637,"name":"Iki-Burul’skiy Rayon","state_code":"KL","country_code":"RU"}},{"type":"Feature","geometry":{"type":"Point","coordinates":[47.37073,45.39288]},"properties":{"id":98901,"name":"Kaspiyskiy","state_code":"KL","country_code":"RU"}},{"type":"Feature","geometry":{"type":"Point","coordinates":[46.0428,45.33]},"properties":{"id":99174,"name":"Komsomol’skiy","state_code":"KL","country_code":"RU"}},{"type":"Feature","geometry":{"type":"Point","coordinates":[44.68083,47.95472]},"properties":{"id":99773,"name":"Malyye Derbety","state_code":"KL","country_code":"RU"}},{"type":"Feature","geometry":{"type":"Point","coordinates":[43.50722,46.10111]},"properties":{"id":100852,"name":"Priyutnoye","state_code":"KL","country_code":"RU"}},{"type":"Feature","geometry":{"type":"Point","coordinates":[44.5208,47.7772]},"properties":{"id":101065,"name":"Sadovoye","state_code":"KL","country_code":"RU"}},{"type":"Feature","geometry":{"type":"Point","coordinates":[44.83333,47.83333]},"properties":{"id":101123,"name":"Sarpinskiy Rayon","state_code":"KL","country_code":"RU"}},{"type":"Feature","geometry":{"type":"Point","coordinates":[44.52162,47.30868]},"properties":{"id":101516,"name":"Sovetskoye","state_code":"KL","country_code":"RU"}},{"type":"Feature","geometry":{"type":"Point","coordinates":[44.2591,46.4206]},"properties":{"id":101921,"name":"Troitskoye","state_code":"KL","country_code":"RU"}},{"type":"Feature","geometry":{"type":"Point","coordinates":[46.7218,47.5639]},"properties":{"id":101936,"name":"Tsagan Aman","state_code":"KL","country_code":"RU"}},{"type":"Feature","geometry":{"type":"Point","coordinates":[42.2762,46.3395]},"properties":{"id":102508,"name":"Yashalta","state_code":"KL","country_code":"RU"}},{"type":"Feature","geometry":{"type":"Point","coordinates":[42.5,46.25]},"properties":{"id":102509,"name":"Yashaltinskiy Rayon","state_code":"KL","country_code":"RU"}},{"type":"Feature","geometry":{"type":"Point","coordinates":[45.3435,46.1711]},"properties":{"id":102511,"name":"Yashkul’","state_code":"KL","country_code":"RU"}}]}