{"type":"FeatureCollection","features":[{"type":"Feature","geometry":{"type":"Point","coordinates":[39.87214,52.78285]},"properties":{"id":98010,"name":"Bol’shoy Khomutets","state_code":"LIP","country_code":"RU"}},{"type":"Feature","geometry":{"type":"Point","coordinates":[39.3713,52.4569]},"properties":{"id":98023,"name":"Borinskoye","state_code":"LIP","country_code":"RU"}},{"type":"Feature","geometry":{"type":"Point","coordinates":[39.96288,53.24319]},"properties":{"id":98116,"name":"Chaplygin","state_code":"LIP","country_code":"RU"}},{"type":"Feature","geometry":{"type":"Point","coordinates":[40,53.25]},"properties":{"id":98117,"name":"Chaplyginskiy Rayon","state_code":"LIP","country_code":"RU"}},{"type":"Feature","geometry":{"type":"Point","coordinates":[39.15553,53.25155]},"properties":{"id":98244,"name":"Dankov","state_code":"LIP","country_code":"RU"}},{"type":"Feature","geometry":{"type":"Point","coordinates":[39.16667,53.25]},"properties":{"id":98245,"name":"Dankovskiy Rayon","state_code":"LIP","country_code":"RU"}},{"type":"Feature","geometry":{"type":"Point","coordinates":[40.47306,52.16528]},"properties":{"id":98291,"name":"Dobrinka","state_code":"LIP","country_code":"RU"}},{"type":"Feature","geometry":{"type":"Point","coordinates":[40.5,52.16667]},"properties":{"id":98292,"name":"Dobrinskiy Rayon","state_code":"LIP","country_code":"RU"}},{"type":"Feature","geometry":{"type":"Point","coordinates":[39.83333,52.83333]},"properties":{"id":98293,"name":"Dobrovskiy Rayon","state_code":"LIP","country_code":"RU"}},{"type":"Feature","geometry":{"type":"Point","coordinates":[39.8109,52.8678]},"properties":{"id":98294,"name":"Dobroye","state_code":"LIP","country_code":"RU"}},{"type":"Feature","geometry":{"type":"Point","coordinates":[38.34527,52.31945]},"properties":{"id":98301,"name":"Dolgorukovo","state_code":"LIP","country_code":"RU"}},{"type":"Feature","geometry":{"type":"Point","coordinates":[38.33333,52.33333]},"properties":{"id":98302,"name":"Dolgorukovskiy Rayon","state_code":"LIP","country_code":"RU"}},{"type":"Feature","geometry":{"type":"Point","coordinates":[38.9738,52.6174]},"properties":{"id":98315,"name":"Donskoye","state_code":"LIP","country_code":"RU"}},{"type":"Feature","geometry":{"type":"Point","coordinates":[39.93593,52.49657]},"properties":{"id":98596,"name":"Gryazi","state_code":"LIP","country_code":"RU"}},{"type":"Feature","geometry":{"type":"Point","coordinates":[39.91667,52.5]},"properties":{"id":98597,"name":"Gryazinskiy Rayon","state_code":"LIP","country_code":"RU"}},{"type":"Feature","geometry":{"type":"Point","coordinates":[37.96398,52.6887]},"properties":{"id":98751,"name":"Izmalkovo","state_code":"LIP","country_code":"RU"}},{"type":"Feature","geometry":{"type":"Point","coordinates":[38,52.66667]},"properties":{"id":98752,"name":"Izmalkovskiy Rayon","state_code":"LIP","country_code":"RU"}},{"type":"Feature","geometry":{"type":"Point","coordinates":[39.8269,52.9493]},"properties":{"id":98784,"name":"Kalikino","state_code":"LIP","country_code":"RU"}},{"type":"Feature","geometry":{"type":"Point","coordinates":[38.26488,52.62484]},"properties":{"id":98925,"name":"Kazaki","state_code":"LIP","country_code":"RU"}},{"type":"Feature","geometry":{"type":"Point","coordinates":[39.82164,52.53817]},"properties":{"id":98932,"name":"Kazinka","state_code":"LIP","country_code":"RU"}},{"type":"Feature","geometry":{"type":"Point","coordinates":[39.08333,52.16667]},"properties":{"id":98986,"name":"Khlevenskiy Rayon","state_code":"LIP","country_code":"RU"}},{"type":"Feature","geometry":{"type":"Point","coordinates":[39.09316,52.19512]},"properties":{"id":98987,"name":"Khlevnoye","state_code":"LIP","country_code":"RU"}},{"type":"Feature","geometry":{"type":"Point","coordinates":[38.75,52.83333]},"properties":{"id":99289,"name":"Krasninskiy Rayon","state_code":"LIP","country_code":"RU"}},{"type":"Feature","geometry":{"type":"Point","coordinates":[38.79353,52.86449]},"properties":{"id":99349,"name":"Krasnoye","state_code":"LIP","country_code":"RU"}},{"type":"Feature","geometry":{"type":"Point","coordinates":[39.47036,52.69574]},"properties":{"id":99512,"name":"Kuz’minskiye Otverzhki","state_code":"LIP","country_code":"RU"}},{"type":"Feature","geometry":{"type":"Point","coordinates":[39.16639,53.01942]},"properties":{"id":99554,"name":"Lebedyan’","state_code":"LIP","country_code":"RU"}},{"type":"Feature","geometry":{"type":"Point","coordinates":[39.16667,53]},"properties":{"id":99553,"name":"Lebedyanskiy Rayon","state_code":"LIP","country_code":"RU"}},{"type":"Feature","geometry":{"type":"Point","coordinates":[39.44604,53.21344]},"properties":{"id":99609,"name":"Lev Tolstoy","state_code":"LIP","country_code":"RU"}},{"type":"Feature","geometry":{"type":"Point","coordinates":[39.5,53.25]},"properties":{"id":99610,"name":"Lev-Tolstovskiy Rayon","state_code":"LIP","country_code":"RU"}},{"type":"Feature","geometry":{"type":"Point","coordinates":[39.57076,52.60311]},"properties":{"id":99632,"name":"Lipetsk","state_code":"LIP","country_code":"RU"}},{"type":"Feature","geometry":{"type":"Point","coordinates":[39.58333,52.58333]},"properties":{"id":99633,"name":"Lipetskiy Rayon","state_code":"LIP","country_code":"RU"}},{"type":"Feature","geometry":{"type":"Point","coordinates":[40.64976,52.24159]},"properties":{"id":100664,"name":"Petrovskiy","state_code":"LIP","country_code":"RU"}},{"type":"Feature","geometry":{"type":"Point","coordinates":[39.84729,52.63822]},"properties":{"id":100700,"name":"Plekhanovo","state_code":"LIP","country_code":"RU"}},{"type":"Feature","geometry":{"type":"Point","coordinates":[39.71238,52.04472]},"properties":{"id":100819,"name":"Prigorodka","state_code":"LIP","country_code":"RU"}},{"type":"Feature","geometry":{"type":"Point","coordinates":[38.33333,52.83333]},"properties":{"id":101552,"name":"Stanovlyanskiy Rayon","state_code":"LIP","country_code":"RU"}},{"type":"Feature","geometry":{"type":"Point","coordinates":[38.35818,52.76384]},"properties":{"id":101553,"name":"Stanovoye","state_code":"LIP","country_code":"RU"}},{"type":"Feature","geometry":{"type":"Point","coordinates":[39.4966,52.57437]},"properties":{"id":101730,"name":"Syrskoye","state_code":"LIP","country_code":"RU"}},{"type":"Feature","geometry":{"type":"Point","coordinates":[38.25,52.16667]},"properties":{"id":101825,"name":"Terbunskiy Rayon","state_code":"LIP","country_code":"RU"}},{"type":"Feature","geometry":{"type":"Point","coordinates":[38.2834,52.1493]},"properties":{"id":101826,"name":"Terbuny","state_code":"LIP","country_code":"RU"}},{"type":"Feature","geometry":{"type":"Point","coordinates":[39.7288,52.04662]},"properties":{"id":102099,"name":"Usman’","state_code":"LIP","country_code":"RU"}},{"type":"Feature","geometry":{"type":"Point","coordinates":[39.75,52]},"properties":{"id":102098,"name":"Usmanskiy Rayon","state_code":"LIP","country_code":"RU"}},{"type":"Feature","geometry":{"type":"Point","coordinates":[37.8854,52.02659]},"properties":{"id":102365,"name":"Volovo","state_code":"LIP","country_code":"RU"}},{"type":"Feature","geometry":{"type":"Point","coordinates":[37.91667,52]},"properties":{"id":102367,"name":"Volovskiy Rayon","state_code":"LIP","country_code":"RU"}},{"type":"Feature","geometry":{"type":"Point","coordinates":[38.50169,52.62366]},"properties":{"id":102538,"name":"Yelets","state_code":"LIP","country_code":"RU"}},{"type":"Feature","geometry":{"type":"Point","coordinates":[38.5,52.58333]},"properties":{"id":102539,"name":"Yeletskiy Rayon","state_code":"LIP","country_code":"RU"}},{"type":"Feature","geometry":{"type":"Point","coordinates":[38.9261,52.3904]},"properties":{"id":102626,"name":"Zadonsk","state_code":"LIP","country_code":"RU"}},{"type":"Feature","geometry":{"type":"Point","coordinates":[38.91667,52.41667]},"properties":{"id":102627,"name":"Zadonskiy Rayon","state_code":"LIP","country_code":"RU"}}]}