{"type":"FeatureCollection","features":[{"type":"Feature","geometry":{"type":"Point","coordinates":[46.75,56.41667]},"properties":{"id":98530,"name":"Gornomariyskiy Rayon","state_code":"ME","country_code":"RU"}},{"type":"Feature","geometry":{"type":"Point","coordinates":[46.91667,56.75]},"properties":{"id":99039,"name":"Kilemarskiy Rayon","state_code":"ME","country_code":"RU"}},{"type":"Feature","geometry":{"type":"Point","coordinates":[46.86594,56.77825]},"properties":{"id":99040,"name":"Kilemary","state_code":"ME","country_code":"RU"}},{"type":"Feature","geometry":{"type":"Point","coordinates":[46.56353,56.3419]},"properties":{"id":99271,"name":"Koz’modem’yansk","state_code":"ME","country_code":"RU"}},{"type":"Feature","geometry":{"type":"Point","coordinates":[48.32583,56.1525]},"properties":{"id":99305,"name":"Krasnogorskiy","state_code":"ME","country_code":"RU"}},{"type":"Feature","geometry":{"type":"Point","coordinates":[48.91278,56.81111]},"properties":{"id":99500,"name":"Kuzhener","state_code":"ME","country_code":"RU"}},{"type":"Feature","geometry":{"type":"Point","coordinates":[49,56.75]},"properties":{"id":99501,"name":"Kuzhenerskiy Rayon","state_code":"ME","country_code":"RU"}},{"type":"Feature","geometry":{"type":"Point","coordinates":[49.62349,56.78946]},"properties":{"id":99793,"name":"Mari-Turek","state_code":"ME","country_code":"RU"}},{"type":"Feature","geometry":{"type":"Point","coordinates":[49.83333,56.75]},"properties":{"id":99794,"name":"Mari-Turekskiy Rayon","state_code":"ME","country_code":"RU"}},{"type":"Feature","geometry":{"type":"Point","coordinates":[47.80405,56.63388]},"properties":{"id":99842,"name":"Medvedevo","state_code":"ME","country_code":"RU"}},{"type":"Feature","geometry":{"type":"Point","coordinates":[47.75,56.66667]},"properties":{"id":99843,"name":"Medvedevskiy Rayon","state_code":"ME","country_code":"RU"}},{"type":"Feature","geometry":{"type":"Point","coordinates":[48.3547,56.3306]},"properties":{"id":99937,"name":"Mochalishche","state_code":"ME","country_code":"RU"}},{"type":"Feature","geometry":{"type":"Point","coordinates":[48.99472,56.43028]},"properties":{"id":99964,"name":"Morki","state_code":"ME","country_code":"RU"}},{"type":"Feature","geometry":{"type":"Point","coordinates":[49,56.5]},"properties":{"id":99965,"name":"Morkinskiy Rayon","state_code":"ME","country_code":"RU"}},{"type":"Feature","geometry":{"type":"Point","coordinates":[48.66667,57.08333]},"properties":{"id":100315,"name":"Novotor”yal’skiy Rayon","state_code":"ME","country_code":"RU"}},{"type":"Feature","geometry":{"type":"Point","coordinates":[47.89335,56.91607]},"properties":{"id":100478,"name":"Orshanka","state_code":"ME","country_code":"RU"}},{"type":"Feature","geometry":{"type":"Point","coordinates":[47.91667,56.91667]},"properties":{"id":100479,"name":"Orshanskiy Rayon","state_code":"ME","country_code":"RU"}},{"type":"Feature","geometry":{"type":"Point","coordinates":[49.40472,56.70389]},"properties":{"id":100541,"name":"Paran’ga","state_code":"ME","country_code":"RU"}},{"type":"Feature","geometry":{"type":"Point","coordinates":[49.41667,56.66667]},"properties":{"id":100542,"name":"Paran’ginskiy Rayon","state_code":"ME","country_code":"RU"}},{"type":"Feature","geometry":{"type":"Point","coordinates":[48.35072,55.96815]},"properties":{"id":100765,"name":"Pomary","state_code":"ME","country_code":"RU"}},{"type":"Feature","geometry":{"type":"Point","coordinates":[48.41512,55.96135]},"properties":{"id":100848,"name":"Privolzhskiy","state_code":"ME","country_code":"RU"}},{"type":"Feature","geometry":{"type":"Point","coordinates":[49.15361,56.93333]},"properties":{"id":101188,"name":"Sernur","state_code":"ME","country_code":"RU"}},{"type":"Feature","geometry":{"type":"Point","coordinates":[49.25,57]},"properties":{"id":101189,"name":"Sernurskiy Rayon","state_code":"ME","country_code":"RU"}},{"type":"Feature","geometry":{"type":"Point","coordinates":[48.47611,56.75833]},"properties":{"id":101510,"name":"Sovetskiy","state_code":"ME","country_code":"RU"}},{"type":"Feature","geometry":{"type":"Point","coordinates":[48.5,56.66667]},"properties":{"id":101514,"name":"Sovetskiy Rayon","state_code":"ME","country_code":"RU"}},{"type":"Feature","geometry":{"type":"Point","coordinates":[48.12139,56.44694]},"properties":{"id":101678,"name":"Surok","state_code":"ME","country_code":"RU"}},{"type":"Feature","geometry":{"type":"Point","coordinates":[48.25306,56.31556]},"properties":{"id":101683,"name":"Suslonger","state_code":"ME","country_code":"RU"}},{"type":"Feature","geometry":{"type":"Point","coordinates":[46.60134,56.1724]},"properties":{"id":102306,"name":"Vilovatovo","state_code":"ME","country_code":"RU"}},{"type":"Feature","geometry":{"type":"Point","coordinates":[48.3594,55.86638]},"properties":{"id":102369,"name":"Volzhsk","state_code":"ME","country_code":"RU"}},{"type":"Feature","geometry":{"type":"Point","coordinates":[48.58333,56.08333]},"properties":{"id":102371,"name":"Volzhskiy Rayon","state_code":"ME","country_code":"RU"}},{"type":"Feature","geometry":{"type":"Point","coordinates":[47.89078,56.63877]},"properties":{"id":102581,"name":"Yoshkar-Ola","state_code":"ME","country_code":"RU"}},{"type":"Feature","geometry":{"type":"Point","coordinates":[46.30392,56.29417]},"properties":{"id":102597,"name":"Yurino","state_code":"ME","country_code":"RU"}},{"type":"Feature","geometry":{"type":"Point","coordinates":[46.3,56.3]},"properties":{"id":102598,"name":"Yurinskiy Rayon","state_code":"ME","country_code":"RU"}},{"type":"Feature","geometry":{"type":"Point","coordinates":[48.01304,55.97539]},"properties":{"id":102779,"name":"Zvenigovo","state_code":"ME","country_code":"RU"}},{"type":"Feature","geometry":{"type":"Point","coordinates":[47.75,56.25]},"properties":{"id":102780,"name":"Zvenigovskiy Rayon","state_code":"ME","country_code":"RU"}}]}