{"type":"FeatureCollection","features":[{"type":"Feature","geometry":{"type":"Point","coordinates":[133.05846,43.96571]},"properties":{"id":97644,"name":"Anuchino","state_code":"PRI","country_code":"RU"}},{"type":"Feature","geometry":{"type":"Point","coordinates":[133,44]},"properties":{"id":97645,"name":"Anuchinskiy Rayon","state_code":"PRI","country_code":"RU"}},{"type":"Feature","geometry":{"type":"Point","coordinates":[133.27791,44.15254]},"properties":{"id":97678,"name":"Arsen’yev","state_code":"PRI","country_code":"RU"}},{"type":"Feature","geometry":{"type":"Point","coordinates":[132.18887,43.3595]},"properties":{"id":97686,"name":"Artëm","state_code":"PRI","country_code":"RU"}},{"type":"Feature","geometry":{"type":"Point","coordinates":[131.49185,43.19948]},"properties":{"id":97789,"name":"Barabash","state_code":"PRI","country_code":"RU"}},{"type":"Feature","geometry":{"type":"Point","coordinates":[132.0905,44.32285]},"properties":{"id":97946,"name":"Blagodatnoye","state_code":"PRI","country_code":"RU"}},{"type":"Feature","geometry":{"type":"Point","coordinates":[132.354,43.11283]},"properties":{"id":98008,"name":"Bol’shoy Kamen’","state_code":"PRI","country_code":"RU"}},{"type":"Feature","geometry":{"type":"Point","coordinates":[132.56937,44.34216]},"properties":{"id":98166,"name":"Chernigovka","state_code":"PRI","country_code":"RU"}},{"type":"Feature","geometry":{"type":"Point","coordinates":[132.58333,44.33333]},"properties":{"id":98167,"name":"Chernigovskiy Rayon","state_code":"PRI","country_code":"RU"}},{"type":"Feature","geometry":{"type":"Point","coordinates":[133.13193,44.19971]},"properties":{"id":98182,"name":"Chernyshëvka","state_code":"PRI","country_code":"RU"}},{"type":"Feature","geometry":{"type":"Point","coordinates":[133.04332,44.83808]},"properties":{"id":98208,"name":"Chkalovskoye","state_code":"PRI","country_code":"RU"}},{"type":"Feature","geometry":{"type":"Point","coordinates":[133.86495,44.16652]},"properties":{"id":98217,"name":"Chuguyevka","state_code":"PRI","country_code":"RU"}},{"type":"Feature","geometry":{"type":"Point","coordinates":[135.6209,44.55745]},"properties":{"id":98237,"name":"Dalnegorsk","state_code":"PRI","country_code":"RU"}},{"type":"Feature","geometry":{"type":"Point","coordinates":[133.73906,45.93149]},"properties":{"id":98238,"name":"Dalnerechensk","state_code":"PRI","country_code":"RU"}},{"type":"Feature","geometry":{"type":"Point","coordinates":[133.48134,44.32554]},"properties":{"id":98323,"name":"Dostoyevka","state_code":"PRI","country_code":"RU"}},{"type":"Feature","geometry":{"type":"Point","coordinates":[132.33521,42.87881]},"properties":{"id":98356,"name":"Dunay","state_code":"PRI","country_code":"RU"}},{"type":"Feature","geometry":{"type":"Point","coordinates":[132.15643,43.20417]},"properties":{"id":98392,"name":"Emar","state_code":"PRI","country_code":"RU"}},{"type":"Feature","geometry":{"type":"Point","coordinates":[132.40574,42.97429]},"properties":{"id":98433,"name":"Fokino","state_code":"PRI","country_code":"RU"}},{"type":"Feature","geometry":{"type":"Point","coordinates":[135.11465,44.26555]},"properties":{"id":98532,"name":"Gornorechenskiy","state_code":"PRI","country_code":"RU"}},{"type":"Feature","geometry":{"type":"Point","coordinates":[133.50601,45.24221]},"properties":{"id":98545,"name":"Gornyye Klyuchi","state_code":"PRI","country_code":"RU"}},{"type":"Feature","geometry":{"type":"Point","coordinates":[133.17706,44.2163]},"properties":{"id":98580,"name":"Grazhdanka","state_code":"PRI","country_code":"RU"}},{"type":"Feature","geometry":{"type":"Point","coordinates":[132.48331,43.96879]},"properties":{"id":98730,"name":"Ivanovka","state_code":"PRI","country_code":"RU"}},{"type":"Feature","geometry":{"type":"Point","coordinates":[132.0465,44.7452]},"properties":{"id":98823,"name":"Kamen’-Rybolov","state_code":"PRI","country_code":"RU"}},{"type":"Feature","geometry":{"type":"Point","coordinates":[136.01403,44.45865]},"properties":{"id":98814,"name":"Kamenka","state_code":"PRI","country_code":"RU"}},{"type":"Feature","geometry":{"type":"Point","coordinates":[135.05227,44.27221]},"properties":{"id":98912,"name":"Kavalerovo","state_code":"PRI","country_code":"RU"}},{"type":"Feature","geometry":{"type":"Point","coordinates":[131,42.75]},"properties":{"id":98969,"name":"Khasanskiy Rayon","state_code":"PRI","country_code":"RU"}},{"type":"Feature","geometry":{"type":"Point","coordinates":[132.07638,44.42631]},"properties":{"id":99007,"name":"Khorol’","state_code":"PRI","country_code":"RU"}},{"type":"Feature","geometry":{"type":"Point","coordinates":[133.50084,45.09272]},"properties":{"id":99069,"name":"Kirovskiy","state_code":"PRI","country_code":"RU"}},{"type":"Feature","geometry":{"type":"Point","coordinates":[132.18808,43.39975]},"properties":{"id":99113,"name":"Knevichi","state_code":"PRI","country_code":"RU"}},{"type":"Feature","geometry":{"type":"Point","coordinates":[130.78126,42.71071]},"properties":{"id":99275,"name":"Kraskino","state_code":"PRI","country_code":"RU"}},{"type":"Feature","geometry":{"type":"Point","coordinates":[135.35262,44.62807]},"properties":{"id":99331,"name":"Krasnorechenskiy","state_code":"PRI","country_code":"RU"}},{"type":"Feature","geometry":{"type":"Point","coordinates":[133.9061,43.38563]},"properties":{"id":99550,"name":"Lazo","state_code":"PRI","country_code":"RU"}},{"type":"Feature","geometry":{"type":"Point","coordinates":[134,43.25]},"properties":{"id":99551,"name":"Lazovskiy Rayon","state_code":"PRI","country_code":"RU"}},{"type":"Feature","geometry":{"type":"Point","coordinates":[133.42825,45.47885]},"properties":{"id":99605,"name":"Lesozavodsk","state_code":"PRI","country_code":"RU"}},{"type":"Feature","geometry":{"type":"Point","coordinates":[131.72373,44.20018]},"properties":{"id":99635,"name":"Lipovtsy","state_code":"PRI","country_code":"RU"}},{"type":"Feature","geometry":{"type":"Point","coordinates":[132.67367,42.8682]},"properties":{"id":99642,"name":"Livadiya","state_code":"PRI","country_code":"RU"}},{"type":"Feature","geometry":{"type":"Point","coordinates":[134.19532,46.47656]},"properties":{"id":99678,"name":"Luchegorsk","state_code":"PRI","country_code":"RU"}},{"type":"Feature","geometry":{"type":"Point","coordinates":[132.25975,44.28613]},"properties":{"id":99679,"name":"Luchki","state_code":"PRI","country_code":"RU"}},{"type":"Feature","geometry":{"type":"Point","coordinates":[132.38991,44.07352]},"properties":{"id":99700,"name":"Lyalichi","state_code":"PRI","country_code":"RU"}},{"type":"Feature","geometry":{"type":"Point","coordinates":[132.00911,43.93283]},"properties":{"id":99898,"name":"Mikhaylovka","state_code":"PRI","country_code":"RU"}},{"type":"Feature","geometry":{"type":"Point","coordinates":[132,44]},"properties":{"id":99903,"name":"Mikhaylovskiy Rayon","state_code":"PRI","country_code":"RU"}},{"type":"Feature","geometry":{"type":"Point","coordinates":[132.46675,43.46802]},"properties":{"id":99935,"name":"Mnogoudobnoye","state_code":"PRI","country_code":"RU"}},{"type":"Feature","geometry":{"type":"Point","coordinates":[132.50223,44.19641]},"properties":{"id":99955,"name":"Monastyrishche","state_code":"PRI","country_code":"RU"}},{"type":"Feature","geometry":{"type":"Point","coordinates":[132,43.41667]},"properties":{"id":100040,"name":"Nadezhdinskiy Rayon","state_code":"PRI","country_code":"RU"}},{"type":"Feature","geometry":{"type":"Point","coordinates":[132.87348,42.81384]},"properties":{"id":100052,"name":"Nakhodka","state_code":"PRI","country_code":"RU"}},{"type":"Feature","geometry":{"type":"Point","coordinates":[131.86257,43.85518]},"properties":{"id":100271,"name":"Novonikol’sk","state_code":"PRI","country_code":"RU"}},{"type":"Feature","geometry":{"type":"Point","coordinates":[134.50035,45.85296]},"properties":{"id":100285,"name":"Novopokrovka","state_code":"PRI","country_code":"RU"}},{"type":"Feature","geometry":{"type":"Point","coordinates":[132.16583,44.02576]},"properties":{"id":100298,"name":"Novoshakhtinskiy","state_code":"PRI","country_code":"RU"}},{"type":"Feature","geometry":{"type":"Point","coordinates":[133.3642,44.2347]},"properties":{"id":100312,"name":"Novosysoyevka","state_code":"PRI","country_code":"RU"}},{"type":"Feature","geometry":{"type":"Point","coordinates":[132.02109,43.36438]},"properties":{"id":100339,"name":"Novyy","state_code":"PRI","country_code":"RU"}},{"type":"Feature","geometry":{"type":"Point","coordinates":[135.2909,43.74735]},"properties":{"id":100431,"name":"Ol’ga","state_code":"PRI","country_code":"RU"}},{"type":"Feature","geometry":{"type":"Point","coordinates":[133.12347,43.12165]},"properties":{"id":100555,"name":"Partizansk","state_code":"PRI","country_code":"RU"}},{"type":"Feature","geometry":{"type":"Point","coordinates":[136.28048,44.76077]},"properties":{"id":100695,"name":"Plastun","state_code":"PRI","country_code":"RU"}},{"type":"Feature","geometry":{"type":"Point","coordinates":[131.3778,44.4097]},"properties":{"id":100737,"name":"Pogranichnyy","state_code":"PRI","country_code":"RU"}},{"type":"Feature","geometry":{"type":"Point","coordinates":[131.63443,43.95331]},"properties":{"id":100743,"name":"Pokrovka","state_code":"PRI","country_code":"RU"}},{"type":"Feature","geometry":{"type":"Point","coordinates":[131.72494,42.96096]},"properties":{"id":100771,"name":"Popova","state_code":"PRI","country_code":"RU"}},{"type":"Feature","geometry":{"type":"Point","coordinates":[133.9043,42.90117]},"properties":{"id":100811,"name":"Preobrazheniye","state_code":"PRI","country_code":"RU"}},{"type":"Feature","geometry":{"type":"Point","coordinates":[131.58938,43.09962]},"properties":{"id":100832,"name":"Primorskiy","state_code":"PRI","country_code":"RU"}},{"type":"Feature","geometry":{"type":"Point","coordinates":[132.41564,42.86179]},"properties":{"id":100905,"name":"Putyatin","state_code":"PRI","country_code":"RU"}},{"type":"Feature","geometry":{"type":"Point","coordinates":[131.89691,43.53894]},"properties":{"id":100950,"name":"Razdol’noye","state_code":"PRI","country_code":"RU"}},{"type":"Feature","geometry":{"type":"Point","coordinates":[132.77083,44.17038]},"properties":{"id":100966,"name":"Rettikhovka","state_code":"PRI","country_code":"RU"}},{"type":"Feature","geometry":{"type":"Point","coordinates":[132.45714,43.23294]},"properties":{"id":100988,"name":"Romanovka","state_code":"PRI","country_code":"RU"}},{"type":"Feature","geometry":{"type":"Point","coordinates":[135.81478,44.35812]},"properties":{"id":101021,"name":"Rudnaya Pristan’","state_code":"PRI","country_code":"RU"}},{"type":"Feature","geometry":{"type":"Point","coordinates":[134.96106,44.27759]},"properties":{"id":101026,"name":"Rudnyy","state_code":"PRI","country_code":"RU"}},{"type":"Feature","geometry":{"type":"Point","coordinates":[131.8601,43.0224]},"properties":{"id":101031,"name":"Russkiy","state_code":"PRI","country_code":"RU"}},{"type":"Feature","geometry":{"type":"Point","coordinates":[133.35972,43.34909]},"properties":{"id":101181,"name":"Sergeyevka","state_code":"PRI","country_code":"RU"}},{"type":"Feature","geometry":{"type":"Point","coordinates":[132.35433,43.32092]},"properties":{"id":101333,"name":"Shkotovo","state_code":"PRI","country_code":"RU"}},{"type":"Feature","geometry":{"type":"Point","coordinates":[132.58333,43.33333]},"properties":{"id":101334,"name":"Shkotovskiy Rayon","state_code":"PRI","country_code":"RU"}},{"type":"Feature","geometry":{"type":"Point","coordinates":[132.36129,43.38918]},"properties":{"id":101341,"name":"Shtykovo","state_code":"PRI","country_code":"RU"}},{"type":"Feature","geometry":{"type":"Point","coordinates":[132.36718,44.47838]},"properties":{"id":101384,"name":"Sivakovka","state_code":"PRI","country_code":"RU"}},{"type":"Feature","geometry":{"type":"Point","coordinates":[131.3882,42.86413]},"properties":{"id":101404,"name":"Slavyanka","state_code":"PRI","country_code":"RU"}},{"type":"Feature","geometry":{"type":"Point","coordinates":[132.45586,43.28801]},"properties":{"id":101420,"name":"Smolyaninovo","state_code":"PRI","country_code":"RU"}},{"type":"Feature","geometry":{"type":"Point","coordinates":[132.82593,44.59884]},"properties":{"id":101528,"name":"Spassk-Dal’niy","state_code":"PRI","country_code":"RU"}},{"type":"Feature","geometry":{"type":"Point","coordinates":[133,44.5]},"properties":{"id":101532,"name":"Spasskiy Rayon","state_code":"PRI","country_code":"RU"}},{"type":"Feature","geometry":{"type":"Point","coordinates":[132.80007,44.61215]},"properties":{"id":101534,"name":"Spasskoye","state_code":"PRI","country_code":"RU"}},{"type":"Feature","geometry":{"type":"Point","coordinates":[138.32973,46.54217]},"properties":{"id":101700,"name":"Svetlaya","state_code":"PRI","country_code":"RU"}},{"type":"Feature","geometry":{"type":"Point","coordinates":[131.86264,43.32551]},"properties":{"id":101800,"name":"Tavrichanka","state_code":"PRI","country_code":"RU"}},{"type":"Feature","geometry":{"type":"Point","coordinates":[136.60881,45.05278]},"properties":{"id":101833,"name":"Terney","state_code":"PRI","country_code":"RU"}},{"type":"Feature","geometry":{"type":"Point","coordinates":[132.06877,43.29823]},"properties":{"id":101933,"name":"Trudovoye","state_code":"PRI","country_code":"RU"}},{"type":"Feature","geometry":{"type":"Point","coordinates":[133.23177,43.21996]},"properties":{"id":102030,"name":"Uglekamensk","state_code":"PRI","country_code":"RU"}},{"type":"Feature","geometry":{"type":"Point","coordinates":[132.08832,43.32807]},"properties":{"id":102037,"name":"Uglovoye","state_code":"PRI","country_code":"RU"}},{"type":"Feature","geometry":{"type":"Point","coordinates":[131.94578,43.80291]},"properties":{"id":102105,"name":"Ussuriysk","state_code":"PRI","country_code":"RU"}},{"type":"Feature","geometry":{"type":"Point","coordinates":[133.07801,42.89134]},"properties":{"id":102327,"name":"Vladimiro-Aleksandrovskoye","state_code":"PRI","country_code":"RU"}},{"type":"Feature","geometry":{"type":"Point","coordinates":[131.87353,43.10562]},"properties":{"id":102330,"name":"Vladivostok","state_code":"PRI","country_code":"RU"}},{"type":"Feature","geometry":{"type":"Point","coordinates":[131.99675,43.37496]},"properties":{"id":102372,"name":"Vol’no-Nadezhdinskoye","state_code":"PRI","country_code":"RU"}},{"type":"Feature","geometry":{"type":"Point","coordinates":[132.76222,42.91388]},"properties":{"id":102338,"name":"Volchanets","state_code":"PRI","country_code":"RU"}},{"type":"Feature","geometry":{"type":"Point","coordinates":[135.82738,46.45148]},"properties":{"id":102400,"name":"Vostok","state_code":"PRI","country_code":"RU"}},{"type":"Feature","geometry":{"type":"Point","coordinates":[131.94589,43.89413]},"properties":{"id":102406,"name":"Vozdvizhenka","state_code":"PRI","country_code":"RU"}},{"type":"Feature","geometry":{"type":"Point","coordinates":[133.08322,42.73021]},"properties":{"id":102412,"name":"Vrangel’","state_code":"PRI","country_code":"RU"}},{"type":"Feature","geometry":{"type":"Point","coordinates":[133.47406,44.42588]},"properties":{"id":102466,"name":"Yakovlevka","state_code":"PRI","country_code":"RU"}},{"type":"Feature","geometry":{"type":"Point","coordinates":[133.5,44.41667]},"properties":{"id":102470,"name":"Yakovlevskiy Rayon","state_code":"PRI","country_code":"RU"}},{"type":"Feature","geometry":{"type":"Point","coordinates":[132.22862,44.18578]},"properties":{"id":102502,"name":"Yaroslavskiy","state_code":"PRI","country_code":"RU"}},{"type":"Feature","geometry":{"type":"Point","coordinates":[133.04922,42.92525]},"properties":{"id":102530,"name":"Yekaterinovka","state_code":"PRI","country_code":"RU"}},{"type":"Feature","geometry":{"type":"Point","coordinates":[131.09005,42.63257]},"properties":{"id":102661,"name":"Zarubino","state_code":"PRI","country_code":"RU"}},{"type":"Feature","geometry":{"type":"Point","coordinates":[132.28494,43.46242]},"properties":{"id":102677,"name":"Zavodskoy","state_code":"PRI","country_code":"RU"}},{"type":"Feature","geometry":{"type":"Point","coordinates":[131.7277,44.588]},"properties":{"id":102712,"name":"Zharikovo","state_code":"PRI","country_code":"RU"}}]}