{"type":"FeatureCollection","features":[{"type":"Feature","geometry":{"type":"Point","coordinates":[40.2095,53.4751]},"properties":{"id":97564,"name":"Aleksandro-Nevskiy","state_code":"RYA","country_code":"RU"}},{"type":"Feature","geometry":{"type":"Point","coordinates":[39.45186,54.72337]},"properties":{"id":97754,"name":"Bagramovo","state_code":"RYA","country_code":"RU"}},{"type":"Feature","geometry":{"type":"Point","coordinates":[41.44648,54.26931]},"properties":{"id":98213,"name":"Chuchkovo","state_code":"RYA","country_code":"RU"}},{"type":"Feature","geometry":{"type":"Point","coordinates":[41.16556,55.05811]},"properties":{"id":98623,"name":"Gus’-Zheleznyy","state_code":"RYA","country_code":"RU"}},{"type":"Feature","geometry":{"type":"Point","coordinates":[40.8753,54.557]},"properties":{"id":98747,"name":"Izhevskoye","state_code":"RYA","country_code":"RU"}},{"type":"Feature","geometry":{"type":"Point","coordinates":[42.4675,54.55917]},"properties":{"id":98769,"name":"Kadom","state_code":"RYA","country_code":"RU"}},{"type":"Feature","geometry":{"type":"Point","coordinates":[41.39528,54.94111]},"properties":{"id":98897,"name":"Kasimov","state_code":"RYA","country_code":"RU"}},{"type":"Feature","geometry":{"type":"Point","coordinates":[41.41667,54.91667]},"properties":{"id":98898,"name":"Kasimovskiy Rayon","state_code":"RYA","country_code":"RU"}},{"type":"Feature","geometry":{"type":"Point","coordinates":[40.3572,54.2862]},"properties":{"id":99058,"name":"Kiritsy","state_code":"RYA","country_code":"RU"}},{"type":"Feature","geometry":{"type":"Point","coordinates":[40.08333,55.08333]},"properties":{"id":99097,"name":"Klepikovskiy Rayon","state_code":"RYA","country_code":"RU"}},{"type":"Feature","geometry":{"type":"Point","coordinates":[40.01333,53.91639]},"properties":{"id":99202,"name":"Korablino","state_code":"RYA","country_code":"RU"}},{"type":"Feature","geometry":{"type":"Point","coordinates":[41.14379,54.9321]},"properties":{"id":99545,"name":"Lashma","state_code":"RYA","country_code":"RU"}},{"type":"Feature","geometry":{"type":"Point","coordinates":[40.4713,54.2125]},"properties":{"id":99594,"name":"Lesnoy","state_code":"RYA","country_code":"RU"}},{"type":"Feature","geometry":{"type":"Point","coordinates":[39.0269,54.2298]},"properties":{"id":99895,"name":"Mikhaylov","state_code":"RYA","country_code":"RU"}},{"type":"Feature","geometry":{"type":"Point","coordinates":[39.43992,53.58152]},"properties":{"id":99911,"name":"Miloslavskoye","state_code":"RYA","country_code":"RU"}},{"type":"Feature","geometry":{"type":"Point","coordinates":[40.0549,54.6043]},"properties":{"id":100011,"name":"Murmino","state_code":"RYA","country_code":"RU"}},{"type":"Feature","geometry":{"type":"Point","coordinates":[39.7479,54.0384]},"properties":{"id":100266,"name":"Novomichurinsk","state_code":"RYA","country_code":"RU"}},{"type":"Feature","geometry":{"type":"Point","coordinates":[38.89402,54.22675]},"properties":{"id":100409,"name":"Oktyabr’skiy","state_code":"RYA","country_code":"RU"}},{"type":"Feature","geometry":{"type":"Point","coordinates":[39.24601,53.78833]},"properties":{"id":100563,"name":"Pavelets","state_code":"RYA","country_code":"RU"}},{"type":"Feature","geometry":{"type":"Point","coordinates":[41.81448,54.57768]},"properties":{"id":100686,"name":"Pitelino","state_code":"RYA","country_code":"RU"}},{"type":"Feature","geometry":{"type":"Point","coordinates":[39.82932,54.71801]},"properties":{"id":100761,"name":"Polyany","state_code":"RYA","country_code":"RU"}},{"type":"Feature","geometry":{"type":"Point","coordinates":[39.6092,54.1048]},"properties":{"id":100869,"name":"Pronsk","state_code":"RYA","country_code":"RU"}},{"type":"Feature","geometry":{"type":"Point","coordinates":[41.1169,54.15998]},"properties":{"id":100906,"name":"Putyatino","state_code":"RYA","country_code":"RU"}},{"type":"Feature","geometry":{"type":"Point","coordinates":[39.6916,54.6269]},"properties":{"id":101045,"name":"Ryazan’","state_code":"RYA","country_code":"RU"}},{"type":"Feature","geometry":{"type":"Point","coordinates":[39.75,54.58333]},"properties":{"id":101044,"name":"Ryazanskiy Rayon","state_code":"RYA","country_code":"RU"}},{"type":"Feature","geometry":{"type":"Point","coordinates":[40.1109,53.7038]},"properties":{"id":101046,"name":"Ryazhsk","state_code":"RYA","country_code":"RU"}},{"type":"Feature","geometry":{"type":"Point","coordinates":[39.5,54.75]},"properties":{"id":101052,"name":"Rybnovskiy Rayon","state_code":"RYA","country_code":"RU"}},{"type":"Feature","geometry":{"type":"Point","coordinates":[39.51731,54.72774]},"properties":{"id":101053,"name":"Rybnoye","state_code":"RYA","country_code":"RU"}},{"type":"Feature","geometry":{"type":"Point","coordinates":[40.68056,53.94194]},"properties":{"id":101103,"name":"Sapozhok","state_code":"RYA","country_code":"RU"}},{"type":"Feature","geometry":{"type":"Point","coordinates":[41.02126,53.74577]},"properties":{"id":101105,"name":"Sarai","state_code":"RYA","country_code":"RU"}},{"type":"Feature","geometry":{"type":"Point","coordinates":[41.91986,54.35369]},"properties":{"id":101128,"name":"Sasovo","state_code":"RYA","country_code":"RU"}},{"type":"Feature","geometry":{"type":"Point","coordinates":[41.71191,54.02576]},"properties":{"id":101271,"name":"Shatsk","state_code":"RYA","country_code":"RU"}},{"type":"Feature","geometry":{"type":"Point","coordinates":[40.874,54.3204]},"properties":{"id":101315,"name":"Shilovo","state_code":"RYA","country_code":"RU"}},{"type":"Feature","geometry":{"type":"Point","coordinates":[39.55053,53.82486]},"properties":{"id":101389,"name":"Skopin","state_code":"RYA","country_code":"RU"}},{"type":"Feature","geometry":{"type":"Point","coordinates":[39.83336,54.7897]},"properties":{"id":101466,"name":"Solotcha","state_code":"RYA","country_code":"RU"}},{"type":"Feature","geometry":{"type":"Point","coordinates":[40.17673,55.13472]},"properties":{"id":101524,"name":"Spas-Klepiki","state_code":"RYA","country_code":"RU"}},{"type":"Feature","geometry":{"type":"Point","coordinates":[40.3762,54.404]},"properties":{"id":101529,"name":"Spassk-Ryazanskiy","state_code":"RYA","country_code":"RU"}},{"type":"Feature","geometry":{"type":"Point","coordinates":[39.916,54.2254]},"properties":{"id":101603,"name":"Starozhilovo","state_code":"RYA","country_code":"RU"}},{"type":"Feature","geometry":{"type":"Point","coordinates":[41.29711,55.00327]},"properties":{"id":101727,"name":"Syntul","state_code":"RYA","country_code":"RU"}},{"type":"Feature","geometry":{"type":"Point","coordinates":[40.55374,55.14798]},"properties":{"id":101967,"name":"Tuma","state_code":"RYA","country_code":"RU"}},{"type":"Feature","geometry":{"type":"Point","coordinates":[40.4892,53.7929]},"properties":{"id":102042,"name":"Ukholovo","state_code":"RYA","country_code":"RU"}},{"type":"Feature","geometry":{"type":"Point","coordinates":[38.91663,54.2693]},"properties":{"id":102305,"name":"Vilenka","state_code":"RYA","country_code":"RU"}},{"type":"Feature","geometry":{"type":"Point","coordinates":[42.0911,54.1231]},"properties":{"id":102478,"name":"Yambirno","state_code":"RYA","country_code":"RU"}},{"type":"Feature","geometry":{"type":"Point","coordinates":[41.75083,54.9675]},"properties":{"id":102537,"name":"Yelat’ma","state_code":"RYA","country_code":"RU"}},{"type":"Feature","geometry":{"type":"Point","coordinates":[42.27111,54.76778]},"properties":{"id":102566,"name":"Yermish’","state_code":"RYA","country_code":"RU"}},{"type":"Feature","geometry":{"type":"Point","coordinates":[39.2792,54.366]},"properties":{"id":102635,"name":"Zakharovo","state_code":"RYA","country_code":"RU"}},{"type":"Feature","geometry":{"type":"Point","coordinates":[39.25,54.41667]},"properties":{"id":102636,"name":"Zakharovskiy Rayon","state_code":"RYA","country_code":"RU"}},{"type":"Feature","geometry":{"type":"Point","coordinates":[39.59437,53.7306]},"properties":{"id":102653,"name":"Zarechnyy","state_code":"RYA","country_code":"RU"}}]}