{"type":"FeatureCollection","features":[{"type":"Feature","geometry":{"type":"Point","coordinates":[90.6,51.18333]},"properties":{"id":97526,"name":"Ak-Dovurak","state_code":"TY","country_code":"RU"}},{"type":"Feature","geometry":{"type":"Point","coordinates":[95.2,51]},"properties":{"id":97779,"name":"Balgazyn","state_code":"TY","country_code":"RU"}},{"type":"Feature","geometry":{"type":"Point","coordinates":[94.46371,51.16105]},"properties":{"id":97821,"name":"Bay-Khaak","state_code":"TY","country_code":"RU"}},{"type":"Feature","geometry":{"type":"Point","coordinates":[91.58333,51.28333]},"properties":{"id":98107,"name":"Chadan","state_code":"TY","country_code":"RU"}},{"type":"Feature","geometry":{"type":"Point","coordinates":[95.1623,50.26]},"properties":{"id":98403,"name":"Erzin","state_code":"TY","country_code":"RU"}},{"type":"Feature","geometry":{"type":"Point","coordinates":[94.73333,51.68333]},"properties":{"id":98761,"name":"Kaa-Khem","state_code":"TY","country_code":"RU"}},{"type":"Feature","geometry":{"type":"Point","coordinates":[92.05,50.73333]},"properties":{"id":98957,"name":"Khandagayty","state_code":"TY","country_code":"RU"}},{"type":"Feature","geometry":{"type":"Point","coordinates":[93.71286,51.13294]},"properties":{"id":99012,"name":"Khovu-Aksy","state_code":"TY","country_code":"RU"}},{"type":"Feature","geometry":{"type":"Point","coordinates":[97.52278,50.59944]},"properties":{"id":99447,"name":"Kungurtug","state_code":"TY","country_code":"RU"}},{"type":"Feature","geometry":{"type":"Point","coordinates":[94.45338,51.71081]},"properties":{"id":99525,"name":"Kyzyl","state_code":"TY","country_code":"RU"}},{"type":"Feature","geometry":{"type":"Point","coordinates":[89.87821,50.04986]},"properties":{"id":99526,"name":"Kyzyl-Khaya","state_code":"TY","country_code":"RU"}},{"type":"Feature","geometry":{"type":"Point","coordinates":[90.5808,51.14594]},"properties":{"id":99527,"name":"Kyzyl-Mazhalyk","state_code":"TY","country_code":"RU"}},{"type":"Feature","geometry":{"type":"Point","coordinates":[90.43739,50.38072]},"properties":{"id":99995,"name":"Mugur-Aksy","state_code":"TY","country_code":"RU"}},{"type":"Feature","geometry":{"type":"Point","coordinates":[95.0047,50.6022]},"properties":{"id":101084,"name":"Samagaltay","state_code":"TY","country_code":"RU"}},{"type":"Feature","geometry":{"type":"Point","coordinates":[95.56081,51.49074]},"properties":{"id":101126,"name":"Saryg-Sep","state_code":"TY","country_code":"RU"}},{"type":"Feature","geometry":{"type":"Point","coordinates":[92.93164,51.534]},"properties":{"id":101235,"name":"Shagonar","state_code":"TY","country_code":"RU"}},{"type":"Feature","geometry":{"type":"Point","coordinates":[94.63333,51.66667]},"properties":{"id":101657,"name":"Sukpak","state_code":"TY","country_code":"RU"}},{"type":"Feature","geometry":{"type":"Point","coordinates":[91.29244,51.40698]},"properties":{"id":101686,"name":"Sut-Khol’","state_code":"TY","country_code":"RU"}},{"type":"Feature","geometry":{"type":"Point","coordinates":[90.20535,51.01398]},"properties":{"id":101809,"name":"Teeli","state_code":"TY","country_code":"RU"}},{"type":"Feature","geometry":{"type":"Point","coordinates":[96.11796,52.46556]},"properties":{"id":101892,"name":"Toora-Khem","state_code":"TY","country_code":"RU"}},{"type":"Feature","geometry":{"type":"Point","coordinates":[93.91887,52.1449]},"properties":{"id":101973,"name":"Turan","state_code":"TY","country_code":"RU"}}]}