{"type":"FeatureCollection","features":[{"type":"Feature","geometry":{"type":"Point","coordinates":[47.11229,53.65533]},"properties":{"id":97804,"name":"Barysh","state_code":"ULY","country_code":"RU"}},{"type":"Feature","geometry":{"type":"Point","coordinates":[46.75354,53.75117]},"properties":{"id":97830,"name":"Bazarnyy Syzgan","state_code":"ULY","country_code":"RU"}},{"type":"Feature","geometry":{"type":"Point","coordinates":[48.83333,54.25]},"properties":{"id":98143,"name":"Cherdaklinskiy Rayon","state_code":"ULY","country_code":"RU"}},{"type":"Feature","geometry":{"type":"Point","coordinates":[48.84497,54.3594]},"properties":{"id":98144,"name":"Cherdakly","state_code":"ULY","country_code":"RU"}},{"type":"Feature","geometry":{"type":"Point","coordinates":[47.3367,54.0963]},"properties":{"id":98216,"name":"Chufarovo","state_code":"ULY","country_code":"RU"}},{"type":"Feature","geometry":{"type":"Point","coordinates":[49.61838,54.21386]},"properties":{"id":98276,"name":"Dimitrovgrad","state_code":"ULY","country_code":"RU"}},{"type":"Feature","geometry":{"type":"Point","coordinates":[46.70422,53.94906]},"properties":{"id":98500,"name":"Glotovka","state_code":"ULY","country_code":"RU"}},{"type":"Feature","geometry":{"type":"Point","coordinates":[47.6536,53.94787]},"properties":{"id":98633,"name":"Ignatovka","state_code":"ULY","country_code":"RU"}},{"type":"Feature","geometry":{"type":"Point","coordinates":[46.9801,53.56422]},"properties":{"id":98669,"name":"Imeni Vladimira Il’icha Lenina","state_code":"ULY","country_code":"RU"}},{"type":"Feature","geometry":{"type":"Point","coordinates":[46.35622,53.85672]},"properties":{"id":98681,"name":"Inza","state_code":"ULY","country_code":"RU"}},{"type":"Feature","geometry":{"type":"Point","coordinates":[48.26675,54.42789]},"properties":{"id":98703,"name":"Isheyevka","state_code":"ULY","country_code":"RU"}},{"type":"Feature","geometry":{"type":"Point","coordinates":[47.24581,53.72114]},"properties":{"id":98753,"name":"Izmaylovo","state_code":"ULY","country_code":"RU"}},{"type":"Feature","geometry":{"type":"Point","coordinates":[47.52644,53.16786]},"properties":{"id":98832,"name":"Kanadey","state_code":"ULY","country_code":"RU"}},{"type":"Feature","geometry":{"type":"Point","coordinates":[46.9827,54.19941]},"properties":{"id":98886,"name":"Karsun","state_code":"ULY","country_code":"RU"}},{"type":"Feature","geometry":{"type":"Point","coordinates":[48.33327,54.02821]},"properties":{"id":99362,"name":"Krasnyy Gulyay","state_code":"ULY","country_code":"RU"}},{"type":"Feature","geometry":{"type":"Point","coordinates":[47.68659,53.54681]},"properties":{"id":99510,"name":"Kuzovatovo","state_code":"ULY","country_code":"RU"}},{"type":"Feature","geometry":{"type":"Point","coordinates":[47.6231,54.1135]},"properties":{"id":99826,"name":"Mayna","state_code":"ULY","country_code":"RU"}},{"type":"Feature","geometry":{"type":"Point","coordinates":[47.66667,54.16667]},"properties":{"id":99828,"name":"Maynskiy Rayon","state_code":"ULY","country_code":"RU"}},{"type":"Feature","geometry":{"type":"Point","coordinates":[48.72939,54.36607]},"properties":{"id":99922,"name":"Mirnyy","state_code":"ULY","country_code":"RU"}},{"type":"Feature","geometry":{"type":"Point","coordinates":[49.4,54.2]},"properties":{"id":100001,"name":"Mullovka","state_code":"ULY","country_code":"RU"}},{"type":"Feature","geometry":{"type":"Point","coordinates":[47.2041,53.1257]},"properties":{"id":100134,"name":"Nikolayevka","state_code":"ULY","country_code":"RU"}},{"type":"Feature","geometry":{"type":"Point","coordinates":[49.95,54.2]},"properties":{"id":100208,"name":"Novaya Malykla","state_code":"ULY","country_code":"RU"}},{"type":"Feature","geometry":{"type":"Point","coordinates":[49.75,54.15]},"properties":{"id":100209,"name":"Novaya Mayna","state_code":"ULY","country_code":"RU"}},{"type":"Feature","geometry":{"type":"Point","coordinates":[50.16662,54.35714]},"properties":{"id":100234,"name":"Novocheremshansk","state_code":"ULY","country_code":"RU"}},{"type":"Feature","geometry":{"type":"Point","coordinates":[47.75138,53.14683]},"properties":{"id":100311,"name":"Novospasskoye","state_code":"ULY","country_code":"RU"}},{"type":"Feature","geometry":{"type":"Point","coordinates":[48.38907,54.14961]},"properties":{"id":100321,"name":"Novoul’yanovsk","state_code":"ULY","country_code":"RU"}},{"type":"Feature","geometry":{"type":"Point","coordinates":[47.14046,52.68966]},"properties":{"id":100568,"name":"Pavlovka","state_code":"ULY","country_code":"RU"}},{"type":"Feature","geometry":{"type":"Point","coordinates":[47.08333,52.66667]},"properties":{"id":100581,"name":"Pavlovskiy Rayon","state_code":"ULY","country_code":"RU"}},{"type":"Feature","geometry":{"type":"Point","coordinates":[47.87644,52.85459]},"properties":{"id":100923,"name":"Radishchevo","state_code":"ULY","country_code":"RU"}},{"type":"Feature","geometry":{"type":"Point","coordinates":[48.79444,53.96222]},"properties":{"id":101171,"name":"Sengiley","state_code":"ULY","country_code":"RU"}},{"type":"Feature","geometry":{"type":"Point","coordinates":[48.32749,53.98957]},"properties":{"id":101369,"name":"Silikatnyy","state_code":"ULY","country_code":"RU"}},{"type":"Feature","geometry":{"type":"Point","coordinates":[47.61788,52.72778]},"properties":{"id":101559,"name":"Staraya Kulatka","state_code":"ULY","country_code":"RU"}},{"type":"Feature","geometry":{"type":"Point","coordinates":[48.93056,54.60417]},"properties":{"id":101562,"name":"Staraya Mayna","state_code":"ULY","country_code":"RU"}},{"type":"Feature","geometry":{"type":"Point","coordinates":[47.5,52.75]},"properties":{"id":101584,"name":"Starokulatkinskiy Rayon","state_code":"ULY","country_code":"RU"}},{"type":"Feature","geometry":{"type":"Point","coordinates":[47.53116,53.71908]},"properties":{"id":101596,"name":"Starotimoshkino","state_code":"ULY","country_code":"RU"}},{"type":"Feature","geometry":{"type":"Point","coordinates":[46.7214,54.4821]},"properties":{"id":101681,"name":"Surskoye","state_code":"ULY","country_code":"RU"}},{"type":"Feature","geometry":{"type":"Point","coordinates":[48.25,53.75]},"properties":{"id":101829,"name":"Teren’gul’skiy Rayon","state_code":"ULY","country_code":"RU"}},{"type":"Feature","geometry":{"type":"Point","coordinates":[48.1414,54.59533]},"properties":{"id":101947,"name":"Tsil’na","state_code":"ULY","country_code":"RU"}},{"type":"Feature","geometry":{"type":"Point","coordinates":[48,54.58333]},"properties":{"id":101948,"name":"Tsil’ninskiy Rayon","state_code":"ULY","country_code":"RU"}},{"type":"Feature","geometry":{"type":"Point","coordinates":[48.38657,54.32824]},"properties":{"id":102051,"name":"Ulyanovsk","state_code":"ULY","country_code":"RU"}},{"type":"Feature","geometry":{"type":"Point","coordinates":[48.01694,54.33528]},"properties":{"id":102052,"name":"Ulyanovskiy Rayon","state_code":"ULY","country_code":"RU"}},{"type":"Feature","geometry":{"type":"Point","coordinates":[48.39276,54.60849]},"properties":{"id":102057,"name":"Undory","state_code":"ULY","country_code":"RU"}},{"type":"Feature","geometry":{"type":"Point","coordinates":[47.13,54.0472]},"properties":{"id":102290,"name":"Veshkayma","state_code":"ULY","country_code":"RU"}},{"type":"Feature","geometry":{"type":"Point","coordinates":[47.3891,54.2922]},"properties":{"id":102519,"name":"Yazykovo","state_code":"ULY","country_code":"RU"}},{"type":"Feature","geometry":{"type":"Point","coordinates":[46.94985,53.57464]},"properties":{"id":102710,"name":"Zhadovka","state_code":"ULY","country_code":"RU"}}]}