{"type":"FeatureCollection","features":[{"type":"Feature","geometry":{"type":"Point","coordinates":[29.73944,-2.59667]},"properties":{"id":102792,"name":"Butare","state_code":"05","country_code":"RW"}},{"type":"Feature","geometry":{"type":"Point","coordinates":[29.8061,-1.93653]},"properties":{"id":102795,"name":"Eglise Catholique Centrale GIKO","state_code":"05","country_code":"RW"}},{"type":"Feature","geometry":{"type":"Point","coordinates":[29.75667,-2.07444]},"properties":{"id":102797,"name":"Gitarama","state_code":"05","country_code":"RW"}},{"type":"Feature","geometry":{"type":"Point","coordinates":[29.5564,-2.479]},"properties":{"id":102802,"name":"Nzega","state_code":"05","country_code":"RW"}}]}