{"type":"FeatureCollection","features":[{"type":"Feature","geometry":{"type":"Point","coordinates":[29.25,12.35]},"properties":{"id":102915,"name":"Abū Zabad","state_code":"GK","country_code":"SD"}},{"type":"Feature","geometry":{"type":"Point","coordinates":[29.13333,11.4]},"properties":{"id":102925,"name":"Al Lagowa","state_code":"GK","country_code":"SD"}},{"type":"Feature","geometry":{"type":"Point","coordinates":[27.73333,11.03333]},"properties":{"id":102928,"name":"Al Mijlad","state_code":"GK","country_code":"SD"}},{"type":"Feature","geometry":{"type":"Point","coordinates":[28.43333,12.7]},"properties":{"id":102932,"name":"An Nuhūd","state_code":"GK","country_code":"SD"}}]}