{"type":"FeatureCollection","features":[{"type":"Feature","geometry":{"type":"Point","coordinates":[18.5,57.5]},"properties":{"id":103219,"name":"Gotland","state_code":"I","country_code":"SE"}},{"type":"Feature","geometry":{"type":"Point","coordinates":[18.37443,57.23788]},"properties":{"id":103279,"name":"Hemse","state_code":"I","country_code":"SE"}},{"type":"Feature","geometry":{"type":"Point","coordinates":[18.20371,57.38667]},"properties":{"id":103398,"name":"Klintehamn","state_code":"I","country_code":"SE"}},{"type":"Feature","geometry":{"type":"Point","coordinates":[18.25601,57.60452]},"properties":{"id":103940,"name":"Vibble","state_code":"I","country_code":"SE"}},{"type":"Feature","geometry":{"type":"Point","coordinates":[18.29602,57.64089]},"properties":{"id":103957,"name":"Visby","state_code":"I","country_code":"SE"}}]}