{"type":"FeatureCollection","features":[{"type":"Feature","geometry":{"type":"Point","coordinates":[15.83882,59.39387]},"properties":{"id":103007,"name":"Arboga","state_code":"U","country_code":"SE"}},{"type":"Feature","geometry":{"type":"Point","coordinates":[16.5074,59.54935]},"properties":{"id":103029,"name":"Barkarö","state_code":"U","country_code":"SE"}},{"type":"Feature","geometry":{"type":"Point","coordinates":[16.38722,59.57279]},"properties":{"id":103119,"name":"Dingtuna","state_code":"U","country_code":"SE"}},{"type":"Feature","geometry":{"type":"Point","coordinates":[16.53045,59.56543]},"properties":{"id":103144,"name":"Enhagen-Ekbacken","state_code":"U","country_code":"SE"}},{"type":"Feature","geometry":{"type":"Point","coordinates":[15.79316,60.00418]},"properties":{"id":103155,"name":"Fagersta","state_code":"U","country_code":"SE"}},{"type":"Feature","geometry":{"type":"Point","coordinates":[16.22846,59.61395]},"properties":{"id":103255,"name":"Hallstahammar","state_code":"U","country_code":"SE"}},{"type":"Feature","geometry":{"type":"Point","coordinates":[16.58333,59.66667]},"properties":{"id":103333,"name":"Hökåsen","state_code":"U","country_code":"SE"}},{"type":"Feature","geometry":{"type":"Point","coordinates":[16.7,59.6]},"properties":{"id":103349,"name":"Irsta","state_code":"U","country_code":"SE"}},{"type":"Feature","geometry":{"type":"Point","coordinates":[16.23037,59.56516]},"properties":{"id":103407,"name":"Kolbäck","state_code":"U","country_code":"SE"}},{"type":"Feature","geometry":{"type":"Point","coordinates":[15.83333,59.6]},"properties":{"id":103408,"name":"Kolsva","state_code":"U","country_code":"SE"}},{"type":"Feature","geometry":{"type":"Point","coordinates":[15.99255,59.51404]},"properties":{"id":103442,"name":"Köping","state_code":"U","country_code":"SE"}},{"type":"Feature","geometry":{"type":"Point","coordinates":[16.09656,59.42245]},"properties":{"id":103428,"name":"Kungsör","state_code":"U","country_code":"SE"}},{"type":"Feature","geometry":{"type":"Point","coordinates":[15.92366,60.06505]},"properties":{"id":103579,"name":"Norberg","state_code":"U","country_code":"SE"}},{"type":"Feature","geometry":{"type":"Point","coordinates":[16.2,59.76667]},"properties":{"id":103642,"name":"Ramnäs","state_code":"U","country_code":"SE"}},{"type":"Feature","geometry":{"type":"Point","coordinates":[16.60655,59.91993]},"properties":{"id":103675,"name":"Sala","state_code":"U","country_code":"SE"}},{"type":"Feature","geometry":{"type":"Point","coordinates":[15.69337,59.83028]},"properties":{"id":103705,"name":"Skinnskatteberg","state_code":"U","country_code":"SE"}},{"type":"Feature","geometry":{"type":"Point","coordinates":[16.41667,59.71667]},"properties":{"id":103713,"name":"Skultuna","state_code":"U","country_code":"SE"}},{"type":"Feature","geometry":{"type":"Point","coordinates":[16.22188,59.70725]},"properties":{"id":103790,"name":"Surahammar","state_code":"U","country_code":"SE"}},{"type":"Feature","geometry":{"type":"Point","coordinates":[16.61667,59.68333]},"properties":{"id":103848,"name":"Tillberga","state_code":"U","country_code":"SE"}},{"type":"Feature","geometry":{"type":"Point","coordinates":[16.56445,59.64914]},"properties":{"id":103972,"name":"Västerås","state_code":"U","country_code":"SE"}}]}