{"type":"FeatureCollection","features":[{"type":"Feature","geometry":{"type":"Point","coordinates":[103.8021,1.3294]},"properties":{"id":153462,"name":"Bukit Timah","state_code":"01","country_code":"SG"}},{"type":"Feature","geometry":{"type":"Point","coordinates":[103.852,1.278]},"properties":{"id":153466,"name":"Downtown Core","state_code":"01","country_code":"SG"}},{"type":"Feature","geometry":{"type":"Point","coordinates":[103.8871,1.3182]},"properties":{"id":153463,"name":"Geylang","state_code":"01","country_code":"SG"}},{"type":"Feature","geometry":{"type":"Point","coordinates":[103.866,1.3106]},"properties":{"id":153467,"name":"Kallang","state_code":"01","country_code":"SG"}},{"type":"Feature","geometry":{"type":"Point","coordinates":[103.9072,1.303]},"properties":{"id":153459,"name":"Marine Parade","state_code":"01","country_code":"SG"}},{"type":"Feature","geometry":{"type":"Point","coordinates":[103.8439,1.3201]},"properties":{"id":153461,"name":"Novena","state_code":"01","country_code":"SG"}},{"type":"Feature","geometry":{"type":"Point","coordinates":[103.8318,1.3036]},"properties":{"id":153464,"name":"Orchard Road","state_code":"01","country_code":"SG"}},{"type":"Feature","geometry":{"type":"Point","coordinates":[103.839,1.2819]},"properties":{"id":153468,"name":"Outram","state_code":"01","country_code":"SG"}},{"type":"Feature","geometry":{"type":"Point","coordinates":[103.852,1.3049]},"properties":{"id":153465,"name":"Rochor","state_code":"01","country_code":"SG"}},{"type":"Feature","geometry":{"type":"Point","coordinates":[103.85007,1.28967]},"properties":{"id":104057,"name":"Singapore","state_code":"01","country_code":"SG"}},{"type":"Feature","geometry":{"type":"Point","coordinates":[103.8434,1.2764]},"properties":{"id":153460,"name":"Tanjong Pagar","state_code":"01","country_code":"SG"}},{"type":"Feature","geometry":{"type":"Point","coordinates":[103.8497,1.3354]},"properties":{"id":153469,"name":"Toa Payoh","state_code":"01","country_code":"SG"}}]}