{"type":"FeatureCollection","features":[{"type":"Feature","geometry":{"type":"Point","coordinates":[13.9535,46.27216]},"properties":{"id":104070,"name":"Bohinjska Bistrica","state_code":"004","country_code":"SI"}},{"type":"Feature","geometry":{"type":"Point","coordinates":[14.38333,46.01667]},"properties":{"id":104100,"name":"Dragomer","state_code":"004","country_code":"SI"}},{"type":"Feature","geometry":{"type":"Point","coordinates":[14.36667,46.01667]},"properties":{"id":104172,"name":"Log pri Brezovici","state_code":"004","country_code":"SI"}}]}