{"type":"FeatureCollection","features":[{"type":"Feature","geometry":{"type":"Point","coordinates":[13.66556,45.96083]},"properties":{"id":104154,"name":"Kromberk","state_code":"084","country_code":"SI"}},{"type":"Feature","geometry":{"type":"Point","coordinates":[13.64837,45.95604]},"properties":{"id":104206,"name":"Nova Gorica","state_code":"084","country_code":"SI"}},{"type":"Feature","geometry":{"type":"Point","coordinates":[13.71806,45.89]},"properties":{"id":104237,"name":"Prvačina","state_code":"084","country_code":"SI"}},{"type":"Feature","geometry":{"type":"Point","coordinates":[13.74361,45.93028]},"properties":{"id":104342,"name":"Šempas","state_code":"084","country_code":"SI"}},{"type":"Feature","geometry":{"type":"Point","coordinates":[13.64944,45.97139]},"properties":{"id":104276,"name":"Solkan","state_code":"084","country_code":"SI"}}]}