{"type":"FeatureCollection","features":[{"type":"Feature","geometry":{"type":"Point","coordinates":[18.19233,47.86984]},"properties":{"id":104400,"name":"Hurbanovo","state_code":"NI","country_code":"SK"}},{"type":"Feature","geometry":{"type":"Point","coordinates":[17.98467,47.92294]},"properties":{"id":104406,"name":"Kolárovo","state_code":"NI","country_code":"SK"}},{"type":"Feature","geometry":{"type":"Point","coordinates":[18.12263,47.76356]},"properties":{"id":104407,"name":"Komárno","state_code":"NI","country_code":"SK"}},{"type":"Feature","geometry":{"type":"Point","coordinates":[18.60705,48.21563]},"properties":{"id":104421,"name":"Levice","state_code":"NI","country_code":"SK"}},{"type":"Feature","geometry":{"type":"Point","coordinates":[18.08453,48.30763]},"properties":{"id":104438,"name":"Nitra","state_code":"NI","country_code":"SK"}},{"type":"Feature","geometry":{"type":"Point","coordinates":[18.16195,47.98544]},"properties":{"id":104445,"name":"Nové Zámky","state_code":"NI","country_code":"SK"}},{"type":"Feature","geometry":{"type":"Point","coordinates":[18.13333,47.76667]},"properties":{"id":104467,"name":"Okres Komárno","state_code":"NI","country_code":"SK"}},{"type":"Feature","geometry":{"type":"Point","coordinates":[18.6,48.21667]},"properties":{"id":104471,"name":"Okres Levice","state_code":"NI","country_code":"SK"}},{"type":"Feature","geometry":{"type":"Point","coordinates":[18.08333,48.31667]},"properties":{"id":104481,"name":"Okres Nitra","state_code":"NI","country_code":"SK"}},{"type":"Feature","geometry":{"type":"Point","coordinates":[18.16667,47.98333]},"properties":{"id":104483,"name":"Okres Nové Zámky","state_code":"NI","country_code":"SK"}},{"type":"Feature","geometry":{"type":"Point","coordinates":[17.87306,48.1477]},"properties":{"id":104517,"name":"Okres Šaľa","state_code":"NI","country_code":"SK"}},{"type":"Feature","geometry":{"type":"Point","coordinates":[18.18333,48.56667]},"properties":{"id":104506,"name":"Okres Topoľčany","state_code":"NI","country_code":"SK"}},{"type":"Feature","geometry":{"type":"Point","coordinates":[18.39842,48.38294]},"properties":{"id":104514,"name":"Okres Zlaté Moravce","state_code":"NI","country_code":"SK"}},{"type":"Feature","geometry":{"type":"Point","coordinates":[18.94946,48.07408]},"properties":{"id":104591,"name":"Šahy","state_code":"NI","country_code":"SK"}},{"type":"Feature","geometry":{"type":"Point","coordinates":[17.88062,48.15127]},"properties":{"id":104593,"name":"Šaľa","state_code":"NI","country_code":"SK"}},{"type":"Feature","geometry":{"type":"Point","coordinates":[18.7175,47.79495]},"properties":{"id":104595,"name":"Štúrovo","state_code":"NI","country_code":"SK"}},{"type":"Feature","geometry":{"type":"Point","coordinates":[18.18447,48.08613]},"properties":{"id":104596,"name":"Šurany","state_code":"NI","country_code":"SK"}},{"type":"Feature","geometry":{"type":"Point","coordinates":[18.49967,47.91054]},"properties":{"id":104558,"name":"Svodín","state_code":"NI","country_code":"SK"}},{"type":"Feature","geometry":{"type":"Point","coordinates":[18.53152,48.28926]},"properties":{"id":104563,"name":"Tlmače","state_code":"NI","country_code":"SK"}},{"type":"Feature","geometry":{"type":"Point","coordinates":[18.16712,48.56361]},"properties":{"id":104564,"name":"Topoľčany","state_code":"NI","country_code":"SK"}},{"type":"Feature","geometry":{"type":"Point","coordinates":[18.30846,48.24371]},"properties":{"id":104580,"name":"Vráble","state_code":"NI","country_code":"SK"}},{"type":"Feature","geometry":{"type":"Point","coordinates":[18.65421,48.05075]},"properties":{"id":104600,"name":"Želiezovce","state_code":"NI","country_code":"SK"}},{"type":"Feature","geometry":{"type":"Point","coordinates":[18.40063,48.38553]},"properties":{"id":104584,"name":"Zlaté Moravce","state_code":"NI","country_code":"SK"}}]}