{"type":"FeatureCollection","features":[{"type":"Feature","geometry":{"type":"Point","coordinates":[18.25754,48.7213]},"properties":{"id":104379,"name":"Bánovce nad Bebravou","state_code":"TC","country_code":"SK"}},{"type":"Feature","geometry":{"type":"Point","coordinates":[18.5864,48.78511]},"properties":{"id":104373,"name":"Bojnice","state_code":"TC","country_code":"SK"}},{"type":"Feature","geometry":{"type":"Point","coordinates":[17.53905,48.66349]},"properties":{"id":104377,"name":"Brezová pod Bradlom","state_code":"TC","country_code":"SK"}},{"type":"Feature","geometry":{"type":"Point","coordinates":[17.78704,48.71226]},"properties":{"id":104586,"name":"Čachtice","state_code":"TC","country_code":"SK"}},{"type":"Feature","geometry":{"type":"Point","coordinates":[18.16634,48.95981]},"properties":{"id":104384,"name":"Dubnica nad Váhom","state_code":"TC","country_code":"SK"}},{"type":"Feature","geometry":{"type":"Point","coordinates":[18.76012,48.7276]},"properties":{"id":104394,"name":"Handlová","state_code":"TC","country_code":"SK"}},{"type":"Feature","geometry":{"type":"Point","coordinates":[18.2353,48.99769]},"properties":{"id":104402,"name":"Ilava","state_code":"TC","country_code":"SK"}},{"type":"Feature","geometry":{"type":"Point","coordinates":[18.59944,48.69138]},"properties":{"id":104419,"name":"Lehota pod Vtáčnikom","state_code":"TC","country_code":"SK"}},{"type":"Feature","geometry":{"type":"Point","coordinates":[17.56866,48.75876]},"properties":{"id":104436,"name":"Myjava","state_code":"TC","country_code":"SK"}},{"type":"Feature","geometry":{"type":"Point","coordinates":[18.11892,48.96702]},"properties":{"id":104437,"name":"Nemšová","state_code":"TC","country_code":"SK"}},{"type":"Feature","geometry":{"type":"Point","coordinates":[18.14632,48.93479]},"properties":{"id":104441,"name":"Nová Dubnica","state_code":"TC","country_code":"SK"}},{"type":"Feature","geometry":{"type":"Point","coordinates":[18.53389,48.71106]},"properties":{"id":104443,"name":"Nováky","state_code":"TC","country_code":"SK"}},{"type":"Feature","geometry":{"type":"Point","coordinates":[17.8309,48.75763]},"properties":{"id":104444,"name":"Nové Mesto nad Váhom","state_code":"TC","country_code":"SK"}},{"type":"Feature","geometry":{"type":"Point","coordinates":[18.25773,48.71908]},"properties":{"id":104457,"name":"Okres Bánovce nad Bebravou","state_code":"TC","country_code":"SK"}},{"type":"Feature","geometry":{"type":"Point","coordinates":[18.23374,48.99641]},"properties":{"id":104465,"name":"Okres Ilava","state_code":"TC","country_code":"SK"}},{"type":"Feature","geometry":{"type":"Point","coordinates":[17.58333,48.75]},"properties":{"id":104479,"name":"Okres Myjava","state_code":"TC","country_code":"SK"}},{"type":"Feature","geometry":{"type":"Point","coordinates":[17.83506,48.75466]},"properties":{"id":104482,"name":"Okres Nové Mesto nad Váhom","state_code":"TC","country_code":"SK"}},{"type":"Feature","geometry":{"type":"Point","coordinates":[18.37957,48.62613]},"properties":{"id":104484,"name":"Okres Partizánske","state_code":"TC","country_code":"SK"}},{"type":"Feature","geometry":{"type":"Point","coordinates":[18.45,49.11667]},"properties":{"id":104489,"name":"Okres Považská Bystrica","state_code":"TC","country_code":"SK"}},{"type":"Feature","geometry":{"type":"Point","coordinates":[18.63333,48.76667]},"properties":{"id":104491,"name":"Okres Prievidza","state_code":"TC","country_code":"SK"}},{"type":"Feature","geometry":{"type":"Point","coordinates":[18.32477,49.12406]},"properties":{"id":104492,"name":"Okres Púchov","state_code":"TC","country_code":"SK"}},{"type":"Feature","geometry":{"type":"Point","coordinates":[18.04264,48.8952]},"properties":{"id":104508,"name":"Okres Trenčín","state_code":"TC","country_code":"SK"}},{"type":"Feature","geometry":{"type":"Point","coordinates":[18.38455,48.62861]},"properties":{"id":104523,"name":"Partizánske","state_code":"TC","country_code":"SK"}},{"type":"Feature","geometry":{"type":"Point","coordinates":[18.42169,49.12153]},"properties":{"id":104529,"name":"Považská Bystrica","state_code":"TC","country_code":"SK"}},{"type":"Feature","geometry":{"type":"Point","coordinates":[18.6275,48.77446]},"properties":{"id":104532,"name":"Prievidza","state_code":"TC","country_code":"SK"}},{"type":"Feature","geometry":{"type":"Point","coordinates":[18.32597,49.12494]},"properties":{"id":104533,"name":"Púchov","state_code":"TC","country_code":"SK"}},{"type":"Feature","geometry":{"type":"Point","coordinates":[17.69433,48.77721]},"properties":{"id":104551,"name":"Stará Turá","state_code":"TC","country_code":"SK"}},{"type":"Feature","geometry":{"type":"Point","coordinates":[18.16691,48.91063]},"properties":{"id":104566,"name":"Trenčianske Teplice","state_code":"TC","country_code":"SK"}},{"type":"Feature","geometry":{"type":"Point","coordinates":[18.04436,48.89452]},"properties":{"id":104567,"name":"Trenčín","state_code":"TC","country_code":"SK"}}]}