{"type":"FeatureCollection","features":[{"type":"Feature","geometry":{"type":"Point","coordinates":[-17.44406,14.6937]},"properties":{"id":104704,"name":"Dakar","state_code":"DK","country_code":"SN"}},{"type":"Feature","geometry":{"type":"Point","coordinates":[-17.45534,14.71403]},"properties":{"id":104705,"name":"Dakar Department","state_code":"DK","country_code":"SN"}},{"type":"Feature","geometry":{"type":"Point","coordinates":[-17.3956,14.7761]},"properties":{"id":104716,"name":"Guédiawaye Department","state_code":"DK","country_code":"SN"}},{"type":"Feature","geometry":{"type":"Point","coordinates":[-17.47581,14.70649]},"properties":{"id":104737,"name":"Mermoz Boabab","state_code":"DK","country_code":"SN"}},{"type":"Feature","geometry":{"type":"Point","coordinates":[-17.3841,14.78148]},"properties":{"id":104744,"name":"N’diareme limamoulaye","state_code":"DK","country_code":"SN"}},{"type":"Feature","geometry":{"type":"Point","coordinates":[-17.39071,14.76457]},"properties":{"id":104748,"name":"Pikine","state_code":"DK","country_code":"SN"}},{"type":"Feature","geometry":{"type":"Point","coordinates":[-17.35198,14.76515]},"properties":{"id":104749,"name":"Pikine Department","state_code":"DK","country_code":"SN"}},{"type":"Feature","geometry":{"type":"Point","coordinates":[-17.19841,14.74339]},"properties":{"id":104756,"name":"Rufisque Department","state_code":"DK","country_code":"SN"}}]}