{"type":"FeatureCollection","features":[{"type":"Feature","geometry":{"type":"Point","coordinates":[-15.47993,15.34844]},"properties":{"id":104706,"name":"Dara","state_code":"LG","country_code":"SN"}},{"type":"Feature","geometry":{"type":"Point","coordinates":[-16.35,15.48333]},"properties":{"id":104717,"name":"Guéoul","state_code":"LG","country_code":"SN"}},{"type":"Feature","geometry":{"type":"Point","coordinates":[-15.158,15.359]},"properties":{"id":104729,"name":"Linguere Department","state_code":"LG","country_code":"SN"}},{"type":"Feature","geometry":{"type":"Point","coordinates":[-16.22436,15.61867]},"properties":{"id":104730,"name":"Louga","state_code":"LG","country_code":"SN"}},{"type":"Feature","geometry":{"type":"Point","coordinates":[-15.4766,15.3338]},"properties":{"id":104739,"name":"Ndibène Dahra","state_code":"LG","country_code":"SN"}}]}