{"type":"FeatureCollection","features":[{"type":"Feature","geometry":{"type":"Point","coordinates":[-16.83333,14.16667]},"properties":{"id":104718,"name":"Joal-Fadiout","state_code":"TH","country_code":"SN"}},{"type":"Feature","geometry":{"type":"Point","coordinates":[-17.11978,14.91893]},"properties":{"id":104722,"name":"Kayar","state_code":"TH","country_code":"SN"}},{"type":"Feature","geometry":{"type":"Point","coordinates":[-16.7,14.76667]},"properties":{"id":104723,"name":"Khombole","state_code":"TH","country_code":"SN"}},{"type":"Feature","geometry":{"type":"Point","coordinates":[-16.85559,14.40569]},"properties":{"id":104736,"name":"Mbour","state_code":"TH","country_code":"SN"}},{"type":"Feature","geometry":{"type":"Point","coordinates":[-16.6218,15.1097]},"properties":{"id":104738,"name":"Mékhé","state_code":"TH","country_code":"SN"}},{"type":"Feature","geometry":{"type":"Point","coordinates":[-17.00447,14.51255]},"properties":{"id":104742,"name":"Nguékhokh","state_code":"TH","country_code":"SN"}},{"type":"Feature","geometry":{"type":"Point","coordinates":[-17.06107,14.77099]},"properties":{"id":104752,"name":"Pout","state_code":"TH","country_code":"SN"}},{"type":"Feature","geometry":{"type":"Point","coordinates":[-16.86974,14.73004]},"properties":{"id":104764,"name":"Thiès","state_code":"TH","country_code":"SN"}},{"type":"Feature","geometry":{"type":"Point","coordinates":[-16.96667,14.78333]},"properties":{"id":104765,"name":"Thiès Nones","state_code":"TH","country_code":"SN"}},{"type":"Feature","geometry":{"type":"Point","coordinates":[-16.7,14.41667]},"properties":{"id":104766,"name":"Tiadiaye","state_code":"TH","country_code":"SN"}},{"type":"Feature","geometry":{"type":"Point","coordinates":[-16.71058,15.08519]},"properties":{"id":104768,"name":"Tivaouane","state_code":"TH","country_code":"SN"}},{"type":"Feature","geometry":{"type":"Point","coordinates":[-16.94366,14.37349]},"properties":{"id":104773,"name":"Warang","state_code":"TH","country_code":"SN"}}]}