{"type":"FeatureCollection","features":[{"type":"Feature","geometry":{"type":"Point","coordinates":[44.51111,4.01897]},"properties":{"id":104815,"name":"Tayeeglow","state_code":"BK","country_code":"SO"}},{"type":"Feature","geometry":{"type":"Point","coordinates":[43.24627,3.80958]},"properties":{"id":104816,"name":"Waajid","state_code":"BK","country_code":"SO"}},{"type":"Feature","geometry":{"type":"Point","coordinates":[43.88945,4.12129]},"properties":{"id":104819,"name":"Xuddur","state_code":"BK","country_code":"SO"}},{"type":"Feature","geometry":{"type":"Point","coordinates":[43.03333,4.55]},"properties":{"id":104820,"name":"Yeed","state_code":"BK","country_code":"SO"}}]}