{"type":"FeatureCollection","features":[{"type":"Feature","geometry":{"type":"Point","coordinates":[46.6176,4.68501]},"properties":{"id":104790,"name":"Ceelbuur","state_code":"GA","country_code":"SO"}},{"type":"Feature","geometry":{"type":"Point","coordinates":[47.18064,3.84878]},"properties":{"id":104791,"name":"Ceeldheer","state_code":"GA","country_code":"SO"}},{"type":"Feature","geometry":{"type":"Point","coordinates":[46.38666,5.53597]},"properties":{"id":104793,"name":"Dhuusamarreeb","state_code":"GA","country_code":"SO"}}]}