{"type":"FeatureCollection","features":[{"type":"Feature","geometry":{"type":"Point","coordinates":[45.53363,9.52213]},"properties":{"id":104783,"name":"Burao","state_code":"TO","country_code":"SO"}},{"type":"Feature","geometry":{"type":"Point","coordinates":[45.35824,8.99907]},"properties":{"id":104789,"name":"Ceek","state_code":"TO","country_code":"SO"}},{"type":"Feature","geometry":{"type":"Point","coordinates":[45.06397,9.4092]},"properties":{"id":104811,"name":"Oodweyne","state_code":"TO","country_code":"SO"}}]}