{"type":"FeatureCollection","features":[{"type":"Feature","geometry":{"type":"Point","coordinates":[-88.26667,13.63333]},"properties":{"id":104855,"name":"Chapeltique","state_code":"SM","country_code":"SV"}},{"type":"Feature","geometry":{"type":"Point","coordinates":[-88.35,13.5]},"properties":{"id":104856,"name":"Chinameca","state_code":"SM","country_code":"SV"}},{"type":"Feature","geometry":{"type":"Point","coordinates":[-88.13861,13.22028]},"properties":{"id":104857,"name":"Chirilagua","state_code":"SM","country_code":"SV"}},{"type":"Feature","geometry":{"type":"Point","coordinates":[-88.26667,13.76667]},"properties":{"id":104859,"name":"Ciudad Barrios","state_code":"SM","country_code":"SV"}},{"type":"Feature","geometry":{"type":"Point","coordinates":[-88.35,13.35]},"properties":{"id":104871,"name":"El Tránsito","state_code":"SM","country_code":"SV"}},{"type":"Feature","geometry":{"type":"Point","coordinates":[-88.35,13.55]},"properties":{"id":104886,"name":"Lolotique","state_code":"SM","country_code":"SV"}},{"type":"Feature","geometry":{"type":"Point","coordinates":[-88.25,13.53333]},"properties":{"id":104889,"name":"Moncagua","state_code":"SM","country_code":"SV"}},{"type":"Feature","geometry":{"type":"Point","coordinates":[-88.35,13.53333]},"properties":{"id":104893,"name":"Nueva Guadalupe","state_code":"SM","country_code":"SV"}},{"type":"Feature","geometry":{"type":"Point","coordinates":[-88.18333,13.48333]},"properties":{"id":104910,"name":"San Miguel","state_code":"SM","country_code":"SV"}},{"type":"Feature","geometry":{"type":"Point","coordinates":[-88.35,13.38333]},"properties":{"id":104913,"name":"San Rafael Oriente","state_code":"SM","country_code":"SV"}},{"type":"Feature","geometry":{"type":"Point","coordinates":[-88.36667,13.71667]},"properties":{"id":104925,"name":"Sesori","state_code":"SM","country_code":"SV"}}]}