{"type":"FeatureCollection","features":[{"type":"Feature","geometry":{"type":"Point","coordinates":[-88.78333,13.66667]},"properties":{"id":104845,"name":"Apastepeque","state_code":"SV","country_code":"SV"}},{"type":"Feature","geometry":{"type":"Point","coordinates":[-88.83333,13.73333]},"properties":{"id":104915,"name":"San Sebastián","state_code":"SV","country_code":"SV"}},{"type":"Feature","geometry":{"type":"Point","coordinates":[-88.8,13.63333]},"properties":{"id":104916,"name":"San Vicente","state_code":"SV","country_code":"SV"}}]}