{"type":"FeatureCollection","features":[{"type":"Feature","geometry":{"type":"Point","coordinates":[36.76998,36.21254]},"properties":{"id":104942,"name":"Ad Dānā","state_code":"ID","country_code":"SY"}},{"type":"Feature","geometry":{"type":"Point","coordinates":[36.60964,35.81374]},"properties":{"id":104973,"name":"Arīḩā","state_code":"ID","country_code":"SY"}},{"type":"Feature","geometry":{"type":"Point","coordinates":[36.5031,36.08363]},"properties":{"id":104972,"name":"Armanāz","state_code":"ID","country_code":"SY"}},{"type":"Feature","geometry":{"type":"Point","coordinates":[36.7138,35.95664]},"properties":{"id":104985,"name":"Binnish","state_code":"ID","country_code":"SY"}},{"type":"Feature","geometry":{"type":"Point","coordinates":[36.39361,35.9918]},"properties":{"id":104989,"name":"Darkūsh","state_code":"ID","country_code":"SY"}},{"type":"Feature","geometry":{"type":"Point","coordinates":[36.56535,36.14014]},"properties":{"id":104999,"name":"Harem","state_code":"ID","country_code":"SY"}},{"type":"Feature","geometry":{"type":"Point","coordinates":[36.52078,36.21176]},"properties":{"id":105078,"name":"Ḩārim","state_code":"ID","country_code":"SY"}},{"type":"Feature","geometry":{"type":"Point","coordinates":[36.63393,35.93062]},"properties":{"id":105002,"name":"Idlib","state_code":"ID","country_code":"SY"}},{"type":"Feature","geometry":{"type":"Point","coordinates":[36.32901,35.87756]},"properties":{"id":105012,"name":"Jisr al-Shughur","state_code":"ID","country_code":"SY"}},{"type":"Feature","geometry":{"type":"Point","coordinates":[36.31983,35.81418]},"properties":{"id":105013,"name":"Jisr ash Shughūr","state_code":"ID","country_code":"SY"}},{"type":"Feature","geometry":{"type":"Point","coordinates":[36.51522,36.1168]},"properties":{"id":105017,"name":"Kafr Takhārīm","state_code":"ID","country_code":"SY"}},{"type":"Feature","geometry":{"type":"Point","coordinates":[36.56449,35.61376]},"properties":{"id":105020,"name":"Kafranbel","state_code":"ID","country_code":"SY"}},{"type":"Feature","geometry":{"type":"Point","coordinates":[36.65095,35.44208]},"properties":{"id":105023,"name":"Khān Shaykhūn","state_code":"ID","country_code":"SY"}},{"type":"Feature","geometry":{"type":"Point","coordinates":[36.67183,36.01152]},"properties":{"id":105031,"name":"Ma‘arratmişrīn","state_code":"ID","country_code":"SY"}},{"type":"Feature","geometry":{"type":"Point","coordinates":[36.79193,35.53858]},"properties":{"id":105026,"name":"Maarrat al-Nu'man","state_code":"ID","country_code":"SY"}},{"type":"Feature","geometry":{"type":"Point","coordinates":[36.45244,36.13865]},"properties":{"id":105044,"name":"Salqīn","state_code":"ID","country_code":"SY"}},{"type":"Feature","geometry":{"type":"Point","coordinates":[36.80591,35.86447]},"properties":{"id":105046,"name":"Sarāqib","state_code":"ID","country_code":"SY"}},{"type":"Feature","geometry":{"type":"Point","coordinates":[36.72501,35.90403]},"properties":{"id":105045,"name":"Sarmīn","state_code":"ID","country_code":"SY"}},{"type":"Feature","geometry":{"type":"Point","coordinates":[36.78579,35.99832]},"properties":{"id":105054,"name":"Taftanāz","state_code":"ID","country_code":"SY"}}]}