{"type":"FeatureCollection","features":[{"type":"Feature","geometry":{"type":"Point","coordinates":[102.47693,13.69086]},"properties":{"id":105183,"name":"Amphoe Aranyaprathet","state_code":"27","country_code":"TH"}},{"type":"Feature","geometry":{"type":"Point","coordinates":[102.08718,13.519]},"properties":{"id":106340,"name":"Amphoe Wang Nam Yen","state_code":"27","country_code":"TH"}},{"type":"Feature","geometry":{"type":"Point","coordinates":[102.50128,13.69276]},"properties":{"id":106382,"name":"Aranyaprathet","state_code":"27","country_code":"TH"}},{"type":"Feature","geometry":{"type":"Point","coordinates":[102.02665,13.62293]},"properties":{"id":105392,"name":"Khao Chakan","state_code":"27","country_code":"TH"}},{"type":"Feature","geometry":{"type":"Point","coordinates":[102.27604,13.47396]},"properties":{"id":105405,"name":"Khlong Hat","state_code":"27","country_code":"TH"}},{"type":"Feature","geometry":{"type":"Point","coordinates":[102.66075,13.87388]},"properties":{"id":105420,"name":"Khok Sung","state_code":"27","country_code":"TH"}},{"type":"Feature","geometry":{"type":"Point","coordinates":[102.10626,13.92969]},"properties":{"id":105582,"name":"Mueang Sa Kaeo","state_code":"27","country_code":"TH"}},{"type":"Feature","geometry":{"type":"Point","coordinates":[102.07222,13.81411]},"properties":{"id":106671,"name":"Sa Kaeo","state_code":"27","country_code":"TH"}},{"type":"Feature","geometry":{"type":"Point","coordinates":[102.72601,14.06272]},"properties":{"id":106260,"name":"Ta Phraya","state_code":"27","country_code":"TH"}},{"type":"Feature","geometry":{"type":"Point","coordinates":[102.18115,13.50325]},"properties":{"id":106743,"name":"Wang Nam Yen","state_code":"27","country_code":"TH"}},{"type":"Feature","geometry":{"type":"Point","coordinates":[102.1249,13.36112]},"properties":{"id":106347,"name":"Wang Sombun","state_code":"27","country_code":"TH"}},{"type":"Feature","geometry":{"type":"Point","coordinates":[102.35652,13.88582]},"properties":{"id":106358,"name":"Watthana Nakhon","state_code":"27","country_code":"TH"}}]}