{"type":"FeatureCollection","features":[{"type":"Feature","geometry":{"type":"Point","coordinates":[99.49148,17.05278]},"properties":{"id":105189,"name":"Amphoe Ban Dan Lan Hoi","state_code":"64","country_code":"TH"}},{"type":"Feature","geometry":{"type":"Point","coordinates":[99.73976,16.82923]},"properties":{"id":105403,"name":"Amphoe Khiri Mat","state_code":"64","country_code":"TH"}},{"type":"Feature","geometry":{"type":"Point","coordinates":[99.85396,17.29899]},"properties":{"id":106203,"name":"Amphoe Sawankhalok","state_code":"64","country_code":"TH"}},{"type":"Feature","geometry":{"type":"Point","coordinates":[99.70591,17.59927]},"properties":{"id":106224,"name":"Amphoe Si Satchanalai","state_code":"64","country_code":"TH"}},{"type":"Feature","geometry":{"type":"Point","coordinates":[99.57497,17.00683]},"properties":{"id":106388,"name":"Ban Dan Lan Hoi","state_code":"64","country_code":"TH"}},{"type":"Feature","geometry":{"type":"Point","coordinates":[99.73283,17.01717]},"properties":{"id":106401,"name":"Ban Na","state_code":"64","country_code":"TH"}},{"type":"Feature","geometry":{"type":"Point","coordinates":[99.8,16.83333]},"properties":{"id":106522,"name":"Khiri Mat","state_code":"64","country_code":"TH"}},{"type":"Feature","geometry":{"type":"Point","coordinates":[99.97414,16.93115]},"properties":{"id":105447,"name":"Kong Krailat","state_code":"64","country_code":"TH"}},{"type":"Feature","geometry":{"type":"Point","coordinates":[99.77864,17.02318]},"properties":{"id":105593,"name":"Mueang Sukhothai","state_code":"64","country_code":"TH"}},{"type":"Feature","geometry":{"type":"Point","coordinates":[99.83186,17.31597]},"properties":{"id":106695,"name":"Sawankhalok","state_code":"64","country_code":"TH"}},{"type":"Feature","geometry":{"type":"Point","coordinates":[99.97666,17.39275]},"properties":{"id":106217,"name":"Si Nakhon","state_code":"64","country_code":"TH"}},{"type":"Feature","geometry":{"type":"Point","coordinates":[99.74672,17.16397]},"properties":{"id":106223,"name":"Si Samrong","state_code":"64","country_code":"TH"}},{"type":"Feature","geometry":{"type":"Point","coordinates":[99.75978,17.51692]},"properties":{"id":106701,"name":"Si Satchanalai","state_code":"64","country_code":"TH"}},{"type":"Feature","geometry":{"type":"Point","coordinates":[99.823,17.00778]},"properties":{"id":106707,"name":"Sukhothai","state_code":"64","country_code":"TH"}},{"type":"Feature","geometry":{"type":"Point","coordinates":[99.55265,17.37082]},"properties":{"id":106315,"name":"Thung Saliam","state_code":"64","country_code":"TH"}}]}