{"type":"FeatureCollection","features":[{"type":"Feature","geometry":{"type":"Point","coordinates":[100.35042,16.59323]},"properties":{"id":105229,"name":"Amphoe Bang Krathum","state_code":"65","country_code":"TH"}},{"type":"Feature","geometry":{"type":"Point","coordinates":[100.04217,16.71844]},"properties":{"id":105241,"name":"Amphoe Bang Rakam","state_code":"65","country_code":"TH"}},{"type":"Feature","geometry":{"type":"Point","coordinates":[100.6846,17.39357]},"properties":{"id":105288,"name":"Amphoe Chat Trakan","state_code":"65","country_code":"TH"}},{"type":"Feature","geometry":{"type":"Point","coordinates":[100.86437,17.09426]},"properties":{"id":105633,"name":"Amphoe Nakhon Thai","state_code":"65","country_code":"TH"}},{"type":"Feature","geometry":{"type":"Point","coordinates":[100.30034,16.57831]},"properties":{"id":106430,"name":"Bang Krathum","state_code":"65","country_code":"TH"}},{"type":"Feature","geometry":{"type":"Point","coordinates":[100.11742,16.75847]},"properties":{"id":106444,"name":"Bang Rakam","state_code":"65","country_code":"TH"}},{"type":"Feature","geometry":{"type":"Point","coordinates":[100.60022,17.27606]},"properties":{"id":106468,"name":"Chat Trakan","state_code":"65","country_code":"TH"}},{"type":"Feature","geometry":{"type":"Point","coordinates":[100.27298,16.8404]},"properties":{"id":105573,"name":"Mueang Phitsanulok","state_code":"65","country_code":"TH"}},{"type":"Feature","geometry":{"type":"Point","coordinates":[100.83739,17.10056]},"properties":{"id":106586,"name":"Nakhon Thai","state_code":"65","country_code":"TH"}},{"type":"Feature","geometry":{"type":"Point","coordinates":[100.70995,16.564]},"properties":{"id":105647,"name":"Noen Maprang","state_code":"65","country_code":"TH"}},{"type":"Feature","geometry":{"type":"Point","coordinates":[100.25858,16.82481]},"properties":{"id":106636,"name":"Phitsanulok","state_code":"65","country_code":"TH"}},{"type":"Feature","geometry":{"type":"Point","coordinates":[100.1535,17.06894]},"properties":{"id":105773,"name":"Phrom Phiram","state_code":"65","country_code":"TH"}},{"type":"Feature","geometry":{"type":"Point","coordinates":[100.58333,16.85]},"properties":{"id":106348,"name":"Wang Thong","state_code":"65","country_code":"TH"}},{"type":"Feature","geometry":{"type":"Point","coordinates":[100.36298,17.16384]},"properties":{"id":106355,"name":"Wat Bot","state_code":"65","country_code":"TH"}}]}