{"type":"FeatureCollection","features":[{"type":"Feature","geometry":{"type":"Point","coordinates":[99.82147,13.8166]},"properties":{"id":105215,"name":"Amphoe Ban Pong","state_code":"70","country_code":"TH"}},{"type":"Feature","geometry":{"type":"Point","coordinates":[99.98333,13.68333]},"properties":{"id":105237,"name":"Amphoe Bang Phae","state_code":"70","country_code":"TH"}},{"type":"Feature","geometry":{"type":"Point","coordinates":[99.5187,13.6252]},"properties":{"id":105303,"name":"Amphoe Chom Bueng","state_code":"70","country_code":"TH"}},{"type":"Feature","geometry":{"type":"Point","coordinates":[99.97042,13.56537]},"properties":{"id":105316,"name":"Amphoe Damnoen Saduak","state_code":"70","country_code":"TH"}},{"type":"Feature","geometry":{"type":"Point","coordinates":[99.75622,13.70707]},"properties":{"id":105759,"name":"Amphoe Photharam","state_code":"70","country_code":"TH"}},{"type":"Feature","geometry":{"type":"Point","coordinates":[99.37323,13.32374]},"properties":{"id":105194,"name":"Ban Kha","state_code":"70","country_code":"TH"}},{"type":"Feature","geometry":{"type":"Point","coordinates":[99.87739,13.81629]},"properties":{"id":106410,"name":"Ban Pong","state_code":"70","country_code":"TH"}},{"type":"Feature","geometry":{"type":"Point","coordinates":[99.92982,13.69157]},"properties":{"id":106440,"name":"Bang Phae","state_code":"70","country_code":"TH"}},{"type":"Feature","geometry":{"type":"Point","coordinates":[99.59169,13.62]},"properties":{"id":106478,"name":"Chom Bueng","state_code":"70","country_code":"TH"}},{"type":"Feature","geometry":{"type":"Point","coordinates":[99.95469,13.51825]},"properties":{"id":106485,"name":"Damnoen Saduak","state_code":"70","country_code":"TH"}},{"type":"Feature","geometry":{"type":"Point","coordinates":[99.77678,13.54559]},"properties":{"id":105579,"name":"Mueang Ratchaburi","state_code":"70","country_code":"TH"}},{"type":"Feature","geometry":{"type":"Point","coordinates":[99.677,13.38761]},"properties":{"id":105707,"name":"Pak Tho","state_code":"70","country_code":"TH"}},{"type":"Feature","geometry":{"type":"Point","coordinates":[99.84969,13.69234]},"properties":{"id":106641,"name":"Photharam","state_code":"70","country_code":"TH"}},{"type":"Feature","geometry":{"type":"Point","coordinates":[99.81712,13.53671]},"properties":{"id":106664,"name":"Ratchaburi","state_code":"70","country_code":"TH"}},{"type":"Feature","geometry":{"type":"Point","coordinates":[99.31133,13.56361]},"properties":{"id":106253,"name":"Suan Phueng","state_code":"70","country_code":"TH"}},{"type":"Feature","geometry":{"type":"Point","coordinates":[99.86959,13.44705]},"properties":{"id":106356,"name":"Wat Phleng","state_code":"70","country_code":"TH"}}]}