{"type":"FeatureCollection","features":[{"type":"Feature","geometry":{"type":"Point","coordinates":[99.605,7.80063]},"properties":{"id":105359,"name":"Amphoe Huai Yot","state_code":"92","country_code":"TH"}},{"type":"Feature","geometry":{"type":"Point","coordinates":[99.47064,7.38563]},"properties":{"id":105370,"name":"Amphoe Kantang","state_code":"92","country_code":"TH"}},{"type":"Feature","geometry":{"type":"Point","coordinates":[99.5816,7.25733]},"properties":{"id":105346,"name":"Hat Samran","state_code":"92","country_code":"TH"}},{"type":"Feature","geometry":{"type":"Point","coordinates":[99.63469,7.78937]},"properties":{"id":106502,"name":"Huai Yot","state_code":"92","country_code":"TH"}},{"type":"Feature","geometry":{"type":"Point","coordinates":[99.51561,7.40542]},"properties":{"id":106512,"name":"Kantang","state_code":"92","country_code":"TH"}},{"type":"Feature","geometry":{"type":"Point","coordinates":[99.61772,7.60944]},"properties":{"id":105598,"name":"Mueang Trang","state_code":"92","country_code":"TH"}},{"type":"Feature","geometry":{"type":"Point","coordinates":[99.74791,7.56257]},"properties":{"id":105629,"name":"Na Yong","state_code":"92","country_code":"TH"}},{"type":"Feature","geometry":{"type":"Point","coordinates":[99.79491,7.2334]},"properties":{"id":105709,"name":"Palian","state_code":"92","country_code":"TH"}},{"type":"Feature","geometry":{"type":"Point","coordinates":[99.66771,7.93779]},"properties":{"id":105807,"name":"Ratsada","state_code":"92","country_code":"TH"}},{"type":"Feature","geometry":{"type":"Point","coordinates":[99.33915,7.57122]},"properties":{"id":106233,"name":"Sikao","state_code":"92","country_code":"TH"}},{"type":"Feature","geometry":{"type":"Point","coordinates":[99.61141,7.55633]},"properties":{"id":106735,"name":"Trang","state_code":"92","country_code":"TH"}},{"type":"Feature","geometry":{"type":"Point","coordinates":[99.40861,7.76061]},"properties":{"id":106349,"name":"Wang Wiset","state_code":"92","country_code":"TH"}},{"type":"Feature","geometry":{"type":"Point","coordinates":[99.73438,7.4258]},"properties":{"id":106373,"name":"Yan Ta Khao","state_code":"92","country_code":"TH"}}]}