{"type":"FeatureCollection","features":[{"type":"Feature","geometry":{"type":"Point","coordinates":[101.70496,6.25504]},"properties":{"id":105802,"name":"Amphoe Ra-ngae","state_code":"96","country_code":"TH"}},{"type":"Feature","geometry":{"type":"Point","coordinates":[101.99818,6.07674]},"properties":{"id":106251,"name":"Amphoe Su-ngai Kolok","state_code":"96","country_code":"TH"}},{"type":"Feature","geometry":{"type":"Point","coordinates":[102.00238,6.23748]},"properties":{"id":106261,"name":"Amphoe Tak Bai","state_code":"96","country_code":"TH"}},{"type":"Feature","geometry":{"type":"Point","coordinates":[101.64923,6.54591]},"properties":{"id":105185,"name":"Ba Cho","state_code":"96","country_code":"TH"}},{"type":"Feature","geometry":{"type":"Point","coordinates":[101.87172,6.07239]},"properties":{"id":106414,"name":"Ban Su-ngai Pa Di","state_code":"96","country_code":"TH"}},{"type":"Feature","geometry":{"type":"Point","coordinates":[101.61765,6.04591]},"properties":{"id":105283,"name":"Chanae","state_code":"96","country_code":"TH"}},{"type":"Feature","geometry":{"type":"Point","coordinates":[101.84721,6.23011]},"properties":{"id":105301,"name":"Cho-airong","state_code":"96","country_code":"TH"}},{"type":"Feature","geometry":{"type":"Point","coordinates":[101.81316,6.39391]},"properties":{"id":105560,"name":"Mueang Narathiwat","state_code":"96","country_code":"TH"}},{"type":"Feature","geometry":{"type":"Point","coordinates":[101.82308,6.42639]},"properties":{"id":106590,"name":"Narathiwat","state_code":"96","country_code":"TH"}},{"type":"Feature","geometry":{"type":"Point","coordinates":[101.72844,6.29678]},"properties":{"id":106660,"name":"Ra-ngae","state_code":"96","country_code":"TH"}},{"type":"Feature","geometry":{"type":"Point","coordinates":[101.51491,6.3745]},"properties":{"id":105815,"name":"Rueso","state_code":"96","country_code":"TH"}},{"type":"Feature","geometry":{"type":"Point","coordinates":[101.51257,6.1936]},"properties":{"id":106222,"name":"Si Sakhon","state_code":"96","country_code":"TH"}},{"type":"Feature","geometry":{"type":"Point","coordinates":[101.96586,6.02977]},"properties":{"id":106705,"name":"Su-ngai Kolok","state_code":"96","country_code":"TH"}},{"type":"Feature","geometry":{"type":"Point","coordinates":[101.89333,6.10425]},"properties":{"id":106252,"name":"Su-ngai Padi","state_code":"96","country_code":"TH"}},{"type":"Feature","geometry":{"type":"Point","coordinates":[101.73811,5.91513]},"properties":{"id":106255,"name":"Sukhirin","state_code":"96","country_code":"TH"}},{"type":"Feature","geometry":{"type":"Point","coordinates":[102.05461,6.25947]},"properties":{"id":106714,"name":"Tak Bai","state_code":"96","country_code":"TH"}},{"type":"Feature","geometry":{"type":"Point","coordinates":[101.86195,5.90042]},"properties":{"id":106330,"name":"Waeng","state_code":"96","country_code":"TH"}},{"type":"Feature","geometry":{"type":"Point","coordinates":[101.70035,6.41655]},"properties":{"id":106379,"name":"Yi-ngo","state_code":"96","country_code":"TH"}}]}