{"type":"FeatureCollection","features":[{"type":"Feature","geometry":{"type":"Point","coordinates":[100.17164,7.41775]},"properties":{"id":105224,"name":"Bang Kaeo","state_code":"93","country_code":"TH"}},{"type":"Feature","geometry":{"type":"Point","coordinates":[100.09055,7.46305]},"properties":{"id":105391,"name":"Khao Chaison","state_code":"93","country_code":"TH"}},{"type":"Feature","geometry":{"type":"Point","coordinates":[100.04349,7.76438]},"properties":{"id":105428,"name":"Khuan Khanun","state_code":"93","country_code":"TH"}},{"type":"Feature","geometry":{"type":"Point","coordinates":[99.95719,7.41674]},"properties":{"id":105448,"name":"Kong Ra","state_code":"93","country_code":"TH"}},{"type":"Feature","geometry":{"type":"Point","coordinates":[100.07425,7.6025]},"properties":{"id":105568,"name":"Mueang Phatthalung","state_code":"93","country_code":"TH"}},{"type":"Feature","geometry":{"type":"Point","coordinates":[100.13078,7.21994]},"properties":{"id":105692,"name":"Pa Bon","state_code":"93","country_code":"TH"}},{"type":"Feature","geometry":{"type":"Point","coordinates":[99.87448,7.83154]},"properties":{"id":105696,"name":"Pa Phayom","state_code":"93","country_code":"TH"}},{"type":"Feature","geometry":{"type":"Point","coordinates":[100.29542,7.29622]},"properties":{"id":105705,"name":"Pak Phayun","state_code":"93","country_code":"TH"}},{"type":"Feature","geometry":{"type":"Point","coordinates":[100.07792,7.61786]},"properties":{"id":106626,"name":"Phatthalung","state_code":"93","country_code":"TH"}},{"type":"Feature","geometry":{"type":"Point","coordinates":[99.87322,7.69259]},"properties":{"id":106209,"name":"Si Banphot","state_code":"93","country_code":"TH"}},{"type":"Feature","geometry":{"type":"Point","coordinates":[99.91053,7.57574]},"properties":{"id":106250,"name":"Srinagarindra","state_code":"93","country_code":"TH"}},{"type":"Feature","geometry":{"type":"Point","coordinates":[100.04358,7.28783]},"properties":{"id":106266,"name":"Tamot","state_code":"93","country_code":"TH"}}]}