{"type":"FeatureCollection","features":[{"type":"Feature","geometry":{"type":"Point","coordinates":[125.56639,-8.72806]},"properties":{"id":106830,"name":"Aileu","state_code":"AL","country_code":"TL"}},{"type":"Feature","geometry":{"type":"Point","coordinates":[125.63611,-8.69139]},"properties":{"id":106854,"name":"Lequidoe","state_code":"AL","country_code":"TL"}},{"type":"Feature","geometry":{"type":"Point","coordinates":[125.66667,-8.61667]},"properties":{"id":106868,"name":"Remexio","state_code":"AL","country_code":"TL"}}]}