{"type":"FeatureCollection","features":[{"type":"Feature","geometry":{"type":"Point","coordinates":[126.65743,-8.62787]},"properties":{"id":106834,"name":"Baguia","state_code":"BA","country_code":"TL"}},{"type":"Feature","geometry":{"type":"Point","coordinates":[126.45,-8.46667]},"properties":{"id":106836,"name":"Baucau","state_code":"BA","country_code":"TL"}},{"type":"Feature","geometry":{"type":"Point","coordinates":[126.45633,-8.47572]},"properties":{"id":106837,"name":"Baukau","state_code":"BA","country_code":"TL"}},{"type":"Feature","geometry":{"type":"Point","coordinates":[126.59228,-8.47411]},"properties":{"id":106852,"name":"Laga","state_code":"BA","country_code":"TL"}},{"type":"Feature","geometry":{"type":"Point","coordinates":[126.55904,-8.60135]},"properties":{"id":106866,"name":"Quelicai","state_code":"BA","country_code":"TL"}},{"type":"Feature","geometry":{"type":"Point","coordinates":[126.20823,-8.51036]},"properties":{"id":106877,"name":"Vemasse","state_code":"BA","country_code":"TL"}},{"type":"Feature","geometry":{"type":"Point","coordinates":[126.37833,-8.64306]},"properties":{"id":106878,"name":"Venilale","state_code":"BA","country_code":"TL"}}]}