{"type":"FeatureCollection","features":[{"type":"Feature","geometry":{"type":"Point","coordinates":[125.03583,-9.22917]},"properties":{"id":106843,"name":"Fatumean","state_code":"CO","country_code":"TL"}},{"type":"Feature","geometry":{"type":"Point","coordinates":[125.08944,-9.28361]},"properties":{"id":106844,"name":"Fohorem","state_code":"CO","country_code":"TL"}},{"type":"Feature","geometry":{"type":"Point","coordinates":[125.22981,-9.21772]},"properties":{"id":106863,"name":"Maucatar","state_code":"CO","country_code":"TL"}},{"type":"Feature","geometry":{"type":"Point","coordinates":[125.25,-9.3]},"properties":{"id":106871,"name":"Suai","state_code":"CO","country_code":"TL"}},{"type":"Feature","geometry":{"type":"Point","coordinates":[125.10887,-9.34182]},"properties":{"id":106872,"name":"Tilomar","state_code":"CO","country_code":"TL"}}]}