{"type":"FeatureCollection","features":[{"type":"Feature","geometry":{"type":"Point","coordinates":[125.59699,-8.26785]},"properties":{"id":106833,"name":"Atauro Island","state_code":"DI","country_code":"TL"}},{"type":"Feature","geometry":{"type":"Point","coordinates":[125.60837,-8.52047]},"properties":{"id":106839,"name":"Cristo Rei","state_code":"DI","country_code":"TL"}},{"type":"Feature","geometry":{"type":"Point","coordinates":[125.57361,-8.55861]},"properties":{"id":106840,"name":"Dili","state_code":"DI","country_code":"TL"}},{"type":"Feature","geometry":{"type":"Point","coordinates":[125.74163,-8.53007]},"properties":{"id":106864,"name":"Metinaro","state_code":"DI","country_code":"TL"}}]}