{"type":"FeatureCollection","features":[{"type":"Feature","geometry":{"type":"Point","coordinates":[126.82833,-8.70917]},"properties":{"id":106848,"name":"Iliomar","state_code":"LA","country_code":"TL"}},{"type":"Feature","geometry":{"type":"Point","coordinates":[126.90389,-8.36514]},"properties":{"id":106853,"name":"Lautem","state_code":"LA","country_code":"TL"}},{"type":"Feature","geometry":{"type":"Point","coordinates":[126.99833,-8.52167]},"properties":{"id":106857,"name":"Lospalos","state_code":"LA","country_code":"TL"}},{"type":"Feature","geometry":{"type":"Point","coordinates":[126.83003,-8.54359]},"properties":{"id":106858,"name":"Luro","state_code":"LA","country_code":"TL"}},{"type":"Feature","geometry":{"type":"Point","coordinates":[127.25923,-8.39597]},"properties":{"id":106874,"name":"Tutuala","state_code":"LA","country_code":"TL"}}]}