{"type":"FeatureCollection","features":[{"type":"Feature","geometry":{"type":"Point","coordinates":[124.08333333,-9.33333333]},"properties":{"id":160123,"name":"Citrana","state_code":"OE","country_code":"TL"}},{"type":"Feature","geometry":{"type":"Point","coordinates":[124.23333333,-9.35]},"properties":{"id":160124,"name":"Nitibe","state_code":"OE","country_code":"TL"}},{"type":"Feature","geometry":{"type":"Point","coordinates":[124.5,-9.3]},"properties":{"id":160126,"name":"Oe Silo","state_code":"OE","country_code":"TL"}},{"type":"Feature","geometry":{"type":"Point","coordinates":[124.38333333,-9.2]},"properties":{"id":160122,"name":"Pante Macassar","state_code":"OE","country_code":"TL"}},{"type":"Feature","geometry":{"type":"Point","coordinates":[124.34333333,-9.36416667]},"properties":{"id":160125,"name":"Passabe","state_code":"OE","country_code":"TL"}}]}