{"type":"FeatureCollection","features":[{"type":"Feature","geometry":{"type":"Point","coordinates":[54.36713,39.51075]},"properties":{"id":106887,"name":"Balkanabat","state_code":"B","country_code":"TM"}},{"type":"Feature","geometry":{"type":"Point","coordinates":[55.51536,39.24463]},"properties":{"id":106889,"name":"Bereket","state_code":"B","country_code":"TM"}},{"type":"Feature","geometry":{"type":"Point","coordinates":[54.59056,39.20611]},"properties":{"id":106895,"name":"Gumdag","state_code":"B","country_code":"TM"}},{"type":"Feature","geometry":{"type":"Point","coordinates":[56.28081,38.43749]},"properties":{"id":106898,"name":"Magtymguly","state_code":"B","country_code":"TM"}},{"type":"Feature","geometry":{"type":"Point","coordinates":[56.27575,38.97644]},"properties":{"id":106901,"name":"Serdar","state_code":"B","country_code":"TM"}},{"type":"Feature","geometry":{"type":"Point","coordinates":[52.95517,40.02216]},"properties":{"id":106907,"name":"Türkmenbaşy","state_code":"B","country_code":"TM"}}]}