{"type":"FeatureCollection","features":[{"type":"Feature","geometry":{"type":"Point","coordinates":[59.37877,42.05513]},"properties":{"id":106881,"name":"Akdepe","state_code":"D","country_code":"TM"}},{"type":"Feature","geometry":{"type":"Point","coordinates":[59.67101,42.12824]},"properties":{"id":106890,"name":"Boldumsaz","state_code":"D","country_code":"TM"}},{"type":"Feature","geometry":{"type":"Point","coordinates":[59.96661,41.83625]},"properties":{"id":106891,"name":"Daşoguz","state_code":"D","country_code":"TM"}},{"type":"Feature","geometry":{"type":"Point","coordinates":[59.15442,42.32773]},"properties":{"id":106897,"name":"Köneürgench","state_code":"D","country_code":"TM"}},{"type":"Feature","geometry":{"type":"Point","coordinates":[59.9164,41.65041]},"properties":{"id":106904,"name":"Tagta","state_code":"D","country_code":"TM"}},{"type":"Feature","geometry":{"type":"Point","coordinates":[59.65,41.83333]},"properties":{"id":106909,"name":"Yylanly","state_code":"D","country_code":"TM"}}]}