{"type":"FeatureCollection","features":[{"type":"Feature","geometry":{"type":"Point","coordinates":[10.19337,36.86012]},"properties":{"id":106915,"name":"Ariana","state_code":"12","country_code":"TN"}},{"type":"Feature","geometry":{"type":"Point","coordinates":[10.1703,36.8625]},"properties":{"id":153381,"name":"Ettadhamen-Mnihla","state_code":"12","country_code":"TN"}},{"type":"Feature","geometry":{"type":"Point","coordinates":[10.2622,36.8811]},"properties":{"id":106955,"name":"Kalaat el-Andalous","state_code":"12","country_code":"TN"}},{"type":"Feature","geometry":{"type":"Point","coordinates":[10.2525,36.8535]},"properties":{"id":153380,"name":"La Soukra","state_code":"12","country_code":"TN"}},{"type":"Feature","geometry":{"type":"Point","coordinates":[10.2002,36.8369]},"properties":{"id":153382,"name":"Mnihla","state_code":"12","country_code":"TN"}},{"type":"Feature","geometry":{"type":"Point","coordinates":[10.2465,36.885]},"properties":{"id":153378,"name":"Raoued","state_code":"12","country_code":"TN"}},{"type":"Feature","geometry":{"type":"Point","coordinates":[10.0403,36.8399]},"properties":{"id":153379,"name":"Sidi Thabet","state_code":"12","country_code":"TN"}}]}