{"type":"FeatureCollection","features":[{"type":"Feature","geometry":{"type":"Point","coordinates":[9.02117,36.0764]},"properties":{"id":106917,"name":"As Sars","state_code":"33","country_code":"TN"}},{"type":"Feature","geometry":{"type":"Point","coordinates":[8.70486,36.17424]},"properties":{"id":106947,"name":"El Kef","state_code":"33","country_code":"TN"}},{"type":"Feature","geometry":{"type":"Point","coordinates":[8.88493,35.89607]},"properties":{"id":106948,"name":"El Ksour","state_code":"33","country_code":"TN"}},{"type":"Feature","geometry":{"type":"Point","coordinates":[8.47654,35.85673]},"properties":{"id":106992,"name":"Menzel Salem","state_code":"33","country_code":"TN"}},{"type":"Feature","geometry":{"type":"Point","coordinates":[8.76657,36.29411]},"properties":{"id":107002,"name":"Nibbar","state_code":"33","country_code":"TN"}},{"type":"Feature","geometry":{"type":"Point","coordinates":[8.35547,36.22292]},"properties":{"id":107013,"name":"Sakiet Sidi Youssef","state_code":"33","country_code":"TN"}},{"type":"Feature","geometry":{"type":"Point","coordinates":[8.55276,35.89174]},"properties":{"id":107032,"name":"Tajerouine","state_code":"33","country_code":"TN"}}]}