{"type":"FeatureCollection","features":[{"type":"Feature","geometry":{"type":"Point","coordinates":[9.19321,34.93212]},"properties":{"id":106925,"name":"Bir el Hafey","state_code":"43","country_code":"TN"}},{"type":"Feature","geometry":{"type":"Point","coordinates":[9.78654,34.85932]},"properties":{"id":106949,"name":"Er Regueb","state_code":"43","country_code":"TN"}},{"type":"Feature","geometry":{"type":"Point","coordinates":[9.42385,35.27311]},"properties":{"id":106967,"name":"Jilma","state_code":"43","country_code":"TN"}},{"type":"Feature","geometry":{"type":"Point","coordinates":[9.84193,34.57758]},"properties":{"id":106995,"name":"Mezzouna","state_code":"43","country_code":"TN"}},{"type":"Feature","geometry":{"type":"Point","coordinates":[9.48494,35.03823]},"properties":{"id":107024,"name":"Sidi Bouzid","state_code":"43","country_code":"TN"}}]}