{"type":"FeatureCollection","features":[{"type":"Feature","geometry":{"type":"Point","coordinates":[9.0203,33.46632]},"properties":{"id":106939,"name":"Douz","state_code":"73","country_code":"TN"}},{"type":"Feature","geometry":{"type":"Point","coordinates":[9.00678,33.48485]},"properties":{"id":106944,"name":"El Golaa","state_code":"73","country_code":"TN"}},{"type":"Feature","geometry":{"type":"Point","coordinates":[9.01472,33.57778]},"properties":{"id":106964,"name":"Jemna","state_code":"73","country_code":"TN"}},{"type":"Feature","geometry":{"type":"Point","coordinates":[8.96903,33.70439]},"properties":{"id":106970,"name":"Kebili","state_code":"73","country_code":"TN"}}]}