{"type":"FeatureCollection","features":[{"type":"Feature","geometry":{"type":"Point","coordinates":[43.67135,39.54056]},"properties":{"id":107502,"name":"Diyadin","state_code":"04","country_code":"TR"}},{"type":"Feature","geometry":{"type":"Point","coordinates":[44.08417,39.54694]},"properties":{"id":107527,"name":"Doğubayazıt","state_code":"04","country_code":"TR"}},{"type":"Feature","geometry":{"type":"Point","coordinates":[42.67574,39.79803]},"properties":{"id":107566,"name":"Eleşkirt","state_code":"04","country_code":"TR"}},{"type":"Feature","geometry":{"type":"Point","coordinates":[42.985,39.60561]},"properties":{"id":107783,"name":"Hamur","state_code":"04","country_code":"TR"}},{"type":"Feature","geometry":{"type":"Point","coordinates":[43.05139,39.71944]},"properties":{"id":107244,"name":"Merkez","state_code":"04","country_code":"TR"}},{"type":"Feature","geometry":{"type":"Point","coordinates":[42.85693,39.22493]},"properties":{"id":108316,"name":"Patnos","state_code":"04","country_code":"TR"}},{"type":"Feature","geometry":{"type":"Point","coordinates":[43.36878,39.62966]},"properties":{"id":108552,"name":"Taşlıçay","state_code":"04","country_code":"TR"}},{"type":"Feature","geometry":{"type":"Point","coordinates":[42.77572,39.55042]},"properties":{"id":108608,"name":"Tutak","state_code":"04","country_code":"TR"}}]}