{"type":"FeatureCollection","features":[{"type":"Feature","geometry":{"type":"Point","coordinates":[37.86111,37.69278]},"properties":{"id":107332,"name":"Besni","state_code":"02","country_code":"TR"}},{"type":"Feature","geometry":{"type":"Point","coordinates":[38.23665,38.0256]},"properties":{"id":108814,"name":"Çelikhan","state_code":"02","country_code":"TR"}},{"type":"Feature","geometry":{"type":"Point","coordinates":[39.01667,37.95]},"properties":{"id":107666,"name":"Gerger","state_code":"02","country_code":"TR"}},{"type":"Feature","geometry":{"type":"Point","coordinates":[37.63667,37.78361]},"properties":{"id":107688,"name":"Gölbaşı","state_code":"02","country_code":"TR"}},{"type":"Feature","geometry":{"type":"Point","coordinates":[38.6237,37.78552]},"properties":{"id":108069,"name":"Kâhta","state_code":"02","country_code":"TR"}},{"type":"Feature","geometry":{"type":"Point","coordinates":[38.26801,37.74454]},"properties":{"id":108194,"name":"Merkez","state_code":"02","country_code":"TR"}},{"type":"Feature","geometry":{"type":"Point","coordinates":[38.47417,37.58194]},"properties":{"id":108379,"name":"Samsat","state_code":"02","country_code":"TR"}},{"type":"Feature","geometry":{"type":"Point","coordinates":[38.61257,38.03645]},"properties":{"id":108471,"name":"Sincik","state_code":"02","country_code":"TR"}},{"type":"Feature","geometry":{"type":"Point","coordinates":[37.9161,37.79529]},"properties":{"id":108606,"name":"Tut","state_code":"02","country_code":"TR"}}]}