{"type":"FeatureCollection","features":[{"type":"Feature","geometry":{"type":"Point","coordinates":[43.61361,37.24806]},"properties":{"id":108846,"name":"Çukurca","state_code":"30","country_code":"TR"}},{"type":"Feature","geometry":{"type":"Point","coordinates":[44.324348,37.072423]},"properties":{"id":153355,"name":"Derecik","state_code":"30","country_code":"TR"}},{"type":"Feature","geometry":{"type":"Point","coordinates":[43.74083,37.57444]},"properties":{"id":107774,"name":"Merkez","state_code":"30","country_code":"TR"}},{"type":"Feature","geometry":{"type":"Point","coordinates":[44.5742,37.30514]},"properties":{"id":108948,"name":"Şemdinli","state_code":"30","country_code":"TR"}},{"type":"Feature","geometry":{"type":"Point","coordinates":[44.25827,37.54627]},"properties":{"id":108744,"name":"Yüksekova","state_code":"30","country_code":"TR"}}]}