{"type":"FeatureCollection","features":[{"type":"Feature","geometry":{"type":"Point","coordinates":[32.12419,37.24828]},"properties":{"id":107075,"name":"Ahırlı","state_code":"42","country_code":"TR"}},{"type":"Feature","geometry":{"type":"Point","coordinates":[32.37489,37.46265]},"properties":{"id":107112,"name":"Akören","state_code":"42","country_code":"TR"}},{"type":"Feature","geometry":{"type":"Point","coordinates":[31.41639,38.3575]},"properties":{"id":107115,"name":"Akşehir","state_code":"42","country_code":"TR"}},{"type":"Feature","geometry":{"type":"Point","coordinates":[32.86861,38.30778]},"properties":{"id":107140,"name":"Altınekin","state_code":"42","country_code":"TR"}},{"type":"Feature","geometry":{"type":"Point","coordinates":[31.72458,37.67735]},"properties":{"id":107345,"name":"Beyşehir","state_code":"42","country_code":"TR"}},{"type":"Feature","geometry":{"type":"Point","coordinates":[32.24736,37.18963]},"properties":{"id":107386,"name":"Bozkır","state_code":"42","country_code":"TR"}},{"type":"Feature","geometry":{"type":"Point","coordinates":[31.79408,39.03388]},"properties":{"id":108816,"name":"Çeltik","state_code":"42","country_code":"TR"}},{"type":"Feature","geometry":{"type":"Point","coordinates":[32.92437,38.66072]},"properties":{"id":107431,"name":"Cihanbeyli","state_code":"42","country_code":"TR"}},{"type":"Feature","geometry":{"type":"Point","coordinates":[32.77446,37.5732]},"properties":{"id":108849,"name":"Çumra","state_code":"42","country_code":"TR"}},{"type":"Feature","geometry":{"type":"Point","coordinates":[32.01639,38.01422]},"properties":{"id":107471,"name":"Derbent","state_code":"42","country_code":"TR"}},{"type":"Feature","geometry":{"type":"Point","coordinates":[31.50918,37.39179]},"properties":{"id":107473,"name":"Derebucak","state_code":"42","country_code":"TR"}},{"type":"Feature","geometry":{"type":"Point","coordinates":[31.67648,38.1463]},"properties":{"id":107513,"name":"Doğanhisar","state_code":"42","country_code":"TR"}},{"type":"Feature","geometry":{"type":"Point","coordinates":[33.83722,37.90222]},"properties":{"id":107578,"name":"Emirgazi","state_code":"42","country_code":"TR"}},{"type":"Feature","geometry":{"type":"Point","coordinates":[34.04672,37.51333]},"properties":{"id":107589,"name":"Ereğli","state_code":"42","country_code":"TR"}},{"type":"Feature","geometry":{"type":"Point","coordinates":[32.73735,37.27977]},"properties":{"id":107745,"name":"Güneysınır","state_code":"42","country_code":"TR"}},{"type":"Feature","geometry":{"type":"Point","coordinates":[32.45674,36.98776]},"properties":{"id":107770,"name":"Hadim","state_code":"42","country_code":"TR"}},{"type":"Feature","geometry":{"type":"Point","coordinates":[34.18743,37.43394]},"properties":{"id":107778,"name":"Halkapınar","state_code":"42","country_code":"TR"}},{"type":"Feature","geometry":{"type":"Point","coordinates":[31.59639,37.95388]},"properties":{"id":107840,"name":"Hüyük","state_code":"42","country_code":"TR"}},{"type":"Feature","geometry":{"type":"Point","coordinates":[31.91389,38.27917]},"properties":{"id":107846,"name":"Ilgın","state_code":"42","country_code":"TR"}},{"type":"Feature","geometry":{"type":"Point","coordinates":[32.21139,38.23972]},"properties":{"id":107864,"name":"Kadınhanı","state_code":"42","country_code":"TR"}},{"type":"Feature","geometry":{"type":"Point","coordinates":[33.55064,37.71596]},"properties":{"id":107912,"name":"Karapınar","state_code":"42","country_code":"TR"}},{"type":"Feature","geometry":{"type":"Point","coordinates":[32.99828,37.94001]},"properties":{"id":107917,"name":"Karatay","state_code":"42","country_code":"TR"}},{"type":"Feature","geometry":{"type":"Point","coordinates":[33.07989,39.09513]},"properties":{"id":108042,"name":"Kulu","state_code":"42","country_code":"TR"}},{"type":"Feature","geometry":{"type":"Point","coordinates":[32.47111,37.83984]},"properties":{"id":108175,"name":"Meram","state_code":"42","country_code":"TR"}},{"type":"Feature","geometry":{"type":"Point","coordinates":[32.40457,38.26201]},"properties":{"id":108394,"name":"Sarayönü","state_code":"42","country_code":"TR"}},{"type":"Feature","geometry":{"type":"Point","coordinates":[32.54088,38.05761]},"properties":{"id":108427,"name":"Selçuklu","state_code":"42","country_code":"TR"}},{"type":"Feature","geometry":{"type":"Point","coordinates":[31.84527,37.41926]},"properties":{"id":108450,"name":"Seydişehir","state_code":"42","country_code":"TR"}},{"type":"Feature","geometry":{"type":"Point","coordinates":[32.49131,36.9243]},"properties":{"id":108546,"name":"Taşkent","state_code":"42","country_code":"TR"}},{"type":"Feature","geometry":{"type":"Point","coordinates":[31.62639,38.47778]},"properties":{"id":108611,"name":"Tuzlukçu","state_code":"42","country_code":"TR"}},{"type":"Feature","geometry":{"type":"Point","coordinates":[32.08548,37.30077]},"properties":{"id":108668,"name":"Yalıhüyük","state_code":"42","country_code":"TR"}},{"type":"Feature","geometry":{"type":"Point","coordinates":[31.73223,38.81418]},"properties":{"id":108738,"name":"Yunak","state_code":"42","country_code":"TR"}}]}