{"type":"FeatureCollection","features":[{"type":"Feature","geometry":{"type":"Point","coordinates":[36.91399,38.24769]},"properties":{"id":107069,"name":"Afşin","state_code":"46","country_code":"TR"}},{"type":"Feature","geometry":{"type":"Point","coordinates":[36.35492,37.57757]},"properties":{"id":107164,"name":"Andırın","state_code":"46","country_code":"TR"}},{"type":"Feature","geometry":{"type":"Point","coordinates":[37.28618,37.74523]},"properties":{"id":108808,"name":"Çağlayancerit","state_code":"46","country_code":"TR"}},{"type":"Feature","geometry":{"type":"Point","coordinates":[36.91973,37.58254]},"properties":{"id":107529,"name":"Dulkadiroğlu","state_code":"46","country_code":"TR"}},{"type":"Feature","geometry":{"type":"Point","coordinates":[37.19414,38.07007]},"properties":{"id":107556,"name":"Ekinözü","state_code":"46","country_code":"TR"}},{"type":"Feature","geometry":{"type":"Point","coordinates":[37.1983,38.20591]},"properties":{"id":107562,"name":"Elbistan","state_code":"46","country_code":"TR"}},{"type":"Feature","geometry":{"type":"Point","coordinates":[36.4973,38.02096]},"properties":{"id":107681,"name":"Göksun","state_code":"46","country_code":"TR"}},{"type":"Feature","geometry":{"type":"Point","coordinates":[37.44047,37.96366]},"properties":{"id":108255,"name":"Nurhak","state_code":"46","country_code":"TR"}},{"type":"Feature","geometry":{"type":"Point","coordinates":[36.90548,37.59002]},"properties":{"id":108270,"name":"Onikişubat","state_code":"46","country_code":"TR"}},{"type":"Feature","geometry":{"type":"Point","coordinates":[37.29961,37.48685]},"properties":{"id":108325,"name":"Pazarcık","state_code":"46","country_code":"TR"}},{"type":"Feature","geometry":{"type":"Point","coordinates":[36.84626,37.38417]},"properties":{"id":108615,"name":"Türkoğlu","state_code":"46","country_code":"TR"}}]}