{"type":"FeatureCollection","features":[{"type":"Feature","geometry":{"type":"Point","coordinates":[34.583333,41.95]},"properties":{"id":153360,"name":"Ayancık","state_code":"57","country_code":"TR"}},{"type":"Feature","geometry":{"type":"Point","coordinates":[34.76667,41.46889]},"properties":{"id":142113,"name":"Boyabat","state_code":"57","country_code":"TR"}},{"type":"Feature","geometry":{"type":"Point","coordinates":[35.27055556,41.66]},"properties":{"id":142115,"name":"Dikmen","state_code":"57","country_code":"TR"}},{"type":"Feature","geometry":{"type":"Point","coordinates":[35.05777778,41.42555556]},"properties":{"id":142116,"name":"Durağan","state_code":"57","country_code":"TR"}},{"type":"Feature","geometry":{"type":"Point","coordinates":[34.91838,41.87926]},"properties":{"id":142117,"name":"Erfelek","state_code":"57","country_code":"TR"}},{"type":"Feature","geometry":{"type":"Point","coordinates":[35.19027778,41.81]},"properties":{"id":142119,"name":"Gerze","state_code":"57","country_code":"TR"}},{"type":"Feature","geometry":{"type":"Point","coordinates":[35.00687,41.91835]},"properties":{"id":142120,"name":"Merkez","state_code":"57","country_code":"TR"}},{"type":"Feature","geometry":{"type":"Point","coordinates":[34.85361111,41.33722222]},"properties":{"id":142121,"name":"Saraydüzü","state_code":"57","country_code":"TR"}},{"type":"Feature","geometry":{"type":"Point","coordinates":[34.33861111,41.94777778]},"properties":{"id":142123,"name":"Türkeli","state_code":"57","country_code":"TR"}}]}