{"type":"FeatureCollection","features":[{"type":"Feature","geometry":{"type":"Point","coordinates":[36.96,40.81]},"properties":{"id":107085,"name":"Akkuş","state_code":"52","country_code":"TR"}},{"type":"Feature","geometry":{"type":"Point","coordinates":[37.79572,40.94879]},"properties":{"id":107144,"name":"Altınordu","state_code":"52","country_code":"TR"}},{"type":"Feature","geometry":{"type":"Point","coordinates":[37.40794,40.6969]},"properties":{"id":107219,"name":"Aybastı","state_code":"52","country_code":"TR"}},{"type":"Feature","geometry":{"type":"Point","coordinates":[37.52786,40.902]},"properties":{"id":108765,"name":"Çamaş","state_code":"52","country_code":"TR"}},{"type":"Feature","geometry":{"type":"Point","coordinates":[37.44329,40.88678]},"properties":{"id":108790,"name":"Çatalpınar","state_code":"52","country_code":"TR"}},{"type":"Feature","geometry":{"type":"Point","coordinates":[37.10867,41.02532]},"properties":{"id":108797,"name":"Çaybaşı","state_code":"52","country_code":"TR"}},{"type":"Feature","geometry":{"type":"Point","coordinates":[37.50139,41.02778]},"properties":{"id":107633,"name":"Fatsa","state_code":"52","country_code":"TR"}},{"type":"Feature","geometry":{"type":"Point","coordinates":[37.6166,40.68726]},"properties":{"id":107697,"name":"Gölköy","state_code":"52","country_code":"TR"}},{"type":"Feature","geometry":{"type":"Point","coordinates":[38.05679,40.96682]},"properties":{"id":107733,"name":"Gülyalı","state_code":"52","country_code":"TR"}},{"type":"Feature","geometry":{"type":"Point","coordinates":[37.58969,40.78567]},"properties":{"id":107749,"name":"Gürgentepe","state_code":"52","country_code":"TR"}},{"type":"Feature","geometry":{"type":"Point","coordinates":[37.08028,41.05833]},"properties":{"id":108887,"name":"İkizce","state_code":"52","country_code":"TR"}},{"type":"Feature","geometry":{"type":"Point","coordinates":[37.8847,40.86096]},"properties":{"id":107855,"name":"Kabadüz","state_code":"52","country_code":"TR"}},{"type":"Feature","geometry":{"type":"Point","coordinates":[37.45,40.75]},"properties":{"id":107858,"name":"Kabataş","state_code":"52","country_code":"TR"}},{"type":"Feature","geometry":{"type":"Point","coordinates":[37.34667,40.82472]},"properties":{"id":108018,"name":"Korgan","state_code":"52","country_code":"TR"}},{"type":"Feature","geometry":{"type":"Point","coordinates":[37.26389,40.87444]},"properties":{"id":108052,"name":"Kumru","state_code":"52","country_code":"TR"}},{"type":"Feature","geometry":{"type":"Point","coordinates":[37.77353,40.45446]},"properties":{"id":108201,"name":"Mesudiye","state_code":"52","country_code":"TR"}},{"type":"Feature","geometry":{"type":"Point","coordinates":[37.77139,41.06556]},"properties":{"id":108341,"name":"Perşembe","state_code":"52","country_code":"TR"}},{"type":"Feature","geometry":{"type":"Point","coordinates":[37.75405,40.86863]},"properties":{"id":108622,"name":"Ulubey","state_code":"52","country_code":"TR"}},{"type":"Feature","geometry":{"type":"Point","coordinates":[37.27246,41.13921]},"properties":{"id":108872,"name":"Ünye","state_code":"52","country_code":"TR"}}]}