{"type":"FeatureCollection","features":[{"type":"Feature","geometry":{"type":"Point","coordinates":[34.50917,38.55028]},"properties":{"id":107055,"name":"Acıgöl","state_code":"50","country_code":"TR"}},{"type":"Feature","geometry":{"type":"Point","coordinates":[34.84667,38.715]},"properties":{"id":107211,"name":"Avanos","state_code":"50","country_code":"TR"}},{"type":"Feature","geometry":{"type":"Point","coordinates":[34.73419,38.3751]},"properties":{"id":107481,"name":"Derinkuyu","state_code":"50","country_code":"TR"}},{"type":"Feature","geometry":{"type":"Point","coordinates":[34.62524,38.74594]},"properties":{"id":107734,"name":"Gülşehir","state_code":"50","country_code":"TR"}},{"type":"Feature","geometry":{"type":"Point","coordinates":[34.5577,38.94077]},"properties":{"id":107765,"name":"Hacıbektaş","state_code":"50","country_code":"TR"}},{"type":"Feature","geometry":{"type":"Point","coordinates":[34.85585,39.23204]},"properties":{"id":108032,"name":"Kozaklı","state_code":"50","country_code":"TR"}},{"type":"Feature","geometry":{"type":"Point","coordinates":[34.68537,38.60039]},"properties":{"id":108192,"name":"Merkez","state_code":"50","country_code":"TR"}},{"type":"Feature","geometry":{"type":"Point","coordinates":[34.9402,38.57342]},"properties":{"id":108873,"name":"Ürgüp","state_code":"50","country_code":"TR"}}]}