{"type":"FeatureCollection","features":[{"type":"Feature","geometry":{"type":"Point","coordinates":[42.79825,38.1246]},"properties":{"id":107262,"name":"Bahçesaray","state_code":"65","country_code":"TR"}},{"type":"Feature","geometry":{"type":"Point","coordinates":[44.01718,38.04526]},"properties":{"id":107315,"name":"Başkale","state_code":"65","country_code":"TR"}},{"type":"Feature","geometry":{"type":"Point","coordinates":[43.91068,39.14317]},"properties":{"id":108760,"name":"Çaldıran","state_code":"65","country_code":"TR"}},{"type":"Feature","geometry":{"type":"Point","coordinates":[43.06195,38.0078]},"properties":{"id":108787,"name":"Çatak","state_code":"65","country_code":"TR"}},{"type":"Feature","geometry":{"type":"Point","coordinates":[43.29717,38.37889]},"properties":{"id":107551,"name":"Edremit","state_code":"65","country_code":"TR"}},{"type":"Feature","geometry":{"type":"Point","coordinates":[43.33705,39.15123]},"properties":{"id":107583,"name":"Erciş","state_code":"65","country_code":"TR"}},{"type":"Feature","geometry":{"type":"Point","coordinates":[43.10189,38.2921]},"properties":{"id":107670,"name":"Gevaş","state_code":"65","country_code":"TR"}},{"type":"Feature","geometry":{"type":"Point","coordinates":[43.40991,38.32372]},"properties":{"id":107753,"name":"Gürpınar","state_code":"65","country_code":"TR"}},{"type":"Feature","geometry":{"type":"Point","coordinates":[43.3469,38.49041]},"properties":{"id":108908,"name":"İpekyolu","state_code":"65","country_code":"TR"}},{"type":"Feature","geometry":{"type":"Point","coordinates":[43.75374,38.97889]},"properties":{"id":108220,"name":"Muradiye","state_code":"65","country_code":"TR"}},{"type":"Feature","geometry":{"type":"Point","coordinates":[43.98869,38.65455]},"properties":{"id":108866,"name":"Özalp","state_code":"65","country_code":"TR"}},{"type":"Feature","geometry":{"type":"Point","coordinates":[44.16116,38.64691]},"properties":{"id":108387,"name":"Saray","state_code":"65","country_code":"TR"}},{"type":"Feature","geometry":{"type":"Point","coordinates":[43.349093,38.521178]},"properties":{"id":153361,"name":"Tuşba","state_code":"65","country_code":"TR"}}]}