{"type":"FeatureCollection","features":[{"type":"Feature","geometry":{"type":"Point","coordinates":[33.69291,37.37111]},"properties":{"id":107228,"name":"Ayrancı","state_code":"70","country_code":"TR"}},{"type":"Feature","geometry":{"type":"Point","coordinates":[32.68018,36.75337]},"properties":{"id":107320,"name":"Başyayla","state_code":"70","country_code":"TR"}},{"type":"Feature","geometry":{"type":"Point","coordinates":[32.89179,36.64043]},"properties":{"id":107596,"name":"Ermenek","state_code":"70","country_code":"TR"}},{"type":"Feature","geometry":{"type":"Point","coordinates":[32.95889,37.23028]},"properties":{"id":107958,"name":"Kazımkarabekir","state_code":"70","country_code":"TR"}},{"type":"Feature","geometry":{"type":"Point","coordinates":[33.215,37.18111]},"properties":{"id":107905,"name":"Merkez","state_code":"70","country_code":"TR"}},{"type":"Feature","geometry":{"type":"Point","coordinates":[32.61203,36.69705]},"properties":{"id":108407,"name":"Sarıveliler","state_code":"70","country_code":"TR"}}]}