{"type":"FeatureCollection","features":[{"type":"Feature","geometry":{"type":"Point","coordinates":[36.57687,37.20105]},"properties":{"id":107259,"name":"Bahçe","state_code":"80","country_code":"TR"}},{"type":"Feature","geometry":{"type":"Point","coordinates":[36.47051,37.25062]},"properties":{"id":107543,"name":"Düziçi","state_code":"80","country_code":"TR"}},{"type":"Feature","geometry":{"type":"Point","coordinates":[36.54608,37.12838]},"properties":{"id":107798,"name":"Hasanbeyli","state_code":"80","country_code":"TR"}},{"type":"Feature","geometry":{"type":"Point","coordinates":[36.09611,37.37389]},"properties":{"id":107860,"name":"Kadirli","state_code":"80","country_code":"TR"}},{"type":"Feature","geometry":{"type":"Point","coordinates":[36.24778,37.07417]},"properties":{"id":108294,"name":"Merkez","state_code":"80","country_code":"TR"}},{"type":"Feature","geometry":{"type":"Point","coordinates":[36.02914,37.46169]},"properties":{"id":108504,"name":"Sumbas","state_code":"80","country_code":"TR"}},{"type":"Feature","geometry":{"type":"Point","coordinates":[36.14661,37.06855]},"properties":{"id":108585,"name":"Toprakkale","state_code":"80","country_code":"TR"}}]}