{"type":"FeatureCollection","features":[{"type":"Feature","geometry":{"type":"Point","coordinates":[120.44927,22.46515]},"properties":{"id":109007,"name":"Donggang","state_code":"PIF","country_code":"TW"}},{"type":"Feature","geometry":{"type":"Point","coordinates":[120.74389,22.00417]},"properties":{"id":109009,"name":"Hengchun","state_code":"PIF","country_code":"TW"}},{"type":"Feature","geometry":{"type":"Point","coordinates":[120.61444,22.49555]},"properties":{"id":109025,"name":"Pingtung","state_code":"PIF","country_code":"TW"}}]}