{"type":"FeatureCollection","features":[{"type":"Feature","geometry":{"type":"Point","coordinates":[121.46719,25.01427]},"properties":{"id":109002,"name":"Banqiao","state_code":"TPE","country_code":"TW"}},{"type":"Feature","geometry":{"type":"Point","coordinates":[121.84424,25.10957]},"properties":{"id":109015,"name":"Jiufen","state_code":"TPE","country_code":"TW"}},{"type":"Feature","geometry":{"type":"Point","coordinates":[121.53185,25.04776]},"properties":{"id":109031,"name":"Taipei","state_code":"TPE","country_code":"TW"}}]}