{"type":"FeatureCollection","features":[{"type":"Feature","geometry":{"type":"Point","coordinates":[36.03658,-7.6766]},"properties":{"id":109081,"name":"Ilula","state_code":"04","country_code":"TZ"}},{"type":"Feature","geometry":{"type":"Point","coordinates":[35.7,-7.76667]},"properties":{"id":109083,"name":"Iringa","state_code":"04","country_code":"TZ"}},{"type":"Feature","geometry":{"type":"Point","coordinates":[35.73333,-7.2]},"properties":{"id":109087,"name":"Izazi","state_code":"04","country_code":"TZ"}},{"type":"Feature","geometry":{"type":"Point","coordinates":[35.06667,-7.25]},"properties":{"id":109154,"name":"Mafinga","state_code":"04","country_code":"TZ"}},{"type":"Feature","geometry":{"type":"Point","coordinates":[35.28333,-8.73333]},"properties":{"id":109166,"name":"Makungu","state_code":"04","country_code":"TZ"}},{"type":"Feature","geometry":{"type":"Point","coordinates":[34.85,-8.56667]},"properties":{"id":109169,"name":"Malangali","state_code":"04","country_code":"TZ"}}]}