{"type":"FeatureCollection","features":[{"type":"Feature","geometry":{"type":"Point","coordinates":[35.73947,-6.17221]},"properties":{"id":109065,"name":"Dodoma","state_code":"03","country_code":"TZ"}},{"type":"Feature","geometry":{"type":"Point","coordinates":[36.36667,-6.71667]},"properties":{"id":109101,"name":"Kibakwe","state_code":"03","country_code":"TZ"}},{"type":"Feature","geometry":{"type":"Point","coordinates":[35.79266,-6.17526]},"properties":{"id":109125,"name":"Kisasa","state_code":"03","country_code":"TZ"}},{"type":"Feature","geometry":{"type":"Point","coordinates":[35.86227,-4.70931]},"properties":{"id":109135,"name":"Kondoa","state_code":"03","country_code":"TZ"}},{"type":"Feature","geometry":{"type":"Point","coordinates":[36.41667,-6.2]},"properties":{"id":109136,"name":"Kongwa","state_code":"03","country_code":"TZ"}},{"type":"Feature","geometry":{"type":"Point","coordinates":[36.48333,-6.35]},"properties":{"id":109211,"name":"Mpwapwa","state_code":"03","country_code":"TZ"}},{"type":"Feature","geometry":{"type":"Point","coordinates":[36.03333,-6.05]},"properties":{"id":109212,"name":"Msanga","state_code":"03","country_code":"TZ"}}]}