{"type":"FeatureCollection","features":[{"type":"Feature","geometry":{"type":"Point","coordinates":[36.68333,-3.36667]},"properties":{"id":109042,"name":"Arusha","state_code":"01","country_code":"TZ"}},{"type":"Feature","geometry":{"type":"Point","coordinates":[36.98333,-3.28333]},"properties":{"id":109117,"name":"Kingori","state_code":"01","country_code":"TZ"}},{"type":"Feature","geometry":{"type":"Point","coordinates":[35.66667,-3.33333]},"properties":{"id":109121,"name":"Kiratu","state_code":"01","country_code":"TZ"}},{"type":"Feature","geometry":{"type":"Point","coordinates":[36.69773,-2.73319]},"properties":{"id":109144,"name":"Longido","state_code":"01","country_code":"TZ"}},{"type":"Feature","geometry":{"type":"Point","coordinates":[36.95,-3.56667]},"properties":{"id":109189,"name":"Mbuguni","state_code":"01","country_code":"TZ"}},{"type":"Feature","geometry":{"type":"Point","coordinates":[36.97895,-3.56182]},"properties":{"id":109192,"name":"Merelani","state_code":"01","country_code":"TZ"}},{"type":"Feature","geometry":{"type":"Point","coordinates":[36.801,-3.305]},"properties":{"id":109193,"name":"Meru","state_code":"01","country_code":"TZ"}},{"type":"Feature","geometry":{"type":"Point","coordinates":[36.45,-3.3]},"properties":{"id":109207,"name":"Monduli","state_code":"01","country_code":"TZ"}},{"type":"Feature","geometry":{"type":"Point","coordinates":[35.85,-3.35]},"properties":{"id":109218,"name":"Mto wa Mbu","state_code":"01","country_code":"TZ"}},{"type":"Feature","geometry":{"type":"Point","coordinates":[36.78377,-2.55116]},"properties":{"id":109238,"name":"Namanga","state_code":"01","country_code":"TZ"}},{"type":"Feature","geometry":{"type":"Point","coordinates":[35.48747,-3.23973]},"properties":{"id":109253,"name":"Ngorongoro","state_code":"01","country_code":"TZ"}},{"type":"Feature","geometry":{"type":"Point","coordinates":[36.838269,-3.3412659]},"properties":{"id":109257,"name":"Nkoaranga","state_code":"01","country_code":"TZ"}},{"type":"Feature","geometry":{"type":"Point","coordinates":[36.8143792,-3.3493304]},"properties":{"id":109270,"name":"Poli","state_code":"01","country_code":"TZ"}},{"type":"Feature","geometry":{"type":"Point","coordinates":[36.85,-3.36667]},"properties":{"id":109293,"name":"Usa River","state_code":"01","country_code":"TZ"}}]}