{"type":"FeatureCollection","features":[{"type":"Feature","geometry":{"type":"Point","coordinates":[33.03177,-2.44783]},"properties":{"id":109079,"name":"Ilemela","state_code":"18","country_code":"TZ"}},{"type":"Feature","geometry":{"type":"Point","coordinates":[33.35,-2.58333]},"properties":{"id":109110,"name":"Kihangara","state_code":"18","country_code":"TZ"}},{"type":"Feature","geometry":{"type":"Point","coordinates":[33.51667,-2.98333]},"properties":{"id":109171,"name":"Malya","state_code":"18","country_code":"TZ"}},{"type":"Feature","geometry":{"type":"Point","coordinates":[33.08333,-3]},"properties":{"id":109199,"name":"Misasi","state_code":"18","country_code":"TZ"}},{"type":"Feature","geometry":{"type":"Point","coordinates":[33.08333,-2.85]},"properties":{"id":109200,"name":"Misungwi","state_code":"18","country_code":"TZ"}},{"type":"Feature","geometry":{"type":"Point","coordinates":[32.9,-2.51667]},"properties":{"id":109232,"name":"Mwanza","state_code":"18","country_code":"TZ"}},{"type":"Feature","geometry":{"type":"Point","coordinates":[33.33333,-2.96667]},"properties":{"id":109254,"name":"Ngudu","state_code":"18","country_code":"TZ"}},{"type":"Feature","geometry":{"type":"Point","coordinates":[33.2,-2.55]},"properties":{"id":109267,"name":"Nyanguge","state_code":"18","country_code":"TZ"}},{"type":"Feature","geometry":{"type":"Point","coordinates":[33,-2.68333]},"properties":{"id":109294,"name":"Usagara","state_code":"18","country_code":"TZ"}}]}