{"type":"FeatureCollection","features":[{"type":"Feature","geometry":{"type":"Point","coordinates":[36.86667,-6.15]},"properties":{"id":109070,"name":"Geiro","state_code":"16","country_code":"TZ"}},{"type":"Feature","geometry":{"type":"Point","coordinates":[36.68333,-8.13333]},"properties":{"id":109073,"name":"Ifakara","state_code":"16","country_code":"TZ"}},{"type":"Feature","geometry":{"type":"Point","coordinates":[36.95722,-7.69916]},"properties":{"id":109106,"name":"Kidatu","state_code":"16","country_code":"TZ"}},{"type":"Feature","geometry":{"type":"Point","coordinates":[37.00438,-7.60361]},"properties":{"id":109107,"name":"Kidodi","state_code":"16","country_code":"TZ"}},{"type":"Feature","geometry":{"type":"Point","coordinates":[36.98333,-6.83333]},"properties":{"id":109115,"name":"Kilosa","state_code":"16","country_code":"TZ"}},{"type":"Feature","geometry":{"type":"Point","coordinates":[37.13333,-6.78333]},"properties":{"id":109116,"name":"Kimamba","state_code":"16","country_code":"TZ"}},{"type":"Feature","geometry":{"type":"Point","coordinates":[37.70337,-7.43622]},"properties":{"id":109123,"name":"Kisanga","state_code":"16","country_code":"TZ"}},{"type":"Feature","geometry":{"type":"Point","coordinates":[36.66667,-8.38333]},"properties":{"id":109149,"name":"Lupiro","state_code":"16","country_code":"TZ"}},{"type":"Feature","geometry":{"type":"Point","coordinates":[37.37373,-6.37697]},"properties":{"id":109155,"name":"Magole","state_code":"16","country_code":"TZ"}},{"type":"Feature","geometry":{"type":"Point","coordinates":[36.71667,-8.68333]},"properties":{"id":109160,"name":"Mahenge","state_code":"16","country_code":"TZ"}},{"type":"Feature","geometry":{"type":"Point","coordinates":[36.13333,-8.93333]},"properties":{"id":109170,"name":"Malinyi","state_code":"16","country_code":"TZ"}},{"type":"Feature","geometry":{"type":"Point","coordinates":[36.98309,-7.40409]},"properties":{"id":109197,"name":"Mikumi","state_code":"16","country_code":"TZ"}},{"type":"Feature","geometry":{"type":"Point","coordinates":[35.81667,-8.8]},"properties":{"id":109206,"name":"Mlimba","state_code":"16","country_code":"TZ"}},{"type":"Feature","geometry":{"type":"Point","coordinates":[37.66122,-6.82102]},"properties":{"id":109208,"name":"Morogoro","state_code":"16","country_code":"TZ"}},{"type":"Feature","geometry":{"type":"Point","coordinates":[37.2,-6.53333]},"properties":{"id":109213,"name":"Msowero","state_code":"16","country_code":"TZ"}},{"type":"Feature","geometry":{"type":"Point","coordinates":[36.35,-8.78333]},"properties":{"id":109216,"name":"Mtimbira","state_code":"16","country_code":"TZ"}},{"type":"Feature","geometry":{"type":"Point","coordinates":[37.45,-6.3]},"properties":{"id":109228,"name":"Mvomero","state_code":"16","country_code":"TZ"}},{"type":"Feature","geometry":{"type":"Point","coordinates":[38.11667,-6.75]},"properties":{"id":109252,"name":"Ngerengere","state_code":"16","country_code":"TZ"}}]}