{"type":"FeatureCollection","features":[{"type":"Feature","geometry":{"type":"Point","coordinates":[34.58333,-8.9]},"properties":{"id":109078,"name":"Ilembula","state_code":"29","country_code":"TZ"}},{"type":"Feature","geometry":{"type":"Point","coordinates":[34.83333,-8.85]},"properties":{"id":109165,"name":"Makumbako","state_code":"29","country_code":"TZ"}},{"type":"Feature","geometry":{"type":"Point","coordinates":[34.58333,-10.46667]},"properties":{"id":109172,"name":"Manda","state_code":"29","country_code":"TZ"}},{"type":"Feature","geometry":{"type":"Point","coordinates":[33.96667,-8.98333]},"properties":{"id":109181,"name":"Matamba","state_code":"29","country_code":"TZ"}},{"type":"Feature","geometry":{"type":"Point","coordinates":[34.51667,-9.78333]},"properties":{"id":109205,"name":"Mlangali","state_code":"29","country_code":"TZ"}},{"type":"Feature","geometry":{"type":"Point","coordinates":[34.8,-9.01667]},"properties":{"id":109219,"name":"Mtwango","state_code":"29","country_code":"TZ"}},{"type":"Feature","geometry":{"type":"Point","coordinates":[34.77167,-9.34917]},"properties":{"id":109256,"name":"Njombe","state_code":"29","country_code":"TZ"}}]}