{"type":"FeatureCollection","features":[{"type":"Feature","geometry":{"type":"Point","coordinates":[35.05,-10.8]},"properties":{"id":109109,"name":"Kigonsera","state_code":"21","country_code":"TZ"}},{"type":"Feature","geometry":{"type":"Point","coordinates":[34.63333,-11.08333]},"properties":{"id":109143,"name":"Liuli","state_code":"21","country_code":"TZ"}},{"type":"Feature","geometry":{"type":"Point","coordinates":[35.33333,-9.93333]},"properties":{"id":109159,"name":"Mahanje","state_code":"21","country_code":"TZ"}},{"type":"Feature","geometry":{"type":"Point","coordinates":[35.4,-10.58333]},"properties":{"id":109174,"name":"Maposeni","state_code":"21","country_code":"TZ"}},{"type":"Feature","geometry":{"type":"Point","coordinates":[34.9,-10.75]},"properties":{"id":109182,"name":"Matiri","state_code":"21","country_code":"TZ"}},{"type":"Feature","geometry":{"type":"Point","coordinates":[34.76667,-11.28333]},"properties":{"id":109186,"name":"Mbamba Bay","state_code":"21","country_code":"TZ"}},{"type":"Feature","geometry":{"type":"Point","coordinates":[35.01667,-10.93333]},"properties":{"id":109188,"name":"Mbinga","state_code":"21","country_code":"TZ"}},{"type":"Feature","geometry":{"type":"Point","coordinates":[35.65,-10.68333]},"properties":{"id":109283,"name":"Songea","state_code":"21","country_code":"TZ"}},{"type":"Feature","geometry":{"type":"Point","coordinates":[35.03333,-11.3]},"properties":{"id":109291,"name":"Tingi","state_code":"21","country_code":"TZ"}}]}