{"type":"FeatureCollection","features":[{"type":"Feature","geometry":{"type":"Point","coordinates":[38.01667,-5.41667]},"properties":{"id":109060,"name":"Chanika","state_code":"25","country_code":"TZ"}},{"type":"Feature","geometry":{"type":"Point","coordinates":[38.28333,-4.78333]},"properties":{"id":109150,"name":"Lushoto","state_code":"25","country_code":"TZ"}},{"type":"Feature","geometry":{"type":"Point","coordinates":[38.11667,-5.23333]},"properties":{"id":109156,"name":"Magomeni","state_code":"25","country_code":"TZ"}},{"type":"Feature","geometry":{"type":"Point","coordinates":[38.98333,-5.15]},"properties":{"id":109163,"name":"Majengo","state_code":"25","country_code":"TZ"}},{"type":"Feature","geometry":{"type":"Point","coordinates":[38.1,-4.73333]},"properties":{"id":109167,"name":"Makuyuni","state_code":"25","country_code":"TZ"}},{"type":"Feature","geometry":{"type":"Point","coordinates":[38.61667,-5.05]},"properties":{"id":109175,"name":"Maramba","state_code":"25","country_code":"TZ"}},{"type":"Feature","geometry":{"type":"Point","coordinates":[38.25,-4.8]},"properties":{"id":109184,"name":"Matui","state_code":"25","country_code":"TZ"}},{"type":"Feature","geometry":{"type":"Point","coordinates":[38.21667,-4.8]},"properties":{"id":109185,"name":"Mazinde","state_code":"25","country_code":"TZ"}},{"type":"Feature","geometry":{"type":"Point","coordinates":[38.93333,-4.93333]},"properties":{"id":109203,"name":"Mlalo","state_code":"25","country_code":"TZ"}},{"type":"Feature","geometry":{"type":"Point","coordinates":[38.78333,-5.16667]},"properties":{"id":109223,"name":"Muheza","state_code":"25","country_code":"TZ"}},{"type":"Feature","geometry":{"type":"Point","coordinates":[38.2,-4.8]},"properties":{"id":109231,"name":"Mwanga","state_code":"25","country_code":"TZ"}},{"type":"Feature","geometry":{"type":"Point","coordinates":[38.97473,-5.42526]},"properties":{"id":109269,"name":"Pangani","state_code":"25","country_code":"TZ"}},{"type":"Feature","geometry":{"type":"Point","coordinates":[38.36667,-4.85]},"properties":{"id":109285,"name":"Soni","state_code":"25","country_code":"TZ"}},{"type":"Feature","geometry":{"type":"Point","coordinates":[39.09875,-5.06893]},"properties":{"id":109289,"name":"Tanga","state_code":"25","country_code":"TZ"}}]}