{"type":"FeatureCollection","features":[{"type":"Feature","geometry":{"type":"Point","coordinates":[32.06667,-6.71667]},"properties":{"id":109082,"name":"Inyonga","state_code":"28","country_code":"TZ"}},{"type":"Feature","geometry":{"type":"Point","coordinates":[30.43887,-6.82052]},"properties":{"id":109093,"name":"Karema","state_code":"28","country_code":"TZ"}},{"type":"Feature","geometry":{"type":"Point","coordinates":[31.06951,-6.34379]},"properties":{"id":109210,"name":"Mpanda","state_code":"28","country_code":"TZ"}},{"type":"Feature","geometry":{"type":"Point","coordinates":[31.23333,-7.1]},"properties":{"id":109295,"name":"Usevia","state_code":"28","country_code":"TZ"}}]}