{"type":"FeatureCollection","features":[{"type":"Feature","geometry":{"type":"Point","coordinates":[33.98333,-2.8]},"properties":{"id":109045,"name":"Bariadi","state_code":"30","country_code":"TZ"}},{"type":"Feature","geometry":{"type":"Point","coordinates":[34.15,-3.08333]},"properties":{"id":109126,"name":"Kisesa","state_code":"30","country_code":"TZ"}},{"type":"Feature","geometry":{"type":"Point","coordinates":[33.95,-3.45]},"properties":{"id":109140,"name":"Lalago","state_code":"30","country_code":"TZ"}},{"type":"Feature","geometry":{"type":"Point","coordinates":[33.53333,-3.13333]},"properties":{"id":109168,"name":"Malampaka","state_code":"30","country_code":"TZ"}},{"type":"Feature","geometry":{"type":"Point","coordinates":[33.98333,-2.68333]},"properties":{"id":109179,"name":"Maswa","state_code":"30","country_code":"TZ"}},{"type":"Feature","geometry":{"type":"Point","coordinates":[34.08333,-2.38333]},"properties":{"id":109183,"name":"Matonga","state_code":"30","country_code":"TZ"}},{"type":"Feature","geometry":{"type":"Point","coordinates":[33.98333,-2.63333]},"properties":{"id":109262,"name":"Nyakabindi","state_code":"30","country_code":"TZ"}},{"type":"Feature","geometry":{"type":"Point","coordinates":[33.78333,-3.18333]},"properties":{"id":109264,"name":"Nyalikungu","state_code":"30","country_code":"TZ"}},{"type":"Feature","geometry":{"type":"Point","coordinates":[33.95,-3.36667]},"properties":{"id":109282,"name":"Somanda","state_code":"30","country_code":"TZ"}}]}