{"type":"FeatureCollection","features":[{"type":"Feature","geometry":{"type":"Point","coordinates":[22.3997,48.36166]},"properties":{"id":109357,"name":"Batiovo","state_code":"21","country_code":"UA"}},{"type":"Feature","geometry":{"type":"Point","coordinates":[22.65536,48.21255]},"properties":{"id":109373,"name":"Berehivs’ka Mis’krada","state_code":"21","country_code":"UA"}},{"type":"Feature","geometry":{"type":"Point","coordinates":[22.64418,48.20555]},"properties":{"id":109375,"name":"Berehove","state_code":"21","country_code":"UA"}},{"type":"Feature","geometry":{"type":"Point","coordinates":[22.66667,48.16667]},"properties":{"id":109376,"name":"Berehove Raion","state_code":"21","country_code":"UA"}},{"type":"Feature","geometry":{"type":"Point","coordinates":[23.21982,48.51407]},"properties":{"id":109383,"name":"Bereznyky","state_code":"21","country_code":"UA"}},{"type":"Feature","geometry":{"type":"Point","coordinates":[23.474,48.30943]},"properties":{"id":109385,"name":"Berezovo","state_code":"21","country_code":"UA"}},{"type":"Feature","geometry":{"type":"Point","coordinates":[23.13248,48.31503]},"properties":{"id":109398,"name":"Bilky","state_code":"21","country_code":"UA"}},{"type":"Feature","geometry":{"type":"Point","coordinates":[22.89585,48.07166]},"properties":{"id":109414,"name":"Bobovo","state_code":"21","country_code":"UA"}},{"type":"Feature","geometry":{"type":"Point","coordinates":[24.35222,48.04122]},"properties":{"id":109418,"name":"Bohdan","state_code":"21","country_code":"UA"}},{"type":"Feature","geometry":{"type":"Point","coordinates":[23.48579,48.05121]},"properties":{"id":109464,"name":"Bushtyno","state_code":"21","country_code":"UA"}},{"type":"Feature","geometry":{"type":"Point","coordinates":[22.20555,48.43198]},"properties":{"id":109508,"name":"Chop","state_code":"21","country_code":"UA"}},{"type":"Feature","geometry":{"type":"Point","coordinates":[22.8217,48.48179]},"properties":{"id":109525,"name":"Chynadiyovo","state_code":"21","country_code":"UA"}},{"type":"Feature","geometry":{"type":"Point","coordinates":[23.27904,48.36527]},"properties":{"id":109573,"name":"Dovhe","state_code":"21","country_code":"UA"}},{"type":"Feature","geometry":{"type":"Point","coordinates":[23.54914,48.23573]},"properties":{"id":109576,"name":"Drahovo","state_code":"21","country_code":"UA"}},{"type":"Feature","geometry":{"type":"Point","coordinates":[23.88954,48.17205]},"properties":{"id":109585,"name":"Dubove","state_code":"21","country_code":"UA"}},{"type":"Feature","geometry":{"type":"Point","coordinates":[23.43475,48.27076]},"properties":{"id":109640,"name":"Horinchovo","state_code":"21","country_code":"UA"}},{"type":"Feature","geometry":{"type":"Point","coordinates":[23.03846,48.31667]},"properties":{"id":109674,"name":"Irshava","state_code":"21","country_code":"UA"}},{"type":"Feature","geometry":{"type":"Point","coordinates":[23.08333,48.33333]},"properties":{"id":109675,"name":"Irshava Raion","state_code":"21","country_code":"UA"}},{"type":"Feature","geometry":{"type":"Point","coordinates":[23.32867,48.21525]},"properties":{"id":109686,"name":"Iza","state_code":"21","country_code":"UA"}},{"type":"Feature","geometry":{"type":"Point","coordinates":[23.8738,48.14078]},"properties":{"id":109706,"name":"Kalyny","state_code":"21","country_code":"UA"}},{"type":"Feature","geometry":{"type":"Point","coordinates":[22.3957,48.69343]},"properties":{"id":109711,"name":"Kamianytsia","state_code":"21","country_code":"UA"}},{"type":"Feature","geometry":{"type":"Point","coordinates":[23.29909,48.1793]},"properties":{"id":109742,"name":"Khust","state_code":"21","country_code":"UA"}},{"type":"Feature","geometry":{"type":"Point","coordinates":[23.41667,48.25]},"properties":{"id":109743,"name":"Khust Raion","state_code":"21","country_code":"UA"}},{"type":"Feature","geometry":{"type":"Point","coordinates":[23.30322,48.19058]},"properties":{"id":109744,"name":"Khusts’ka Mis’krada","state_code":"21","country_code":"UA"}},{"type":"Feature","geometry":{"type":"Point","coordinates":[23.6959,48.42851]},"properties":{"id":109772,"name":"Kolochava","state_code":"21","country_code":"UA"}},{"type":"Feature","geometry":{"type":"Point","coordinates":[23.48457,48.2197]},"properties":{"id":109791,"name":"Kopashnovo","state_code":"21","country_code":"UA"}},{"type":"Feature","geometry":{"type":"Point","coordinates":[23.13659,48.15247]},"properties":{"id":109799,"name":"Korolevo","state_code":"21","country_code":"UA"}},{"type":"Feature","geometry":{"type":"Point","coordinates":[22.45597,48.25505]},"properties":{"id":109810,"name":"Koson’","state_code":"21","country_code":"UA"}},{"type":"Feature","geometry":{"type":"Point","coordinates":[23.23647,48.17234]},"properties":{"id":109873,"name":"Kryva","state_code":"21","country_code":"UA"}},{"type":"Feature","geometry":{"type":"Point","coordinates":[23.25816,48.43988]},"properties":{"id":109891,"name":"Kushnytsya","state_code":"21","country_code":"UA"}},{"type":"Feature","geometry":{"type":"Point","coordinates":[24.27995,48.14973]},"properties":{"id":109896,"name":"Kvasy","state_code":"21","country_code":"UA"}},{"type":"Feature","geometry":{"type":"Point","coordinates":[24.4201,48.26852]},"properties":{"id":109905,"name":"Lazeshchyna","state_code":"21","country_code":"UA"}},{"type":"Feature","geometry":{"type":"Point","coordinates":[24.23333,48.06667]},"properties":{"id":109906,"name":"Lazi","state_code":"21","country_code":"UA"}},{"type":"Feature","geometry":{"type":"Point","coordinates":[23.96382,48.36527]},"properties":{"id":109930,"name":"Lopukhiv","state_code":"21","country_code":"UA"}},{"type":"Feature","geometry":{"type":"Point","coordinates":[23.38336,48.26107]},"properties":{"id":109954,"name":"Lypcha","state_code":"21","country_code":"UA"}},{"type":"Feature","geometry":{"type":"Point","coordinates":[23.28992,48.49677]},"properties":{"id":109961,"name":"Lysychovo","state_code":"21","country_code":"UA"}},{"type":"Feature","geometry":{"type":"Point","coordinates":[23.50563,48.52458]},"properties":{"id":110039,"name":"Mizhhirya","state_code":"21","country_code":"UA"}},{"type":"Feature","geometry":{"type":"Point","coordinates":[23.5,48.58333]},"properties":{"id":110040,"name":"Mizhhirya Raion","state_code":"21","country_code":"UA"}},{"type":"Feature","geometry":{"type":"Point","coordinates":[22.71779,48.43919]},"properties":{"id":110058,"name":"Mukacheve","state_code":"21","country_code":"UA"}},{"type":"Feature","geometry":{"type":"Point","coordinates":[22.66667,48.41667]},"properties":{"id":110059,"name":"Mukachevo","state_code":"21","country_code":"UA"}},{"type":"Feature","geometry":{"type":"Point","coordinates":[22.69943,48.17959]},"properties":{"id":110065,"name":"Muzhiyevo","state_code":"21","country_code":"UA"}},{"type":"Feature","geometry":{"type":"Point","coordinates":[22.27502,48.5888]},"properties":{"id":110074,"name":"Mynay","state_code":"21","country_code":"UA"}},{"type":"Feature","geometry":{"type":"Point","coordinates":[23.03146,48.56101]},"properties":{"id":110090,"name":"Nelipyno","state_code":"21","country_code":"UA"}},{"type":"Feature","geometry":{"type":"Point","coordinates":[23.76588,48.11814]},"properties":{"id":110092,"name":"Neresnytsya","state_code":"21","country_code":"UA"}},{"type":"Feature","geometry":{"type":"Point","coordinates":[22.38813,48.67472]},"properties":{"id":110094,"name":"Nevyts’ke","state_code":"21","country_code":"UA"}},{"type":"Feature","geometry":{"type":"Point","coordinates":[22.62164,48.44133]},"properties":{"id":110111,"name":"Nove Davydkovo","state_code":"21","country_code":"UA"}},{"type":"Feature","geometry":{"type":"Point","coordinates":[23.44757,48.19911]},"properties":{"id":110168,"name":"Nyzhnye Selyshche","state_code":"21","country_code":"UA"}},{"type":"Feature","geometry":{"type":"Point","coordinates":[22.96167,48.16406]},"properties":{"id":110192,"name":"Oleshnyk","state_code":"21","country_code":"UA"}},{"type":"Feature","geometry":{"type":"Point","coordinates":[22.34183,48.65763]},"properties":{"id":110197,"name":"Onokivtsi","state_code":"21","country_code":"UA"}},{"type":"Feature","geometry":{"type":"Point","coordinates":[22.482,48.73616]},"properties":{"id":110236,"name":"Perechyn","state_code":"21","country_code":"UA"}},{"type":"Feature","geometry":{"type":"Point","coordinates":[22.66667,48.75]},"properties":{"id":110237,"name":"Perechyn Raion","state_code":"21","country_code":"UA"}},{"type":"Feature","geometry":{"type":"Point","coordinates":[22.97194,48.13947]},"properties":{"id":110271,"name":"Pidvynohradiv","state_code":"21","country_code":"UA"}},{"type":"Feature","geometry":{"type":"Point","coordinates":[22.75328,48.66832]},"properties":{"id":110304,"name":"Poroshkovo","state_code":"21","country_code":"UA"}},{"type":"Feature","geometry":{"type":"Point","coordinates":[23.28346,48.65899]},"properties":{"id":110334,"name":"Pylypets","state_code":"21","country_code":"UA"}},{"type":"Feature","geometry":{"type":"Point","coordinates":[24.20089,48.0526]},"properties":{"id":110340,"name":"Rakhiv","state_code":"21","country_code":"UA"}},{"type":"Feature","geometry":{"type":"Point","coordinates":[24.33333,48.08333]},"properties":{"id":110341,"name":"Rakhiv Raion","state_code":"21","country_code":"UA"}},{"type":"Feature","geometry":{"type":"Point","coordinates":[22.59687,48.46713]},"properties":{"id":110343,"name":"Rakoshyno","state_code":"21","country_code":"UA"}},{"type":"Feature","geometry":{"type":"Point","coordinates":[23.17624,48.21018]},"properties":{"id":110362,"name":"Rokosovo","state_code":"21","country_code":"UA"}},{"type":"Feature","geometry":{"type":"Point","coordinates":[22.50696,48.54043]},"properties":{"id":110422,"name":"Serednye","state_code":"21","country_code":"UA"}},{"type":"Feature","geometry":{"type":"Point","coordinates":[23.91041,47.98159]},"properties":{"id":110423,"name":"Serednye Vodyane","state_code":"21","country_code":"UA"}},{"type":"Feature","geometry":{"type":"Point","coordinates":[23.87035,47.94604]},"properties":{"id":110513,"name":"Solotvyno","state_code":"21","country_code":"UA"}},{"type":"Feature","geometry":{"type":"Point","coordinates":[22.23269,48.60403]},"properties":{"id":110554,"name":"Storozhnytsya","state_code":"21","country_code":"UA"}},{"type":"Feature","geometry":{"type":"Point","coordinates":[22.54308,48.39247]},"properties":{"id":110555,"name":"Strabychovo","state_code":"21","country_code":"UA"}},{"type":"Feature","geometry":{"type":"Point","coordinates":[23,48.55]},"properties":{"id":110569,"name":"Svaliava","state_code":"21","country_code":"UA"}},{"type":"Feature","geometry":{"type":"Point","coordinates":[22.99578,48.54853]},"properties":{"id":110570,"name":"Svalyava","state_code":"21","country_code":"UA"}},{"type":"Feature","geometry":{"type":"Point","coordinates":[23.62575,48.48745]},"properties":{"id":110584,"name":"Synevyr","state_code":"21","country_code":"UA"}},{"type":"Feature","geometry":{"type":"Point","coordinates":[23.6891,48.58484]},"properties":{"id":110585,"name":"Synevyrska Poliana","state_code":"21","country_code":"UA"}},{"type":"Feature","geometry":{"type":"Point","coordinates":[23.58333,48.08333]},"properties":{"id":110607,"name":"Tiachiv","state_code":"21","country_code":"UA"}},{"type":"Feature","geometry":{"type":"Point","coordinates":[23.57061,48.01179]},"properties":{"id":110640,"name":"Tyachiv","state_code":"21","country_code":"UA"}},{"type":"Feature","geometry":{"type":"Point","coordinates":[22.3,48.61667]},"properties":{"id":110667,"name":"Uzhgorod","state_code":"21","country_code":"UA"}},{"type":"Feature","geometry":{"type":"Point","coordinates":[22.33333,48.58333]},"properties":{"id":110668,"name":"Uzhhorod","state_code":"21","country_code":"UA"}},{"type":"Feature","geometry":{"type":"Point","coordinates":[22.71281,48.12207]},"properties":{"id":110674,"name":"Vary","state_code":"21","country_code":"UA"}},{"type":"Feature","geometry":{"type":"Point","coordinates":[22.74591,48.23187]},"properties":{"id":110689,"name":"Velyki Berehy","state_code":"21","country_code":"UA"}},{"type":"Feature","geometry":{"type":"Point","coordinates":[22.46052,48.88831]},"properties":{"id":110694,"name":"Velykyi Bereznyi","state_code":"21","country_code":"UA"}},{"type":"Feature","geometry":{"type":"Point","coordinates":[22.58333,48.91667]},"properties":{"id":110695,"name":"Velykyi Bereznyi Raion","state_code":"21","country_code":"UA"}},{"type":"Feature","geometry":{"type":"Point","coordinates":[23.1851,48.7109]},"properties":{"id":110737,"name":"Volovets","state_code":"21","country_code":"UA"}},{"type":"Feature","geometry":{"type":"Point","coordinates":[23.08333,48.75]},"properties":{"id":110738,"name":"Volovets Raion","state_code":"21","country_code":"UA"}},{"type":"Feature","geometry":{"type":"Point","coordinates":[22.83865,48.10915]},"properties":{"id":110756,"name":"Vylok","state_code":"21","country_code":"UA"}},{"type":"Feature","geometry":{"type":"Point","coordinates":[23.02666,48.14135]},"properties":{"id":110757,"name":"Vynohradiv","state_code":"21","country_code":"UA"}},{"type":"Feature","geometry":{"type":"Point","coordinates":[23,48.16667]},"properties":{"id":110758,"name":"Vynohradiv Raion","state_code":"21","country_code":"UA"}},{"type":"Feature","geometry":{"type":"Point","coordinates":[23.42113,48.04911]},"properties":{"id":110764,"name":"Vyshkovo","state_code":"21","country_code":"UA"}},{"type":"Feature","geometry":{"type":"Point","coordinates":[24.36042,48.27937]},"properties":{"id":110788,"name":"Yasinya","state_code":"21","country_code":"UA"}}]}