{"type":"FeatureCollection","features":[{"type":"Feature","geometry":{"type":"Point","coordinates":[30.69305,50.41333]},"properties":{"id":109529,"name":"Darnytsia","state_code":"30","country_code":"UA"}},{"type":"Feature","geometry":{"type":"Point","coordinates":[30.60875,50.5355]},"properties":{"id":109541,"name":"Desnyans’kyy Rayon","state_code":"30","country_code":"UA"}},{"type":"Feature","geometry":{"type":"Point","coordinates":[30.63194,50.46756]},"properties":{"id":109550,"name":"Dnipro Raion","state_code":"30","country_code":"UA"}},{"type":"Feature","geometry":{"type":"Point","coordinates":[30.5674,50.32749]},"properties":{"id":109637,"name":"Holosiiv","state_code":"30","country_code":"UA"}},{"type":"Feature","geometry":{"type":"Point","coordinates":[30.32957,50.48836]},"properties":{"id":109819,"name":"Kotsyubyns’ke","state_code":"30","country_code":"UA"}},{"type":"Feature","geometry":{"type":"Point","coordinates":[30.5238,50.45466]},"properties":{"id":109897,"name":"Kyiv","state_code":"30","country_code":"UA"}},{"type":"Feature","geometry":{"type":"Point","coordinates":[30.56602,50.41902]},"properties":{"id":110235,"name":"Pechersk","state_code":"30","country_code":"UA"}},{"type":"Feature","geometry":{"type":"Point","coordinates":[30.53333,50.45]},"properties":{"id":110286,"name":"Podil’s’kyy Rayon","state_code":"30","country_code":"UA"}},{"type":"Feature","geometry":{"type":"Point","coordinates":[30.78,50.39118]},"properties":{"id":110313,"name":"Prolisky","state_code":"30","country_code":"UA"}},{"type":"Feature","geometry":{"type":"Point","coordinates":[30.51667,50.43333]},"properties":{"id":110442,"name":"Shevchenkivs’kyy Rayon","state_code":"30","country_code":"UA"}},{"type":"Feature","geometry":{"type":"Point","coordinates":[30.45135,50.42886]},"properties":{"id":110507,"name":"Solomianka Rayon","state_code":"30","country_code":"UA"}},{"type":"Feature","geometry":{"type":"Point","coordinates":[30.3805,50.48533]},"properties":{"id":110580,"name":"Svyatoshyns’kyy Rayon","state_code":"30","country_code":"UA"}}]}