{"type":"FeatureCollection","features":[{"type":"Feature","geometry":{"type":"Point","coordinates":[35.10139,45.10759]},"properties":{"id":109305,"name":"Abrikosovka","state_code":"43","country_code":"UA"}},{"type":"Feature","geometry":{"type":"Point","coordinates":[34.10156,45.69236]},"properties":{"id":109306,"name":"Abrikosovo","state_code":"43","country_code":"UA"}},{"type":"Feature","geometry":{"type":"Point","coordinates":[33.99961,45.01816]},"properties":{"id":109308,"name":"Aeroflotskiy","state_code":"43","country_code":"UA"}},{"type":"Feature","geometry":{"type":"Point","coordinates":[34.05725,45.01596]},"properties":{"id":109309,"name":"Agrarnoye","state_code":"43","country_code":"UA"}},{"type":"Feature","geometry":{"type":"Point","coordinates":[34.82438,45.51981]},"properties":{"id":109310,"name":"Akimovka","state_code":"43","country_code":"UA"}},{"type":"Feature","geometry":{"type":"Point","coordinates":[34.09947,45.57654]},"properties":{"id":109313,"name":"Aleksandrovka","state_code":"43","country_code":"UA"}},{"type":"Feature","geometry":{"type":"Point","coordinates":[33.6298,45.58194]},"properties":{"id":109314,"name":"Alekseyevka","state_code":"43","country_code":"UA"}},{"type":"Feature","geometry":{"type":"Point","coordinates":[34.04531,44.41808]},"properties":{"id":109315,"name":"Alupka","state_code":"43","country_code":"UA"}},{"type":"Feature","geometry":{"type":"Point","coordinates":[34.4097,44.67728]},"properties":{"id":109316,"name":"Alushta","state_code":"43","country_code":"UA"}},{"type":"Feature","geometry":{"type":"Point","coordinates":[34.12823,45.27822]},"properties":{"id":109317,"name":"Amurskoye","state_code":"43","country_code":"UA"}},{"type":"Feature","geometry":{"type":"Point","coordinates":[33.69206,46.10919]},"properties":{"id":109327,"name":"Armyansk","state_code":"43","country_code":"UA"}},{"type":"Feature","geometry":{"type":"Point","coordinates":[34.39921,45.03678]},"properties":{"id":109328,"name":"Aromatnoye","state_code":"43","country_code":"UA"}},{"type":"Feature","geometry":{"type":"Point","coordinates":[34.5668,45.58604]},"properties":{"id":109336,"name":"Azovskoye","state_code":"43","country_code":"UA"}},{"type":"Feature","geometry":{"type":"Point","coordinates":[36.29705,45.37417]},"properties":{"id":109338,"name":"Baherove","state_code":"43","country_code":"UA"}},{"type":"Feature","geometry":{"type":"Point","coordinates":[33.85782,44.75525]},"properties":{"id":109339,"name":"Bakhchysarai","state_code":"43","country_code":"UA"}},{"type":"Feature","geometry":{"type":"Point","coordinates":[33.8633,44.75002]},"properties":{"id":109340,"name":"Bakhchysarai Raion","state_code":"43","country_code":"UA"}},{"type":"Feature","geometry":{"type":"Point","coordinates":[35.61583,45.19402]},"properties":{"id":109356,"name":"Batal’noye","state_code":"43","country_code":"UA"}},{"type":"Feature","geometry":{"type":"Point","coordinates":[36.08212,45.37465]},"properties":{"id":109363,"name":"Belinskoye","state_code":"43","country_code":"UA"}},{"type":"Feature","geometry":{"type":"Point","coordinates":[34.04167,44.9949]},"properties":{"id":109364,"name":"Beloglinka","state_code":"43","country_code":"UA"}},{"type":"Feature","geometry":{"type":"Point","coordinates":[34.55675,45.063]},"properties":{"id":109365,"name":"Belogorskiy rayon","state_code":"43","country_code":"UA"}},{"type":"Feature","geometry":{"type":"Point","coordinates":[35.43385,45.0947]},"properties":{"id":109372,"name":"Beregovoye","state_code":"43","country_code":"UA"}},{"type":"Feature","geometry":{"type":"Point","coordinates":[33.34397,45.57471]},"properties":{"id":109384,"name":"Berezovka","state_code":"43","country_code":"UA"}},{"type":"Feature","geometry":{"type":"Point","coordinates":[34.60185,45.05462]},"properties":{"id":109399,"name":"Bilohirsk","state_code":"43","country_code":"UA"}},{"type":"Feature","geometry":{"type":"Point","coordinates":[35.33056,45.05694]},"properties":{"id":109412,"name":"Blizhneye","state_code":"43","country_code":"UA"}},{"type":"Feature","geometry":{"type":"Point","coordinates":[34.76732,45.02933]},"properties":{"id":109417,"name":"Bogatoye","state_code":"43","country_code":"UA"}},{"type":"Feature","geometry":{"type":"Point","coordinates":[33.54856,45.78656]},"properties":{"id":109438,"name":"Botanicheskoye","state_code":"43","country_code":"UA"}},{"type":"Feature","geometry":{"type":"Point","coordinates":[33.92151,45.8317]},"properties":{"id":109444,"name":"Bratskoye","state_code":"43","country_code":"UA"}},{"type":"Feature","geometry":{"type":"Point","coordinates":[34.89428,45.28119]},"properties":{"id":109470,"name":"Chapayevka","state_code":"43","country_code":"UA"}},{"type":"Feature","geometry":{"type":"Point","coordinates":[34.08673,45.08223]},"properties":{"id":109474,"name":"Chaykino","state_code":"43","country_code":"UA"}},{"type":"Feature","geometry":{"type":"Point","coordinates":[36.3762,45.20729]},"properties":{"id":109476,"name":"Chelyadinovo","state_code":"43","country_code":"UA"}},{"type":"Feature","geometry":{"type":"Point","coordinates":[32.92614,45.48798]},"properties":{"id":109489,"name":"Chernomorskiy rayon","state_code":"43","country_code":"UA"}},{"type":"Feature","geometry":{"type":"Point","coordinates":[32.69776,45.50657]},"properties":{"id":109490,"name":"Chernomorskoye","state_code":"43","country_code":"UA"}},{"type":"Feature","geometry":{"type":"Point","coordinates":[34.63916,45.04399]},"properties":{"id":109491,"name":"Chernopolye","state_code":"43","country_code":"UA"}},{"type":"Feature","geometry":{"type":"Point","coordinates":[33.93397,45.50833]},"properties":{"id":109492,"name":"Chernovo","state_code":"43","country_code":"UA"}},{"type":"Feature","geometry":{"type":"Point","coordinates":[34.8199,45.40808]},"properties":{"id":109493,"name":"Chernozemnoye","state_code":"43","country_code":"UA"}},{"type":"Feature","geometry":{"type":"Point","coordinates":[33.42825,45.78202]},"properties":{"id":109497,"name":"Chernyshevo","state_code":"43","country_code":"UA"}},{"type":"Feature","geometry":{"type":"Point","coordinates":[33.68662,45.12294]},"properties":{"id":109503,"name":"Chervonoye","state_code":"43","country_code":"UA"}},{"type":"Feature","geometry":{"type":"Point","coordinates":[34.04716,44.88152]},"properties":{"id":109505,"name":"Chisten’koye","state_code":"43","country_code":"UA"}},{"type":"Feature","geometry":{"type":"Point","coordinates":[36.18312,45.36541]},"properties":{"id":109506,"name":"Chistopolye","state_code":"43","country_code":"UA"}},{"type":"Feature","geometry":{"type":"Point","coordinates":[34.83395,45.60474]},"properties":{"id":109507,"name":"Chkalovo","state_code":"43","country_code":"UA"}},{"type":"Feature","geometry":{"type":"Point","coordinates":[34.98333,44.88448]},"properties":{"id":109527,"name":"Dachnoye","state_code":"43","country_code":"UA"}},{"type":"Feature","geometry":{"type":"Point","coordinates":[33.08059,45.66006]},"properties":{"id":109528,"name":"Dalekoye","state_code":"43","country_code":"UA"}},{"type":"Feature","geometry":{"type":"Point","coordinates":[35.0588,45.48411]},"properties":{"id":109543,"name":"Dmitrovka","state_code":"43","country_code":"UA"}},{"type":"Feature","geometry":{"type":"Point","coordinates":[34.36256,45.71373]},"properties":{"id":109547,"name":"Dneprovka","state_code":"43","country_code":"UA"}},{"type":"Feature","geometry":{"type":"Point","coordinates":[34.22661,44.86632]},"properties":{"id":109560,"name":"Dobroye","state_code":"43","country_code":"UA"}},{"type":"Feature","geometry":{"type":"Point","coordinates":[33.36547,45.37441]},"properties":{"id":109561,"name":"Dobrushino","state_code":"43","country_code":"UA"}},{"type":"Feature","geometry":{"type":"Point","coordinates":[33.77766,44.7532]},"properties":{"id":109564,"name":"Dolinnoye","state_code":"43","country_code":"UA"}},{"type":"Feature","geometry":{"type":"Point","coordinates":[34.21413,45.04509]},"properties":{"id":109571,"name":"Donskoye","state_code":"43","country_code":"UA"}},{"type":"Feature","geometry":{"type":"Point","coordinates":[34.61589,45.28629]},"properties":{"id":109577,"name":"Drofino","state_code":"43","country_code":"UA"}},{"type":"Feature","geometry":{"type":"Point","coordinates":[34.02355,44.93581]},"properties":{"id":109582,"name":"Dubki","state_code":"43","country_code":"UA"}},{"type":"Feature","geometry":{"type":"Point","coordinates":[34.39274,45.71168]},"properties":{"id":109592,"name":"Dzhankoy","state_code":"43","country_code":"UA"}},{"type":"Feature","geometry":{"type":"Point","coordinates":[34.39197,45.78706]},"properties":{"id":109593,"name":"Dzhankoyskiy rayon","state_code":"43","country_code":"UA"}},{"type":"Feature","geometry":{"type":"Point","coordinates":[35.37789,45.03677]},"properties":{"id":109599,"name":"Feodosiya","state_code":"43","country_code":"UA"}},{"type":"Feature","geometry":{"type":"Point","coordinates":[33.7851,46.08192]},"properties":{"id":109600,"name":"Filatovka","state_code":"43","country_code":"UA"}},{"type":"Feature","geometry":{"type":"Point","coordinates":[34.07297,44.89717]},"properties":{"id":109602,"name":"Fontany","state_code":"43","country_code":"UA"}},{"type":"Feature","geometry":{"type":"Point","coordinates":[33.78798,44.39214]},"properties":{"id":109603,"name":"Foros","state_code":"43","country_code":"UA"}},{"type":"Feature","geometry":{"type":"Point","coordinates":[33.62956,45.02688]},"properties":{"id":109604,"name":"Frunze","state_code":"43","country_code":"UA"}},{"type":"Feature","geometry":{"type":"Point","coordinates":[34.10297,44.43364]},"properties":{"id":109605,"name":"Gaspra","state_code":"43","country_code":"UA"}},{"type":"Feature","geometry":{"type":"Point","coordinates":[33.74675,45.13857]},"properties":{"id":109606,"name":"Geroyskoye","state_code":"43","country_code":"UA"}},{"type":"Feature","geometry":{"type":"Point","coordinates":[36.57965,45.38792]},"properties":{"id":109607,"name":"Glazovka","state_code":"43","country_code":"UA"}},{"type":"Feature","geometry":{"type":"Point","coordinates":[33.91521,44.59382]},"properties":{"id":109608,"name":"Golubinka","state_code":"43","country_code":"UA"}},{"type":"Feature","geometry":{"type":"Point","coordinates":[36.18601,45.27819]},"properties":{"id":109609,"name":"Gornostayevka","state_code":"43","country_code":"UA"}},{"type":"Feature","geometry":{"type":"Point","coordinates":[34.41467,44.67256]},"properties":{"id":109610,"name":"Gorodskoy okrug Alushta","state_code":"43","country_code":"UA"}},{"type":"Feature","geometry":{"type":"Point","coordinates":[33.69095,46.10871]},"properties":{"id":109611,"name":"Gorodskoy okrug Armyansk","state_code":"43","country_code":"UA"}},{"type":"Feature","geometry":{"type":"Point","coordinates":[34.39407,45.7081]},"properties":{"id":109612,"name":"Gorodskoy okrug Dzhankoy","state_code":"43","country_code":"UA"}},{"type":"Feature","geometry":{"type":"Point","coordinates":[35.37289,45.04612]},"properties":{"id":109613,"name":"Gorodskoy okrug Feodosiya","state_code":"43","country_code":"UA"}},{"type":"Feature","geometry":{"type":"Point","coordinates":[33.79669,45.9533]},"properties":{"id":109614,"name":"Gorodskoy okrug Krasnoperekopsk","state_code":"43","country_code":"UA"}},{"type":"Feature","geometry":{"type":"Point","coordinates":[33.60134,45.1278]},"properties":{"id":109615,"name":"Gorodskoy okrug Saki","state_code":"43","country_code":"UA"}},{"type":"Feature","geometry":{"type":"Point","coordinates":[34.10912,44.94803]},"properties":{"id":109616,"name":"Gorodskoy okrug Simferopol","state_code":"43","country_code":"UA"}},{"type":"Feature","geometry":{"type":"Point","coordinates":[35.00202,44.91667]},"properties":{"id":109617,"name":"Gorodskoy okrug Sudak","state_code":"43","country_code":"UA"}},{"type":"Feature","geometry":{"type":"Point","coordinates":[34.16336,44.49638]},"properties":{"id":109618,"name":"Gorodskoy okrug Yalta","state_code":"43","country_code":"UA"}},{"type":"Feature","geometry":{"type":"Point","coordinates":[33.36342,45.19559]},"properties":{"id":109619,"name":"Gorodskoy okrug Yevpatoriya","state_code":"43","country_code":"UA"}},{"type":"Feature","geometry":{"type":"Point","coordinates":[34.02657,45.00804]},"properties":{"id":109620,"name":"Gresovskiy","state_code":"43","country_code":"UA"}},{"type":"Feature","geometry":{"type":"Point","coordinates":[33.83098,45.64219]},"properties":{"id":109621,"name":"Grishino","state_code":"43","country_code":"UA"}},{"type":"Feature","geometry":{"type":"Point","coordinates":[34.97301,45.02281]},"properties":{"id":109622,"name":"Grushevka","state_code":"43","country_code":"UA"}},{"type":"Feature","geometry":{"type":"Point","coordinates":[34.27841,44.54624]},"properties":{"id":109623,"name":"Gurzuf","state_code":"43","country_code":"UA"}},{"type":"Feature","geometry":{"type":"Point","coordinates":[34.02188,45.11692]},"properties":{"id":109664,"name":"Hvardiiske","state_code":"43","country_code":"UA"}},{"type":"Feature","geometry":{"type":"Point","coordinates":[35.73864,45.28348]},"properties":{"id":109669,"name":"Ilychyovo","state_code":"43","country_code":"UA"}},{"type":"Feature","geometry":{"type":"Point","coordinates":[35.07127,45.24524]},"properties":{"id":109670,"name":"Ilyichevo","state_code":"43","country_code":"UA"}},{"type":"Feature","geometry":{"type":"Point","coordinates":[33.79482,45.81784]},"properties":{"id":109671,"name":"Ilyinka","state_code":"43","country_code":"UA"}},{"type":"Feature","geometry":{"type":"Point","coordinates":[33.82364,45.92403]},"properties":{"id":109676,"name":"Ishun’","state_code":"43","country_code":"UA"}},{"type":"Feature","geometry":{"type":"Point","coordinates":[33.6613,45.072]},"properties":{"id":109685,"name":"Ivanovka","state_code":"43","country_code":"UA"}},{"type":"Feature","geometry":{"type":"Point","coordinates":[34.35357,44.70276]},"properties":{"id":109688,"name":"Izobil’noye","state_code":"43","country_code":"UA"}},{"type":"Feature","geometry":{"type":"Point","coordinates":[34.41299,45.73704]},"properties":{"id":109689,"name":"Izumrudnoye","state_code":"43","country_code":"UA"}},{"type":"Feature","geometry":{"type":"Point","coordinates":[35.13717,45.04437]},"properties":{"id":109692,"name":"Izyumovka","state_code":"43","country_code":"UA"}},{"type":"Feature","geometry":{"type":"Point","coordinates":[34.2203,45.59521]},"properties":{"id":109700,"name":"Kalinino","state_code":"43","country_code":"UA"}},{"type":"Feature","geometry":{"type":"Point","coordinates":[35.74643,45.31658]},"properties":{"id":109701,"name":"Kalinovka","state_code":"43","country_code":"UA"}},{"type":"Feature","geometry":{"type":"Point","coordinates":[33.41773,45.24804]},"properties":{"id":109707,"name":"Kamenolomnya","state_code":"43","country_code":"UA"}},{"type":"Feature","geometry":{"type":"Point","coordinates":[34.05912,44.8321]},"properties":{"id":109718,"name":"Kashtanovoye","state_code":"43","country_code":"UA"}},{"type":"Feature","geometry":{"type":"Point","coordinates":[33.78995,44.8676]},"properties":{"id":109719,"name":"Kashtany","state_code":"43","country_code":"UA"}},{"type":"Feature","geometry":{"type":"Point","coordinates":[36.47429,45.3531]},"properties":{"id":109725,"name":"Kerch","state_code":"43","country_code":"UA"}},{"type":"Feature","geometry":{"type":"Point","coordinates":[36.47414,45.35307]},"properties":{"id":109726,"name":"Kerchens'ka Mis'ka Rada","state_code":"43","country_code":"UA"}},{"type":"Feature","geometry":{"type":"Point","coordinates":[33.75456,44.6583]},"properties":{"id":109734,"name":"Kholmovka","state_code":"43","country_code":"UA"}},{"type":"Feature","geometry":{"type":"Point","coordinates":[35.84227,45.22106]},"properties":{"id":109750,"name":"Kirovo","state_code":"43","country_code":"UA"}},{"type":"Feature","geometry":{"type":"Point","coordinates":[35.17696,45.15522]},"properties":{"id":109752,"name":"Kirovske","state_code":"43","country_code":"UA"}},{"type":"Feature","geometry":{"type":"Point","coordinates":[35.19987,45.22967]},"properties":{"id":109753,"name":"Kirovskoye","state_code":"43","country_code":"UA"}},{"type":"Feature","geometry":{"type":"Point","coordinates":[34.18315,45.528]},"properties":{"id":109761,"name":"Klepinino","state_code":"43","country_code":"UA"}},{"type":"Feature","geometry":{"type":"Point","coordinates":[35.2466,44.96155]},"properties":{"id":109771,"name":"Koktebel","state_code":"43","country_code":"UA"}},{"type":"Feature","geometry":{"type":"Point","coordinates":[33.78865,44.94367]},"properties":{"id":109780,"name":"Kol’chugino","state_code":"43","country_code":"UA"}},{"type":"Feature","geometry":{"type":"Point","coordinates":[33.44992,45.32807]},"properties":{"id":109781,"name":"Kol’tsovo","state_code":"43","country_code":"UA"}},{"type":"Feature","geometry":{"type":"Point","coordinates":[34.33698,45.22682]},"properties":{"id":109774,"name":"Kolodeznoye","state_code":"43","country_code":"UA"}},{"type":"Feature","geometry":{"type":"Point","coordinates":[33.29386,45.26936]},"properties":{"id":109779,"name":"Koloski","state_code":"43","country_code":"UA"}},{"type":"Feature","geometry":{"type":"Point","coordinates":[34.03049,45.019]},"properties":{"id":109784,"name":"Komsomol’skoye","state_code":"43","country_code":"UA"}},{"type":"Feature","geometry":{"type":"Point","coordinates":[34.47387,45.63125]},"properties":{"id":109788,"name":"Kondratyevo","state_code":"43","country_code":"UA"}},{"type":"Feature","geometry":{"type":"Point","coordinates":[34.12069,44.85511]},"properties":{"id":109790,"name":"Konstantinovka","state_code":"43","country_code":"UA"}},{"type":"Feature","geometry":{"type":"Point","coordinates":[34.08516,44.43374]},"properties":{"id":109794,"name":"Koreiz","state_code":"43","country_code":"UA"}},{"type":"Feature","geometry":{"type":"Point","coordinates":[33.61192,45.50001]},"properties":{"id":109796,"name":"Kormovoye","state_code":"43","country_code":"UA"}},{"type":"Feature","geometry":{"type":"Point","coordinates":[34.67418,45.31747]},"properties":{"id":109812,"name":"Kostochkovka","state_code":"43","country_code":"UA"}},{"type":"Feature","geometry":{"type":"Point","coordinates":[34.02575,45.36584]},"properties":{"id":109818,"name":"Kotel’nikovo","state_code":"43","country_code":"UA"}},{"type":"Feature","geometry":{"type":"Point","coordinates":[33.52775,45.69028]},"properties":{"id":109822,"name":"Kovyl’noye","state_code":"43","country_code":"UA"}},{"type":"Feature","geometry":{"type":"Point","coordinates":[34.04015,45.13432]},"properties":{"id":109830,"name":"Krasna Zor'ka","state_code":"43","country_code":"UA"}},{"type":"Feature","geometry":{"type":"Point","coordinates":[32.9379,45.48241]},"properties":{"id":109831,"name":"Krasnaya Polyana","state_code":"43","country_code":"UA"}},{"type":"Feature","geometry":{"type":"Point","coordinates":[34.03037,45.99103]},"properties":{"id":109834,"name":"Krasnoarmeyskoye","state_code":"43","country_code":"UA"}},{"type":"Feature","geometry":{"type":"Point","coordinates":[34.94756,45.31572]},"properties":{"id":109835,"name":"Krasnoflotskoye","state_code":"43","country_code":"UA"}},{"type":"Feature","geometry":{"type":"Point","coordinates":[35.80739,45.24513]},"properties":{"id":109836,"name":"Krasnogorka","state_code":"43","country_code":"UA"}},{"type":"Feature","geometry":{"type":"Point","coordinates":[34.30134,45.50271]},"properties":{"id":109837,"name":"Krasnogvardeyskoye","state_code":"43","country_code":"UA"}},{"type":"Feature","geometry":{"type":"Point","coordinates":[34.25464,45.4023]},"properties":{"id":109839,"name":"Krasnohvardiiske","state_code":"43","country_code":"UA"}},{"type":"Feature","geometry":{"type":"Point","coordinates":[34.28877,44.56383]},"properties":{"id":109840,"name":"Krasnokamenka","state_code":"43","country_code":"UA"}},{"type":"Feature","geometry":{"type":"Point","coordinates":[34.23086,44.83259]},"properties":{"id":109842,"name":"Krasnolesye","state_code":"43","country_code":"UA"}},{"type":"Feature","geometry":{"type":"Point","coordinates":[33.7965,45.95716]},"properties":{"id":109845,"name":"Krasnoperekops’k","state_code":"43","country_code":"UA"}},{"type":"Feature","geometry":{"type":"Point","coordinates":[33.8799,45.96992]},"properties":{"id":109844,"name":"Krasnoperekopsk","state_code":"43","country_code":"UA"}},{"type":"Feature","geometry":{"type":"Point","coordinates":[33.26641,45.50661]},"properties":{"id":109849,"name":"Krasnoyarskoye","state_code":"43","country_code":"UA"}},{"type":"Feature","geometry":{"type":"Point","coordinates":[34.09452,45.13999]},"properties":{"id":109850,"name":"Krasnoye","state_code":"43","country_code":"UA"}},{"type":"Feature","geometry":{"type":"Point","coordinates":[34.00036,45.28676]},"properties":{"id":109851,"name":"Krasnoznamenka","state_code":"43","country_code":"UA"}},{"type":"Feature","geometry":{"type":"Point","coordinates":[33.7813,44.64218]},"properties":{"id":109852,"name":"Krasnyi Mak","state_code":"43","country_code":"UA"}},{"type":"Feature","geometry":{"type":"Point","coordinates":[33.83239,45.22993]},"properties":{"id":109857,"name":"Krayneye","state_code":"43","country_code":"UA"}},{"type":"Feature","geometry":{"type":"Point","coordinates":[33.93938,45.72268]},"properties":{"id":109861,"name":"Krest’yanovka","state_code":"43","country_code":"UA"}},{"type":"Feature","geometry":{"type":"Point","coordinates":[34.61202,45.02428]},"properties":{"id":109863,"name":"Krinichnoye","state_code":"43","country_code":"UA"}},{"type":"Feature","geometry":{"type":"Point","coordinates":[34.18782,45.70453]},"properties":{"id":109869,"name":"Krymka","state_code":"43","country_code":"UA"}},{"type":"Feature","geometry":{"type":"Point","coordinates":[34.35631,45.05776]},"properties":{"id":109870,"name":"Krymskaya Roza","state_code":"43","country_code":"UA"}},{"type":"Feature","geometry":{"type":"Point","coordinates":[33.80106,45.18836]},"properties":{"id":109871,"name":"Krymskoye","state_code":"43","country_code":"UA"}},{"type":"Feature","geometry":{"type":"Point","coordinates":[33.86895,44.629]},"properties":{"id":109881,"name":"Kuibyshevo","state_code":"43","country_code":"UA"}},{"type":"Feature","geometry":{"type":"Point","coordinates":[33.3903,45.71924]},"properties":{"id":109882,"name":"Kukushkino","state_code":"43","country_code":"UA"}},{"type":"Feature","geometry":{"type":"Point","coordinates":[34.93623,45.02908]},"properties":{"id":109890,"name":"Kurskoye","state_code":"43","country_code":"UA"}},{"type":"Feature","geometry":{"type":"Point","coordinates":[34.9577,45.09801]},"properties":{"id":109968,"name":"L’govskoye","state_code":"43","country_code":"UA"}},{"type":"Feature","geometry":{"type":"Point","coordinates":[33.82229,44.94194]},"properties":{"id":109910,"name":"Lekarstvennoye","state_code":"43","country_code":"UA"}},{"type":"Feature","geometry":{"type":"Point","coordinates":[36.0054,45.24693]},"properties":{"id":109912,"name":"Lenine","state_code":"43","country_code":"UA"}},{"type":"Feature","geometry":{"type":"Point","coordinates":[35.77708,45.29857]},"properties":{"id":109913,"name":"Lenino","state_code":"43","country_code":"UA"}},{"type":"Feature","geometry":{"type":"Point","coordinates":[34.05023,45.26844]},"properties":{"id":109914,"name":"Leninskoye","state_code":"43","country_code":"UA"}},{"type":"Feature","geometry":{"type":"Point","coordinates":[33.61889,45.1535]},"properties":{"id":109915,"name":"Lesnovka","state_code":"43","country_code":"UA"}},{"type":"Feature","geometry":{"type":"Point","coordinates":[34.04278,44.87083]},"properties":{"id":109917,"name":"Levadki","state_code":"43","country_code":"UA"}},{"type":"Feature","geometry":{"type":"Point","coordinates":[34.81087,45.48086]},"properties":{"id":109919,"name":"Listvennoye","state_code":"43","country_code":"UA"}},{"type":"Feature","geometry":{"type":"Point","coordinates":[34.31107,45.08648]},"properties":{"id":109920,"name":"Litvinenkovo","state_code":"43","country_code":"UA"}},{"type":"Feature","geometry":{"type":"Point","coordinates":[34.14272,44.47021]},"properties":{"id":109926,"name":"Livadia","state_code":"43","country_code":"UA"}},{"type":"Feature","geometry":{"type":"Point","coordinates":[34.24236,45.77552]},"properties":{"id":109927,"name":"Lobanovo","state_code":"43","country_code":"UA"}},{"type":"Feature","geometry":{"type":"Point","coordinates":[34.16414,44.906]},"properties":{"id":109933,"name":"Lozovoye","state_code":"43","country_code":"UA"}},{"type":"Feature","geometry":{"type":"Point","coordinates":[34.40063,44.73646]},"properties":{"id":109935,"name":"Luchistoye","state_code":"43","country_code":"UA"}},{"type":"Feature","geometry":{"type":"Point","coordinates":[34.23786,45.8019]},"properties":{"id":109936,"name":"Luganskoye","state_code":"43","country_code":"UA"}},{"type":"Feature","geometry":{"type":"Point","coordinates":[35.72202,45.23469]},"properties":{"id":109937,"name":"Lugovoye","state_code":"43","country_code":"UA"}},{"type":"Feature","geometry":{"type":"Point","coordinates":[34.04969,45.86312]},"properties":{"id":109969,"name":"Magazinka","state_code":"43","country_code":"UA"}},{"type":"Feature","geometry":{"type":"Point","coordinates":[33.99942,45.07585]},"properties":{"id":109982,"name":"Malen’koye","state_code":"43","country_code":"UA"}},{"type":"Feature","geometry":{"type":"Point","coordinates":[34.55789,44.75888]},"properties":{"id":109985,"name":"Malorechenskoye","state_code":"43","country_code":"UA"}},{"type":"Feature","geometry":{"type":"Point","coordinates":[34.36469,44.61356]},"properties":{"id":109987,"name":"Maly Mayak","state_code":"43","country_code":"UA"}},{"type":"Feature","geometry":{"type":"Point","coordinates":[34.29474,45.44627]},"properties":{"id":110005,"name":"Mar’yanovka","state_code":"43","country_code":"UA"}},{"type":"Feature","geometry":{"type":"Point","coordinates":[36.09144,45.19853]},"properties":{"id":109998,"name":"Marfovka","state_code":"43","country_code":"UA"}},{"type":"Feature","geometry":{"type":"Point","coordinates":[36.23992,45.1133]},"properties":{"id":110004,"name":"Maryevka","state_code":"43","country_code":"UA"}},{"type":"Feature","geometry":{"type":"Point","coordinates":[34.36298,45.79197]},"properties":{"id":110006,"name":"Maslovo","state_code":"43","country_code":"UA"}},{"type":"Feature","geometry":{"type":"Point","coordinates":[34.18817,44.50958]},"properties":{"id":110007,"name":"Massandra","state_code":"43","country_code":"UA"}},{"type":"Feature","geometry":{"type":"Point","coordinates":[34.55213,45.59555]},"properties":{"id":110010,"name":"Mayskoye","state_code":"43","country_code":"UA"}},{"type":"Feature","geometry":{"type":"Point","coordinates":[34.25581,45.0055]},"properties":{"id":110011,"name":"Mazanka","state_code":"43","country_code":"UA"}},{"type":"Feature","geometry":{"type":"Point","coordinates":[34.55562,45.88389]},"properties":{"id":110013,"name":"Medvedevka","state_code":"43","country_code":"UA"}},{"type":"Feature","geometry":{"type":"Point","coordinates":[33.004,45.38597]},"properties":{"id":110014,"name":"Medvedevo","state_code":"43","country_code":"UA"}},{"type":"Feature","geometry":{"type":"Point","coordinates":[34.42012,45.19885]},"properties":{"id":110020,"name":"Mel’nichnoye","state_code":"43","country_code":"UA"}},{"type":"Feature","geometry":{"type":"Point","coordinates":[32.84501,45.58751]},"properties":{"id":110026,"name":"Mezhvodnoye","state_code":"43","country_code":"UA"}},{"type":"Feature","geometry":{"type":"Point","coordinates":[34.70672,45.0743]},"properties":{"id":110027,"name":"Michurinskoye","state_code":"43","country_code":"UA"}},{"type":"Feature","geometry":{"type":"Point","coordinates":[33.61071,45.11325]},"properties":{"id":110028,"name":"Mikhaylovka","state_code":"43","country_code":"UA"}},{"type":"Feature","geometry":{"type":"Point","coordinates":[34.30966,45.69083]},"properties":{"id":110032,"name":"Mirnovka","state_code":"43","country_code":"UA"}},{"type":"Feature","geometry":{"type":"Point","coordinates":[34.0616,44.9833]},"properties":{"id":110033,"name":"Mirnoye","state_code":"43","country_code":"UA"}},{"type":"Feature","geometry":{"type":"Point","coordinates":[33.03501,45.30788]},"properties":{"id":110034,"name":"Mirny","state_code":"43","country_code":"UA"}},{"type":"Feature","geometry":{"type":"Point","coordinates":[34.67883,45.45114]},"properties":{"id":110036,"name":"Mitrofanovka","state_code":"43","country_code":"UA"}},{"type":"Feature","geometry":{"type":"Point","coordinates":[33.7015,45.23423]},"properties":{"id":110037,"name":"Mityayevo","state_code":"43","country_code":"UA"}},{"type":"Feature","geometry":{"type":"Point","coordinates":[33.22233,45.1996]},"properties":{"id":110046,"name":"Molochnoye","state_code":"43","country_code":"UA"}},{"type":"Feature","geometry":{"type":"Point","coordinates":[34.05634,45.00354]},"properties":{"id":110050,"name":"Molodyozhnoye","state_code":"43","country_code":"UA"}},{"type":"Feature","geometry":{"type":"Point","coordinates":[34.80314,44.82593]},"properties":{"id":110053,"name":"Morskoye","state_code":"43","country_code":"UA"}},{"type":"Feature","geometry":{"type":"Point","coordinates":[34.849,45.09051]},"properties":{"id":110061,"name":"Muromskoye","state_code":"43","country_code":"UA"}},{"type":"Feature","geometry":{"type":"Point","coordinates":[34.54316,45.46586]},"properties":{"id":110064,"name":"Muskatnoye","state_code":"43","country_code":"UA"}},{"type":"Feature","geometry":{"type":"Point","coordinates":[35.83528,45.44788]},"properties":{"id":110077,"name":"Mysovoe","state_code":"43","country_code":"UA"}},{"type":"Feature","geometry":{"type":"Point","coordinates":[35.29415,45.05285]},"properties":{"id":110083,"name":"Nasypnoe","state_code":"43","country_code":"UA"}},{"type":"Feature","geometry":{"type":"Point","coordinates":[34.44898,45.27088]},"properties":{"id":110085,"name":"Naydenovka","state_code":"43","country_code":"UA"}},{"type":"Feature","geometry":{"type":"Point","coordinates":[34.98584,45.44085]},"properties":{"id":110088,"name":"Nekrasovka","state_code":"43","country_code":"UA"}},{"type":"Feature","geometry":{"type":"Point","coordinates":[34.28545,45.42453]},"properties":{"id":110089,"name":"Nekrasovo","state_code":"43","country_code":"UA"}},{"type":"Feature","geometry":{"type":"Point","coordinates":[34.2384,44.51564]},"properties":{"id":110095,"name":"Nikita","state_code":"43","country_code":"UA"}},{"type":"Feature","geometry":{"type":"Point","coordinates":[33.61061,44.96213]},"properties":{"id":110096,"name":"Nikolayevka","state_code":"43","country_code":"UA"}},{"type":"Feature","geometry":{"type":"Point","coordinates":[34.73839,45.44789]},"properties":{"id":110099,"name":"Nizhnegorskiy","state_code":"43","country_code":"UA"}},{"type":"Feature","geometry":{"type":"Point","coordinates":[34.76798,45.4843]},"properties":{"id":110100,"name":"Nizhnegorskiy rayon","state_code":"43","country_code":"UA"}},{"type":"Feature","geometry":{"type":"Point","coordinates":[34.09384,45.19904]},"properties":{"id":110118,"name":"Novoandreyevka","state_code":"43","country_code":"UA"}},{"type":"Feature","geometry":{"type":"Point","coordinates":[34.24298,45.4996]},"properties":{"id":110124,"name":"Novoestoniya","state_code":"43","country_code":"UA"}},{"type":"Feature","geometry":{"type":"Point","coordinates":[33.57211,45.09473]},"properties":{"id":110126,"name":"Novofedorovka","state_code":"43","country_code":"UA"}},{"type":"Feature","geometry":{"type":"Point","coordinates":[34.60378,45.452]},"properties":{"id":110127,"name":"Novogrigoryevka","state_code":"43","country_code":"UA"}},{"type":"Feature","geometry":{"type":"Point","coordinates":[33.09833,45.44914]},"properties":{"id":110129,"name":"Novoivanovka","state_code":"43","country_code":"UA"}},{"type":"Feature","geometry":{"type":"Point","coordinates":[34.15543,45.78007]},"properties":{"id":110130,"name":"Novokrymskoye","state_code":"43","country_code":"UA"}},{"type":"Feature","geometry":{"type":"Point","coordinates":[36.05749,45.30855]},"properties":{"id":110136,"name":"Novonikolayevka","state_code":"43","country_code":"UA"}},{"type":"Feature","geometry":{"type":"Point","coordinates":[33.11715,45.38314]},"properties":{"id":110138,"name":"Novoozyornoye","state_code":"43","country_code":"UA"}},{"type":"Feature","geometry":{"type":"Point","coordinates":[33.89018,45.86634]},"properties":{"id":110139,"name":"Novopavlovka","state_code":"43","country_code":"UA"}},{"type":"Feature","geometry":{"type":"Point","coordinates":[35.25304,45.16517]},"properties":{"id":110140,"name":"Novopokrovka","state_code":"43","country_code":"UA"}},{"type":"Feature","geometry":{"type":"Point","coordinates":[32.7225,45.50357]},"properties":{"id":110147,"name":"Novosel’skoye","state_code":"43","country_code":"UA"}},{"type":"Feature","geometry":{"type":"Point","coordinates":[33.59795,45.44276]},"properties":{"id":110144,"name":"Novoselovskoye","state_code":"43","country_code":"UA"}},{"type":"Feature","geometry":{"type":"Point","coordinates":[34.387,45.66206]},"properties":{"id":110148,"name":"Novostepnoye","state_code":"43","country_code":"UA"}},{"type":"Feature","geometry":{"type":"Point","coordinates":[33.83525,44.99377]},"properties":{"id":110149,"name":"Novosyolovka","state_code":"43","country_code":"UA"}},{"type":"Feature","geometry":{"type":"Point","coordinates":[34.2327,45.1596]},"properties":{"id":110155,"name":"Novozhilovka","state_code":"43","country_code":"UA"}},{"type":"Feature","geometry":{"type":"Point","coordinates":[34.9137,44.83087]},"properties":{"id":110156,"name":"Novy Svet","state_code":"43","country_code":"UA"}},{"type":"Feature","geometry":{"type":"Point","coordinates":[33.59405,45.23985]},"properties":{"id":110178,"name":"Okhotnikovo","state_code":"43","country_code":"UA"}},{"type":"Feature","geometry":{"type":"Point","coordinates":[34.86401,45.48612]},"properties":{"id":110179,"name":"Okhotskoye","state_code":"43","country_code":"UA"}},{"type":"Feature","geometry":{"type":"Point","coordinates":[36.36803,45.36215]},"properties":{"id":110182,"name":"Oktyabr'skoye","state_code":"43","country_code":"UA"}},{"type":"Feature","geometry":{"type":"Point","coordinates":[34.13521,45.28866]},"properties":{"id":110183,"name":"Oktyabr’skoye","state_code":"43","country_code":"UA"}},{"type":"Feature","geometry":{"type":"Point","coordinates":[32.76357,45.36855]},"properties":{"id":110184,"name":"Okunevka","state_code":"43","country_code":"UA"}},{"type":"Feature","geometry":{"type":"Point","coordinates":[32.53333,45.38333]},"properties":{"id":110191,"name":"Olenevka","state_code":"43","country_code":"UA"}},{"type":"Feature","geometry":{"type":"Point","coordinates":[35.35576,44.96401]},"properties":{"id":110201,"name":"Ordzhonikidze","state_code":"43","country_code":"UA"}},{"type":"Feature","geometry":{"type":"Point","coordinates":[33.6318,45.12944]},"properties":{"id":110202,"name":"Orekhovo","state_code":"43","country_code":"UA"}},{"type":"Feature","geometry":{"type":"Point","coordinates":[33.97308,45.8107]},"properties":{"id":110204,"name":"Orlovskoye","state_code":"43","country_code":"UA"}},{"type":"Feature","geometry":{"type":"Point","coordinates":[35.91295,45.32731]},"properties":{"id":110206,"name":"Ostanino","state_code":"43","country_code":"UA"}},{"type":"Feature","geometry":{"type":"Point","coordinates":[34.06607,45.74232]},"properties":{"id":110209,"name":"Ostrovskoye","state_code":"43","country_code":"UA"}},{"type":"Feature","geometry":{"type":"Point","coordinates":[34.16129,45.83472]},"properties":{"id":110220,"name":"Pakharevka","state_code":"43","country_code":"UA"}},{"type":"Feature","geometry":{"type":"Point","coordinates":[34.34464,44.578]},"properties":{"id":110223,"name":"Partenit","state_code":"43","country_code":"UA"}},{"type":"Feature","geometry":{"type":"Point","coordinates":[34.08465,44.83379]},"properties":{"id":110224,"name":"Partizanskoye","state_code":"43","country_code":"UA"}},{"type":"Feature","geometry":{"type":"Point","coordinates":[35.15509,45.14373]},"properties":{"id":110225,"name":"Partizany","state_code":"43","country_code":"UA"}},{"type":"Feature","geometry":{"type":"Point","coordinates":[34.31271,44.84838]},"properties":{"id":110243,"name":"Pereval'noye","state_code":"43","country_code":"UA"}},{"type":"Feature","geometry":{"type":"Point","coordinates":[34.05753,44.92513]},"properties":{"id":110245,"name":"Perovo","state_code":"43","country_code":"UA"}},{"type":"Feature","geometry":{"type":"Point","coordinates":[33.83249,45.59825]},"properties":{"id":110248,"name":"Pervomayskiy rayon","state_code":"43","country_code":"UA"}},{"type":"Feature","geometry":{"type":"Point","coordinates":[33.85596,45.71744]},"properties":{"id":110249,"name":"Pervomayskoye","state_code":"43","country_code":"UA"}},{"type":"Feature","geometry":{"type":"Point","coordinates":[33.60921,44.84342]},"properties":{"id":110254,"name":"Peschanoye","state_code":"43","country_code":"UA"}},{"type":"Feature","geometry":{"type":"Point","coordinates":[34.28816,45.49776]},"properties":{"id":110260,"name":"Petrovka","state_code":"43","country_code":"UA"}},{"type":"Feature","geometry":{"type":"Point","coordinates":[34.20194,44.88083]},"properties":{"id":110272,"name":"Pionerskoye","state_code":"43","country_code":"UA"}},{"type":"Feature","geometry":{"type":"Point","coordinates":[33.85615,44.87156]},"properties":{"id":110277,"name":"Plodovoye","state_code":"43","country_code":"UA"}},{"type":"Feature","geometry":{"type":"Point","coordinates":[34.44805,45.70109]},"properties":{"id":110280,"name":"Pobednoye","state_code":"43","country_code":"UA"}},{"type":"Feature","geometry":{"type":"Point","coordinates":[33.76588,45.99495]},"properties":{"id":110283,"name":"Pochetnoye","state_code":"43","country_code":"UA"}},{"type":"Feature","geometry":{"type":"Point","coordinates":[34.18371,45.35133]},"properties":{"id":110295,"name":"Poltavka","state_code":"43","country_code":"UA"}},{"type":"Feature","geometry":{"type":"Point","coordinates":[33.96159,44.8354]},"properties":{"id":110305,"name":"Poshtove","state_code":"43","country_code":"UA"}},{"type":"Feature","geometry":{"type":"Point","coordinates":[33.87109,44.93554]},"properties":{"id":110307,"name":"Pozharskoye","state_code":"43","country_code":"UA"}},{"type":"Feature","geometry":{"type":"Point","coordinates":[33.84649,45.77903]},"properties":{"id":110308,"name":"Pravda","state_code":"43","country_code":"UA"}},{"type":"Feature","geometry":{"type":"Point","coordinates":[35.48025,45.11904]},"properties":{"id":110310,"name":"Primorskiy","state_code":"43","country_code":"UA"}},{"type":"Feature","geometry":{"type":"Point","coordinates":[36.33405,45.2699]},"properties":{"id":110311,"name":"Priozyornoye","state_code":"43","country_code":"UA"}},{"type":"Feature","geometry":{"type":"Point","coordinates":[35.0596,45.11969]},"properties":{"id":110312,"name":"Privetnoye","state_code":"43","country_code":"UA"}},{"type":"Feature","geometry":{"type":"Point","coordinates":[34.69837,45.65597]},"properties":{"id":110314,"name":"Prostornoye","state_code":"43","country_code":"UA"}},{"type":"Feature","geometry":{"type":"Point","coordinates":[33.78114,44.90424]},"properties":{"id":110315,"name":"Prudovoye","state_code":"43","country_code":"UA"}},{"type":"Feature","geometry":{"type":"Point","coordinates":[34.70217,45.23922]},"properties":{"id":110316,"name":"Prudy","state_code":"43","country_code":"UA"}},{"type":"Feature","geometry":{"type":"Point","coordinates":[34.83767,45.64627]},"properties":{"id":110326,"name":"Pshenichnoye","state_code":"43","country_code":"UA"}},{"type":"Feature","geometry":{"type":"Point","coordinates":[34.97642,45.20373]},"properties":{"id":110329,"name":"Pushkino","state_code":"43","country_code":"UA"}},{"type":"Feature","geometry":{"type":"Point","coordinates":[34.25516,45.32347]},"properties":{"id":110333,"name":"Pyatikhatka","state_code":"43","country_code":"UA"}},{"type":"Feature","geometry":{"type":"Point","coordinates":[33.44075,45.67086]},"properties":{"id":110348,"name":"Razdol’nenskiy rayon","state_code":"43","country_code":"UA"}},{"type":"Feature","geometry":{"type":"Point","coordinates":[33.48777,45.77083]},"properties":{"id":110349,"name":"Razdol’noye","state_code":"43","country_code":"UA"}},{"type":"Feature","geometry":{"type":"Point","coordinates":[33.95407,45.04296]},"properties":{"id":110358,"name":"Rodnikovo","state_code":"43","country_code":"UA"}},{"type":"Feature","geometry":{"type":"Point","coordinates":[33.25517,45.25647]},"properties":{"id":110367,"name":"Romashkino","state_code":"43","country_code":"UA"}},{"type":"Feature","geometry":{"type":"Point","coordinates":[34.37992,45.60916]},"properties":{"id":110371,"name":"Roshchino","state_code":"43","country_code":"UA"}},{"type":"Feature","geometry":{"type":"Point","coordinates":[34.11552,45.65187]},"properties":{"id":110372,"name":"Roskoshnoye","state_code":"43","country_code":"UA"}},{"type":"Feature","geometry":{"type":"Point","coordinates":[34.3523,45.35134]},"properties":{"id":110375,"name":"Rovnoye","state_code":"43","country_code":"UA"}},{"type":"Feature","geometry":{"type":"Point","coordinates":[33.66093,45.78564]},"properties":{"id":110389,"name":"Ruch’i","state_code":"43","country_code":"UA"}},{"type":"Feature","geometry":{"type":"Point","coordinates":[34.47458,45.12369]},"properties":{"id":110392,"name":"Rusakovka","state_code":"43","country_code":"UA"}},{"type":"Feature","geometry":{"type":"Point","coordinates":[34.59609,44.77331]},"properties":{"id":110395,"name":"Rybach'e","state_code":"43","country_code":"UA"}},{"type":"Feature","geometry":{"type":"Point","coordinates":[34.6526,45.31037]},"properties":{"id":110399,"name":"Sadovoye","state_code":"43","country_code":"UA"}},{"type":"Feature","geometry":{"type":"Point","coordinates":[33.59996,45.13424]},"properties":{"id":110402,"name":"Saki","state_code":"43","country_code":"UA"}},{"type":"Feature","geometry":{"type":"Point","coordinates":[33.52911,45.27799]},"properties":{"id":110403,"name":"Sakskiy rayon","state_code":"43","country_code":"UA"}},{"type":"Feature","geometry":{"type":"Point","coordinates":[33.78728,45.57142]},"properties":{"id":110409,"name":"Sary-Bash","state_code":"43","country_code":"UA"}},{"type":"Feature","geometry":{"type":"Point","coordinates":[35.565,45.24676]},"properties":{"id":110416,"name":"Semisotka","state_code":"43","country_code":"UA"}},{"type":"Feature","geometry":{"type":"Point","coordinates":[33.51552,45.73277]},"properties":{"id":110418,"name":"Senokosnoye","state_code":"43","country_code":"UA"}},{"type":"Feature","geometry":{"type":"Point","coordinates":[33.49632,45.63937]},"properties":{"id":110421,"name":"Serebryanka","state_code":"43","country_code":"UA"}},{"type":"Feature","geometry":{"type":"Point","coordinates":[35.158,44.93821]},"properties":{"id":110434,"name":"Shchebetovka","state_code":"43","country_code":"UA"}},{"type":"Feature","geometry":{"type":"Point","coordinates":[35.8225,45.42985]},"properties":{"id":110437,"name":"Shchyolkino","state_code":"43","country_code":"UA"}},{"type":"Feature","geometry":{"type":"Point","coordinates":[33.68807,45.18748]},"properties":{"id":110439,"name":"Shelkovichnoye","state_code":"43","country_code":"UA"}},{"type":"Feature","geometry":{"type":"Point","coordinates":[34.05069,45.20029]},"properties":{"id":110446,"name":"Shirokoye","state_code":"43","country_code":"UA"}},{"type":"Feature","geometry":{"type":"Point","coordinates":[33.89737,45.05758]},"properties":{"id":110448,"name":"Shkol’noye","state_code":"43","country_code":"UA"}},{"type":"Feature","geometry":{"type":"Point","coordinates":[33.08693,45.26717]},"properties":{"id":110452,"name":"Shtormovoye","state_code":"43","country_code":"UA"}},{"type":"Feature","geometry":{"type":"Point","coordinates":[34.00704,44.40646]},"properties":{"id":110459,"name":"Simeiz","state_code":"43","country_code":"UA"}},{"type":"Feature","geometry":{"type":"Point","coordinates":[34.11079,44.95719]},"properties":{"id":110461,"name":"Simferopol","state_code":"43","country_code":"UA"}},{"type":"Feature","geometry":{"type":"Point","coordinates":[34.10225,44.9569]},"properties":{"id":110462,"name":"Simferopol Raion","state_code":"43","country_code":"UA"}},{"type":"Feature","geometry":{"type":"Point","coordinates":[35.24659,45.23862]},"properties":{"id":110463,"name":"Sinitsyno","state_code":"43","country_code":"UA"}},{"type":"Feature","geometry":{"type":"Point","coordinates":[33.87669,45.34892]},"properties":{"id":110465,"name":"Sizovka","state_code":"43","country_code":"UA"}},{"type":"Feature","geometry":{"type":"Point","coordinates":[33.97791,44.81686]},"properties":{"id":110469,"name":"Skalistoye","state_code":"43","country_code":"UA"}},{"type":"Feature","geometry":{"type":"Point","coordinates":[33.82084,45.07542]},"properties":{"id":110473,"name":"Skvortsovo","state_code":"43","country_code":"UA"}},{"type":"Feature","geometry":{"type":"Point","coordinates":[33.23689,45.72176]},"properties":{"id":110477,"name":"Slavnoye","state_code":"43","country_code":"UA"}},{"type":"Feature","geometry":{"type":"Point","coordinates":[33.32165,45.72768]},"properties":{"id":110481,"name":"Slavyanskoye","state_code":"43","country_code":"UA"}},{"type":"Feature","geometry":{"type":"Point","coordinates":[33.99887,45.08985]},"properties":{"id":110497,"name":"Sofiivka","state_code":"43","country_code":"UA"}},{"type":"Feature","geometry":{"type":"Point","coordinates":[33.95897,44.55041]},"properties":{"id":110501,"name":"Sokolinoye","state_code":"43","country_code":"UA"}},{"type":"Feature","geometry":{"type":"Point","coordinates":[35.10622,44.87185]},"properties":{"id":110504,"name":"Solnechnaya Dolina","state_code":"43","country_code":"UA"}},{"type":"Feature","geometry":{"type":"Point","coordinates":[34.53999,44.74722]},"properties":{"id":110505,"name":"Solnechnogorskoye","state_code":"43","country_code":"UA"}},{"type":"Feature","geometry":{"type":"Point","coordinates":[34.0838,45.04767]},"properties":{"id":110506,"name":"Solnechnoye","state_code":"43","country_code":"UA"}},{"type":"Feature","geometry":{"type":"Point","coordinates":[34.92463,45.34267]},"properties":{"id":110517,"name":"Sovetskiy","state_code":"43","country_code":"UA"}},{"type":"Feature","geometry":{"type":"Point","coordinates":[34.92914,45.31516]},"properties":{"id":110518,"name":"Sovietskyi","state_code":"43","country_code":"UA"}},{"type":"Feature","geometry":{"type":"Point","coordinates":[33.77155,45.96005]},"properties":{"id":110519,"name":"Sovkhoznoye","state_code":"43","country_code":"UA"}},{"type":"Feature","geometry":{"type":"Point","coordinates":[33.94883,45.37062]},"properties":{"id":110523,"name":"Stakhanovka","state_code":"43","country_code":"UA"}},{"type":"Feature","geometry":{"type":"Point","coordinates":[34.56238,45.70814]},"properties":{"id":110524,"name":"Stal’noye","state_code":"43","country_code":"UA"}},{"type":"Feature","geometry":{"type":"Point","coordinates":[35.09174,45.02887]},"properties":{"id":110536,"name":"Stary Krym","state_code":"43","country_code":"UA"}},{"type":"Feature","geometry":{"type":"Point","coordinates":[33.77441,45.65212]},"properties":{"id":110549,"name":"Stepnoye","state_code":"43","country_code":"UA"}},{"type":"Feature","geometry":{"type":"Point","coordinates":[33.49584,45.3627]},"properties":{"id":110553,"name":"Stolbovoye","state_code":"43","country_code":"UA"}},{"type":"Feature","geometry":{"type":"Point","coordinates":[34.17924,44.9497]},"properties":{"id":110556,"name":"Strogonovka","state_code":"43","country_code":"UA"}},{"type":"Feature","geometry":{"type":"Point","coordinates":[34.97471,44.84924]},"properties":{"id":110560,"name":"Sudak","state_code":"43","country_code":"UA"}},{"type":"Feature","geometry":{"type":"Point","coordinates":[33.69854,45.49898]},"properties":{"id":110565,"name":"Susanino","state_code":"43","country_code":"UA"}},{"type":"Feature","geometry":{"type":"Point","coordinates":[33.688,46.08865]},"properties":{"id":110567,"name":"Suvorovo","state_code":"43","country_code":"UA"}},{"type":"Feature","geometry":{"type":"Point","coordinates":[33.37194,45.25171]},"properties":{"id":110568,"name":"Suvorovskoye","state_code":"43","country_code":"UA"}},{"type":"Feature","geometry":{"type":"Point","coordinates":[34.66264,45.6332]},"properties":{"id":110576,"name":"Svetloye","state_code":"43","country_code":"UA"}},{"type":"Feature","geometry":{"type":"Point","coordinates":[33.67638,44.90175]},"properties":{"id":110586,"name":"Tabachnoye","state_code":"43","country_code":"UA"}},{"type":"Feature","geometry":{"type":"Point","coordinates":[33.80929,44.65829]},"properties":{"id":110588,"name":"Tankovoye","state_code":"43","country_code":"UA"}},{"type":"Feature","geometry":{"type":"Point","coordinates":[33.66812,44.74303]},"properties":{"id":110596,"name":"Tenistoye","state_code":"43","country_code":"UA"}},{"type":"Feature","geometry":{"type":"Point","coordinates":[33.69588,45.03239]},"properties":{"id":110599,"name":"Teplovka","state_code":"43","country_code":"UA"}},{"type":"Feature","geometry":{"type":"Point","coordinates":[35.15244,45.28367]},"properties":{"id":110610,"name":"Tokarevo","state_code":"43","country_code":"UA"}},{"type":"Feature","geometry":{"type":"Point","coordinates":[34.20311,44.99133]},"properties":{"id":110622,"name":"Trudovoye","state_code":"43","country_code":"UA"}},{"type":"Feature","geometry":{"type":"Point","coordinates":[34.18063,45.90633]},"properties":{"id":110628,"name":"Tselinnoye","state_code":"43","country_code":"UA"}},{"type":"Feature","geometry":{"type":"Point","coordinates":[34.38521,45.08655]},"properties":{"id":110630,"name":"Tsvetochnoye","state_code":"43","country_code":"UA"}},{"type":"Feature","geometry":{"type":"Point","coordinates":[33.83007,44.69747]},"properties":{"id":110638,"name":"Turgenevka","state_code":"43","country_code":"UA"}},{"type":"Feature","geometry":{"type":"Point","coordinates":[33.60452,44.82146]},"properties":{"id":110648,"name":"Uglovoye","state_code":"43","country_code":"UA"}},{"type":"Feature","geometry":{"type":"Point","coordinates":[34.13973,44.8873]},"properties":{"id":110652,"name":"Ukrainka","state_code":"43","country_code":"UA"}},{"type":"Feature","geometry":{"type":"Point","coordinates":[34.00312,45.04272]},"properties":{"id":110653,"name":"Ukromnoye","state_code":"43","country_code":"UA"}},{"type":"Feature","geometry":{"type":"Point","coordinates":[34.13511,45.04522]},"properties":{"id":110658,"name":"Urozhaynoye","state_code":"43","country_code":"UA"}},{"type":"Feature","geometry":{"type":"Point","coordinates":[34.78812,45.45108]},"properties":{"id":110664,"name":"Uvarovka","state_code":"43","country_code":"UA"}},{"type":"Feature","geometry":{"type":"Point","coordinates":[35.66506,45.2626]},"properties":{"id":110665,"name":"Uvarovo","state_code":"43","country_code":"UA"}},{"type":"Feature","geometry":{"type":"Point","coordinates":[33.29796,45.19769]},"properties":{"id":110666,"name":"Uyutnoye","state_code":"43","country_code":"UA"}},{"type":"Feature","geometry":{"type":"Point","coordinates":[34.72291,45.13938]},"properties":{"id":110676,"name":"Vasilyevka","state_code":"43","country_code":"UA"}},{"type":"Feature","geometry":{"type":"Point","coordinates":[33.50004,45.30551]},"properties":{"id":110703,"name":"Veresayevo","state_code":"43","country_code":"UA"}},{"type":"Feature","geometry":{"type":"Point","coordinates":[33.98696,44.69738]},"properties":{"id":110711,"name":"Verkhorechye","state_code":"43","country_code":"UA"}},{"type":"Feature","geometry":{"type":"Point","coordinates":[34.87952,44.85807]},"properties":{"id":110714,"name":"Vesele","state_code":"43","country_code":"UA"}},{"type":"Feature","geometry":{"type":"Point","coordinates":[33.21385,45.37733]},"properties":{"id":110715,"name":"Veselovka","state_code":"43","country_code":"UA"}},{"type":"Feature","geometry":{"type":"Point","coordinates":[33.67161,44.8456]},"properties":{"id":110717,"name":"Vilino","state_code":"43","country_code":"UA"}},{"type":"Feature","geometry":{"type":"Point","coordinates":[33.7392,44.98129]},"properties":{"id":110721,"name":"Vinnitskoye","state_code":"43","country_code":"UA"}},{"type":"Feature","geometry":{"type":"Point","coordinates":[34.12973,44.48149]},"properties":{"id":110723,"name":"Vinogradnoye","state_code":"43","country_code":"UA"}},{"type":"Feature","geometry":{"type":"Point","coordinates":[33.64668,45.39264]},"properties":{"id":110724,"name":"Vinogradovo","state_code":"43","country_code":"UA"}},{"type":"Feature","geometry":{"type":"Point","coordinates":[34.59691,45.14509]},"properties":{"id":110725,"name":"Vishennoye","state_code":"43","country_code":"UA"}},{"type":"Feature","geometry":{"type":"Point","coordinates":[33.95289,45.95966]},"properties":{"id":110726,"name":"Vishnyovka","state_code":"43","country_code":"UA"}},{"type":"Feature","geometry":{"type":"Point","coordinates":[33.57583,45.1476]},"properties":{"id":110728,"name":"Vladimirovka","state_code":"43","country_code":"UA"}},{"type":"Feature","geometry":{"type":"Point","coordinates":[35.37658,45.16828]},"properties":{"id":110729,"name":"Vladislavovka","state_code":"43","country_code":"UA"}},{"type":"Feature","geometry":{"type":"Point","coordinates":[33.99138,45.8699]},"properties":{"id":110731,"name":"Voinka","state_code":"43","country_code":"UA"}},{"type":"Feature","geometry":{"type":"Point","coordinates":[34.3036,45.5657]},"properties":{"id":110739,"name":"Vol’noye","state_code":"43","country_code":"UA"}},{"type":"Feature","geometry":{"type":"Point","coordinates":[33.24654,45.32895]},"properties":{"id":110740,"name":"Vorobyovo","state_code":"43","country_code":"UA"}},{"type":"Feature","geometry":{"type":"Point","coordinates":[34.39355,45.50999]},"properties":{"id":110746,"name":"Voskhod","state_code":"43","country_code":"UA"}},{"type":"Feature","geometry":{"type":"Point","coordinates":[36.43739,45.38329]},"properties":{"id":110748,"name":"Voykovo","state_code":"43","country_code":"UA"}},{"type":"Feature","geometry":{"type":"Point","coordinates":[34.16624,44.50218]},"properties":{"id":110778,"name":"Yalta","state_code":"43","country_code":"UA"}},{"type":"Feature","geometry":{"type":"Point","coordinates":[34.22134,45.43473]},"properties":{"id":110782,"name":"Yantarnoye","state_code":"43","country_code":"UA"}},{"type":"Feature","geometry":{"type":"Point","coordinates":[34.26323,45.6912]},"properties":{"id":110785,"name":"Yarkoye","state_code":"43","country_code":"UA"}},{"type":"Feature","geometry":{"type":"Point","coordinates":[35.19848,45.20581]},"properties":{"id":110786,"name":"Yarkoye Pole","state_code":"43","country_code":"UA"}},{"type":"Feature","geometry":{"type":"Point","coordinates":[34.35262,45.94097]},"properties":{"id":110789,"name":"Yasnopolyanskoye","state_code":"43","country_code":"UA"}},{"type":"Feature","geometry":{"type":"Point","coordinates":[34.89624,45.53287]},"properties":{"id":110794,"name":"Yemelyanovka","state_code":"43","country_code":"UA"}},{"type":"Feature","geometry":{"type":"Point","coordinates":[34.48644,45.85364]},"properties":{"id":110798,"name":"Yermakovo","state_code":"43","country_code":"UA"}},{"type":"Feature","geometry":{"type":"Point","coordinates":[33.36655,45.20091]},"properties":{"id":110800,"name":"Yevpatoriya","state_code":"43","country_code":"UA"}},{"type":"Feature","geometry":{"type":"Point","coordinates":[34.10168,44.88687]},"properties":{"id":110813,"name":"Zalesye","state_code":"43","country_code":"UA"}},{"type":"Feature","geometry":{"type":"Point","coordinates":[33.27866,45.15816]},"properties":{"id":110819,"name":"Zaozyornoye","state_code":"43","country_code":"UA"}},{"type":"Feature","geometry":{"type":"Point","coordinates":[34.26426,44.85048]},"properties":{"id":110822,"name":"Zarechnoye","state_code":"43","country_code":"UA"}},{"type":"Feature","geometry":{"type":"Point","coordinates":[34.3916,45.86258]},"properties":{"id":110829,"name":"Zavet-Leninskiy","state_code":"43","country_code":"UA"}},{"type":"Feature","geometry":{"type":"Point","coordinates":[34.80837,45.32697]},"properties":{"id":110830,"name":"Zavetnoye","state_code":"43","country_code":"UA"}},{"type":"Feature","geometry":{"type":"Point","coordinates":[34.46848,45.01249]},"properties":{"id":110835,"name":"Zelenogorskoye","state_code":"43","country_code":"UA"}},{"type":"Feature","geometry":{"type":"Point","coordinates":[34.00921,44.59583]},"properties":{"id":110836,"name":"Zelyonoye","state_code":"43","country_code":"UA"}},{"type":"Feature","geometry":{"type":"Point","coordinates":[34.83553,44.97444]},"properties":{"id":110837,"name":"Zemlyanichnoye","state_code":"43","country_code":"UA"}},{"type":"Feature","geometry":{"type":"Point","coordinates":[34.48099,45.32364]},"properties":{"id":110838,"name":"Zernovoye","state_code":"43","country_code":"UA"}},{"type":"Feature","geometry":{"type":"Point","coordinates":[33.80417,44.7171]},"properties":{"id":110841,"name":"Zheleznodorozhnoye","state_code":"43","country_code":"UA"}},{"type":"Feature","geometry":{"type":"Point","coordinates":[34.75776,45.39877]},"properties":{"id":110842,"name":"Zhelyabovka","state_code":"43","country_code":"UA"}},{"type":"Feature","geometry":{"type":"Point","coordinates":[34.65778,45.27466]},"properties":{"id":110843,"name":"Zhemchuzhina","state_code":"43","country_code":"UA"}},{"type":"Feature","geometry":{"type":"Point","coordinates":[35.21513,45.12629]},"properties":{"id":110848,"name":"Zhuravki","state_code":"43","country_code":"UA"}},{"type":"Feature","geometry":{"type":"Point","coordinates":[33.64104,45.25246]},"properties":{"id":110849,"name":"Zhuravli","state_code":"43","country_code":"UA"}},{"type":"Feature","geometry":{"type":"Point","coordinates":[33.9968,45.1768]},"properties":{"id":110850,"name":"Zhuravlyovka","state_code":"43","country_code":"UA"}},{"type":"Feature","geometry":{"type":"Point","coordinates":[33.51431,45.50797]},"properties":{"id":110855,"name":"Zimino","state_code":"43","country_code":"UA"}},{"type":"Feature","geometry":{"type":"Point","coordinates":[34.99148,45.12774]},"properties":{"id":110862,"name":"Zolotoye Pole","state_code":"43","country_code":"UA"}},{"type":"Feature","geometry":{"type":"Point","coordinates":[34.71028,45.54762]},"properties":{"id":110864,"name":"Zorkino","state_code":"43","country_code":"UA"}},{"type":"Feature","geometry":{"type":"Point","coordinates":[34.32152,45.05418]},"properties":{"id":110868,"name":"Zuya","state_code":"43","country_code":"UA"}},{"type":"Feature","geometry":{"type":"Point","coordinates":[34.64987,45.23674]},"properties":{"id":110870,"name":"Zybiny","state_code":"43","country_code":"UA"}}]}