{"type":"FeatureCollection","features":[{"type":"Feature","geometry":{"type":"Point","coordinates":[25.77059,49.029]},"properties":{"id":109362,"name":"Belaya","state_code":"61","country_code":"UA"}},{"type":"Feature","geometry":{"type":"Point","coordinates":[26.04347,48.80332]},"properties":{"id":109434,"name":"Borshchiv","state_code":"61","country_code":"UA"}},{"type":"Feature","geometry":{"type":"Point","coordinates":[25.38798,49.06254]},"properties":{"id":109457,"name":"Buchach","state_code":"61","country_code":"UA"}},{"type":"Feature","geometry":{"type":"Point","coordinates":[25.79804,49.01709]},"properties":{"id":109517,"name":"Chortkiv","state_code":"61","country_code":"UA"}},{"type":"Feature","geometry":{"type":"Point","coordinates":[25.45055,49.04251]},"properties":{"id":109579,"name":"Druzhba","state_code":"61","country_code":"UA"}},{"type":"Feature","geometry":{"type":"Point","coordinates":[26.01112,49.33208]},"properties":{"id":109657,"name":"Hrymayliv","state_code":"61","country_code":"UA"}},{"type":"Feature","geometry":{"type":"Point","coordinates":[26.1848,49.0729]},"properties":{"id":109662,"name":"Husiatyn","state_code":"61","country_code":"UA"}},{"type":"Feature","geometry":{"type":"Point","coordinates":[25.92165,49.21114]},"properties":{"id":109738,"name":"Khorostkiv","state_code":"61","country_code":"UA"}},{"type":"Feature","geometry":{"type":"Point","coordinates":[25.91026,49.10441]},"properties":{"id":109793,"name":"Kopychyntsi","state_code":"61","country_code":"UA"}},{"type":"Feature","geometry":{"type":"Point","coordinates":[25.15086,49.43544]},"properties":{"id":109826,"name":"Kozova","state_code":"61","country_code":"UA"}},{"type":"Feature","geometry":{"type":"Point","coordinates":[25.72459,50.09693]},"properties":{"id":109858,"name":"Kremenets","state_code":"61","country_code":"UA"}},{"type":"Feature","geometry":{"type":"Point","coordinates":[26.09082,49.86328]},"properties":{"id":109904,"name":"Lanivtsi","state_code":"61","country_code":"UA"}},{"type":"Feature","geometry":{"type":"Point","coordinates":[25.60518,49.396]},"properties":{"id":110029,"name":"Mikulintsy","state_code":"61","country_code":"UA"}},{"type":"Feature","geometry":{"type":"Point","coordinates":[25.59989,48.81492]},"properties":{"id":110163,"name":"Nyrkiv","state_code":"61","country_code":"UA"}},{"type":"Feature","geometry":{"type":"Point","coordinates":[25.32895,49.62891]},"properties":{"id":110216,"name":"Ozerna","state_code":"61","country_code":"UA"}},{"type":"Feature","geometry":{"type":"Point","coordinates":[25.57901,49.53122]},"properties":{"id":110256,"name":"Petrikov","state_code":"61","country_code":"UA"}},{"type":"Feature","geometry":{"type":"Point","coordinates":[25.13341,49.26853]},"properties":{"id":110265,"name":"Pidhaytsi","state_code":"61","country_code":"UA"}},{"type":"Feature","geometry":{"type":"Point","coordinates":[26.14585,49.53472]},"properties":{"id":110270,"name":"Pidvolochysk","state_code":"61","country_code":"UA"}},{"type":"Feature","geometry":{"type":"Point","coordinates":[25.51183,50.00509]},"properties":{"id":110282,"name":"Pochaiv","state_code":"61","country_code":"UA"}},{"type":"Feature","geometry":{"type":"Point","coordinates":[26.19909,48.85149]},"properties":{"id":110467,"name":"Skala-Podil’s’ka","state_code":"61","country_code":"UA"}},{"type":"Feature","geometry":{"type":"Point","coordinates":[25.97869,49.42732]},"properties":{"id":110468,"name":"Skalat","state_code":"61","country_code":"UA"}},{"type":"Feature","geometry":{"type":"Point","coordinates":[25.70997,49.30187]},"properties":{"id":110601,"name":"Terebovlya","state_code":"61","country_code":"UA"}},{"type":"Feature","geometry":{"type":"Point","coordinates":[25.58918,49.55342]},"properties":{"id":110602,"name":"Ternopil","state_code":"61","country_code":"UA"}},{"type":"Feature","geometry":{"type":"Point","coordinates":[25.72621,48.84663]},"properties":{"id":110619,"name":"Tovste","state_code":"61","country_code":"UA"}},{"type":"Feature","geometry":{"type":"Point","coordinates":[25.75753,49.52363]},"properties":{"id":110682,"name":"Velikiye Borki","state_code":"61","country_code":"UA"}},{"type":"Feature","geometry":{"type":"Point","coordinates":[25.74375,48.94248]},"properties":{"id":110772,"name":"Yahil’nytsya","state_code":"61","country_code":"UA"}},{"type":"Feature","geometry":{"type":"Point","coordinates":[25.73794,48.64331]},"properties":{"id":110814,"name":"Zalishchyky","state_code":"61","country_code":"UA"}},{"type":"Feature","geometry":{"type":"Point","coordinates":[25.37297,49.79188]},"properties":{"id":110818,"name":"Zaliztsi","state_code":"61","country_code":"UA"}},{"type":"Feature","geometry":{"type":"Point","coordinates":[25.77616,49.66357]},"properties":{"id":110831,"name":"Zbarazh","state_code":"61","country_code":"UA"}},{"type":"Feature","geometry":{"type":"Point","coordinates":[25.14097,49.66484]},"properties":{"id":110832,"name":"Zboriv","state_code":"61","country_code":"UA"}},{"type":"Feature","geometry":{"type":"Point","coordinates":[25.33926,48.9095]},"properties":{"id":110863,"name":"Zolotyy Potik","state_code":"61","country_code":"UA"}},{"type":"Feature","geometry":{"type":"Point","coordinates":[24.93333,49.45]},"properties":{"id":110873,"name":"Бережани","state_code":"61","country_code":"UA"}}]}