{"type":"FeatureCollection","features":[{"type":"Feature","geometry":{"type":"Point","coordinates":[30.06469,0.71117]},"properties":{"id":110883,"name":"Bundibugyo","state_code":"W","country_code":"UG"}},{"type":"Feature","geometry":{"type":"Point","coordinates":[30.62861,-0.59167]},"properties":{"id":110889,"name":"Bwizibwera","state_code":"W","country_code":"UG"}},{"type":"Feature","geometry":{"type":"Point","coordinates":[30.2748,0.66174]},"properties":{"id":110892,"name":"Fort Portal","state_code":"W","country_code":"UG"}},{"type":"Feature","geometry":{"type":"Point","coordinates":[31.35241,1.43314]},"properties":{"id":110895,"name":"Hoima","state_code":"W","country_code":"UG"}},{"type":"Feature","geometry":{"type":"Point","coordinates":[30.49616,-0.13398]},"properties":{"id":110896,"name":"Ibanda","state_code":"W","country_code":"UG"}},{"type":"Feature","geometry":{"type":"Point","coordinates":[30.556,-0.081]},"properties":{"id":110897,"name":"Ibanda District","state_code":"W","country_code":"UG"}},{"type":"Feature","geometry":{"type":"Point","coordinates":[29.98993,-1.24857]},"properties":{"id":110900,"name":"Kabale","state_code":"W","country_code":"UG"}},{"type":"Feature","geometry":{"type":"Point","coordinates":[30.80889,0.93778]},"properties":{"id":110901,"name":"Kagadi","state_code":"W","country_code":"UG"}},{"type":"Feature","geometry":{"type":"Point","coordinates":[30.45393,0.1866]},"properties":{"id":110906,"name":"Kamwenge","state_code":"W","country_code":"UG"}},{"type":"Feature","geometry":{"type":"Point","coordinates":[29.78972,-0.9575]},"properties":{"id":110908,"name":"Kanungu","state_code":"W","country_code":"UG"}},{"type":"Feature","geometry":{"type":"Point","coordinates":[30.08333,0.18333]},"properties":{"id":110910,"name":"Kasese","state_code":"W","country_code":"UG"}},{"type":"Feature","geometry":{"type":"Point","coordinates":[31.06667,0.8]},"properties":{"id":110912,"name":"Kibale","state_code":"W","country_code":"UG"}},{"type":"Feature","geometry":{"type":"Point","coordinates":[31.3089,1.6162]},"properties":{"id":110915,"name":"Kigorobya","state_code":"W","country_code":"UG"}},{"type":"Feature","geometry":{"type":"Point","coordinates":[30.01302,0.19835]},"properties":{"id":110916,"name":"Kilembe","state_code":"W","country_code":"UG"}},{"type":"Feature","geometry":{"type":"Point","coordinates":[30.84446,-0.19664]},"properties":{"id":110918,"name":"Kiruhura","state_code":"W","country_code":"UG"}},{"type":"Feature","geometry":{"type":"Point","coordinates":[29.68497,-1.28538]},"properties":{"id":110919,"name":"Kisoro","state_code":"W","country_code":"UG"}},{"type":"Feature","geometry":{"type":"Point","coordinates":[30.62139,0.63278]},"properties":{"id":110923,"name":"Kyenjojo","state_code":"W","country_code":"UG"}},{"type":"Feature","geometry":{"type":"Point","coordinates":[29.89111,0.41861]},"properties":{"id":110929,"name":"Margherita","state_code":"W","country_code":"UG"}},{"type":"Feature","geometry":{"type":"Point","coordinates":[31.715,1.67444]},"properties":{"id":110931,"name":"Masindi","state_code":"W","country_code":"UG"}},{"type":"Feature","geometry":{"type":"Point","coordinates":[32.08608,1.69606]},"properties":{"id":110932,"name":"Masindi Port","state_code":"W","country_code":"UG"}},{"type":"Feature","geometry":{"type":"Point","coordinates":[30.64851,-0.60467]},"properties":{"id":110935,"name":"Mbarara","state_code":"W","country_code":"UG"}},{"type":"Feature","geometry":{"type":"Point","coordinates":[30.75944,0.93806]},"properties":{"id":110942,"name":"Muhororo","state_code":"W","country_code":"UG"}},{"type":"Feature","geometry":{"type":"Point","coordinates":[30.26417,-0.87944]},"properties":{"id":110948,"name":"Ntungamo","state_code":"W","country_code":"UG"}},{"type":"Feature","geometry":{"type":"Point","coordinates":[30.41667,-0.9]},"properties":{"id":110949,"name":"Nyachera","state_code":"W","country_code":"UG"}},{"type":"Feature","geometry":{"type":"Point","coordinates":[29.94194,-0.84111]},"properties":{"id":110956,"name":"Rukungiri","state_code":"W","country_code":"UG"}}]}