{"type":"FeatureCollection","features":[{"type":"Feature","geometry":{"type":"Point","coordinates":[-92.44127,34.62954]},"properties":{"id":111145,"name":"Alexander","state_code":"AR","country_code":"US"}},{"type":"Feature","geometry":{"type":"Point","coordinates":[-94.22188,35.47787]},"properties":{"id":111206,"name":"Alma","state_code":"AR","country_code":"US"}},{"type":"Feature","geometry":{"type":"Point","coordinates":[-93.05378,34.12093]},"properties":{"id":111455,"name":"Arkadelphia","state_code":"AR","country_code":"US"}},{"type":"Feature","geometry":{"type":"Point","coordinates":[-91.20678,33.60872]},"properties":{"id":111456,"name":"Arkansas City","state_code":"AR","country_code":"US"}},{"type":"Feature","geometry":{"type":"Point","coordinates":[-91.60848,36.22396]},"properties":{"id":111510,"name":"Ash Flat","state_code":"AR","country_code":"US"}},{"type":"Feature","geometry":{"type":"Point","coordinates":[-94.13131,33.67429]},"properties":{"id":111518,"name":"Ashdown","state_code":"AR","country_code":"US"}},{"type":"Feature","geometry":{"type":"Point","coordinates":[-92.93656,35.24647]},"properties":{"id":111584,"name":"Atkins","state_code":"AR","country_code":"US"}},{"type":"Feature","geometry":{"type":"Point","coordinates":[-91.36541,35.28231]},"properties":{"id":111645,"name":"Augusta","state_code":"AR","country_code":"US"}},{"type":"Feature","geometry":{"type":"Point","coordinates":[-91.98376,34.99842]},"properties":{"id":111666,"name":"Austin","state_code":"AR","country_code":"US"}},{"type":"Feature","geometry":{"type":"Point","coordinates":[-91.56791,35.30981]},"properties":{"id":111751,"name":"Bald Knob","state_code":"AR","country_code":"US"}},{"type":"Feature","geometry":{"type":"Point","coordinates":[-94.3016,35.32565]},"properties":{"id":111824,"name":"Barling","state_code":"AR","country_code":"US"}},{"type":"Feature","geometry":{"type":"Point","coordinates":[-91.64097,35.7698]},"properties":{"id":111892,"name":"Batesville","state_code":"AR","country_code":"US"}},{"type":"Feature","geometry":{"type":"Point","coordinates":[-90.56233,35.7423]},"properties":{"id":111920,"name":"Bay","state_code":"AR","country_code":"US"}},{"type":"Feature","geometry":{"type":"Point","coordinates":[-91.87959,35.07064]},"properties":{"id":112036,"name":"Beebe","state_code":"AR","country_code":"US"}},{"type":"Feature","geometry":{"type":"Point","coordinates":[-94.27134,36.4807]},"properties":{"id":112071,"name":"Bella Vista","state_code":"AR","country_code":"US"}},{"type":"Feature","geometry":{"type":"Point","coordinates":[-92.58683,34.56454]},"properties":{"id":112191,"name":"Benton","state_code":"AR","country_code":"US"}},{"type":"Feature","geometry":{"type":"Point","coordinates":[-94.20882,36.37285]},"properties":{"id":112210,"name":"Bentonville","state_code":"AR","country_code":"US"}},{"type":"Feature","geometry":{"type":"Point","coordinates":[-93.56797,36.36479]},"properties":{"id":112254,"name":"Berryville","state_code":"AR","country_code":"US"}},{"type":"Feature","geometry":{"type":"Point","coordinates":[-94.12937,36.21424]},"properties":{"id":112285,"name":"Bethel Heights","state_code":"AR","country_code":"US"}},{"type":"Feature","geometry":{"type":"Point","coordinates":[-89.91898,35.9273]},"properties":{"id":112486,"name":"Blytheville","state_code":"AR","country_code":"US"}},{"type":"Feature","geometry":{"type":"Point","coordinates":[-90.80262,35.90868]},"properties":{"id":112549,"name":"Bono","state_code":"AR","country_code":"US"}},{"type":"Feature","geometry":{"type":"Point","coordinates":[-93.92159,35.14009]},"properties":{"id":112562,"name":"Booneville","state_code":"AR","country_code":"US"}},{"type":"Feature","geometry":{"type":"Point","coordinates":[-91.19457,34.88787]},"properties":{"id":112799,"name":"Brinkley","state_code":"AR","country_code":"US"}},{"type":"Feature","geometry":{"type":"Point","coordinates":[-90.58205,35.90007]},"properties":{"id":112864,"name":"Brookland","state_code":"AR","country_code":"US"}},{"type":"Feature","geometry":{"type":"Point","coordinates":[-92.48905,34.59593]},"properties":{"id":112963,"name":"Bryant","state_code":"AR","country_code":"US"}},{"type":"Feature","geometry":{"type":"Point","coordinates":[-92.58155,36.38396]},"properties":{"id":113028,"name":"Bull Shoals","state_code":"AR","country_code":"US"}},{"type":"Feature","geometry":{"type":"Point","coordinates":[-92.01653,34.97453]},"properties":{"id":113154,"name":"Cabot","state_code":"AR","country_code":"US"}},{"type":"Feature","geometry":{"type":"Point","coordinates":[-92.13599,36.11951]},"properties":{"id":113212,"name":"Calico Rock","state_code":"AR","country_code":"US"}},{"type":"Feature","geometry":{"type":"Point","coordinates":[-92.83433,33.58456]},"properties":{"id":113260,"name":"Camden","state_code":"AR","country_code":"US"}},{"type":"Feature","geometry":{"type":"Point","coordinates":[-90.32232,35.75813]},"properties":{"id":113380,"name":"Caraway","state_code":"AR","country_code":"US"}},{"type":"Feature","geometry":{"type":"Point","coordinates":[-91.74652,34.78315]},"properties":{"id":113401,"name":"Carlisle","state_code":"AR","country_code":"US"}},{"type":"Feature","geometry":{"type":"Point","coordinates":[-91.54847,35.94174]},"properties":{"id":113583,"name":"Cave City","state_code":"AR","country_code":"US"}},{"type":"Feature","geometry":{"type":"Point","coordinates":[-94.23187,36.26341]},"properties":{"id":113589,"name":"Cave Springs","state_code":"AR","country_code":"US"}},{"type":"Feature","geometry":{"type":"Point","coordinates":[-94.36688,35.56981]},"properties":{"id":113628,"name":"Cedarville","state_code":"AR","country_code":"US"}},{"type":"Feature","geometry":{"type":"Point","coordinates":[-94.28521,36.3598]},"properties":{"id":113651,"name":"Centerton","state_code":"AR","country_code":"US"}},{"type":"Feature","geometry":{"type":"Point","coordinates":[-94.03632,35.29704]},"properties":{"id":113761,"name":"Charleston","state_code":"AR","country_code":"US"}},{"type":"Feature","geometry":{"type":"Point","coordinates":[-91.51597,36.29784]},"properties":{"id":113857,"name":"Cherokee Village","state_code":"AR","country_code":"US"}},{"type":"Feature","geometry":{"type":"Point","coordinates":[-91.31374,34.69315]},"properties":{"id":114110,"name":"Clarendon","state_code":"AR","country_code":"US"}},{"type":"Feature","geometry":{"type":"Point","coordinates":[-93.46657,35.47147]},"properties":{"id":114152,"name":"Clarksville","state_code":"AR","country_code":"US"}},{"type":"Feature","geometry":{"type":"Point","coordinates":[-92.46044,35.59147]},"properties":{"id":114267,"name":"Clinton","state_code":"AR","country_code":"US"}},{"type":"Feature","geometry":{"type":"Point","coordinates":[-93.67297,35.43731]},"properties":{"id":114331,"name":"Coal Hill","state_code":"AR","country_code":"US"}},{"type":"Feature","geometry":{"type":"Point","coordinates":[-92.4421,35.0887]},"properties":{"id":114581,"name":"Conway","state_code":"AR","country_code":"US"}},{"type":"Feature","geometry":{"type":"Point","coordinates":[-90.57983,36.40784]},"properties":{"id":114651,"name":"Corning","state_code":"AR","country_code":"US"}},{"type":"Feature","geometry":{"type":"Point","coordinates":[-91.96124,33.12818]},"properties":{"id":114854,"name":"Crossett","state_code":"AR","country_code":"US"}},{"type":"Feature","geometry":{"type":"Point","coordinates":[-93.39352,35.05398]},"properties":{"id":115031,"name":"Danville","state_code":"AR","country_code":"US"}},{"type":"Feature","geometry":{"type":"Point","coordinates":[-93.15795,35.22314]},"properties":{"id":115042,"name":"Dardanelle","state_code":"AR","country_code":"US"}},{"type":"Feature","geometry":{"type":"Point","coordinates":[-94.34132,34.03789]},"properties":{"id":115113,"name":"De Queen","state_code":"AR","country_code":"US"}},{"type":"Feature","geometry":{"type":"Point","coordinates":[-91.3379,34.29288]},"properties":{"id":115121,"name":"De Witt","state_code":"AR","country_code":"US"}},{"type":"Feature","geometry":{"type":"Point","coordinates":[-94.46077,36.33591]},"properties":{"id":115150,"name":"Decatur","state_code":"AR","country_code":"US"}},{"type":"Feature","geometry":{"type":"Point","coordinates":[-91.43595,33.52539]},"properties":{"id":115264,"name":"Dermott","state_code":"AR","country_code":"US"}},{"type":"Feature","geometry":{"type":"Point","coordinates":[-91.49513,34.97704]},"properties":{"id":115270,"name":"Des Arc","state_code":"AR","country_code":"US"}},{"type":"Feature","geometry":{"type":"Point","coordinates":[-91.26513,35.63841]},"properties":{"id":115318,"name":"Diaz","state_code":"AR","country_code":"US"}},{"type":"Feature","geometry":{"type":"Point","coordinates":[-94.01658,34.11928]},"properties":{"id":115334,"name":"Dierks","state_code":"AR","country_code":"US"}},{"type":"Feature","geometry":{"type":"Point","coordinates":[-93.11434,35.40147]},"properties":{"id":115444,"name":"Dover","state_code":"AR","country_code":"US"}},{"type":"Feature","geometry":{"type":"Point","coordinates":[-91.49179,33.88705]},"properties":{"id":115514,"name":"Dumas","state_code":"AR","country_code":"US"}},{"type":"Feature","geometry":{"type":"Point","coordinates":[-90.46677,35.27509]},"properties":{"id":115616,"name":"Earle","state_code":"AR","country_code":"US"}},{"type":"Feature","geometry":{"type":"Point","coordinates":[-92.34099,34.55065]},"properties":{"id":115656,"name":"East End","state_code":"AR","country_code":"US"}},{"type":"Feature","geometry":{"type":"Point","coordinates":[-92.66627,33.20763]},"properties":{"id":115919,"name":"El Dorado","state_code":"AR","country_code":"US"}},{"type":"Feature","geometry":{"type":"Point","coordinates":[-94.00825,36.00147]},"properties":{"id":116005,"name":"Elkins","state_code":"AR","country_code":"US"}},{"type":"Feature","geometry":{"type":"Point","coordinates":[-94.23437,36.20619]},"properties":{"id":116045,"name":"Elm Springs","state_code":"AR","country_code":"US"}},{"type":"Feature","geometry":{"type":"Point","coordinates":[-91.96903,34.54426]},"properties":{"id":116128,"name":"England","state_code":"AR","country_code":"US"}},{"type":"Feature","geometry":{"type":"Point","coordinates":[-91.26206,33.10957]},"properties":{"id":116222,"name":"Eudora","state_code":"AR","country_code":"US"}},{"type":"Feature","geometry":{"type":"Point","coordinates":[-93.73797,36.40118]},"properties":{"id":116240,"name":"Eureka Springs","state_code":"AR","country_code":"US"}},{"type":"Feature","geometry":{"type":"Point","coordinates":[-92.27793,35.59424]},"properties":{"id":116318,"name":"Fairfield Bay","state_code":"AR","country_code":"US"}},{"type":"Feature","geometry":{"type":"Point","coordinates":[-94.24715,36.04202]},"properties":{"id":116412,"name":"Farmington","state_code":"AR","country_code":"US"}},{"type":"Feature","geometry":{"type":"Point","coordinates":[-94.15743,36.06258]},"properties":{"id":116454,"name":"Fayetteville","state_code":"AR","country_code":"US"}},{"type":"Feature","geometry":{"type":"Point","coordinates":[-92.59711,36.27896]},"properties":{"id":116568,"name":"Flippin","state_code":"AR","country_code":"US"}},{"type":"Feature","geometry":{"type":"Point","coordinates":[-92.41293,33.81372]},"properties":{"id":116642,"name":"Fordyce","state_code":"AR","country_code":"US"}},{"type":"Feature","geometry":{"type":"Point","coordinates":[-90.78983,35.00815]},"properties":{"id":116679,"name":"Forrest City","state_code":"AR","country_code":"US"}},{"type":"Feature","geometry":{"type":"Point","coordinates":[-94.39855,35.38592]},"properties":{"id":116750,"name":"Fort Smith","state_code":"AR","country_code":"US"}},{"type":"Feature","geometry":{"type":"Point","coordinates":[-92.49405,36.28312]},"properties":{"id":117112,"name":"Gassville","state_code":"AR","country_code":"US"}},{"type":"Feature","geometry":{"type":"Point","coordinates":[-94.48466,36.26758]},"properties":{"id":117150,"name":"Gentry","state_code":"AR","country_code":"US"}},{"type":"Feature","geometry":{"type":"Point","coordinates":[-92.2357,34.88426]},"properties":{"id":117186,"name":"Gibson","state_code":"AR","country_code":"US"}},{"type":"Feature","geometry":{"type":"Point","coordinates":[-93.55074,34.32677]},"properties":{"id":117312,"name":"Glenwood","state_code":"AR","country_code":"US"}},{"type":"Feature","geometry":{"type":"Point","coordinates":[-93.99131,36.10119]},"properties":{"id":117407,"name":"Goshen","state_code":"AR","country_code":"US"}},{"type":"Feature","geometry":{"type":"Point","coordinates":[-89.97203,35.95979]},"properties":{"id":117412,"name":"Gosnell","state_code":"AR","country_code":"US"}},{"type":"Feature","geometry":{"type":"Point","coordinates":[-92.1907,34.86842]},"properties":{"id":117546,"name":"Gravel Ridge","state_code":"AR","country_code":"US"}},{"type":"Feature","geometry":{"type":"Point","coordinates":[-94.45355,36.42202]},"properties":{"id":117549,"name":"Gravette","state_code":"AR","country_code":"US"}},{"type":"Feature","geometry":{"type":"Point","coordinates":[-93.43602,36.33535]},"properties":{"id":117595,"name":"Green Forest","state_code":"AR","country_code":"US"}},{"type":"Feature","geometry":{"type":"Point","coordinates":[-92.38765,35.23397]},"properties":{"id":117619,"name":"Greenbrier","state_code":"AR","country_code":"US"}},{"type":"Feature","geometry":{"type":"Point","coordinates":[-94.1752,35.99425]},"properties":{"id":117656,"name":"Greenland","state_code":"AR","country_code":"US"}},{"type":"Feature","geometry":{"type":"Point","coordinates":[-94.25577,35.21565]},"properties":{"id":117701,"name":"Greenwood","state_code":"AR","country_code":"US"}},{"type":"Feature","geometry":{"type":"Point","coordinates":[-93.15406,33.92094]},"properties":{"id":117808,"name":"Gurdon","state_code":"AR","country_code":"US"}},{"type":"Feature","geometry":{"type":"Point","coordinates":[-91.79763,33.22818]},"properties":{"id":117881,"name":"Hamburg","state_code":"AR","country_code":"US"}},{"type":"Feature","geometry":{"type":"Point","coordinates":[-92.46988,33.53789]},"properties":{"id":117926,"name":"Hampton","state_code":"AR","country_code":"US"}},{"type":"Feature","geometry":{"type":"Point","coordinates":[-90.71678,35.56425]},"properties":{"id":118047,"name":"Harrisburg","state_code":"AR","country_code":"US"}},{"type":"Feature","geometry":{"type":"Point","coordinates":[-93.10768,36.22979]},"properties":{"id":118054,"name":"Harrison","state_code":"AR","country_code":"US"}},{"type":"Feature","geometry":{"type":"Point","coordinates":[-92.63655,34.50148]},"properties":{"id":118122,"name":"Haskell","state_code":"AR","country_code":"US"}},{"type":"Feature","geometry":{"type":"Point","coordinates":[-91.58097,34.78093]},"properties":{"id":118209,"name":"Hazen","state_code":"AR","country_code":"US"}},{"type":"Feature","geometry":{"type":"Point","coordinates":[-92.03126,35.49147]},"properties":{"id":118230,"name":"Heber Springs","state_code":"AR","country_code":"US"}},{"type":"Feature","geometry":{"type":"Point","coordinates":[-90.59177,34.52955]},"properties":{"id":118247,"name":"Helena","state_code":"AR","country_code":"US"}},{"type":"Feature","geometry":{"type":"Point","coordinates":[-90.59,34.5291]},"properties":{"id":118257,"name":"Helena-West Helena","state_code":"AR","country_code":"US"}},{"type":"Feature","geometry":{"type":"Point","coordinates":[-91.52403,36.2759]},"properties":{"id":118392,"name":"Highland","state_code":"AR","country_code":"US"}},{"type":"Feature","geometry":{"type":"Point","coordinates":[-93.73214,36.48535]},"properties":{"id":118533,"name":"Holiday Island","state_code":"AR","country_code":"US"}},{"type":"Feature","geometry":{"type":"Point","coordinates":[-93.59157,33.66706]},"properties":{"id":118642,"name":"Hope","state_code":"AR","country_code":"US"}},{"type":"Feature","geometry":{"type":"Point","coordinates":[-94.35715,33.93845]},"properties":{"id":118662,"name":"Horatio","state_code":"AR","country_code":"US"}},{"type":"Feature","geometry":{"type":"Point","coordinates":[-91.76431,36.22923]},"properties":{"id":118676,"name":"Horseshoe Bend","state_code":"AR","country_code":"US"}},{"type":"Feature","geometry":{"type":"Point","coordinates":[-93.05518,34.5037]},"properties":{"id":118682,"name":"Hot Springs","state_code":"AR","country_code":"US"}},{"type":"Feature","geometry":{"type":"Point","coordinates":[-93.06377,34.5317]},"properties":{"id":118685,"name":"Hot Springs National Park","state_code":"AR","country_code":"US"}},{"type":"Feature","geometry":{"type":"Point","coordinates":[-90.97512,36.05035]},"properties":{"id":118726,"name":"Hoxie","state_code":"AR","country_code":"US"}},{"type":"Feature","geometry":{"type":"Point","coordinates":[-90.47149,34.94926]},"properties":{"id":118757,"name":"Hughes","state_code":"AR","country_code":"US"}},{"type":"Feature","geometry":{"type":"Point","coordinates":[-93.7413,36.08619]},"properties":{"id":118815,"name":"Huntsville","state_code":"AR","country_code":"US"}},{"type":"Feature","geometry":{"type":"Point","coordinates":[-92.11015,34.8662]},"properties":{"id":119100,"name":"Jacksonville","state_code":"AR","country_code":"US"}},{"type":"Feature","geometry":{"type":"Point","coordinates":[-93.18657,36.00813]},"properties":{"id":119139,"name":"Jasper","state_code":"AR","country_code":"US"}},{"type":"Feature","geometry":{"type":"Point","coordinates":[-94.16548,36.13286]},"properties":{"id":119254,"name":"Johnson","state_code":"AR","country_code":"US"}},{"type":"Feature","geometry":{"type":"Point","coordinates":[-90.70428,35.8423]},"properties":{"id":119299,"name":"Jonesboro","state_code":"AR","country_code":"US"}},{"type":"Feature","geometry":{"type":"Point","coordinates":[-91.63986,35.27009]},"properties":{"id":119328,"name":"Judsonia","state_code":"AR","country_code":"US"}},{"type":"Feature","geometry":{"type":"Point","coordinates":[-91.66764,35.23175]},"properties":{"id":119479,"name":"Kensett","state_code":"AR","country_code":"US"}},{"type":"Feature","geometry":{"type":"Point","coordinates":[-90.43427,35.81619]},"properties":{"id":119878,"name":"Lake City","state_code":"AR","country_code":"US"}},{"type":"Feature","geometry":{"type":"Point","coordinates":[-93.09518,34.42453]},"properties":{"id":119916,"name":"Lake Hamilton","state_code":"AR","country_code":"US"}},{"type":"Feature","geometry":{"type":"Point","coordinates":[-91.28178,33.32873]},"properties":{"id":119989,"name":"Lake Village","state_code":"AR","country_code":"US"}},{"type":"Feature","geometry":{"type":"Point","coordinates":[-93.38796,35.44064]},"properties":{"id":120058,"name":"Lamar","state_code":"AR","country_code":"US"}},{"type":"Feature","geometry":{"type":"Point","coordinates":[-92.3196,34.6112]},"properties":{"id":120101,"name":"Landmark","state_code":"AR","country_code":"US"}},{"type":"Feature","geometry":{"type":"Point","coordinates":[-94.17326,35.3362]},"properties":{"id":120213,"name":"Lavaca","state_code":"AR","country_code":"US"}},{"type":"Feature","geometry":{"type":"Point","coordinates":[-90.25788,35.93591]},"properties":{"id":120269,"name":"Leachville","state_code":"AR","country_code":"US"}},{"type":"Feature","geometry":{"type":"Point","coordinates":[-90.32982,35.61119]},"properties":{"id":120394,"name":"Lepanto","state_code":"AR","country_code":"US"}},{"type":"Feature","geometry":{"type":"Point","coordinates":[-93.57768,33.35846]},"properties":{"id":120434,"name":"Lewisville","state_code":"AR","country_code":"US"}},{"type":"Feature","geometry":{"type":"Point","coordinates":[-94.42355,35.94953]},"properties":{"id":120500,"name":"Lincoln","state_code":"AR","country_code":"US"}},{"type":"Feature","geometry":{"type":"Point","coordinates":[-94.1352,36.38591]},"properties":{"id":120621,"name":"Little Flock","state_code":"AR","country_code":"US"}},{"type":"Feature","geometry":{"type":"Point","coordinates":[-92.28959,34.74648]},"properties":{"id":120626,"name":"Little Rock","state_code":"AR","country_code":"US"}},{"type":"Feature","geometry":{"type":"Point","coordinates":[-92.15955,34.89149]},"properties":{"id":120628,"name":"Little Rock Air Force Base","state_code":"AR","country_code":"US"}},{"type":"Feature","geometry":{"type":"Point","coordinates":[-93.25296,35.32897]},"properties":{"id":120720,"name":"London","state_code":"AR","country_code":"US"}},{"type":"Feature","geometry":{"type":"Point","coordinates":[-91.89986,34.78398]},"properties":{"id":120761,"name":"Lonoke","state_code":"AR","country_code":"US"}},{"type":"Feature","geometry":{"type":"Point","coordinates":[-94.13076,36.25535]},"properties":{"id":120833,"name":"Lowell","state_code":"AR","country_code":"US"}},{"type":"Feature","geometry":{"type":"Point","coordinates":[-89.92814,35.75619]},"properties":{"id":120902,"name":"Luxora","state_code":"AR","country_code":"US"}},{"type":"Feature","geometry":{"type":"Point","coordinates":[-93.23933,33.26707]},"properties":{"id":121035,"name":"Magnolia","state_code":"AR","country_code":"US"}},{"type":"Feature","geometry":{"type":"Point","coordinates":[-92.81295,34.36231]},"properties":{"id":121071,"name":"Malvern","state_code":"AR","country_code":"US"}},{"type":"Feature","geometry":{"type":"Point","coordinates":[-90.16704,35.88007]},"properties":{"id":121119,"name":"Manila","state_code":"AR","country_code":"US"}},{"type":"Feature","geometry":{"type":"Point","coordinates":[-94.25271,35.05954]},"properties":{"id":121142,"name":"Mansfield","state_code":"AR","country_code":"US"}},{"type":"Feature","geometry":{"type":"Point","coordinates":[-90.75761,34.77371]},"properties":{"id":121208,"name":"Marianna","state_code":"AR","country_code":"US"}},{"type":"Feature","geometry":{"type":"Point","coordinates":[-90.19648,35.21453]},"properties":{"id":121232,"name":"Marion","state_code":"AR","country_code":"US"}},{"type":"Feature","geometry":{"type":"Point","coordinates":[-90.42066,35.53286]},"properties":{"id":121267,"name":"Marked Tree","state_code":"AR","country_code":"US"}},{"type":"Feature","geometry":{"type":"Point","coordinates":[-90.38316,36.18701]},"properties":{"id":121289,"name":"Marmaduke","state_code":"AR","country_code":"US"}},{"type":"Feature","geometry":{"type":"Point","coordinates":[-92.63127,35.90896]},"properties":{"id":121301,"name":"Marshall","state_code":"AR","country_code":"US"}},{"type":"Feature","geometry":{"type":"Point","coordinates":[-90.91289,34.55566]},"properties":{"id":121352,"name":"Marvell","state_code":"AR","country_code":"US"}},{"type":"Feature","geometry":{"type":"Point","coordinates":[-92.40432,34.86676]},"properties":{"id":121421,"name":"Maumelle","state_code":"AR","country_code":"US"}},{"type":"Feature","geometry":{"type":"Point","coordinates":[-92.42738,34.95703]},"properties":{"id":121438,"name":"Mayflower","state_code":"AR","country_code":"US"}},{"type":"Feature","geometry":{"type":"Point","coordinates":[-92.18181,34.80842]},"properties":{"id":121464,"name":"McAlmont","state_code":"AR","country_code":"US"}},{"type":"Feature","geometry":{"type":"Point","coordinates":[-91.20012,35.2562]},"properties":{"id":121487,"name":"McCrory","state_code":"AR","country_code":"US"}},{"type":"Feature","geometry":{"type":"Point","coordinates":[-91.39956,33.629]},"properties":{"id":121501,"name":"McGehee","state_code":"AR","country_code":"US"}},{"type":"Feature","geometry":{"type":"Point","coordinates":[-91.90848,36.05951]},"properties":{"id":121621,"name":"Melbourne","state_code":"AR","country_code":"US"}},{"type":"Feature","geometry":{"type":"Point","coordinates":[-94.23966,34.58622]},"properties":{"id":121643,"name":"Mena","state_code":"AR","country_code":"US"}},{"type":"Feature","geometry":{"type":"Point","coordinates":[-92.46183,36.38534]},"properties":{"id":121812,"name":"Midway","state_code":"AR","country_code":"US"}},{"type":"Feature","geometry":{"type":"Point","coordinates":[-93.9138,33.87512]},"properties":{"id":121939,"name":"Mineral Springs","state_code":"AR","country_code":"US"}},{"type":"Feature","geometry":{"type":"Point","coordinates":[-90.34427,35.89063]},"properties":{"id":122040,"name":"Monette","state_code":"AR","country_code":"US"}},{"type":"Feature","geometry":{"type":"Point","coordinates":[-91.79096,33.629]},"properties":{"id":122158,"name":"Monticello","state_code":"AR","country_code":"US"}},{"type":"Feature","geometry":{"type":"Point","coordinates":[-92.74405,35.15092]},"properties":{"id":122264,"name":"Morrilton","state_code":"AR","country_code":"US"}},{"type":"Feature","geometry":{"type":"Point","coordinates":[-93.63408,34.55676]},"properties":{"id":122355,"name":"Mount Ida","state_code":"AR","country_code":"US"}},{"type":"Feature","geometry":{"type":"Point","coordinates":[-92.38516,36.33534]},"properties":{"id":122415,"name":"Mountain Home","state_code":"AR","country_code":"US"}},{"type":"Feature","geometry":{"type":"Point","coordinates":[-92.11765,35.86841]},"properties":{"id":122428,"name":"Mountain View","state_code":"AR","country_code":"US"}},{"type":"Feature","geometry":{"type":"Point","coordinates":[-94.05159,35.50064]},"properties":{"id":122452,"name":"Mulberry","state_code":"AR","country_code":"US"}},{"type":"Feature","geometry":{"type":"Point","coordinates":[-93.6899,34.06233]},"properties":{"id":122480,"name":"Murfreesboro","state_code":"AR","country_code":"US"}},{"type":"Feature","geometry":{"type":"Point","coordinates":[-93.84713,33.94567]},"properties":{"id":122572,"name":"Nashville","state_code":"AR","country_code":"US"}},{"type":"Feature","geometry":{"type":"Point","coordinates":[-91.44152,35.70174]},"properties":{"id":122800,"name":"Newark","state_code":"AR","country_code":"US"}},{"type":"Feature","geometry":{"type":"Point","coordinates":[-91.2818,35.6048]},"properties":{"id":122839,"name":"Newport","state_code":"AR","country_code":"US"}},{"type":"Feature","geometry":{"type":"Point","coordinates":[-91.94152,33.16568]},"properties":{"id":123012,"name":"North Crossett","state_code":"AR","country_code":"US"}},{"type":"Feature","geometry":{"type":"Point","coordinates":[-92.26709,34.76954]},"properties":{"id":123059,"name":"North Little Rock","state_code":"AR","country_code":"US"}},{"type":"Feature","geometry":{"type":"Point","coordinates":[-93.22323,35.03231]},"properties":{"id":123411,"name":"Ola","state_code":"AR","country_code":"US"}},{"type":"Feature","geometry":{"type":"Point","coordinates":[-89.96953,35.70508]},"properties":{"id":123597,"name":"Osceola","state_code":"AR","country_code":"US"}},{"type":"Feature","geometry":{"type":"Point","coordinates":[-93.8277,35.48703]},"properties":{"id":123697,"name":"Ozark","state_code":"AR","country_code":"US"}},{"type":"Feature","geometry":{"type":"Point","coordinates":[-90.49733,36.0584]},"properties":{"id":123823,"name":"Paragould","state_code":"AR","country_code":"US"}},{"type":"Feature","geometry":{"type":"Point","coordinates":[-93.72992,35.29203]},"properties":{"id":123829,"name":"Paris","state_code":"AR","country_code":"US"}},{"type":"Feature","geometry":{"type":"Point","coordinates":[-90.57122,35.26342]},"properties":{"id":123870,"name":"Parkin","state_code":"AR","country_code":"US"}},{"type":"Feature","geometry":{"type":"Point","coordinates":[-94.1152,36.45396]},"properties":{"id":123951,"name":"Pea Ridge","state_code":"AR","country_code":"US"}},{"type":"Feature","geometry":{"type":"Point","coordinates":[-92.80267,35.00481]},"properties":{"id":124088,"name":"Perryville","state_code":"AR","country_code":"US"}},{"type":"Feature","geometry":{"type":"Point","coordinates":[-90.19065,36.38284]},"properties":{"id":124184,"name":"Piggott","state_code":"AR","country_code":"US"}},{"type":"Feature","geometry":{"type":"Point","coordinates":[-92.0032,34.22843]},"properties":{"id":124214,"name":"Pine Bluff","state_code":"AR","country_code":"US"}},{"type":"Feature","geometry":{"type":"Point","coordinates":[-93.12602,34.50314]},"properties":{"id":124266,"name":"Piney","state_code":"AR","country_code":"US"}},{"type":"Feature","geometry":{"type":"Point","coordinates":[-90.97123,36.26146]},"properties":{"id":124413,"name":"Pocahontas","state_code":"AR","country_code":"US"}},{"type":"Feature","geometry":{"type":"Point","coordinates":[-93.04906,35.24814]},"properties":{"id":124600,"name":"Pottsville","state_code":"AR","country_code":"US"}},{"type":"Feature","geometry":{"type":"Point","coordinates":[-94.06187,36.34202]},"properties":{"id":124626,"name":"Prairie Creek","state_code":"AR","country_code":"US"}},{"type":"Feature","geometry":{"type":"Point","coordinates":[-94.31771,35.97591]},"properties":{"id":124627,"name":"Prairie Grove","state_code":"AR","country_code":"US"}},{"type":"Feature","geometry":{"type":"Point","coordinates":[-93.38101,33.80261]},"properties":{"id":124642,"name":"Prescott","state_code":"AR","country_code":"US"}},{"type":"Feature","geometry":{"type":"Point","coordinates":[-90.2926,36.26312]},"properties":{"id":124935,"name":"Rector","state_code":"AR","country_code":"US"}},{"type":"Feature","geometry":{"type":"Point","coordinates":[-92.1832,34.4451]},"properties":{"id":124967,"name":"Redfield","state_code":"AR","country_code":"US"}},{"type":"Feature","geometry":{"type":"Point","coordinates":[-92.19015,33.95843]},"properties":{"id":125172,"name":"Rison","state_code":"AR","country_code":"US"}},{"type":"Feature","geometry":{"type":"Point","coordinates":[-93.13379,34.46426]},"properties":{"id":125328,"name":"Rockwell","state_code":"AR","country_code":"US"}},{"type":"Feature","geometry":{"type":"Point","coordinates":[-94.11854,36.33202]},"properties":{"id":125348,"name":"Rogers","state_code":"AR","country_code":"US"}},{"type":"Feature","geometry":{"type":"Point","coordinates":[-93.13379,35.27842]},"properties":{"id":125543,"name":"Russellville","state_code":"AR","country_code":"US"}},{"type":"Feature","geometry":{"type":"Point","coordinates":[-92.55822,34.62898]},"properties":{"id":125726,"name":"Salem","state_code":"AR","country_code":"US"}},{"type":"Feature","geometry":{"type":"Point","coordinates":[-91.73625,35.25064]},"properties":{"id":126092,"name":"Searcy","state_code":"AR","country_code":"US"}},{"type":"Feature","geometry":{"type":"Point","coordinates":[-92.39543,34.62009]},"properties":{"id":126221,"name":"Shannon Hills","state_code":"AR","country_code":"US"}},{"type":"Feature","geometry":{"type":"Point","coordinates":[-92.40127,34.30704]},"properties":{"id":126317,"name":"Sheridan","state_code":"AR","country_code":"US"}},{"type":"Feature","geometry":{"type":"Point","coordinates":[-92.22432,34.81509]},"properties":{"id":126340,"name":"Sherwood","state_code":"AR","country_code":"US"}},{"type":"Feature","geometry":{"type":"Point","coordinates":[-94.5405,36.18814]},"properties":{"id":126417,"name":"Siloam Springs","state_code":"AR","country_code":"US"}},{"type":"Feature","geometry":{"type":"Point","coordinates":[-92.72488,33.36485]},"properties":{"id":126508,"name":"Smackover","state_code":"AR","country_code":"US"}},{"type":"Feature","geometry":{"type":"Point","coordinates":[-91.62347,35.69841]},"properties":{"id":126787,"name":"Southside","state_code":"AR","country_code":"US"}},{"type":"Feature","geometry":{"type":"Point","coordinates":[-94.12881,36.18674]},"properties":{"id":126883,"name":"Springdale","state_code":"AR","country_code":"US"}},{"type":"Feature","geometry":{"type":"Point","coordinates":[-93.49518,33.3654]},"properties":{"id":126946,"name":"Stamps","state_code":"AR","country_code":"US"}},{"type":"Feature","geometry":{"type":"Point","coordinates":[-91.84347,33.94288]},"properties":{"id":126979,"name":"Star City","state_code":"AR","country_code":"US"}},{"type":"Feature","geometry":{"type":"Point","coordinates":[-91.55263,34.50037]},"properties":{"id":127155,"name":"Stuttgart","state_code":"AR","country_code":"US"}},{"type":"Feature","geometry":{"type":"Point","coordinates":[-92.12348,34.18065]},"properties":{"id":127196,"name":"Sulphur Springs","state_code":"AR","country_code":"US"}},{"type":"Feature","geometry":{"type":"Point","coordinates":[-94.03769,33.44179]},"properties":{"id":127544,"name":"Texarkana","state_code":"AR","country_code":"US"}},{"type":"Feature","geometry":{"type":"Point","coordinates":[-94.23354,36.17786]},"properties":{"id":127723,"name":"Tontitown","state_code":"AR","country_code":"US"}},{"type":"Feature","geometry":{"type":"Point","coordinates":[-90.50733,35.67369]},"properties":{"id":127856,"name":"Trumann","state_code":"AR","country_code":"US"}},{"type":"Feature","geometry":{"type":"Point","coordinates":[-91.19846,35.73063]},"properties":{"id":127872,"name":"Tuckerman","state_code":"AR","country_code":"US"}},{"type":"Feature","geometry":{"type":"Point","coordinates":[-94.34827,35.43676]},"properties":{"id":128126,"name":"Van Buren","state_code":"AR","country_code":"US"}},{"type":"Feature","geometry":{"type":"Point","coordinates":[-92.20793,35.08398]},"properties":{"id":128261,"name":"Vilonia","state_code":"AR","country_code":"US"}},{"type":"Feature","geometry":{"type":"Point","coordinates":[-93.29573,33.35151]},"properties":{"id":128370,"name":"Waldo","state_code":"AR","country_code":"US"}},{"type":"Feature","geometry":{"type":"Point","coordinates":[-94.09076,34.89843]},"properties":{"id":128377,"name":"Waldron","state_code":"AR","country_code":"US"}},{"type":"Feature","geometry":{"type":"Point","coordinates":[-90.95595,36.0684]},"properties":{"id":128423,"name":"Walnut Ridge","state_code":"AR","country_code":"US"}},{"type":"Feature","geometry":{"type":"Point","coordinates":[-91.95042,35.03036]},"properties":{"id":128457,"name":"Ward","state_code":"AR","country_code":"US"}},{"type":"Feature","geometry":{"type":"Point","coordinates":[-92.06458,33.61261]},"properties":{"id":128476,"name":"Warren","state_code":"AR","country_code":"US"}},{"type":"Feature","geometry":{"type":"Point","coordinates":[-91.99402,33.14096]},"properties":{"id":128854,"name":"West Crossett","state_code":"AR","country_code":"US"}},{"type":"Feature","geometry":{"type":"Point","coordinates":[-94.18854,35.92425]},"properties":{"id":128872,"name":"West Fork","state_code":"AR","country_code":"US"}},{"type":"Feature","geometry":{"type":"Point","coordinates":[-90.64177,34.55066]},"properties":{"id":128893,"name":"West Helena","state_code":"AR","country_code":"US"}},{"type":"Feature","geometry":{"type":"Point","coordinates":[-90.18454,35.14648]},"properties":{"id":128928,"name":"West Memphis","state_code":"AR","country_code":"US"}},{"type":"Feature","geometry":{"type":"Point","coordinates":[-92.09098,34.27399]},"properties":{"id":129139,"name":"White Hall","state_code":"AR","country_code":"US"}},{"type":"Feature","geometry":{"type":"Point","coordinates":[-92.21681,34.60232]},"properties":{"id":129613,"name":"Wrightsville","state_code":"AR","country_code":"US"}},{"type":"Feature","geometry":{"type":"Point","coordinates":[-90.78678,35.22453]},"properties":{"id":129632,"name":"Wynne","state_code":"AR","country_code":"US"}},{"type":"Feature","geometry":{"type":"Point","coordinates":[-92.68489,36.22618]},"properties":{"id":129680,"name":"Yellville","state_code":"AR","country_code":"US"}}]}