{"type":"FeatureCollection","features":[{"type":"Feature","geometry":{"type":"Point","coordinates":[-75.65826,39.62928]},"properties":{"id":111974,"name":"Bear","state_code":"DE","country_code":"US"}},{"type":"Feature","geometry":{"type":"Point","coordinates":[-75.50936,39.76622]},"properties":{"id":112098,"name":"Bellefonte","state_code":"DE","country_code":"US"}},{"type":"Feature","geometry":{"type":"Point","coordinates":[-75.05518,38.53956]},"properties":{"id":112277,"name":"Bethany Beach","state_code":"DE","country_code":"US"}},{"type":"Feature","geometry":{"type":"Point","coordinates":[-75.60993,38.63567]},"properties":{"id":112401,"name":"Blades","state_code":"DE","country_code":"US"}},{"type":"Feature","geometry":{"type":"Point","coordinates":[-75.60437,38.74261]},"properties":{"id":112772,"name":"Bridgeville","state_code":"DE","country_code":"US"}},{"type":"Feature","geometry":{"type":"Point","coordinates":[-75.72688,39.66706]},"properties":{"id":112887,"name":"Brookside","state_code":"DE","country_code":"US"}},{"type":"Feature","geometry":{"type":"Point","coordinates":[-75.54187,39.11345]},"properties":{"id":113261,"name":"Camden","state_code":"DE","country_code":"US"}},{"type":"Feature","geometry":{"type":"Point","coordinates":[-75.58576,39.21928]},"properties":{"id":113914,"name":"Cheswold","state_code":"DE","country_code":"US"}},{"type":"Feature","geometry":{"type":"Point","coordinates":[-75.45964,39.80067]},"properties":{"id":114192,"name":"Claymont","state_code":"DE","country_code":"US"}},{"type":"Feature","geometry":{"type":"Point","coordinates":[-75.63437,39.29067]},"properties":{"id":114197,"name":"Clayton","state_code":"DE","country_code":"US"}},{"type":"Feature","geometry":{"type":"Point","coordinates":[-75.58881,39.57789]},"properties":{"id":115203,"name":"Delaware City","state_code":"DE","country_code":"US"}},{"type":"Feature","geometry":{"type":"Point","coordinates":[-75.57715,38.45651]},"properties":{"id":115217,"name":"Delmar","state_code":"DE","country_code":"US"}},{"type":"Feature","geometry":{"type":"Point","coordinates":[-75.52437,39.15817]},"properties":{"id":115445,"name":"Dover","state_code":"DE","country_code":"US"}},{"type":"Feature","geometry":{"type":"Point","coordinates":[-75.48393,39.11763]},"properties":{"id":115453,"name":"Dover Base Housing","state_code":"DE","country_code":"US"}},{"type":"Feature","geometry":{"type":"Point","coordinates":[-75.49964,39.75011]},"properties":{"id":115847,"name":"Edgemoor","state_code":"DE","country_code":"US"}},{"type":"Feature","geometry":{"type":"Point","coordinates":[-75.59798,39.73928]},"properties":{"id":116070,"name":"Elsmere","state_code":"DE","country_code":"US"}},{"type":"Feature","geometry":{"type":"Point","coordinates":[-75.57798,39.00845]},"properties":{"id":116470,"name":"Felton","state_code":"DE","country_code":"US"}},{"type":"Feature","geometry":{"type":"Point","coordinates":[-75.38547,38.69011]},"properties":{"id":117155,"name":"Georgetown","state_code":"DE","country_code":"US"}},{"type":"Feature","geometry":{"type":"Point","coordinates":[-75.74521,39.60483]},"properties":{"id":117245,"name":"Glasgow","state_code":"DE","country_code":"US"}},{"type":"Feature","geometry":{"type":"Point","coordinates":[-75.59826,39.779]},"properties":{"id":117681,"name":"Greenville","state_code":"DE","country_code":"US"}},{"type":"Feature","geometry":{"type":"Point","coordinates":[-75.59132,38.80706]},"properties":{"id":117700,"name":"Greenwood","state_code":"DE","country_code":"US"}},{"type":"Feature","geometry":{"type":"Point","coordinates":[-75.5777,38.92372]},"properties":{"id":118041,"name":"Harrington","state_code":"DE","country_code":"US"}},{"type":"Feature","geometry":{"type":"Point","coordinates":[-75.52187,39.12095]},"properties":{"id":118401,"name":"Highland Acres","state_code":"DE","country_code":"US"}},{"type":"Feature","geometry":{"type":"Point","coordinates":[-75.6966,39.78761]},"properties":{"id":118503,"name":"Hockessin","state_code":"DE","country_code":"US"}},{"type":"Feature","geometry":{"type":"Point","coordinates":[-75.52492,39.13178]},"properties":{"id":119488,"name":"Kent Acres","state_code":"DE","country_code":"US"}},{"type":"Feature","geometry":{"type":"Point","coordinates":[-75.57131,38.5565]},"properties":{"id":120187,"name":"Laurel","state_code":"DE","country_code":"US"}},{"type":"Feature","geometry":{"type":"Point","coordinates":[-75.13935,38.77456]},"properties":{"id":120410,"name":"Lewes","state_code":"DE","country_code":"US"}},{"type":"Feature","geometry":{"type":"Point","coordinates":[-75.15074,38.62011]},"properties":{"id":120748,"name":"Long Neck","state_code":"DE","country_code":"US"}},{"type":"Feature","geometry":{"type":"Point","coordinates":[-75.71632,39.44956]},"properties":{"id":121785,"name":"Middletown","state_code":"DE","country_code":"US"}},{"type":"Feature","geometry":{"type":"Point","coordinates":[-75.42797,38.91261]},"properties":{"id":121846,"name":"Milford","state_code":"DE","country_code":"US"}},{"type":"Feature","geometry":{"type":"Point","coordinates":[-75.2913,38.5915]},"properties":{"id":121900,"name":"Millsboro","state_code":"DE","country_code":"US"}},{"type":"Feature","geometry":{"type":"Point","coordinates":[-75.30991,38.77761]},"properties":{"id":121911,"name":"Milton","state_code":"DE","country_code":"US"}},{"type":"Feature","geometry":{"type":"Point","coordinates":[-75.56631,39.66206]},"properties":{"id":122683,"name":"New Castle","state_code":"DE","country_code":"US"}},{"type":"Feature","geometry":{"type":"Point","coordinates":[-75.74966,39.68372]},"properties":{"id":122799,"name":"Newark","state_code":"DE","country_code":"US"}},{"type":"Feature","geometry":{"type":"Point","coordinates":[-75.60937,39.71372]},"properties":{"id":122838,"name":"Newport","state_code":"DE","country_code":"US"}},{"type":"Feature","geometry":{"type":"Point","coordinates":[-75.7191,39.76122]},"properties":{"id":123112,"name":"North Star","state_code":"DE","country_code":"US"}},{"type":"Feature","geometry":{"type":"Point","coordinates":[-75.08907,38.54511]},"properties":{"id":123338,"name":"Ocean View","state_code":"DE","country_code":"US"}},{"type":"Feature","geometry":{"type":"Point","coordinates":[-75.7041,39.73095]},"properties":{"id":124194,"name":"Pike Creek","state_code":"DE","country_code":"US"}},{"type":"Feature","geometry":{"type":"Point","coordinates":[-75.69827,39.73622]},"properties":{"id":124195,"name":"Pike Creek Valley","state_code":"DE","country_code":"US"}},{"type":"Feature","geometry":{"type":"Point","coordinates":[-75.07601,38.72095]},"properties":{"id":125005,"name":"Rehoboth Beach","state_code":"DE","country_code":"US"}},{"type":"Feature","geometry":{"type":"Point","coordinates":[-75.50488,39.09977]},"properties":{"id":125171,"name":"Rising Sun-Lebanon","state_code":"DE","country_code":"US"}},{"type":"Feature","geometry":{"type":"Point","coordinates":[-75.51076,39.0265]},"properties":{"id":125217,"name":"Riverview","state_code":"DE","country_code":"US"}},{"type":"Feature","geometry":{"type":"Point","coordinates":[-75.53242,39.13206]},"properties":{"id":125342,"name":"Rodney Village","state_code":"DE","country_code":"US"}},{"type":"Feature","geometry":{"type":"Point","coordinates":[-75.61104,38.64123]},"properties":{"id":126085,"name":"Seaford","state_code":"DE","country_code":"US"}},{"type":"Feature","geometry":{"type":"Point","coordinates":[-75.22074,38.46039]},"properties":{"id":126132,"name":"Selbyville","state_code":"DE","country_code":"US"}},{"type":"Feature","geometry":{"type":"Point","coordinates":[-75.60465,39.29983]},"properties":{"id":126534,"name":"Smyrna","state_code":"DE","country_code":"US"}},{"type":"Feature","geometry":{"type":"Point","coordinates":[-75.6916,39.39511]},"properties":{"id":127764,"name":"Townsend","state_code":"DE","country_code":"US"}},{"type":"Feature","geometry":{"type":"Point","coordinates":[-75.54659,39.74595]},"properties":{"id":129321,"name":"Wilmington","state_code":"DE","country_code":"US"}},{"type":"Feature","geometry":{"type":"Point","coordinates":[-75.58437,39.68678]},"properties":{"id":129326,"name":"Wilmington Manor","state_code":"DE","country_code":"US"}},{"type":"Feature","geometry":{"type":"Point","coordinates":[-75.53748,39.06756]},"properties":{"id":129557,"name":"Woodside East","state_code":"DE","country_code":"US"}},{"type":"Feature","geometry":{"type":"Point","coordinates":[-75.55881,39.11817]},"properties":{"id":129634,"name":"Wyoming","state_code":"DE","country_code":"US"}}]}