{"type":"FeatureCollection","features":[{"type":"Feature","geometry":{"type":"Point","coordinates":[-87.11142,41.43893]},"properties":{"id":110976,"name":"Aberdeen","state_code":"IN","country_code":"US"}},{"type":"Feature","geometry":{"type":"Point","coordinates":[-86.02805,41.03838]},"properties":{"id":111077,"name":"Akron","state_code":"IN","country_code":"US"}},{"type":"Feature","geometry":{"type":"Point","coordinates":[-85.24191,40.30088]},"properties":{"id":111105,"name":"Albany","state_code":"IN","country_code":"US"}},{"type":"Feature","geometry":{"type":"Point","coordinates":[-85.42442,41.3956]},"properties":{"id":111124,"name":"Albion","state_code":"IN","country_code":"US"}},{"type":"Feature","geometry":{"type":"Point","coordinates":[-85.67581,40.26282]},"properties":{"id":111153,"name":"Alexandria","state_code":"IN","country_code":"US"}},{"type":"Feature","geometry":{"type":"Point","coordinates":[-85.68025,40.10532]},"properties":{"id":111313,"name":"Anderson","state_code":"IN","country_code":"US"}},{"type":"Feature","geometry":{"type":"Point","coordinates":[-85.60165,40.86254]},"properties":{"id":111330,"name":"Andrews","state_code":"IN","country_code":"US"}},{"type":"Feature","geometry":{"type":"Point","coordinates":[-84.99941,41.63477]},"properties":{"id":111340,"name":"Angola","state_code":"IN","country_code":"US"}},{"type":"Feature","geometry":{"type":"Point","coordinates":[-86.02165,40.17587]},"properties":{"id":111423,"name":"Arcadia","state_code":"IN","country_code":"US"}},{"type":"Feature","geometry":{"type":"Point","coordinates":[-86.21465,41.2378]},"properties":{"id":111449,"name":"Argos","state_code":"IN","country_code":"US"}},{"type":"Feature","geometry":{"type":"Point","coordinates":[-87.2489,40.2942]},"properties":{"id":111609,"name":"Attica","state_code":"IN","country_code":"US"}},{"type":"Feature","geometry":{"type":"Point","coordinates":[-85.05886,41.36699]},"properties":{"id":111625,"name":"Auburn","state_code":"IN","country_code":"US"}},{"type":"Feature","geometry":{"type":"Point","coordinates":[-84.90134,39.057]},"properties":{"id":111656,"name":"Aurora","state_code":"IN","country_code":"US"}},{"type":"Feature","geometry":{"type":"Point","coordinates":[-85.80803,38.75839]},"properties":{"id":111667,"name":"Austin","state_code":"IN","country_code":"US"}},{"type":"Feature","geometry":{"type":"Point","coordinates":[-85.23886,41.36588]},"properties":{"id":111684,"name":"Avilla","state_code":"IN","country_code":"US"}},{"type":"Feature","geometry":{"type":"Point","coordinates":[-86.39972,39.76282]},"properties":{"id":111690,"name":"Avon","state_code":"IN","country_code":"US"}},{"type":"Feature","geometry":{"type":"Point","coordinates":[-86.16777,39.52088]},"properties":{"id":111822,"name":"Bargersville","state_code":"IN","country_code":"US"}},{"type":"Feature","geometry":{"type":"Point","coordinates":[-86.60196,41.20726]},"properties":{"id":111880,"name":"Bass Lake","state_code":"IN","country_code":"US"}},{"type":"Feature","geometry":{"type":"Point","coordinates":[-85.22218,39.30005]},"properties":{"id":111893,"name":"Batesville","state_code":"IN","country_code":"US"}},{"type":"Feature","geometry":{"type":"Point","coordinates":[-86.84168,40.50837]},"properties":{"id":111906,"name":"Battle Ground","state_code":"IN","country_code":"US"}},{"type":"Feature","geometry":{"type":"Point","coordinates":[-86.48721,38.86116]},"properties":{"id":112018,"name":"Bedford","state_code":"IN","country_code":"US"}},{"type":"Feature","geometry":{"type":"Point","coordinates":[-86.08998,39.72199]},"properties":{"id":112037,"name":"Beech Grove","state_code":"IN","country_code":"US"}},{"type":"Feature","geometry":{"type":"Point","coordinates":[-84.95191,40.65782]},"properties":{"id":112246,"name":"Berne","state_code":"IN","country_code":"US"}},{"type":"Feature","geometry":{"type":"Point","coordinates":[-87.30779,38.77421]},"properties":{"id":112311,"name":"Bicknell","state_code":"IN","country_code":"US"}},{"type":"Feature","geometry":{"type":"Point","coordinates":[-86.93751,39.02699]},"properties":{"id":112434,"name":"Bloomfield","state_code":"IN","country_code":"US"}},{"type":"Feature","geometry":{"type":"Point","coordinates":[-86.52639,39.16533]},"properties":{"id":112449,"name":"Bloomington","state_code":"IN","country_code":"US"}},{"type":"Feature","geometry":{"type":"Point","coordinates":[-85.17164,40.73866]},"properties":{"id":112484,"name":"Bluffton","state_code":"IN","country_code":"US"}},{"type":"Feature","geometry":{"type":"Point","coordinates":[-87.27417,38.04921]},"properties":{"id":112567,"name":"Boonville","state_code":"IN","country_code":"US"}},{"type":"Feature","geometry":{"type":"Point","coordinates":[-86.11639,41.2956]},"properties":{"id":112612,"name":"Bourbon","state_code":"IN","country_code":"US"}},{"type":"Feature","geometry":{"type":"Point","coordinates":[-87.12502,39.52365]},"properties":{"id":112703,"name":"Brazil","state_code":"IN","country_code":"US"}},{"type":"Feature","geometry":{"type":"Point","coordinates":[-86.14806,41.44644]},"properties":{"id":112721,"name":"Bremen","state_code":"IN","country_code":"US"}},{"type":"Feature","geometry":{"type":"Point","coordinates":[-84.85606,39.21839]},"properties":{"id":112785,"name":"Bright","state_code":"IN","country_code":"US"}},{"type":"Feature","geometry":{"type":"Point","coordinates":[-85.81749,41.72144]},"properties":{"id":112805,"name":"Bristol","state_code":"IN","country_code":"US"}},{"type":"Feature","geometry":{"type":"Point","coordinates":[-86.14165,39.86671]},"properties":{"id":112822,"name":"Broad Ripple","state_code":"IN","country_code":"US"}},{"type":"Feature","geometry":{"type":"Point","coordinates":[-86.36916,39.53921]},"properties":{"id":112869,"name":"Brooklyn","state_code":"IN","country_code":"US"}},{"type":"Feature","geometry":{"type":"Point","coordinates":[-86.86723,40.60281]},"properties":{"id":112889,"name":"Brookston","state_code":"IN","country_code":"US"}},{"type":"Feature","geometry":{"type":"Point","coordinates":[-85.01274,39.42311]},"properties":{"id":112894,"name":"Brookville","state_code":"IN","country_code":"US"}},{"type":"Feature","geometry":{"type":"Point","coordinates":[-86.39777,39.84338]},"properties":{"id":112924,"name":"Brownsburg","state_code":"IN","country_code":"US"}},{"type":"Feature","geometry":{"type":"Point","coordinates":[-86.04192,38.87894]},"properties":{"id":112926,"name":"Brownstown","state_code":"IN","country_code":"US"}},{"type":"Feature","geometry":{"type":"Point","coordinates":[-87.13337,41.62587]},"properties":{"id":113089,"name":"Burns Harbor","state_code":"IN","country_code":"US"}},{"type":"Feature","geometry":{"type":"Point","coordinates":[-84.87135,41.42977]},"properties":{"id":113109,"name":"Butler","state_code":"IN","country_code":"US"}},{"type":"Feature","geometry":{"type":"Point","coordinates":[-85.17163,39.81255]},"properties":{"id":113257,"name":"Cambridge City","state_code":"IN","country_code":"US"}},{"type":"Feature","geometry":{"type":"Point","coordinates":[-86.74443,37.91144]},"properties":{"id":113330,"name":"Cannelton","state_code":"IN","country_code":"US"}},{"type":"Feature","geometry":{"type":"Point","coordinates":[-86.11804,39.97837]},"properties":{"id":113416,"name":"Carmel","state_code":"IN","country_code":"US"}},{"type":"Feature","geometry":{"type":"Point","coordinates":[-87.45974,39.94865]},"properties":{"id":113593,"name":"Cayuga","state_code":"IN","country_code":"US"}},{"type":"Feature","geometry":{"type":"Point","coordinates":[-87.44115,41.36476]},"properties":{"id":113617,"name":"Cedar Lake","state_code":"IN","country_code":"US"}},{"type":"Feature","geometry":{"type":"Point","coordinates":[-84.99635,39.81782]},"properties":{"id":113653,"name":"Centerville","state_code":"IN","country_code":"US"}},{"type":"Feature","geometry":{"type":"Point","coordinates":[-87.36806,38.04171]},"properties":{"id":113728,"name":"Chandler","state_code":"IN","country_code":"US"}},{"type":"Feature","geometry":{"type":"Point","coordinates":[-85.67024,38.45312]},"properties":{"id":113770,"name":"Charlestown","state_code":"IN","country_code":"US"}},{"type":"Feature","geometry":{"type":"Point","coordinates":[-85.59692,40.11254]},"properties":{"id":113903,"name":"Chesterfield","state_code":"IN","country_code":"US"}},{"type":"Feature","geometry":{"type":"Point","coordinates":[-87.0642,41.61059]},"properties":{"id":113909,"name":"Chesterton","state_code":"IN","country_code":"US"}},{"type":"Feature","geometry":{"type":"Point","coordinates":[-85.31942,41.2306]},"properties":{"id":114015,"name":"Churubusco","state_code":"IN","country_code":"US"}},{"type":"Feature","geometry":{"type":"Point","coordinates":[-86.01332,40.12393]},"properties":{"id":114020,"name":"Cicero","state_code":"IN","country_code":"US"}},{"type":"Feature","geometry":{"type":"Point","coordinates":[-85.75996,38.29674]},"properties":{"id":114153,"name":"Clarksville","state_code":"IN","country_code":"US"}},{"type":"Feature","geometry":{"type":"Point","coordinates":[-86.32249,39.80977]},"properties":{"id":114239,"name":"Clermont","state_code":"IN","country_code":"US"}},{"type":"Feature","geometry":{"type":"Point","coordinates":[-87.39807,39.65698]},"properties":{"id":114268,"name":"Clinton","state_code":"IN","country_code":"US"}},{"type":"Feature","geometry":{"type":"Point","coordinates":[-86.7939,39.51477]},"properties":{"id":114309,"name":"Cloverdale","state_code":"IN","country_code":"US"}},{"type":"Feature","geometry":{"type":"Point","coordinates":[-85.48831,41.15727]},"properties":{"id":114475,"name":"Columbia City","state_code":"IN","country_code":"US"}},{"type":"Feature","geometry":{"type":"Point","coordinates":[-85.92138,39.20144]},"properties":{"id":114490,"name":"Columbus","state_code":"IN","country_code":"US"}},{"type":"Feature","geometry":{"type":"Point","coordinates":[-85.14107,39.64116]},"properties":{"id":114564,"name":"Connersville","state_code":"IN","country_code":"US"}},{"type":"Feature","geometry":{"type":"Point","coordinates":[-85.87332,40.57754]},"properties":{"id":114579,"name":"Converse","state_code":"IN","country_code":"US"}},{"type":"Feature","geometry":{"type":"Point","coordinates":[-86.11837,39.30464]},"properties":{"id":114641,"name":"Cordry Sweetwater Lakes","state_code":"IN","country_code":"US"}},{"type":"Feature","geometry":{"type":"Point","coordinates":[-86.12192,38.21201]},"properties":{"id":114681,"name":"Corydon","state_code":"IN","country_code":"US"}},{"type":"Feature","geometry":{"type":"Point","coordinates":[-85.69858,39.03478]},"properties":{"id":114723,"name":"Country Squire Lakes","state_code":"IN","country_code":"US"}},{"type":"Feature","geometry":{"type":"Point","coordinates":[-87.39474,40.1417]},"properties":{"id":114740,"name":"Covington","state_code":"IN","country_code":"US"}},{"type":"Feature","geometry":{"type":"Point","coordinates":[-86.87445,40.04115]},"properties":{"id":114784,"name":"Crawfordsville","state_code":"IN","country_code":"US"}},{"type":"Feature","geometry":{"type":"Point","coordinates":[-85.84164,38.80061]},"properties":{"id":114858,"name":"Crothersville","state_code":"IN","country_code":"US"}},{"type":"Feature","geometry":{"type":"Point","coordinates":[-87.36531,41.41698]},"properties":{"id":114867,"name":"Crown Point","state_code":"IN","country_code":"US"}},{"type":"Feature","geometry":{"type":"Point","coordinates":[-86.42306,41.21893]},"properties":{"id":114902,"name":"Culver","state_code":"IN","country_code":"US"}},{"type":"Feature","geometry":{"type":"Point","coordinates":[-85.9572,39.77615]},"properties":{"id":114905,"name":"Cumberland","state_code":"IN","country_code":"US"}},{"type":"Feature","geometry":{"type":"Point","coordinates":[-86.99,38.16894]},"properties":{"id":114979,"name":"Dale","state_code":"IN","country_code":"US"}},{"type":"Feature","geometry":{"type":"Point","coordinates":[-85.55803,40.12115]},"properties":{"id":114985,"name":"Daleville","state_code":"IN","country_code":"US"}},{"type":"Feature","geometry":{"type":"Point","coordinates":[-86.52639,39.7606]},"properties":{"id":115034,"name":"Danville","state_code":"IN","country_code":"US"}},{"type":"Feature","geometry":{"type":"Point","coordinates":[-87.57891,38.09921]},"properties":{"id":115052,"name":"Darmstadt","state_code":"IN","country_code":"US"}},{"type":"Feature","geometry":{"type":"Point","coordinates":[-86.7689,40.3742]},"properties":{"id":115095,"name":"Dayton","state_code":"IN","country_code":"US"}},{"type":"Feature","geometry":{"type":"Point","coordinates":[-84.92913,40.8306]},"properties":{"id":115156,"name":"Decatur","state_code":"IN","country_code":"US"}},{"type":"Feature","geometry":{"type":"Point","coordinates":[-86.67501,40.58754]},"properties":{"id":115220,"name":"Delphi","state_code":"IN","country_code":"US"}},{"type":"Feature","geometry":{"type":"Point","coordinates":[-87.19864,41.19504]},"properties":{"id":115135,"name":"DeMotte","state_code":"IN","country_code":"US"}},{"type":"Feature","geometry":{"type":"Point","coordinates":[-85.05884,39.01783]},"properties":{"id":115345,"name":"Dillsboro","state_code":"IN","country_code":"US"}},{"type":"Feature","geometry":{"type":"Point","coordinates":[-86.39361,40.75643]},"properties":{"id":115538,"name":"Dunkirk","state_code":"IN","country_code":"US"}},{"type":"Feature","geometry":{"type":"Point","coordinates":[-85.92166,41.63783]},"properties":{"id":115543,"name":"Dunlap","state_code":"IN","country_code":"US"}},{"type":"Feature","geometry":{"type":"Point","coordinates":[-87.52171,41.4942]},"properties":{"id":115586,"name":"Dyer","state_code":"IN","country_code":"US"}},{"type":"Feature","geometry":{"type":"Point","coordinates":[-87.45476,41.6392]},"properties":{"id":115645,"name":"East Chicago","state_code":"IN","country_code":"US"}},{"type":"Feature","geometry":{"type":"Point","coordinates":[-85.3508,40.34032]},"properties":{"id":115801,"name":"Eaton","state_code":"IN","country_code":"US"}},{"type":"Feature","geometry":{"type":"Point","coordinates":[-85.73414,40.10337]},"properties":{"id":115861,"name":"Edgewood","state_code":"IN","country_code":"US"}},{"type":"Feature","geometry":{"type":"Point","coordinates":[-85.96666,39.35422]},"properties":{"id":115873,"name":"Edinburgh","state_code":"IN","country_code":"US"}},{"type":"Feature","geometry":{"type":"Point","coordinates":[-85.97667,41.68199]},"properties":{"id":115998,"name":"Elkhart","state_code":"IN","country_code":"US"}},{"type":"Feature","geometry":{"type":"Point","coordinates":[-86.625,39.23393]},"properties":{"id":116022,"name":"Ellettsville","state_code":"IN","country_code":"US"}},{"type":"Feature","geometry":{"type":"Point","coordinates":[-85.84192,40.27698]},"properties":{"id":116079,"name":"Elwood","state_code":"IN","country_code":"US"}},{"type":"Feature","geometry":{"type":"Point","coordinates":[-86.46415,38.3345]},"properties":{"id":116135,"name":"English","state_code":"IN","country_code":"US"}},{"type":"Feature","geometry":{"type":"Point","coordinates":[-87.55585,37.97476]},"properties":{"id":116253,"name":"Evansville","state_code":"IN","country_code":"US"}},{"type":"Feature","geometry":{"type":"Point","coordinates":[-86.38224,39.82861]},"properties":{"id":116323,"name":"Fairfield Heights","state_code":"IN","country_code":"US"}},{"type":"Feature","geometry":{"type":"Point","coordinates":[-85.65053,40.41532]},"properties":{"id":116340,"name":"Fairmount","state_code":"IN","country_code":"US"}},{"type":"Feature","geometry":{"type":"Point","coordinates":[-87.41752,39.68031]},"properties":{"id":116359,"name":"Fairview Park","state_code":"IN","country_code":"US"}},{"type":"Feature","geometry":{"type":"Point","coordinates":[-87.38196,39.24865]},"properties":{"id":116405,"name":"Farmersburg","state_code":"IN","country_code":"US"}},{"type":"Feature","geometry":{"type":"Point","coordinates":[-85.12747,40.18782]},"properties":{"id":116425,"name":"Farmland","state_code":"IN","country_code":"US"}},{"type":"Feature","geometry":{"type":"Point","coordinates":[-86.86222,38.22394]},"properties":{"id":116477,"name":"Ferdinand","state_code":"IN","country_code":"US"}},{"type":"Feature","geometry":{"type":"Point","coordinates":[-86.55196,41.56671]},"properties":{"id":116526,"name":"Fish Lake","state_code":"IN","country_code":"US"}},{"type":"Feature","geometry":{"type":"Point","coordinates":[-86.01387,39.95559]},"properties":{"id":116529,"name":"Fishers","state_code":"IN","country_code":"US"}},{"type":"Feature","geometry":{"type":"Point","coordinates":[-86.52444,40.54726]},"properties":{"id":116572,"name":"Flora","state_code":"IN","country_code":"US"}},{"type":"Feature","geometry":{"type":"Point","coordinates":[-87.58113,38.25116]},"properties":{"id":116697,"name":"Fort Branch","state_code":"IN","country_code":"US"}},{"type":"Feature","geometry":{"type":"Point","coordinates":[-85.12886,41.1306]},"properties":{"id":116763,"name":"Fort Wayne","state_code":"IN","country_code":"US"}},{"type":"Feature","geometry":{"type":"Point","coordinates":[-85.84804,39.93226]},"properties":{"id":116769,"name":"Fortville","state_code":"IN","country_code":"US"}},{"type":"Feature","geometry":{"type":"Point","coordinates":[-87.32085,40.6167]},"properties":{"id":116794,"name":"Fowler","state_code":"IN","country_code":"US"}},{"type":"Feature","geometry":{"type":"Point","coordinates":[-86.51084,40.27948]},"properties":{"id":116820,"name":"Frankfort","state_code":"IN","country_code":"US"}},{"type":"Feature","geometry":{"type":"Point","coordinates":[-86.05499,39.48061]},"properties":{"id":116833,"name":"Franklin","state_code":"IN","country_code":"US"}},{"type":"Feature","geometry":{"type":"Point","coordinates":[-85.77887,40.22282]},"properties":{"id":116879,"name":"Frankton","state_code":"IN","country_code":"US"}},{"type":"Feature","geometry":{"type":"Point","coordinates":[-84.93274,41.73088]},"properties":{"id":116920,"name":"Fremont","state_code":"IN","country_code":"US"}},{"type":"Feature","geometry":{"type":"Point","coordinates":[-86.61999,38.54894]},"properties":{"id":116931,"name":"French Lick","state_code":"IN","country_code":"US"}},{"type":"Feature","geometry":{"type":"Point","coordinates":[-85.94164,38.35173]},"properties":{"id":117021,"name":"Galena","state_code":"IN","country_code":"US"}},{"type":"Feature","geometry":{"type":"Point","coordinates":[-86.19027,40.57893]},"properties":{"id":117043,"name":"Galveston","state_code":"IN","country_code":"US"}},{"type":"Feature","geometry":{"type":"Point","coordinates":[-85.13553,41.34949]},"properties":{"id":117098,"name":"Garrett","state_code":"IN","country_code":"US"}},{"type":"Feature","geometry":{"type":"Point","coordinates":[-87.34643,41.59337]},"properties":{"id":117106,"name":"Gary","state_code":"IN","country_code":"US"}},{"type":"Feature","geometry":{"type":"Point","coordinates":[-85.61303,40.48726]},"properties":{"id":117109,"name":"Gas City","state_code":"IN","country_code":"US"}},{"type":"Feature","geometry":{"type":"Point","coordinates":[-84.95719,40.59199]},"properties":{"id":117141,"name":"Geneva","state_code":"IN","country_code":"US"}},{"type":"Feature","geometry":{"type":"Point","coordinates":[-86.50473,40.7406]},"properties":{"id":117163,"name":"Georgetown","state_code":"IN","country_code":"US"}},{"type":"Feature","geometry":{"type":"Point","coordinates":[-87.29363,40.76337]},"properties":{"id":117384,"name":"Goodland","state_code":"IN","country_code":"US"}},{"type":"Feature","geometry":{"type":"Point","coordinates":[-85.83444,41.58227]},"properties":{"id":117408,"name":"Goshen","state_code":"IN","country_code":"US"}},{"type":"Feature","geometry":{"type":"Point","coordinates":[-84.96691,41.21088]},"properties":{"id":117424,"name":"Grabill","state_code":"IN","country_code":"US"}},{"type":"Feature","geometry":{"type":"Point","coordinates":[-86.11084,41.75338]},"properties":{"id":117488,"name":"Granger","state_code":"IN","country_code":"US"}},{"type":"Feature","geometry":{"type":"Point","coordinates":[-86.86473,39.64449]},"properties":{"id":117624,"name":"Greencastle","state_code":"IN","country_code":"US"}},{"type":"Feature","geometry":{"type":"Point","coordinates":[-84.86412,39.11256]},"properties":{"id":117626,"name":"Greendale","state_code":"IN","country_code":"US"}},{"type":"Feature","geometry":{"type":"Point","coordinates":[-85.76942,39.78504]},"properties":{"id":117646,"name":"Greenfield","state_code":"IN","country_code":"US"}},{"type":"Feature","geometry":{"type":"Point","coordinates":[-85.48358,39.33727]},"properties":{"id":117669,"name":"Greensburg","state_code":"IN","country_code":"US"}},{"type":"Feature","geometry":{"type":"Point","coordinates":[-85.96665,40.47809]},"properties":{"id":117674,"name":"Greentown","state_code":"IN","country_code":"US"}},{"type":"Feature","geometry":{"type":"Point","coordinates":[-86.10665,39.61366]},"properties":{"id":117702,"name":"Greenwood","state_code":"IN","country_code":"US"}},{"type":"Feature","geometry":{"type":"Point","coordinates":[-87.42365,41.52837]},"properties":{"id":117732,"name":"Griffith","state_code":"IN","country_code":"US"}},{"type":"Feature","geometry":{"type":"Point","coordinates":[-86.14755,40.65753]},"properties":{"id":117741,"name":"Grissom Air Force Base","state_code":"IN","country_code":"US"}},{"type":"Feature","geometry":{"type":"Point","coordinates":[-86.24528,41.61338]},"properties":{"id":117798,"name":"Gulivoire Park","state_code":"IN","country_code":"US"}},{"type":"Feature","geometry":{"type":"Point","coordinates":[-85.16163,39.91116]},"properties":{"id":117837,"name":"Hagerstown","state_code":"IN","country_code":"US"}},{"type":"Feature","geometry":{"type":"Point","coordinates":[-84.91274,41.53366]},"properties":{"id":117891,"name":"Hamilton","state_code":"IN","country_code":"US"}},{"type":"Feature","geometry":{"type":"Point","coordinates":[-87.50004,41.58337]},"properties":{"id":117913,"name":"Hammond","state_code":"IN","country_code":"US"}},{"type":"Feature","geometry":{"type":"Point","coordinates":[-85.47357,38.71423]},"properties":{"id":117966,"name":"Hanover","state_code":"IN","country_code":"US"}},{"type":"Feature","geometry":{"type":"Point","coordinates":[-84.91969,41.19616]},"properties":{"id":118017,"name":"Harlan","state_code":"IN","country_code":"US"}},{"type":"Feature","geometry":{"type":"Point","coordinates":[-85.36997,40.45115]},"properties":{"id":118094,"name":"Hartford City","state_code":"IN","country_code":"US"}},{"type":"Feature","geometry":{"type":"Point","coordinates":[-87.57419,38.20504]},"properties":{"id":118141,"name":"Haubstadt","state_code":"IN","country_code":"US"}},{"type":"Feature","geometry":{"type":"Point","coordinates":[-87.20031,41.31865]},"properties":{"id":118235,"name":"Hebron","state_code":"IN","country_code":"US"}},{"type":"Feature","geometry":{"type":"Point","coordinates":[-85.76774,38.54173]},"properties":{"id":118308,"name":"Henryville","state_code":"IN","country_code":"US"}},{"type":"Feature","geometry":{"type":"Point","coordinates":[-86.71022,39.72779]},"properties":{"id":118320,"name":"Heritage Lake","state_code":"IN","country_code":"US"}},{"type":"Feature","geometry":{"type":"Point","coordinates":[-84.84301,39.16228]},"properties":{"id":118379,"name":"Hidden Valley","state_code":"IN","country_code":"US"}},{"type":"Feature","geometry":{"type":"Point","coordinates":[-87.45198,41.55365]},"properties":{"id":118396,"name":"Highland","state_code":"IN","country_code":"US"}},{"type":"Feature","geometry":{"type":"Point","coordinates":[-87.25504,41.53226]},"properties":{"id":118497,"name":"Hobart","state_code":"IN","country_code":"US"}},{"type":"Feature","geometry":{"type":"Point","coordinates":[-85.77137,39.30394]},"properties":{"id":118643,"name":"Hope","state_code":"IN","country_code":"US"}},{"type":"Feature","geometry":{"type":"Point","coordinates":[-86.53419,41.71032]},"properties":{"id":118751,"name":"Hudson Lake","state_code":"IN","country_code":"US"}},{"type":"Feature","geometry":{"type":"Point","coordinates":[-85.17247,41.22838]},"properties":{"id":118793,"name":"Huntertown","state_code":"IN","country_code":"US"}},{"type":"Feature","geometry":{"type":"Point","coordinates":[-86.955,38.29894]},"properties":{"id":118794,"name":"Huntingburg","state_code":"IN","country_code":"US"}},{"type":"Feature","geometry":{"type":"Point","coordinates":[-85.49748,40.8831]},"properties":{"id":118801,"name":"Huntington","state_code":"IN","country_code":"US"}},{"type":"Feature","geometry":{"type":"Point","coordinates":[-86.12555,40.42726]},"properties":{"id":118905,"name":"Indian Heights","state_code":"IN","country_code":"US"}},{"type":"Feature","geometry":{"type":"Point","coordinates":[-86.15804,39.76838]},"properties":{"id":118924,"name":"Indianapolis","state_code":"IN","country_code":"US"}},{"type":"Feature","geometry":{"type":"Point","coordinates":[-85.80526,39.95699]},"properties":{"id":118933,"name":"Ingalls","state_code":"IN","country_code":"US"}},{"type":"Feature","geometry":{"type":"Point","coordinates":[-87.19918,39.1631]},"properties":{"id":119137,"name":"Jasonville","state_code":"IN","country_code":"US"}},{"type":"Feature","geometry":{"type":"Point","coordinates":[-86.93111,38.39144]},"properties":{"id":119141,"name":"Jasper","state_code":"IN","country_code":"US"}},{"type":"Feature","geometry":{"type":"Point","coordinates":[-85.73718,38.27757]},"properties":{"id":119208,"name":"Jeffersonville","state_code":"IN","country_code":"US"}},{"type":"Feature","geometry":{"type":"Point","coordinates":[-85.62775,40.47976]},"properties":{"id":119303,"name":"Jonesboro","state_code":"IN","country_code":"US"}},{"type":"Feature","geometry":{"type":"Point","coordinates":[-85.26498,41.44144]},"properties":{"id":119451,"name":"Kendallville","state_code":"IN","country_code":"US"}},{"type":"Feature","geometry":{"type":"Point","coordinates":[-87.4453,40.77032]},"properties":{"id":119496,"name":"Kentland","state_code":"IN","country_code":"US"}},{"type":"Feature","geometry":{"type":"Point","coordinates":[-86.69169,41.4806]},"properties":{"id":119613,"name":"Kingsford Heights","state_code":"IN","country_code":"US"}},{"type":"Feature","geometry":{"type":"Point","coordinates":[-85.52636,39.7956]},"properties":{"id":119676,"name":"Knightstown","state_code":"IN","country_code":"US"}},{"type":"Feature","geometry":{"type":"Point","coordinates":[-86.62501,41.29588]},"properties":{"id":119682,"name":"Knox","state_code":"IN","country_code":"US"}},{"type":"Feature","geometry":{"type":"Point","coordinates":[-86.1336,40.48643]},"properties":{"id":119702,"name":"Kokomo","state_code":"IN","country_code":"US"}},{"type":"Feature","geometry":{"type":"Point","coordinates":[-86.48585,41.4181]},"properties":{"id":119706,"name":"Koontz Lake","state_code":"IN","country_code":"US"}},{"type":"Feature","geometry":{"type":"Point","coordinates":[-87.02586,41.31671]},"properties":{"id":119714,"name":"Kouts","state_code":"IN","country_code":"US"}},{"type":"Feature","geometry":{"type":"Point","coordinates":[-86.71389,41.60774]},"properties":{"id":119777,"name":"La Porte","state_code":"IN","country_code":"US"}},{"type":"Feature","geometry":{"type":"Point","coordinates":[-86.87529,40.4167]},"properties":{"id":119834,"name":"Lafayette","state_code":"IN","country_code":"US"}},{"type":"Feature","geometry":{"type":"Point","coordinates":[-85.41665,41.64172]},"properties":{"id":119848,"name":"Lagrange","state_code":"IN","country_code":"US"}},{"type":"Feature","geometry":{"type":"Point","coordinates":[-87.39476,41.33087]},"properties":{"id":119901,"name":"Lake Dalecarlia","state_code":"IN","country_code":"US"}},{"type":"Feature","geometry":{"type":"Point","coordinates":[-87.23892,41.57504]},"properties":{"id":119979,"name":"Lake Station","state_code":"IN","country_code":"US"}},{"type":"Feature","geometry":{"type":"Point","coordinates":[-87.21309,41.41032]},"properties":{"id":120026,"name":"Lakes of the Four Seasons","state_code":"IN","country_code":"US"}},{"type":"Feature","geometry":{"type":"Point","coordinates":[-85.84831,40.06837]},"properties":{"id":120133,"name":"Lapel","state_code":"IN","country_code":"US"}},{"type":"Feature","geometry":{"type":"Point","coordinates":[-86.02526,39.83865]},"properties":{"id":120225,"name":"Lawrence","state_code":"IN","country_code":"US"}},{"type":"Feature","geometry":{"type":"Point","coordinates":[-84.84995,39.09089]},"properties":{"id":120240,"name":"Lawrenceburg","state_code":"IN","country_code":"US"}},{"type":"Feature","geometry":{"type":"Point","coordinates":[-86.46917,40.04837]},"properties":{"id":120289,"name":"Lebanon","state_code":"IN","country_code":"US"}},{"type":"Feature","geometry":{"type":"Point","coordinates":[-85.01664,41.21255]},"properties":{"id":120379,"name":"Leo-Cedarville","state_code":"IN","country_code":"US"}},{"type":"Feature","geometry":{"type":"Point","coordinates":[-84.93107,39.6356]},"properties":{"id":120460,"name":"Liberty","state_code":"IN","country_code":"US"}},{"type":"Feature","geometry":{"type":"Point","coordinates":[-85.58748,41.46588]},"properties":{"id":120481,"name":"Ligonier","state_code":"IN","country_code":"US"}},{"type":"Feature","geometry":{"type":"Point","coordinates":[-87.16585,39.03477]},"properties":{"id":120589,"name":"Linton","state_code":"IN","country_code":"US"}},{"type":"Feature","geometry":{"type":"Point","coordinates":[-86.35667,40.75448]},"properties":{"id":120707,"name":"Logansport","state_code":"IN","country_code":"US"}},{"type":"Feature","geometry":{"type":"Point","coordinates":[-86.85697,41.73893]},"properties":{"id":120736,"name":"Long Beach","state_code":"IN","country_code":"US"}},{"type":"Feature","geometry":{"type":"Point","coordinates":[-86.91417,38.67699]},"properties":{"id":120764,"name":"Loogootee","state_code":"IN","country_code":"US"}},{"type":"Feature","geometry":{"type":"Point","coordinates":[-87.42059,41.29142]},"properties":{"id":120835,"name":"Lowell","state_code":"IN","country_code":"US"}},{"type":"Feature","geometry":{"type":"Point","coordinates":[-84.93969,40.04977]},"properties":{"id":120926,"name":"Lynn","state_code":"IN","country_code":"US"}},{"type":"Feature","geometry":{"type":"Point","coordinates":[-85.37996,38.73589]},"properties":{"id":120988,"name":"Madison","state_code":"IN","country_code":"US"}},{"type":"Feature","geometry":{"type":"Point","coordinates":[-85.65914,40.55837]},"properties":{"id":121243,"name":"Marion","state_code":"IN","country_code":"US"}},{"type":"Feature","geometry":{"type":"Point","coordinates":[-85.33884,40.82462]},"properties":{"id":121271,"name":"Markle","state_code":"IN","country_code":"US"}},{"type":"Feature","geometry":{"type":"Point","coordinates":[-86.42833,39.42783]},"properties":{"id":121348,"name":"Martinsville","state_code":"IN","country_code":"US"}},{"type":"Feature","geometry":{"type":"Point","coordinates":[-85.92276,39.9081]},"properties":{"id":121482,"name":"McCordsville","state_code":"IN","country_code":"US"}},{"type":"Feature","geometry":{"type":"Point","coordinates":[-87.51585,38.02615]},"properties":{"id":121627,"name":"Melody Hill","state_code":"IN","country_code":"US"}},{"type":"Feature","geometry":{"type":"Point","coordinates":[-86.15721,39.89004]},"properties":{"id":121696,"name":"Meridian Hills","state_code":"IN","country_code":"US"}},{"type":"Feature","geometry":{"type":"Point","coordinates":[-87.33281,41.48281]},"properties":{"id":121708,"name":"Merrillville","state_code":"IN","country_code":"US"}},{"type":"Feature","geometry":{"type":"Point","coordinates":[-86.89503,41.70754]},"properties":{"id":121760,"name":"Michigan City","state_code":"IN","country_code":"US"}},{"type":"Feature","geometry":{"type":"Point","coordinates":[-85.7061,41.67533]},"properties":{"id":121772,"name":"Middlebury","state_code":"IN","country_code":"US"}},{"type":"Feature","geometry":{"type":"Point","coordinates":[-85.5372,40.05727]},"properties":{"id":121790,"name":"Middletown","state_code":"IN","country_code":"US"}},{"type":"Feature","geometry":{"type":"Point","coordinates":[-85.13135,39.12117]},"properties":{"id":121835,"name":"Milan","state_code":"IN","country_code":"US"}},{"type":"Feature","geometry":{"type":"Point","coordinates":[-85.84555,41.40977]},"properties":{"id":121849,"name":"Milford","state_code":"IN","country_code":"US"}},{"type":"Feature","geometry":{"type":"Point","coordinates":[-86.15862,41.66199]},"properties":{"id":121976,"name":"Mishawaka","state_code":"IN","country_code":"US"}},{"type":"Feature","geometry":{"type":"Point","coordinates":[-86.4736,38.73283]},"properties":{"id":121996,"name":"Mitchell","state_code":"IN","country_code":"US"}},{"type":"Feature","geometry":{"type":"Point","coordinates":[-86.8789,40.86782]},"properties":{"id":122050,"name":"Monon","state_code":"IN","country_code":"US"}},{"type":"Feature","geometry":{"type":"Point","coordinates":[-84.8683,40.97477]},"properties":{"id":122085,"name":"Monroeville","state_code":"IN","country_code":"US"}},{"type":"Feature","geometry":{"type":"Point","coordinates":[-86.48222,39.57894]},"properties":{"id":122087,"name":"Monrovia","state_code":"IN","country_code":"US"}},{"type":"Feature","geometry":{"type":"Point","coordinates":[-86.76473,40.74532]},"properties":{"id":122165,"name":"Monticello","state_code":"IN","country_code":"US"}},{"type":"Feature","geometry":{"type":"Point","coordinates":[-85.27747,40.55393]},"properties":{"id":122176,"name":"Montpelier","state_code":"IN","country_code":"US"}},{"type":"Feature","geometry":{"type":"Point","coordinates":[-86.37416,39.61282]},"properties":{"id":122209,"name":"Mooresville","state_code":"IN","country_code":"US"}},{"type":"Feature","geometry":{"type":"Point","coordinates":[-87.45336,40.94615]},"properties":{"id":122260,"name":"Morocco","state_code":"IN","country_code":"US"}},{"type":"Feature","geometry":{"type":"Point","coordinates":[-85.69859,39.67338]},"properties":{"id":122280,"name":"Morristown","state_code":"IN","country_code":"US"}},{"type":"Feature","geometry":{"type":"Point","coordinates":[-87.89503,37.93227]},"properties":{"id":122394,"name":"Mount Vernon","state_code":"IN","country_code":"US"}},{"type":"Feature","geometry":{"type":"Point","coordinates":[-86.66528,40.34448]},"properties":{"id":122455,"name":"Mulberry","state_code":"IN","country_code":"US"}},{"type":"Feature","geometry":{"type":"Point","coordinates":[-85.38636,40.19338]},"properties":{"id":122465,"name":"Muncie","state_code":"IN","country_code":"US"}},{"type":"Feature","geometry":{"type":"Point","coordinates":[-87.51254,41.56448]},"properties":{"id":122478,"name":"Munster","state_code":"IN","country_code":"US"}},{"type":"Feature","geometry":{"type":"Point","coordinates":[-86.00139,41.44283]},"properties":{"id":122561,"name":"Nappanee","state_code":"IN","country_code":"US"}},{"type":"Feature","geometry":{"type":"Point","coordinates":[-86.2511,39.20727]},"properties":{"id":122573,"name":"Nashville","state_code":"IN","country_code":"US"}},{"type":"Feature","geometry":{"type":"Point","coordinates":[-85.82413,38.28562]},"properties":{"id":122654,"name":"New Albany","state_code":"IN","country_code":"US"}},{"type":"Feature","geometry":{"type":"Point","coordinates":[-86.50946,41.70032]},"properties":{"id":122680,"name":"New Carlisle","state_code":"IN","country_code":"US"}},{"type":"Feature","geometry":{"type":"Point","coordinates":[-85.37025,39.92894]},"properties":{"id":122684,"name":"New Castle","state_code":"IN","country_code":"US"}},{"type":"Feature","geometry":{"type":"Point","coordinates":[-87.27448,41.55837]},"properties":{"id":122693,"name":"New Chicago","state_code":"IN","country_code":"US"}},{"type":"Feature","geometry":{"type":"Point","coordinates":[-85.01441,41.0706]},"properties":{"id":122717,"name":"New Haven","state_code":"IN","country_code":"US"}},{"type":"Feature","geometry":{"type":"Point","coordinates":[-85.88915,39.72199]},"properties":{"id":122758,"name":"New Palestine","state_code":"IN","country_code":"US"}},{"type":"Feature","geometry":{"type":"Point","coordinates":[-85.82805,41.50033]},"properties":{"id":122760,"name":"New Paris","state_code":"IN","country_code":"US"}},{"type":"Feature","geometry":{"type":"Point","coordinates":[-86.01692,38.50506]},"properties":{"id":122761,"name":"New Pekin","state_code":"IN","country_code":"US"}},{"type":"Feature","geometry":{"type":"Point","coordinates":[-86.09526,39.5581]},"properties":{"id":122791,"name":"New Whiteland","state_code":"IN","country_code":"US"}},{"type":"Feature","geometry":{"type":"Point","coordinates":[-87.40529,37.94449]},"properties":{"id":122816,"name":"Newburgh","state_code":"IN","country_code":"US"}},{"type":"Feature","geometry":{"type":"Point","coordinates":[-87.40863,39.8842]},"properties":{"id":122840,"name":"Newport","state_code":"IN","country_code":"US"}},{"type":"Feature","geometry":{"type":"Point","coordinates":[-86.0086,40.04559]},"properties":{"id":122921,"name":"Noblesville","state_code":"IN","country_code":"US"}},{"type":"Feature","geometry":{"type":"Point","coordinates":[-86.77585,41.21504]},"properties":{"id":123044,"name":"North Judson","state_code":"IN","country_code":"US"}},{"type":"Feature","geometry":{"type":"Point","coordinates":[-86.42723,41.53421]},"properties":{"id":123057,"name":"North Liberty","state_code":"IN","country_code":"US"}},{"type":"Feature","geometry":{"type":"Point","coordinates":[-85.39663,38.76784]},"properties":{"id":123061,"name":"North Madison","state_code":"IN","country_code":"US"}},{"type":"Feature","geometry":{"type":"Point","coordinates":[-85.7686,41.0006]},"properties":{"id":123062,"name":"North Manchester","state_code":"IN","country_code":"US"}},{"type":"Feature","geometry":{"type":"Point","coordinates":[-87.3603,39.52781]},"properties":{"id":123114,"name":"North Terre Haute","state_code":"IN","country_code":"US"}},{"type":"Feature","geometry":{"type":"Point","coordinates":[-85.62358,39.00617]},"properties":{"id":123121,"name":"North Vernon","state_code":"IN","country_code":"US"}},{"type":"Feature","geometry":{"type":"Point","coordinates":[-85.69776,41.3256]},"properties":{"id":123126,"name":"North Webster","state_code":"IN","country_code":"US"}},{"type":"Feature","geometry":{"type":"Point","coordinates":[-86.23793,41.70019]},"properties":{"id":123204,"name":"Notre Dame","state_code":"IN","country_code":"US"}},{"type":"Feature","geometry":{"type":"Point","coordinates":[-85.69635,38.30562]},"properties":{"id":123254,"name":"Oak Park","state_code":"IN","country_code":"US"}},{"type":"Feature","geometry":{"type":"Point","coordinates":[-87.34501,38.33866]},"properties":{"id":123294,"name":"Oakland City","state_code":"IN","country_code":"US"}},{"type":"Feature","geometry":{"type":"Point","coordinates":[-86.9914,38.84283]},"properties":{"id":123362,"name":"Odon","state_code":"IN","country_code":"US"}},{"type":"Feature","geometry":{"type":"Point","coordinates":[-87.1917,41.62281]},"properties":{"id":123370,"name":"Ogden Dunes","state_code":"IN","country_code":"US"}},{"type":"Feature","geometry":{"type":"Point","coordinates":[-86.52527,38.90088]},"properties":{"id":123491,"name":"Oolitic","state_code":"IN","country_code":"US"}},{"type":"Feature","geometry":{"type":"Point","coordinates":[-86.45166,38.66172]},"properties":{"id":123563,"name":"Orleans","state_code":"IN","country_code":"US"}},{"type":"Feature","geometry":{"type":"Point","coordinates":[-86.07584,41.66505]},"properties":{"id":123600,"name":"Osceola","state_code":"IN","country_code":"US"}},{"type":"Feature","geometry":{"type":"Point","coordinates":[-85.29163,39.12922]},"properties":{"id":123608,"name":"Osgood","state_code":"IN","country_code":"US"}},{"type":"Feature","geometry":{"type":"Point","coordinates":[-85.16636,40.8806]},"properties":{"id":123616,"name":"Ossian","state_code":"IN","country_code":"US"}},{"type":"Feature","geometry":{"type":"Point","coordinates":[-87.0964,40.49059]},"properties":{"id":123642,"name":"Otterbein","state_code":"IN","country_code":"US"}},{"type":"Feature","geometry":{"type":"Point","coordinates":[-87.6878,38.27199]},"properties":{"id":123665,"name":"Owensville","state_code":"IN","country_code":"US"}},{"type":"Feature","geometry":{"type":"Point","coordinates":[-87.24779,40.51976]},"properties":{"id":123682,"name":"Oxford","state_code":"IN","country_code":"US"}},{"type":"Feature","geometry":{"type":"Point","coordinates":[-86.46832,38.55617]},"properties":{"id":123811,"name":"Paoli","state_code":"IN","country_code":"US"}},{"type":"Feature","geometry":{"type":"Point","coordinates":[-85.20413,40.18893]},"properties":{"id":123864,"name":"Parker City","state_code":"IN","country_code":"US"}},{"type":"Feature","geometry":{"type":"Point","coordinates":[-85.74664,39.99754]},"properties":{"id":124016,"name":"Pendleton","state_code":"IN","country_code":"US"}},{"type":"Feature","geometry":{"type":"Point","coordinates":[-86.06888,40.75365]},"properties":{"id":124096,"name":"Peru","state_code":"IN","country_code":"US"}},{"type":"Feature","geometry":{"type":"Point","coordinates":[-87.27862,38.49199]},"properties":{"id":124103,"name":"Petersburg","state_code":"IN","country_code":"US"}},{"type":"Feature","geometry":{"type":"Point","coordinates":[-85.70554,41.20032]},"properties":{"id":124176,"name":"Pierceton","state_code":"IN","country_code":"US"}},{"type":"Feature","geometry":{"type":"Point","coordinates":[-86.46694,39.86393]},"properties":{"id":124289,"name":"Pittsboro","state_code":"IN","country_code":"US"}},{"type":"Feature","geometry":{"type":"Point","coordinates":[-86.39944,39.70421]},"properties":{"id":124318,"name":"Plainfield","state_code":"IN","country_code":"US"}},{"type":"Feature","geometry":{"type":"Point","coordinates":[-86.30973,41.34366]},"properties":{"id":124401,"name":"Plymouth","state_code":"IN","country_code":"US"}},{"type":"Feature","geometry":{"type":"Point","coordinates":[-87.17615,41.57587]},"properties":{"id":124543,"name":"Portage","state_code":"IN","country_code":"US"}},{"type":"Feature","geometry":{"type":"Point","coordinates":[-87.0742,41.61559]},"properties":{"id":124551,"name":"Porter","state_code":"IN","country_code":"US"}},{"type":"Feature","geometry":{"type":"Point","coordinates":[-84.97775,40.43449]},"properties":{"id":124560,"name":"Portland","state_code":"IN","country_code":"US"}},{"type":"Feature","geometry":{"type":"Point","coordinates":[-87.78308,38.17004]},"properties":{"id":124575,"name":"Poseyville","state_code":"IN","country_code":"US"}},{"type":"Feature","geometry":{"type":"Point","coordinates":[-86.09805,39.35366]},"properties":{"id":124678,"name":"Princes Lakes","state_code":"IN","country_code":"US"}},{"type":"Feature","geometry":{"type":"Point","coordinates":[-87.56752,38.35532]},"properties":{"id":124681,"name":"Princeton","state_code":"IN","country_code":"US"}},{"type":"Feature","geometry":{"type":"Point","coordinates":[-85.14997,40.34893]},"properties":{"id":124973,"name":"Redkey","state_code":"IN","country_code":"US"}},{"type":"Feature","geometry":{"type":"Point","coordinates":[-87.15085,40.76087]},"properties":{"id":125014,"name":"Remington","state_code":"IN","country_code":"US"}},{"type":"Feature","geometry":{"type":"Point","coordinates":[-87.15086,40.9367]},"properties":{"id":125023,"name":"Rensselaer","state_code":"IN","country_code":"US"}},{"type":"Feature","geometry":{"type":"Point","coordinates":[-84.89024,39.82894]},"properties":{"id":125084,"name":"Richmond","state_code":"IN","country_code":"US"}},{"type":"Feature","geometry":{"type":"Point","coordinates":[-84.85384,38.9495]},"properties":{"id":125169,"name":"Rising Sun","state_code":"IN","country_code":"US"}},{"type":"Feature","geometry":{"type":"Point","coordinates":[-85.37331,40.96255]},"properties":{"id":125230,"name":"Roanoke","state_code":"IN","country_code":"US"}},{"type":"Feature","geometry":{"type":"Point","coordinates":[-86.21583,41.06476]},"properties":{"id":125263,"name":"Rochester","state_code":"IN","country_code":"US"}},{"type":"Feature","geometry":{"type":"Point","coordinates":[-87.04944,37.88311]},"properties":{"id":125315,"name":"Rockport","state_code":"IN","country_code":"US"}},{"type":"Feature","geometry":{"type":"Point","coordinates":[-87.22918,39.76254]},"properties":{"id":125321,"name":"Rockville","state_code":"IN","country_code":"US"}},{"type":"Feature","geometry":{"type":"Point","coordinates":[-85.37665,41.49616]},"properties":{"id":125380,"name":"Rome City","state_code":"IN","country_code":"US"}},{"type":"Feature","geometry":{"type":"Point","coordinates":[-87.31475,41.1417]},"properties":{"id":125425,"name":"Roselawn","state_code":"IN","country_code":"US"}},{"type":"Feature","geometry":{"type":"Point","coordinates":[-86.59472,40.41698]},"properties":{"id":125460,"name":"Rossville","state_code":"IN","country_code":"US"}},{"type":"Feature","geometry":{"type":"Point","coordinates":[-85.44636,39.60921]},"properties":{"id":125525,"name":"Rushville","state_code":"IN","country_code":"US"}},{"type":"Feature","geometry":{"type":"Point","coordinates":[-86.27138,40.41754]},"properties":{"id":125545,"name":"Russiaville","state_code":"IN","country_code":"US"}},{"type":"Feature","geometry":{"type":"Point","coordinates":[-87.47004,41.45004]},"properties":{"id":125662,"name":"Saint John","state_code":"IN","country_code":"US"}},{"type":"Feature","geometry":{"type":"Point","coordinates":[-85.62831,39.4281]},"properties":{"id":125700,"name":"Saint Paul","state_code":"IN","country_code":"US"}},{"type":"Feature","geometry":{"type":"Point","coordinates":[-86.10109,38.60561]},"properties":{"id":125727,"name":"Salem","state_code":"IN","country_code":"US"}},{"type":"Feature","geometry":{"type":"Point","coordinates":[-86.91416,38.12005]},"properties":{"id":125909,"name":"Santa Claus","state_code":"IN","country_code":"US"}},{"type":"Feature","geometry":{"type":"Point","coordinates":[-87.45476,41.47892]},"properties":{"id":126005,"name":"Schererville","state_code":"IN","country_code":"US"}},{"type":"Feature","geometry":{"type":"Point","coordinates":[-85.77025,38.68561]},"properties":{"id":126062,"name":"Scottsburg","state_code":"IN","country_code":"US"}},{"type":"Feature","geometry":{"type":"Point","coordinates":[-87.26724,39.49198]},"properties":{"id":126126,"name":"Seelyville","state_code":"IN","country_code":"US"}},{"type":"Feature","geometry":{"type":"Point","coordinates":[-85.75496,38.39812]},"properties":{"id":126135,"name":"Sellersburg","state_code":"IN","country_code":"US"}},{"type":"Feature","geometry":{"type":"Point","coordinates":[-85.89025,38.95922]},"properties":{"id":126192,"name":"Seymour","state_code":"IN","country_code":"US"}},{"type":"Feature","geometry":{"type":"Point","coordinates":[-86.9489,40.37365]},"properties":{"id":126201,"name":"Shadeland","state_code":"IN","country_code":"US"}},{"type":"Feature","geometry":{"type":"Point","coordinates":[-87.39363,39.17837]},"properties":{"id":126264,"name":"Shelburn","state_code":"IN","country_code":"US"}},{"type":"Feature","geometry":{"type":"Point","coordinates":[-85.77692,39.52144]},"properties":{"id":126280,"name":"Shelbyville","state_code":"IN","country_code":"US"}},{"type":"Feature","geometry":{"type":"Point","coordinates":[-86.22055,40.13504]},"properties":{"id":126318,"name":"Sheridan","state_code":"IN","country_code":"US"}},{"type":"Feature","geometry":{"type":"Point","coordinates":[-86.79111,38.66644]},"properties":{"id":126364,"name":"Shoals","state_code":"IN","country_code":"US"}},{"type":"Feature","geometry":{"type":"Point","coordinates":[-87.14472,41.46315]},"properties":{"id":126373,"name":"Shorewood Forest","state_code":"IN","country_code":"US"}},{"type":"Feature","geometry":{"type":"Point","coordinates":[-85.975,41.75422]},"properties":{"id":126447,"name":"Simonton Lake","state_code":"IN","country_code":"US"}},{"type":"Feature","geometry":{"type":"Point","coordinates":[-86.51077,39.05969]},"properties":{"id":126531,"name":"Smithville-Sanders","state_code":"IN","country_code":"US"}},{"type":"Feature","geometry":{"type":"Point","coordinates":[-86.25001,41.68338]},"properties":{"id":126624,"name":"South Bend","state_code":"IN","country_code":"US"}},{"type":"Feature","geometry":{"type":"Point","coordinates":[-87.13726,41.54198]},"properties":{"id":126666,"name":"South Haven","state_code":"IN","country_code":"US"}},{"type":"Feature","geometry":{"type":"Point","coordinates":[-85.62804,41.08477]},"properties":{"id":126747,"name":"South Whitley","state_code":"IN","country_code":"US"}},{"type":"Feature","geometry":{"type":"Point","coordinates":[-86.12776,39.66505]},"properties":{"id":126782,"name":"Southport","state_code":"IN","country_code":"US"}},{"type":"Feature","geometry":{"type":"Point","coordinates":[-86.26721,39.80227]},"properties":{"id":126818,"name":"Speedway","state_code":"IN","country_code":"US"}},{"type":"Feature","geometry":{"type":"Point","coordinates":[-86.76251,39.28671]},"properties":{"id":126820,"name":"Spencer","state_code":"IN","country_code":"US"}},{"type":"Feature","geometry":{"type":"Point","coordinates":[-87.40585,39.09532]},"properties":{"id":127182,"name":"Sullivan","state_code":"IN","country_code":"US"}},{"type":"Feature","geometry":{"type":"Point","coordinates":[-85.09468,39.237]},"properties":{"id":127255,"name":"Sunman","state_code":"IN","country_code":"US"}},{"type":"Feature","geometry":{"type":"Point","coordinates":[-85.76915,40.57198]},"properties":{"id":127339,"name":"Sweetser","state_code":"IN","country_code":"US"}},{"type":"Feature","geometry":{"type":"Point","coordinates":[-85.75249,41.42783]},"properties":{"id":127363,"name":"Syracuse","state_code":"IN","country_code":"US"}},{"type":"Feature","geometry":{"type":"Point","coordinates":[-86.76777,37.95144]},"properties":{"id":127488,"name":"Tell City","state_code":"IN","country_code":"US"}},{"type":"Feature","geometry":{"type":"Point","coordinates":[-87.41391,39.4667]},"properties":{"id":127520,"name":"Terre Haute","state_code":"IN","country_code":"US"}},{"type":"Feature","geometry":{"type":"Point","coordinates":[-86.60667,40.12948]},"properties":{"id":127605,"name":"Thorntown","state_code":"IN","country_code":"US"}},{"type":"Feature","geometry":{"type":"Point","coordinates":[-86.0411,40.28226]},"properties":{"id":127676,"name":"Tipton","state_code":"IN","country_code":"US"}},{"type":"Feature","geometry":{"type":"Point","coordinates":[-85.53971,41.53922]},"properties":{"id":127733,"name":"Topeka","state_code":"IN","country_code":"US"}},{"type":"Feature","geometry":{"type":"Point","coordinates":[-86.15082,39.41616]},"properties":{"id":127775,"name":"Trafalgar","state_code":"IN","country_code":"US"}},{"type":"Feature","geometry":{"type":"Point","coordinates":[-86.8592,41.69837]},"properties":{"id":127777,"name":"Trail Creek","state_code":"IN","country_code":"US"}},{"type":"Feature","geometry":{"type":"Point","coordinates":[-85.44192,41.24588]},"properties":{"id":127817,"name":"Tri-Lakes","state_code":"IN","country_code":"US"}},{"type":"Feature","geometry":{"type":"Point","coordinates":[-84.80913,40.20199]},"properties":{"id":127983,"name":"Union City","state_code":"IN","country_code":"US"}},{"type":"Feature","geometry":{"type":"Point","coordinates":[-85.49442,40.4756]},"properties":{"id":128038,"name":"Upland","state_code":"IN","country_code":"US"}},{"type":"Feature","geometry":{"type":"Point","coordinates":[-87.06114,41.47309]},"properties":{"id":128121,"name":"Valparaiso","state_code":"IN","country_code":"US"}},{"type":"Feature","geometry":{"type":"Point","coordinates":[-87.26251,40.11309]},"properties":{"id":128161,"name":"Veedersburg","state_code":"IN","country_code":"US"}},{"type":"Feature","geometry":{"type":"Point","coordinates":[-85.2519,39.072]},"properties":{"id":128208,"name":"Versailles","state_code":"IN","country_code":"US"}},{"type":"Feature","geometry":{"type":"Point","coordinates":[-85.06717,38.74784]},"properties":{"id":128213,"name":"Vevay","state_code":"IN","country_code":"US"}},{"type":"Feature","geometry":{"type":"Point","coordinates":[-87.52863,38.67727]},"properties":{"id":128263,"name":"Vincennes","state_code":"IN","country_code":"US"}},{"type":"Feature","geometry":{"type":"Point","coordinates":[-85.82054,40.79782]},"properties":{"id":128309,"name":"Wabash","state_code":"IN","country_code":"US"}},{"type":"Feature","geometry":{"type":"Point","coordinates":[-86.02083,41.53616]},"properties":{"id":128355,"name":"Wakarusa","state_code":"IN","country_code":"US"}},{"type":"Feature","geometry":{"type":"Point","coordinates":[-86.48307,41.46671]},"properties":{"id":128391,"name":"Walkerton","state_code":"IN","country_code":"US"}},{"type":"Feature","geometry":{"type":"Point","coordinates":[-86.24194,40.66087]},"properties":{"id":128435,"name":"Walton","state_code":"IN","country_code":"US"}},{"type":"Feature","geometry":{"type":"Point","coordinates":[-86.89836,41.4306]},"properties":{"id":128450,"name":"Wanatah","state_code":"IN","country_code":"US"}},{"type":"Feature","geometry":{"type":"Point","coordinates":[-85.4272,40.68282]},"properties":{"id":128477,"name":"Warren","state_code":"IN","country_code":"US"}},{"type":"Feature","geometry":{"type":"Point","coordinates":[-86.05026,39.78199]},"properties":{"id":128499,"name":"Warren Park","state_code":"IN","country_code":"US"}},{"type":"Feature","geometry":{"type":"Point","coordinates":[-85.85305,41.2381]},"properties":{"id":128520,"name":"Warsaw","state_code":"IN","country_code":"US"}},{"type":"Feature","geometry":{"type":"Point","coordinates":[-87.17279,38.65922]},"properties":{"id":128538,"name":"Washington","state_code":"IN","country_code":"US"}},{"type":"Feature","geometry":{"type":"Point","coordinates":[-85.01997,41.43199]},"properties":{"id":128613,"name":"Waterloo","state_code":"IN","country_code":"US"}},{"type":"Feature","geometry":{"type":"Point","coordinates":[-86.90807,40.42587]},"properties":{"id":128908,"name":"West Lafayette","state_code":"IN","country_code":"US"}},{"type":"Feature","geometry":{"type":"Point","coordinates":[-87.45002,39.46504]},"properties":{"id":128989,"name":"West Terre Haute","state_code":"IN","country_code":"US"}},{"type":"Feature","geometry":{"type":"Point","coordinates":[-86.12749,40.04282]},"properties":{"id":129027,"name":"Westfield","state_code":"IN","country_code":"US"}},{"type":"Feature","geometry":{"type":"Point","coordinates":[-85.57303,39.17589]},"properties":{"id":129070,"name":"Westport","state_code":"IN","country_code":"US"}},{"type":"Feature","geometry":{"type":"Point","coordinates":[-86.90058,41.54143]},"properties":{"id":129079,"name":"Westville","state_code":"IN","country_code":"US"}},{"type":"Feature","geometry":{"type":"Point","coordinates":[-86.07971,39.55005]},"properties":{"id":129176,"name":"Whiteland","state_code":"IN","country_code":"US"}},{"type":"Feature","geometry":{"type":"Point","coordinates":[-86.34583,39.99726]},"properties":{"id":129188,"name":"Whitestown","state_code":"IN","country_code":"US"}},{"type":"Feature","geometry":{"type":"Point","coordinates":[-87.49449,41.67976]},"properties":{"id":129196,"name":"Whiting","state_code":"IN","country_code":"US"}},{"type":"Feature","geometry":{"type":"Point","coordinates":[-87.2939,40.28837]},"properties":{"id":129280,"name":"Williamsport","state_code":"IN","country_code":"US"}},{"type":"Feature","geometry":{"type":"Point","coordinates":[-86.60306,41.05143]},"properties":{"id":129350,"name":"Winamac","state_code":"IN","country_code":"US"}},{"type":"Feature","geometry":{"type":"Point","coordinates":[-84.98135,40.17199]},"properties":{"id":129357,"name":"Winchester","state_code":"IN","country_code":"US"}},{"type":"Feature","geometry":{"type":"Point","coordinates":[-87.27531,41.40531]},"properties":{"id":129398,"name":"Winfield","state_code":"IN","country_code":"US"}},{"type":"Feature","geometry":{"type":"Point","coordinates":[-85.82193,41.22727]},"properties":{"id":129426,"name":"Winona Lake","state_code":"IN","country_code":"US"}},{"type":"Feature","geometry":{"type":"Point","coordinates":[-85.36665,41.52588]},"properties":{"id":129470,"name":"Wolcottville","state_code":"IN","country_code":"US"}},{"type":"Feature","geometry":{"type":"Point","coordinates":[-84.8533,41.12533]},"properties":{"id":129503,"name":"Woodburn","state_code":"IN","country_code":"US"}},{"type":"Feature","geometry":{"type":"Point","coordinates":[-86.97945,39.12504]},"properties":{"id":129596,"name":"Worthington","state_code":"IN","country_code":"US"}},{"type":"Feature","geometry":{"type":"Point","coordinates":[-85.49414,40.17365]},"properties":{"id":129707,"name":"Yorktown","state_code":"IN","country_code":"US"}},{"type":"Feature","geometry":{"type":"Point","coordinates":[-86.26194,39.95087]},"properties":{"id":129759,"name":"Zionsville","state_code":"IN","country_code":"US"}}]}