{"type":"FeatureCollection","features":[{"type":"Feature","geometry":{"type":"Point","coordinates":[-85.13468,36.6909]},"properties":{"id":111102,"name":"Albany","state_code":"KY","country_code":"US"}},{"type":"Feature","geometry":{"type":"Point","coordinates":[-84.38799,38.95951]},"properties":{"id":111149,"name":"Alexandria","state_code":"KY","country_code":"US"}},{"type":"Feature","geometry":{"type":"Point","coordinates":[-85.53302,38.26674]},"properties":{"id":111304,"name":"Anchorage","state_code":"KY","country_code":"US"}},{"type":"Feature","geometry":{"type":"Point","coordinates":[-83.97048,37.31925]},"properties":{"id":111356,"name":"Annville","state_code":"KY","country_code":"US"}},{"type":"Feature","geometry":{"type":"Point","coordinates":[-82.63794,38.47841]},"properties":{"id":111526,"name":"Ashland","state_code":"KY","country_code":"US"}},{"type":"Feature","geometry":{"type":"Point","coordinates":[-86.71027,36.86421]},"properties":{"id":111620,"name":"Auburn","state_code":"KY","country_code":"US"}},{"type":"Feature","geometry":{"type":"Point","coordinates":[-85.72524,38.20396]},"properties":{"id":111642,"name":"Audubon Park","state_code":"KY","country_code":"US"}},{"type":"Feature","geometry":{"type":"Point","coordinates":[-84.00576,38.77174]},"properties":{"id":111648,"name":"Augusta","state_code":"KY","country_code":"US"}},{"type":"Feature","geometry":{"type":"Point","coordinates":[-85.60329,38.29729]},"properties":{"id":111816,"name":"Barbourmeade","state_code":"KY","country_code":"US"}},{"type":"Feature","geometry":{"type":"Point","coordinates":[-83.88881,36.86648]},"properties":{"id":111818,"name":"Barbourville","state_code":"KY","country_code":"US"}},{"type":"Feature","geometry":{"type":"Point","coordinates":[-85.4669,37.80923]},"properties":{"id":111820,"name":"Bardstown","state_code":"KY","country_code":"US"}},{"type":"Feature","geometry":{"type":"Point","coordinates":[-89.00979,36.87061]},"properties":{"id":111821,"name":"Bardwell","state_code":"KY","country_code":"US"}},{"type":"Feature","geometry":{"type":"Point","coordinates":[-83.70686,37.57175]},"properties":{"id":111984,"name":"Beattyville","state_code":"KY","country_code":"US"}},{"type":"Feature","geometry":{"type":"Point","coordinates":[-86.87583,37.40199]},"properties":{"id":112000,"name":"Beaver Dam","state_code":"KY","country_code":"US"}},{"type":"Feature","geometry":{"type":"Point","coordinates":[-85.31773,38.59256]},"properties":{"id":112019,"name":"Bedford","state_code":"KY","country_code":"US"}},{"type":"Feature","geometry":{"type":"Point","coordinates":[-85.63135,38.25479]},"properties":{"id":112043,"name":"Beechwood Village","state_code":"KY","country_code":"US"}},{"type":"Feature","geometry":{"type":"Point","coordinates":[-84.47883,39.10645]},"properties":{"id":112109,"name":"Bellevue","state_code":"KY","country_code":"US"}},{"type":"Feature","geometry":{"type":"Point","coordinates":[-88.35031,36.85728]},"properties":{"id":112192,"name":"Benton","state_code":"KY","country_code":"US"}},{"type":"Feature","geometry":{"type":"Point","coordinates":[-84.29632,37.56869]},"properties":{"id":112213,"name":"Berea","state_code":"KY","country_code":"US"}},{"type":"Feature","geometry":{"type":"Point","coordinates":[-85.31662,37.91034]},"properties":{"id":112433,"name":"Bloomfield","state_code":"KY","country_code":"US"}},{"type":"Feature","geometry":{"type":"Point","coordinates":[-83.67491,37.4762]},"properties":{"id":112563,"name":"Booneville","state_code":"KY","country_code":"US"}},{"type":"Feature","geometry":{"type":"Point","coordinates":[-86.4436,36.99032]},"properties":{"id":112628,"name":"Bowling Green","state_code":"KY","country_code":"US"}},{"type":"Feature","geometry":{"type":"Point","coordinates":[-86.16941,37.99896]},"properties":{"id":112686,"name":"Brandenburg","state_code":"KY","country_code":"US"}},{"type":"Feature","geometry":{"type":"Point","coordinates":[-87.86308,37.68282]},"properties":{"id":112715,"name":"Breckinridge Center","state_code":"KY","country_code":"US"}},{"type":"Feature","geometry":{"type":"Point","coordinates":[-84.41383,37.40425]},"properties":{"id":112837,"name":"Brodhead","state_code":"KY","country_code":"US"}},{"type":"Feature","geometry":{"type":"Point","coordinates":[-85.70968,38.06118]},"properties":{"id":112881,"name":"Brooks","state_code":"KY","country_code":"US"}},{"type":"Feature","geometry":{"type":"Point","coordinates":[-84.06576,38.68257]},"properties":{"id":112891,"name":"Brooksville","state_code":"KY","country_code":"US"}},{"type":"Feature","geometry":{"type":"Point","coordinates":[-86.26775,37.19255]},"properties":{"id":112929,"name":"Brownsville","state_code":"KY","country_code":"US"}},{"type":"Feature","geometry":{"type":"Point","coordinates":[-85.43996,38.38368]},"properties":{"id":112989,"name":"Buckner","state_code":"KY","country_code":"US"}},{"type":"Feature","geometry":{"type":"Point","coordinates":[-85.6519,38.19507]},"properties":{"id":112996,"name":"Buechel","state_code":"KY","country_code":"US"}},{"type":"Feature","geometry":{"type":"Point","coordinates":[-85.37052,36.79034]},"properties":{"id":113059,"name":"Burkesville","state_code":"KY","country_code":"US"}},{"type":"Feature","geometry":{"type":"Point","coordinates":[-84.72411,39.02756]},"properties":{"id":113067,"name":"Burlington","state_code":"KY","country_code":"US"}},{"type":"Feature","geometry":{"type":"Point","coordinates":[-87.8353,36.86505]},"properties":{"id":113165,"name":"Cadiz","state_code":"KY","country_code":"US"}},{"type":"Feature","geometry":{"type":"Point","coordinates":[-87.25833,37.53894]},"properties":{"id":113198,"name":"Calhoun","state_code":"KY","country_code":"US"}},{"type":"Feature","geometry":{"type":"Point","coordinates":[-88.35004,37.03339]},"properties":{"id":113234,"name":"Calvert City","state_code":"KY","country_code":"US"}},{"type":"Feature","geometry":{"type":"Point","coordinates":[-83.8877,37.99425]},"properties":{"id":113241,"name":"Camargo","state_code":"KY","country_code":"US"}},{"type":"Feature","geometry":{"type":"Point","coordinates":[-85.34191,37.3434]},"properties":{"id":113305,"name":"Campbellsville","state_code":"KY","country_code":"US"}},{"type":"Feature","geometry":{"type":"Point","coordinates":[-83.54741,37.73425]},"properties":{"id":113310,"name":"Campton","state_code":"KY","country_code":"US"}},{"type":"Feature","geometry":{"type":"Point","coordinates":[-84.02743,38.31202]},"properties":{"id":113402,"name":"Carlisle","state_code":"KY","country_code":"US"}},{"type":"Feature","geometry":{"type":"Point","coordinates":[-85.1794,38.6809]},"properties":{"id":113466,"name":"Carrollton","state_code":"KY","country_code":"US"}},{"type":"Feature","geometry":{"type":"Point","coordinates":[-82.60044,38.4048]},"properties":{"id":113572,"name":"Catlettsburg","state_code":"KY","country_code":"US"}},{"type":"Feature","geometry":{"type":"Point","coordinates":[-85.95692,37.13672]},"properties":{"id":113584,"name":"Cave City","state_code":"KY","country_code":"US"}},{"type":"Feature","geometry":{"type":"Point","coordinates":[-87.12333,37.29393]},"properties":{"id":113666,"name":"Central City","state_code":"KY","country_code":"US"}},{"type":"Feature","geometry":{"type":"Point","coordinates":[-84.39549,38.91923]},"properties":{"id":114159,"name":"Claryville","state_code":"KY","country_code":"US"}},{"type":"Feature","geometry":{"type":"Point","coordinates":[-87.82002,37.47671]},"properties":{"id":114166,"name":"Clay","state_code":"KY","country_code":"US"}},{"type":"Feature","geometry":{"type":"Point","coordinates":[-88.9934,36.66728]},"properties":{"id":114269,"name":"Clinton","state_code":"KY","country_code":"US"}},{"type":"Feature","geometry":{"type":"Point","coordinates":[-86.63276,37.83339]},"properties":{"id":114314,"name":"Cloverport","state_code":"KY","country_code":"US"}},{"type":"Feature","geometry":{"type":"Point","coordinates":[-82.55849,37.51316]},"properties":{"id":114332,"name":"Coal Run Village","state_code":"KY","country_code":"US"}},{"type":"Feature","geometry":{"type":"Point","coordinates":[-84.43994,39.02173]},"properties":{"id":114385,"name":"Cold Spring","state_code":"KY","country_code":"US"}},{"type":"Feature","geometry":{"type":"Point","coordinates":[-85.52385,38.31479]},"properties":{"id":114391,"name":"Coldstream","state_code":"KY","country_code":"US"}},{"type":"Feature","geometry":{"type":"Point","coordinates":[-85.30635,37.10284]},"properties":{"id":114464,"name":"Columbia","state_code":"KY","country_code":"US"}},{"type":"Feature","geometry":{"type":"Point","coordinates":[-84.09688,36.9487]},"properties":{"id":114631,"name":"Corbin","state_code":"KY","country_code":"US"}},{"type":"Feature","geometry":{"type":"Point","coordinates":[-84.50855,39.08367]},"properties":{"id":114736,"name":"Covington","state_code":"KY","country_code":"US"}},{"type":"Feature","geometry":{"type":"Point","coordinates":[-84.58161,39.05145]},"properties":{"id":114797,"name":"Crescent Springs","state_code":"KY","country_code":"US"}},{"type":"Feature","geometry":{"type":"Point","coordinates":[-84.58494,39.02728]},"properties":{"id":114808,"name":"Crestview Hills","state_code":"KY","country_code":"US"}},{"type":"Feature","geometry":{"type":"Point","coordinates":[-85.47246,38.32424]},"properties":{"id":114809,"name":"Crestwood","state_code":"KY","country_code":"US"}},{"type":"Feature","geometry":{"type":"Point","coordinates":[-84.60522,38.78284]},"properties":{"id":114824,"name":"Crittenden","state_code":"KY","country_code":"US"}},{"type":"Feature","geometry":{"type":"Point","coordinates":[-82.9885,36.97815]},"properties":{"id":114906,"name":"Cumberland","state_code":"KY","country_code":"US"}},{"type":"Feature","geometry":{"type":"Point","coordinates":[-84.2941,38.39035]},"properties":{"id":114952,"name":"Cynthiana","state_code":"KY","country_code":"US"}},{"type":"Feature","geometry":{"type":"Point","coordinates":[-84.77217,37.64563]},"properties":{"id":115033,"name":"Danville","state_code":"KY","country_code":"US"}},{"type":"Feature","geometry":{"type":"Point","coordinates":[-87.69251,37.16727]},"properties":{"id":115087,"name":"Dawson Springs","state_code":"KY","country_code":"US"}},{"type":"Feature","geometry":{"type":"Point","coordinates":[-84.47272,39.11284]},"properties":{"id":115091,"name":"Dayton","state_code":"KY","country_code":"US"}},{"type":"Feature","geometry":{"type":"Point","coordinates":[-87.69029,37.51782]},"properties":{"id":115364,"name":"Dixon","state_code":"KY","country_code":"US"}},{"type":"Feature","geometry":{"type":"Point","coordinates":[-86.11653,37.95665]},"properties":{"id":115383,"name":"Doe Valley","state_code":"KY","country_code":"US"}},{"type":"Feature","geometry":{"type":"Point","coordinates":[-85.55274,38.23785]},"properties":{"id":115438,"name":"Douglass Hills","state_code":"KY","country_code":"US"}},{"type":"Feature","geometry":{"type":"Point","coordinates":[-84.58994,38.68201]},"properties":{"id":115483,"name":"Dry Ridge","state_code":"KY","country_code":"US"}},{"type":"Feature","geometry":{"type":"Point","coordinates":[-87.51194,37.27421]},"properties":{"id":115619,"name":"Earlington","state_code":"KY","country_code":"US"}},{"type":"Feature","geometry":{"type":"Point","coordinates":[-88.0803,37.0945]},"properties":{"id":115826,"name":"Eddyville","state_code":"KY","country_code":"US"}},{"type":"Feature","geometry":{"type":"Point","coordinates":[-84.58189,39.01867]},"properties":{"id":115858,"name":"Edgewood","state_code":"KY","country_code":"US"}},{"type":"Feature","geometry":{"type":"Point","coordinates":[-85.61219,36.98006]},"properties":{"id":115881,"name":"Edmonton","state_code":"KY","country_code":"US"}},{"type":"Feature","geometry":{"type":"Point","coordinates":[-85.85913,37.69395]},"properties":{"id":115978,"name":"Elizabethtown","state_code":"KY","country_code":"US"}},{"type":"Feature","geometry":{"type":"Point","coordinates":[-85.37107,38.10034]},"properties":{"id":115986,"name":"Elk Creek","state_code":"KY","country_code":"US"}},{"type":"Feature","geometry":{"type":"Point","coordinates":[-83.13295,37.96481]},"properties":{"id":115996,"name":"Elkfork","state_code":"KY","country_code":"US"}},{"type":"Feature","geometry":{"type":"Point","coordinates":[-87.15417,36.81004]},"properties":{"id":116012,"name":"Elkton","state_code":"KY","country_code":"US"}},{"type":"Feature","geometry":{"type":"Point","coordinates":[-84.60467,39.01256]},"properties":{"id":116071,"name":"Elsmere","state_code":"KY","country_code":"US"}},{"type":"Feature","geometry":{"type":"Point","coordinates":[-85.18051,38.37007]},"properties":{"id":116099,"name":"Eminence","state_code":"KY","country_code":"US"}},{"type":"Feature","geometry":{"type":"Point","coordinates":[-84.60078,39.01673]},"properties":{"id":116172,"name":"Erlanger","state_code":"KY","country_code":"US"}},{"type":"Feature","geometry":{"type":"Point","coordinates":[-85.75885,38.10507]},"properties":{"id":116299,"name":"Fairdale","state_code":"KY","country_code":"US"}},{"type":"Feature","geometry":{"type":"Point","coordinates":[-84.33021,38.67674]},"properties":{"id":116386,"name":"Falmouth","state_code":"KY","country_code":"US"}},{"type":"Feature","geometry":{"type":"Point","coordinates":[-88.56856,37.04634]},"properties":{"id":116400,"name":"Farley","state_code":"KY","country_code":"US"}},{"type":"Feature","geometry":{"type":"Point","coordinates":[-85.58774,38.15979]},"properties":{"id":116482,"name":"Fern Creek","state_code":"KY","country_code":"US"}},{"type":"Feature","geometry":{"type":"Point","coordinates":[-82.71711,38.52258]},"properties":{"id":116557,"name":"Flatwoods","state_code":"KY","country_code":"US"}},{"type":"Feature","geometry":{"type":"Point","coordinates":[-83.73381,38.4223]},"properties":{"id":116561,"name":"Flemingsburg","state_code":"KY","country_code":"US"}},{"type":"Feature","geometry":{"type":"Point","coordinates":[-84.62661,38.99895]},"properties":{"id":116578,"name":"Florence","state_code":"KY","country_code":"US"}},{"type":"Feature","geometry":{"type":"Point","coordinates":[-87.46056,36.65429]},"properties":{"id":116698,"name":"Fort Campbell North","state_code":"KY","country_code":"US"}},{"type":"Feature","geometry":{"type":"Point","coordinates":[-85.96363,37.89113]},"properties":{"id":116721,"name":"Fort Knox","state_code":"KY","country_code":"US"}},{"type":"Feature","geometry":{"type":"Point","coordinates":[-84.54744,39.0595]},"properties":{"id":116731,"name":"Fort Mitchell","state_code":"KY","country_code":"US"}},{"type":"Feature","geometry":{"type":"Point","coordinates":[-84.44716,39.07506]},"properties":{"id":116754,"name":"Fort Thomas","state_code":"KY","country_code":"US"}},{"type":"Feature","geometry":{"type":"Point","coordinates":[-84.53411,39.05173]},"properties":{"id":116765,"name":"Fort Wright","state_code":"KY","country_code":"US"}},{"type":"Feature","geometry":{"type":"Point","coordinates":[-84.72439,39.10506]},"properties":{"id":116815,"name":"Francisville","state_code":"KY","country_code":"US"}},{"type":"Feature","geometry":{"type":"Point","coordinates":[-84.87328,38.20091]},"properties":{"id":116818,"name":"Frankfort","state_code":"KY","country_code":"US"}},{"type":"Feature","geometry":{"type":"Point","coordinates":[-86.57722,36.72226]},"properties":{"id":116825,"name":"Franklin","state_code":"KY","country_code":"US"}},{"type":"Feature","geometry":{"type":"Point","coordinates":[-83.62575,37.95092]},"properties":{"id":116933,"name":"Frenchburg","state_code":"KY","country_code":"US"}},{"type":"Feature","geometry":{"type":"Point","coordinates":[-88.87423,36.50423]},"properties":{"id":116985,"name":"Fulton","state_code":"KY","country_code":"US"}},{"type":"Feature","geometry":{"type":"Point","coordinates":[-84.55883,38.2098]},"properties":{"id":117157,"name":"Georgetown","state_code":"KY","country_code":"US"}},{"type":"Feature","geometry":{"type":"Point","coordinates":[-85.91192,36.99588]},"properties":{"id":117246,"name":"Glasgow","state_code":"KY","country_code":"US"}},{"type":"Feature","geometry":{"type":"Point","coordinates":[-85.62302,38.27313]},"properties":{"id":117557,"name":"Graymoor-Devondale","state_code":"KY","country_code":"US"}},{"type":"Feature","geometry":{"type":"Point","coordinates":[-82.9485,38.33258]},"properties":{"id":117561,"name":"Grayson","state_code":"KY","country_code":"US"}},{"type":"Feature","geometry":{"type":"Point","coordinates":[-85.49885,37.26089]},"properties":{"id":117668,"name":"Greensburg","state_code":"KY","country_code":"US"}},{"type":"Feature","geometry":{"type":"Point","coordinates":[-82.83017,38.57313]},"properties":{"id":117677,"name":"Greenup","state_code":"KY","country_code":"US"}},{"type":"Feature","geometry":{"type":"Point","coordinates":[-87.17889,37.20115]},"properties":{"id":117682,"name":"Greenville","state_code":"KY","country_code":"US"}},{"type":"Feature","geometry":{"type":"Point","coordinates":[-87.16639,36.64838]},"properties":{"id":117811,"name":"Guthrie","state_code":"KY","country_code":"US"}},{"type":"Feature","geometry":{"type":"Point","coordinates":[-86.46053,37.78006]},"properties":{"id":118006,"name":"Hardinsburg","state_code":"KY","country_code":"US"}},{"type":"Feature","geometry":{"type":"Point","coordinates":[-83.32185,36.84314]},"properties":{"id":118015,"name":"Harlan","state_code":"KY","country_code":"US"}},{"type":"Feature","geometry":{"type":"Point","coordinates":[-84.84329,37.7623]},"properties":{"id":118078,"name":"Harrodsburg","state_code":"KY","country_code":"US"}},{"type":"Feature","geometry":{"type":"Point","coordinates":[-86.90916,37.45116]},"properties":{"id":118086,"name":"Hartford","state_code":"KY","country_code":"US"}},{"type":"Feature","geometry":{"type":"Point","coordinates":[-86.75499,37.90006]},"properties":{"id":118164,"name":"Hawesville","state_code":"KY","country_code":"US"}},{"type":"Feature","geometry":{"type":"Point","coordinates":[-83.19323,37.24954]},"properties":{"id":118200,"name":"Hazard","state_code":"KY","country_code":"US"}},{"type":"Feature","geometry":{"type":"Point","coordinates":[-84.70106,39.06589]},"properties":{"id":118232,"name":"Hebron","state_code":"KY","country_code":"US"}},{"type":"Feature","geometry":{"type":"Point","coordinates":[-85.66607,38.04951]},"properties":{"id":118240,"name":"Hebron Estates","state_code":"KY","country_code":"US"}},{"type":"Feature","geometry":{"type":"Point","coordinates":[-87.59001,37.83615]},"properties":{"id":118274,"name":"Henderson","state_code":"KY","country_code":"US"}},{"type":"Feature","geometry":{"type":"Point","coordinates":[-88.62922,37.0395]},"properties":{"id":118288,"name":"Hendron","state_code":"KY","country_code":"US"}},{"type":"Feature","geometry":{"type":"Point","coordinates":[-85.71968,38.12368]},"properties":{"id":118317,"name":"Heritage Creek","state_code":"KY","country_code":"US"}},{"type":"Feature","geometry":{"type":"Point","coordinates":[-89.18618,36.57117]},"properties":{"id":118361,"name":"Hickman","state_code":"KY","country_code":"US"}},{"type":"Feature","geometry":{"type":"Point","coordinates":[-84.45189,39.03312]},"properties":{"id":118406,"name":"Highland Heights","state_code":"KY","country_code":"US"}},{"type":"Feature","geometry":{"type":"Point","coordinates":[-85.62413,38.14285]},"properties":{"id":118425,"name":"Highview","state_code":"KY","country_code":"US"}},{"type":"Feature","geometry":{"type":"Point","coordinates":[-85.68551,38.06979]},"properties":{"id":118470,"name":"Hillview","state_code":"KY","country_code":"US"}},{"type":"Feature","geometry":{"type":"Point","coordinates":[-82.98044,37.33593]},"properties":{"id":118478,"name":"Hindman","state_code":"KY","country_code":"US"}},{"type":"Feature","geometry":{"type":"Point","coordinates":[-85.73996,37.57395]},"properties":{"id":118508,"name":"Hodgenville","state_code":"KY","country_code":"US"}},{"type":"Feature","geometry":{"type":"Point","coordinates":[-87.49117,36.86561]},"properties":{"id":118655,"name":"Hopkinsville","state_code":"KY","country_code":"US"}},{"type":"Feature","geometry":{"type":"Point","coordinates":[-85.90692,37.1795]},"properties":{"id":118670,"name":"Horse Cave","state_code":"KY","country_code":"US"}},{"type":"Feature","geometry":{"type":"Point","coordinates":[-85.58829,38.23813]},"properties":{"id":118830,"name":"Hurstbourne","state_code":"KY","country_code":"US"}},{"type":"Feature","geometry":{"type":"Point","coordinates":[-85.58913,38.22118]},"properties":{"id":118831,"name":"Hurstbourne Acres","state_code":"KY","country_code":"US"}},{"type":"Feature","geometry":{"type":"Point","coordinates":[-83.37324,37.16093]},"properties":{"id":118854,"name":"Hyden","state_code":"KY","country_code":"US"}},{"type":"Feature","geometry":{"type":"Point","coordinates":[-84.54411,38.94312]},"properties":{"id":118890,"name":"Independence","state_code":"KY","country_code":"US"}},{"type":"Feature","geometry":{"type":"Point","coordinates":[-85.66274,38.27257]},"properties":{"id":118906,"name":"Indian Hills","state_code":"KY","country_code":"US"}},{"type":"Feature","geometry":{"type":"Point","coordinates":[-85.64996,38.27951]},"properties":{"id":118910,"name":"Indian Hills Cherokee Section","state_code":"KY","country_code":"US"}},{"type":"Feature","geometry":{"type":"Point","coordinates":[-82.53876,37.86648]},"properties":{"id":118931,"name":"Inez","state_code":"KY","country_code":"US"}},{"type":"Feature","geometry":{"type":"Point","coordinates":[-82.69238,38.45647]},"properties":{"id":118998,"name":"Ironville","state_code":"KY","country_code":"US"}},{"type":"Feature","geometry":{"type":"Point","coordinates":[-83.97381,37.70064]},"properties":{"id":119003,"name":"Irvine","state_code":"KY","country_code":"US"}},{"type":"Feature","geometry":{"type":"Point","coordinates":[-86.28386,37.88034]},"properties":{"id":119007,"name":"Irvington","state_code":"KY","country_code":"US"}},{"type":"Feature","geometry":{"type":"Point","coordinates":[-83.38351,37.55315]},"properties":{"id":119062,"name":"Jackson","state_code":"KY","country_code":"US"}},{"type":"Feature","geometry":{"type":"Point","coordinates":[-85.06301,36.98479]},"properties":{"id":119120,"name":"Jamestown","state_code":"KY","country_code":"US"}},{"type":"Feature","geometry":{"type":"Point","coordinates":[-85.5644,38.19424]},"properties":{"id":119205,"name":"Jeffersontown","state_code":"KY","country_code":"US"}},{"type":"Feature","geometry":{"type":"Point","coordinates":[-83.84186,37.97369]},"properties":{"id":119206,"name":"Jeffersonville","state_code":"KY","country_code":"US"}},{"type":"Feature","geometry":{"type":"Point","coordinates":[-82.63099,37.17344]},"properties":{"id":119214,"name":"Jenkins","state_code":"KY","country_code":"US"}},{"type":"Feature","geometry":{"type":"Point","coordinates":[-84.79384,37.58674]},"properties":{"id":119333,"name":"Junction City","state_code":"KY","country_code":"US"}},{"type":"Feature","geometry":{"type":"Point","coordinates":[-86.90416,37.77172]},"properties":{"id":119681,"name":"Knottsville","state_code":"KY","country_code":"US"}},{"type":"Feature","geometry":{"type":"Point","coordinates":[-88.97368,37.07672]},"properties":{"id":119737,"name":"La Center","state_code":"KY","country_code":"US"}},{"type":"Feature","geometry":{"type":"Point","coordinates":[-85.37885,38.40757]},"properties":{"id":119749,"name":"La Grange","state_code":"KY","country_code":"US"}},{"type":"Feature","geometry":{"type":"Point","coordinates":[-84.56911,39.03562]},"properties":{"id":120035,"name":"Lakeside Park","state_code":"KY","country_code":"US"}},{"type":"Feature","geometry":{"type":"Point","coordinates":[-84.578,37.61952]},"properties":{"id":120080,"name":"Lancaster","state_code":"KY","country_code":"US"}},{"type":"Feature","geometry":{"type":"Point","coordinates":[-84.89662,38.0373]},"properties":{"id":120241,"name":"Lawrenceburg","state_code":"KY","country_code":"US"}},{"type":"Feature","geometry":{"type":"Point","coordinates":[-85.25274,37.56979]},"properties":{"id":120285,"name":"Lebanon","state_code":"KY","country_code":"US"}},{"type":"Feature","geometry":{"type":"Point","coordinates":[-85.7319,37.83451]},"properties":{"id":120296,"name":"Lebanon Junction","state_code":"KY","country_code":"US"}},{"type":"Feature","geometry":{"type":"Point","coordinates":[-88.47699,37.04756]},"properties":{"id":120301,"name":"Ledbetter","state_code":"KY","country_code":"US"}},{"type":"Feature","geometry":{"type":"Point","coordinates":[-86.29386,37.48005]},"properties":{"id":120347,"name":"Leitchfield","state_code":"KY","country_code":"US"}},{"type":"Feature","geometry":{"type":"Point","coordinates":[-86.90221,37.937]},"properties":{"id":120422,"name":"Lewisport","state_code":"KY","country_code":"US"}},{"type":"Feature","geometry":{"type":"Point","coordinates":[-84.47772,37.98869]},"properties":{"id":120439,"name":"Lexington","state_code":"KY","country_code":"US"}},{"type":"Feature","geometry":{"type":"Point","coordinates":[-84.45855,38.0498]},"properties":{"id":120456,"name":"Lexington-Fayette","state_code":"KY","country_code":"US"}},{"type":"Feature","geometry":{"type":"Point","coordinates":[-84.9394,37.31841]},"properties":{"id":120459,"name":"Liberty","state_code":"KY","country_code":"US"}},{"type":"Feature","geometry":{"type":"Point","coordinates":[-87.13194,37.4931]},"properties":{"id":120642,"name":"Livermore","state_code":"KY","country_code":"US"}},{"type":"Feature","geometry":{"type":"Point","coordinates":[-84.08326,37.12898]},"properties":{"id":120721,"name":"London","state_code":"KY","country_code":"US"}},{"type":"Feature","geometry":{"type":"Point","coordinates":[-82.60321,38.11425]},"properties":{"id":120804,"name":"Louisa","state_code":"KY","country_code":"US"}},{"type":"Feature","geometry":{"type":"Point","coordinates":[-85.75941,38.25424]},"properties":{"id":120813,"name":"Louisville","state_code":"KY","country_code":"US"}},{"type":"Feature","geometry":{"type":"Point","coordinates":[-84.54744,39.09256]},"properties":{"id":120869,"name":"Ludlow","state_code":"KY","country_code":"US"}},{"type":"Feature","geometry":{"type":"Point","coordinates":[-85.60163,38.25674]},"properties":{"id":120923,"name":"Lyndon","state_code":"KY","country_code":"US"}},{"type":"Feature","geometry":{"type":"Point","coordinates":[-87.49889,37.3281]},"properties":{"id":121025,"name":"Madisonville","state_code":"KY","country_code":"US"}},{"type":"Feature","geometry":{"type":"Point","coordinates":[-83.76186,37.1537]},"properties":{"id":121091,"name":"Manchester","state_code":"KY","country_code":"US"}},{"type":"Feature","geometry":{"type":"Point","coordinates":[-88.08113,37.33283]},"properties":{"id":121235,"name":"Marion","state_code":"KY","country_code":"US"}},{"type":"Feature","geometry":{"type":"Point","coordinates":[-87.03472,37.67505]},"properties":{"id":121385,"name":"Masonville","state_code":"KY","country_code":"US"}},{"type":"Feature","geometry":{"type":"Point","coordinates":[-88.73061,37.01672]},"properties":{"id":121387,"name":"Massac","state_code":"KY","country_code":"US"}},{"type":"Feature","geometry":{"type":"Point","coordinates":[-88.63672,36.74172]},"properties":{"id":121436,"name":"Mayfield","state_code":"KY","country_code":"US"}},{"type":"Feature","geometry":{"type":"Point","coordinates":[-83.74437,38.64119]},"properties":{"id":121450,"name":"Maysville","state_code":"KY","country_code":"US"}},{"type":"Feature","geometry":{"type":"Point","coordinates":[-83.99798,37.43036]},"properties":{"id":121517,"name":"McKee","state_code":"KY","country_code":"US"}},{"type":"Feature","geometry":{"type":"Point","coordinates":[-82.70905,38.41258]},"properties":{"id":121572,"name":"Meads","state_code":"KY","country_code":"US"}},{"type":"Feature","geometry":{"type":"Point","coordinates":[-83.71658,36.60842]},"properties":{"id":121776,"name":"Middlesboro","state_code":"KY","country_code":"US"}},{"type":"Feature","geometry":{"type":"Point","coordinates":[-85.53885,38.24535]},"properties":{"id":121787,"name":"Middletown","state_code":"KY","country_code":"US"}},{"type":"Feature","geometry":{"type":"Point","coordinates":[-84.68383,38.15091]},"properties":{"id":121814,"name":"Midway","state_code":"KY","country_code":"US"}},{"type":"Feature","geometry":{"type":"Point","coordinates":[-84.84911,36.82979]},"properties":{"id":122162,"name":"Monticello","state_code":"KY","country_code":"US"}},{"type":"Feature","geometry":{"type":"Point","coordinates":[-83.43268,38.18397]},"properties":{"id":122225,"name":"Morehead","state_code":"KY","country_code":"US"}},{"type":"Feature","geometry":{"type":"Point","coordinates":[-87.91669,37.68338]},"properties":{"id":122248,"name":"Morganfield","state_code":"KY","country_code":"US"}},{"type":"Feature","geometry":{"type":"Point","coordinates":[-86.6836,37.2256]},"properties":{"id":122251,"name":"Morgantown","state_code":"KY","country_code":"US"}},{"type":"Feature","geometry":{"type":"Point","coordinates":[-84.03687,38.53146]},"properties":{"id":122371,"name":"Mount Olivet","state_code":"KY","country_code":"US"}},{"type":"Feature","geometry":{"type":"Point","coordinates":[-83.94326,38.05647]},"properties":{"id":122391,"name":"Mount Sterling","state_code":"KY","country_code":"US"}},{"type":"Feature","geometry":{"type":"Point","coordinates":[-84.34049,37.35286]},"properties":{"id":122397,"name":"Mount Vernon","state_code":"KY","country_code":"US"}},{"type":"Feature","geometry":{"type":"Point","coordinates":[-85.54579,38.05006]},"properties":{"id":122406,"name":"Mount Washington","state_code":"KY","country_code":"US"}},{"type":"Feature","geometry":{"type":"Point","coordinates":[-85.89108,37.27228]},"properties":{"id":122472,"name":"Munfordville","state_code":"KY","country_code":"US"}},{"type":"Feature","geometry":{"type":"Point","coordinates":[-88.31476,36.61033]},"properties":{"id":122491,"name":"Murray","state_code":"KY","country_code":"US"}},{"type":"Feature","geometry":{"type":"Point","coordinates":[-85.16968,38.4334]},"properties":{"id":122685,"name":"New Castle","state_code":"KY","country_code":"US"}},{"type":"Feature","geometry":{"type":"Point","coordinates":[-85.65968,38.16007]},"properties":{"id":122814,"name":"Newburg","state_code":"KY","country_code":"US"}},{"type":"Feature","geometry":{"type":"Point","coordinates":[-84.49578,39.09145]},"properties":{"id":122841,"name":"Newport","state_code":"KY","country_code":"US"}},{"type":"Feature","geometry":{"type":"Point","coordinates":[-84.573,37.88063]},"properties":{"id":122889,"name":"Nicholasville","state_code":"KY","country_code":"US"}},{"type":"Feature","geometry":{"type":"Point","coordinates":[-84.09326,36.96064]},"properties":{"id":123010,"name":"North Corbin","state_code":"KY","country_code":"US"}},{"type":"Feature","geometry":{"type":"Point","coordinates":[-85.64107,38.28701]},"properties":{"id":123148,"name":"Northfield","state_code":"KY","country_code":"US"}},{"type":"Feature","geometry":{"type":"Point","coordinates":[-87.45278,37.19088]},"properties":{"id":123188,"name":"Nortonville","state_code":"KY","country_code":"US"}},{"type":"Feature","geometry":{"type":"Point","coordinates":[-87.44279,36.66505]},"properties":{"id":123234,"name":"Oak Grove","state_code":"KY","country_code":"US"}},{"type":"Feature","geometry":{"type":"Point","coordinates":[-84.68522,38.99978]},"properties":{"id":123268,"name":"Oakbrook","state_code":"KY","country_code":"US"}},{"type":"Feature","geometry":{"type":"Point","coordinates":[-85.68774,38.14118]},"properties":{"id":123408,"name":"Okolona","state_code":"KY","country_code":"US"}},{"type":"Feature","geometry":{"type":"Point","coordinates":[-83.17407,38.30008]},"properties":{"id":123440,"name":"Olive Hill","state_code":"KY","country_code":"US"}},{"type":"Feature","geometry":{"type":"Point","coordinates":[-85.52135,38.32368]},"properties":{"id":123533,"name":"Orchard Grass Hills","state_code":"KY","country_code":"US"}},{"type":"Feature","geometry":{"type":"Point","coordinates":[-87.11333,37.77422]},"properties":{"id":123664,"name":"Owensboro","state_code":"KY","country_code":"US"}},{"type":"Feature","geometry":{"type":"Point","coordinates":[-84.84338,38.53672]},"properties":{"id":123667,"name":"Owenton","state_code":"KY","country_code":"US"}},{"type":"Feature","geometry":{"type":"Point","coordinates":[-83.76408,38.1448]},"properties":{"id":123670,"name":"Owingsville","state_code":"KY","country_code":"US"}},{"type":"Feature","geometry":{"type":"Point","coordinates":[-88.60005,37.08339]},"properties":{"id":123715,"name":"Paducah","state_code":"KY","country_code":"US"}},{"type":"Feature","geometry":{"type":"Point","coordinates":[-82.80711,37.81454]},"properties":{"id":123728,"name":"Paintsville","state_code":"KY","country_code":"US"}},{"type":"Feature","geometry":{"type":"Point","coordinates":[-84.25299,38.2098]},"properties":{"id":123831,"name":"Paris","state_code":"KY","country_code":"US"}},{"type":"Feature","geometry":{"type":"Point","coordinates":[-84.53217,39.07145]},"properties":{"id":123849,"name":"Park Hills","state_code":"KY","country_code":"US"}},{"type":"Feature","geometry":{"type":"Point","coordinates":[-85.48746,38.31062]},"properties":{"id":124116,"name":"Pewee Valley","state_code":"KY","country_code":"US"}},{"type":"Feature","geometry":{"type":"Point","coordinates":[-82.51876,37.47927]},"properties":{"id":124198,"name":"Pikeville","state_code":"KY","country_code":"US"}},{"type":"Feature","geometry":{"type":"Point","coordinates":[-84.43855,36.65091]},"properties":{"id":124232,"name":"Pine Knot","state_code":"KY","country_code":"US"}},{"type":"Feature","geometry":{"type":"Point","coordinates":[-83.69492,36.76203]},"properties":{"id":124259,"name":"Pineville","state_code":"KY","country_code":"US"}},{"type":"Feature","geometry":{"type":"Point","coordinates":[-85.67774,38.06062]},"properties":{"id":124275,"name":"Pioneer Village","state_code":"KY","country_code":"US"}},{"type":"Feature","geometry":{"type":"Point","coordinates":[-86.41832,36.88032]},"properties":{"id":124342,"name":"Plano","state_code":"KY","country_code":"US"}},{"type":"Feature","geometry":{"type":"Point","coordinates":[-85.8583,38.14535]},"properties":{"id":124389,"name":"Pleasure Ridge Park","state_code":"KY","country_code":"US"}},{"type":"Feature","geometry":{"type":"Point","coordinates":[-82.77155,37.66565]},"properties":{"id":124661,"name":"Prestonsburg","state_code":"KY","country_code":"US"}},{"type":"Feature","geometry":{"type":"Point","coordinates":[-87.88196,37.10922]},"properties":{"id":124682,"name":"Princeton","state_code":"KY","country_code":"US"}},{"type":"Feature","geometry":{"type":"Point","coordinates":[-85.61552,38.34507]},"properties":{"id":124705,"name":"Prospect","state_code":"KY","country_code":"US"}},{"type":"Feature","geometry":{"type":"Point","coordinates":[-85.22107,38.57451]},"properties":{"id":124715,"name":"Providence","state_code":"KY","country_code":"US"}},{"type":"Feature","geometry":{"type":"Point","coordinates":[-82.7285,38.54008]},"properties":{"id":124812,"name":"Raceland","state_code":"KY","country_code":"US"}},{"type":"Feature","geometry":{"type":"Point","coordinates":[-85.94913,37.84035]},"properties":{"id":124815,"name":"Radcliff","state_code":"KY","country_code":"US"}},{"type":"Feature","geometry":{"type":"Point","coordinates":[-88.53143,37.01756]},"properties":{"id":125006,"name":"Reidland","state_code":"KY","country_code":"US"}},{"type":"Feature","geometry":{"type":"Point","coordinates":[-84.29465,37.74786]},"properties":{"id":125085,"name":"Richmond","state_code":"KY","country_code":"US"}},{"type":"Feature","geometry":{"type":"Point","coordinates":[-82.69766,38.5173]},"properties":{"id":125534,"name":"Russell","state_code":"KY","country_code":"US"}},{"type":"Feature","geometry":{"type":"Point","coordinates":[-85.08857,37.05618]},"properties":{"id":125540,"name":"Russell Springs","state_code":"KY","country_code":"US"}},{"type":"Feature","geometry":{"type":"Point","coordinates":[-86.88722,36.84532]},"properties":{"id":125544,"name":"Russellville","state_code":"KY","country_code":"US"}},{"type":"Feature","geometry":{"type":"Point","coordinates":[-84.463,38.95756]},"properties":{"id":125565,"name":"Ryland Heights","state_code":"KY","country_code":"US"}},{"type":"Feature","geometry":{"type":"Point","coordinates":[-85.8458,38.1884]},"properties":{"id":125631,"name":"Saint Dennis","state_code":"KY","country_code":"US"}},{"type":"Feature","geometry":{"type":"Point","coordinates":[-85.65579,38.25285]},"properties":{"id":125695,"name":"Saint Matthews","state_code":"KY","country_code":"US"}},{"type":"Feature","geometry":{"type":"Point","coordinates":[-85.61663,38.22674]},"properties":{"id":125711,"name":"Saint Regis Park","state_code":"KY","country_code":"US"}},{"type":"Feature","geometry":{"type":"Point","coordinates":[-83.06878,37.75259]},"properties":{"id":125776,"name":"Salyersville","state_code":"KY","country_code":"US"}},{"type":"Feature","geometry":{"type":"Point","coordinates":[-83.12628,38.08647]},"properties":{"id":125883,"name":"Sandy Hook","state_code":"KY","country_code":"US"}},{"type":"Feature","geometry":{"type":"Point","coordinates":[-86.19054,36.75338]},"properties":{"id":126064,"name":"Scottsville","state_code":"KY","country_code":"US"}},{"type":"Feature","geometry":{"type":"Point","coordinates":[-87.52862,37.60699]},"properties":{"id":126110,"name":"Sebree","state_code":"KY","country_code":"US"}},{"type":"Feature","geometry":{"type":"Point","coordinates":[-85.22357,38.21201]},"properties":{"id":126282,"name":"Shelbyville","state_code":"KY","country_code":"US"}},{"type":"Feature","geometry":{"type":"Point","coordinates":[-85.71579,37.9884]},"properties":{"id":126312,"name":"Shepherdsville","state_code":"KY","country_code":"US"}},{"type":"Feature","geometry":{"type":"Point","coordinates":[-85.82274,38.20007]},"properties":{"id":126362,"name":"Shively","state_code":"KY","country_code":"US"}},{"type":"Feature","geometry":{"type":"Point","coordinates":[-84.39022,39.03451]},"properties":{"id":126425,"name":"Silver Grove","state_code":"KY","country_code":"US"}},{"type":"Feature","geometry":{"type":"Point","coordinates":[-85.35523,38.22257]},"properties":{"id":126451,"name":"Simpsonville","state_code":"KY","country_code":"US"}},{"type":"Feature","geometry":{"type":"Point","coordinates":[-88.40337,37.13894]},"properties":{"id":126522,"name":"Smithland","state_code":"KY","country_code":"US"}},{"type":"Feature","geometry":{"type":"Point","coordinates":[-84.60411,37.09202]},"properties":{"id":126580,"name":"Somerset","state_code":"KY","country_code":"US"}},{"type":"Feature","geometry":{"type":"Point","coordinates":[-82.95823,38.72091]},"properties":{"id":126728,"name":"South Shore","state_code":"KY","country_code":"US"}},{"type":"Feature","geometry":{"type":"Point","coordinates":[-84.47272,39.072]},"properties":{"id":126774,"name":"Southgate","state_code":"KY","country_code":"US"}},{"type":"Feature","geometry":{"type":"Point","coordinates":[-85.22218,37.68534]},"properties":{"id":126892,"name":"Springfield","state_code":"KY","country_code":"US"}},{"type":"Feature","geometry":{"type":"Point","coordinates":[-84.66189,37.53119]},"properties":{"id":126953,"name":"Stanford","state_code":"KY","country_code":"US"}},{"type":"Feature","geometry":{"type":"Point","coordinates":[-83.85825,37.84564]},"properties":{"id":126966,"name":"Stanton","state_code":"KY","country_code":"US"}},{"type":"Feature","geometry":{"type":"Point","coordinates":[-84.47744,36.69897]},"properties":{"id":127004,"name":"Stearns","state_code":"KY","country_code":"US"}},{"type":"Feature","geometry":{"type":"Point","coordinates":[-87.98391,37.54671]},"properties":{"id":127150,"name":"Sturgis","state_code":"KY","country_code":"US"}},{"type":"Feature","geometry":{"type":"Point","coordinates":[-84.49633,38.99756]},"properties":{"id":127460,"name":"Taylor Mill","state_code":"KY","country_code":"US"}},{"type":"Feature","geometry":{"type":"Point","coordinates":[-85.34245,38.03173]},"properties":{"id":127463,"name":"Taylorsville","state_code":"KY","country_code":"US"}},{"type":"Feature","geometry":{"type":"Point","coordinates":[-85.69164,36.70228]},"properties":{"id":127714,"name":"Tompkinsville","state_code":"KY","country_code":"US"}},{"type":"Feature","geometry":{"type":"Point","coordinates":[-84.6805,38.9459]},"properties":{"id":127971,"name":"Union","state_code":"KY","country_code":"US"}},{"type":"Feature","geometry":{"type":"Point","coordinates":[-85.87024,38.11118]},"properties":{"id":128116,"name":"Valley Station","state_code":"KY","country_code":"US"}},{"type":"Feature","geometry":{"type":"Point","coordinates":[-82.75794,37.77121]},"properties":{"id":128134,"name":"Van Lear","state_code":"KY","country_code":"US"}},{"type":"Feature","geometry":{"type":"Point","coordinates":[-83.3188,38.59924]},"properties":{"id":128142,"name":"Vanceburg","state_code":"KY","country_code":"US"}},{"type":"Feature","geometry":{"type":"Point","coordinates":[-84.66078,38.8184]},"properties":{"id":128200,"name":"Verona","state_code":"KY","country_code":"US"}},{"type":"Feature","geometry":{"type":"Point","coordinates":[-84.72995,38.05258]},"properties":{"id":128209,"name":"Versailles","state_code":"KY","country_code":"US"}},{"type":"Feature","geometry":{"type":"Point","coordinates":[-84.593,39.06339]},"properties":{"id":128242,"name":"Villa Hills","state_code":"KY","country_code":"US"}},{"type":"Feature","geometry":{"type":"Point","coordinates":[-85.98135,37.81007]},"properties":{"id":128268,"name":"Vine Grove","state_code":"KY","country_code":"US"}},{"type":"Feature","geometry":{"type":"Point","coordinates":[-84.61022,38.87562]},"properties":{"id":128434,"name":"Walton","state_code":"KY","country_code":"US"}},{"type":"Feature","geometry":{"type":"Point","coordinates":[-84.90162,38.7834]},"properties":{"id":128515,"name":"Warsaw","state_code":"KY","country_code":"US"}},{"type":"Feature","geometry":{"type":"Point","coordinates":[-85.68329,38.19229]},"properties":{"id":128642,"name":"Watterson Park","state_code":"KY","country_code":"US"}},{"type":"Feature","geometry":{"type":"Point","coordinates":[-85.66329,38.19701]},"properties":{"id":128837,"name":"West Buechel","state_code":"KY","country_code":"US"}},{"type":"Feature","geometry":{"type":"Point","coordinates":[-83.25962,37.92148]},"properties":{"id":128916,"name":"West Liberty","state_code":"KY","country_code":"US"}},{"type":"Feature","geometry":{"type":"Point","coordinates":[-82.66988,38.48314]},"properties":{"id":129083,"name":"Westwood","state_code":"KY","country_code":"US"}},{"type":"Feature","geometry":{"type":"Point","coordinates":[-82.82683,37.11843]},"properties":{"id":129185,"name":"Whitesburg","state_code":"KY","country_code":"US"}},{"type":"Feature","geometry":{"type":"Point","coordinates":[-84.47049,36.72341]},"properties":{"id":129199,"name":"Whitley City","state_code":"KY","country_code":"US"}},{"type":"Feature","geometry":{"type":"Point","coordinates":[-89.08923,36.96478]},"properties":{"id":129221,"name":"Wickliffe","state_code":"KY","country_code":"US"}},{"type":"Feature","geometry":{"type":"Point","coordinates":[-84.48689,39.05645]},"properties":{"id":129231,"name":"Wilder","state_code":"KY","country_code":"US"}},{"type":"Feature","geometry":{"type":"Point","coordinates":[-84.15966,36.74342]},"properties":{"id":129266,"name":"Williamsburg","state_code":"KY","country_code":"US"}},{"type":"Feature","geometry":{"type":"Point","coordinates":[-84.5605,38.63812]},"properties":{"id":129285,"name":"Williamstown","state_code":"KY","country_code":"US"}},{"type":"Feature","geometry":{"type":"Point","coordinates":[-84.66161,37.86202]},"properties":{"id":129327,"name":"Wilmore","state_code":"KY","country_code":"US"}},{"type":"Feature","geometry":{"type":"Point","coordinates":[-84.17965,37.99008]},"properties":{"id":129353,"name":"Winchester","state_code":"KY","country_code":"US"}},{"type":"Feature","geometry":{"type":"Point","coordinates":[-85.63441,38.27396]},"properties":{"id":129391,"name":"Windy Hills","state_code":"KY","country_code":"US"}},{"type":"Feature","geometry":{"type":"Point","coordinates":[-82.72433,38.54841]},"properties":{"id":129597,"name":"Worthington","state_code":"KY","country_code":"US"}},{"type":"Feature","geometry":{"type":"Point","coordinates":[-85.5269,38.30896]},"properties":{"id":129599,"name":"Worthington Hills","state_code":"KY","country_code":"US"}},{"type":"Feature","geometry":{"type":"Point","coordinates":[-82.77794,38.55036]},"properties":{"id":129618,"name":"Wurtland","state_code":"KY","country_code":"US"}}]}