{"type":"FeatureCollection","features":[{"type":"Feature","geometry":{"type":"Point","coordinates":[-70.90978,43.53425]},"properties":{"id":111000,"name":"Acton","state_code":"ME","country_code":"US"}},{"type":"Feature","geometry":{"type":"Point","coordinates":[-67.74416,44.61841]},"properties":{"id":111036,"name":"Addison","state_code":"ME","country_code":"US"}},{"type":"Feature","geometry":{"type":"Point","coordinates":[-69.44254,44.53229]},"properties":{"id":111125,"name":"Albion","state_code":"ME","country_code":"US"}},{"type":"Feature","geometry":{"type":"Point","coordinates":[-70.71839,43.47647]},"properties":{"id":111159,"name":"Alfred","state_code":"ME","country_code":"US"}},{"type":"Feature","geometry":{"type":"Point","coordinates":[-69.25088,44.28924]},"properties":{"id":111395,"name":"Appleton","state_code":"ME","country_code":"US"}},{"type":"Feature","geometry":{"type":"Point","coordinates":[-70.47783,43.38259]},"properties":{"id":111502,"name":"Arundel","state_code":"ME","country_code":"US"}},{"type":"Feature","geometry":{"type":"Point","coordinates":[-70.23117,44.09785]},"properties":{"id":111627,"name":"Auburn","state_code":"ME","country_code":"US"}},{"type":"Feature","geometry":{"type":"Point","coordinates":[-69.77949,44.31062]},"properties":{"id":111649,"name":"Augusta","state_code":"ME","country_code":"US"}},{"type":"Feature","geometry":{"type":"Point","coordinates":[-68.77781,44.80118]},"properties":{"id":111792,"name":"Bangor","state_code":"ME","country_code":"US"}},{"type":"Feature","geometry":{"type":"Point","coordinates":[-68.2039,44.38758]},"properties":{"id":111806,"name":"Bar Harbor","state_code":"ME","country_code":"US"}},{"type":"Feature","geometry":{"type":"Point","coordinates":[-69.8206,43.91064]},"properties":{"id":111897,"name":"Bath","state_code":"ME","country_code":"US"}},{"type":"Feature","geometry":{"type":"Point","coordinates":[-69.00642,44.42591]},"properties":{"id":112056,"name":"Belfast","state_code":"ME","country_code":"US"}},{"type":"Feature","geometry":{"type":"Point","coordinates":[-69.83255,44.44729]},"properties":{"id":112061,"name":"Belgrade","state_code":"ME","country_code":"US"}},{"type":"Feature","geometry":{"type":"Point","coordinates":[-69.55088,44.58618]},"properties":{"id":112197,"name":"Benton","state_code":"ME","country_code":"US"}},{"type":"Feature","geometry":{"type":"Point","coordinates":[-70.8645,43.26592]},"properties":{"id":112262,"name":"Berwick","state_code":"ME","country_code":"US"}},{"type":"Feature","geometry":{"type":"Point","coordinates":[-70.79062,44.40423]},"properties":{"id":112279,"name":"Bethel","state_code":"ME","country_code":"US"}},{"type":"Feature","geometry":{"type":"Point","coordinates":[-70.45338,43.49258]},"properties":{"id":112312,"name":"Biddeford","state_code":"ME","country_code":"US"}},{"type":"Feature","geometry":{"type":"Point","coordinates":[-69.63366,43.87647]},"properties":{"id":112572,"name":"Boothbay","state_code":"ME","country_code":"US"}},{"type":"Feature","geometry":{"type":"Point","coordinates":[-69.6281,43.8523]},"properties":{"id":112573,"name":"Boothbay Harbor","state_code":"ME","country_code":"US"}},{"type":"Feature","geometry":{"type":"Point","coordinates":[-68.93781,45.06673]},"properties":{"id":112665,"name":"Bradford","state_code":"ME","country_code":"US"}},{"type":"Feature","geometry":{"type":"Point","coordinates":[-68.62809,44.9209]},"properties":{"id":112673,"name":"Bradley","state_code":"ME","country_code":"US"}},{"type":"Feature","geometry":{"type":"Point","coordinates":[-68.76142,44.79674]},"properties":{"id":112739,"name":"Brewer","state_code":"ME","country_code":"US"}},{"type":"Feature","geometry":{"type":"Point","coordinates":[-70.71284,44.05479]},"properties":{"id":112779,"name":"Bridgton","state_code":"ME","country_code":"US"}},{"type":"Feature","geometry":{"type":"Point","coordinates":[-69.50921,43.95758]},"properties":{"id":112806,"name":"Bristol","state_code":"ME","country_code":"US"}},{"type":"Feature","geometry":{"type":"Point","coordinates":[-69.12087,44.55035]},"properties":{"id":112882,"name":"Brooks","state_code":"ME","country_code":"US"}},{"type":"Feature","geometry":{"type":"Point","coordinates":[-70.90868,43.93813]},"properties":{"id":112916,"name":"Brownfield","state_code":"ME","country_code":"US"}},{"type":"Feature","geometry":{"type":"Point","coordinates":[-69.03337,45.307]},"properties":{"id":112937,"name":"Brownville","state_code":"ME","country_code":"US"}},{"type":"Feature","geometry":{"type":"Point","coordinates":[-69.96533,43.91452]},"properties":{"id":112950,"name":"Brunswick","state_code":"ME","country_code":"US"}},{"type":"Feature","geometry":{"type":"Point","coordinates":[-70.36534,44.28951]},"properties":{"id":112979,"name":"Buckfield","state_code":"ME","country_code":"US"}},{"type":"Feature","geometry":{"type":"Point","coordinates":[-68.79559,44.57369]},"properties":{"id":112992,"name":"Bucksport","state_code":"ME","country_code":"US"}},{"type":"Feature","geometry":{"type":"Point","coordinates":[-69.42755,44.69284]},"properties":{"id":113084,"name":"Burnham","state_code":"ME","country_code":"US"}},{"type":"Feature","geometry":{"type":"Point","coordinates":[-70.51894,43.63786]},"properties":{"id":113132,"name":"Buxton","state_code":"ME","country_code":"US"}},{"type":"Feature","geometry":{"type":"Point","coordinates":[-67.27662,45.18376]},"properties":{"id":113175,"name":"Calais","state_code":"ME","country_code":"US"}},{"type":"Feature","geometry":{"type":"Point","coordinates":[-69.06476,44.2098]},"properties":{"id":113266,"name":"Camden","state_code":"ME","country_code":"US"}},{"type":"Feature","geometry":{"type":"Point","coordinates":[-69.56144,44.76173]},"properties":{"id":113312,"name":"Canaan","state_code":"ME","country_code":"US"}},{"type":"Feature","geometry":{"type":"Point","coordinates":[-70.31649,44.4408]},"properties":{"id":113346,"name":"Canton","state_code":"ME","country_code":"US"}},{"type":"Feature","geometry":{"type":"Point","coordinates":[-70.62089,43.1937]},"properties":{"id":113372,"name":"Cape Neddick","state_code":"ME","country_code":"US"}},{"type":"Feature","geometry":{"type":"Point","coordinates":[-68.01197,46.8606]},"properties":{"id":113394,"name":"Caribou","state_code":"ME","country_code":"US"}},{"type":"Feature","geometry":{"type":"Point","coordinates":[-69.05115,44.79757]},"properties":{"id":113418,"name":"Carmel","state_code":"ME","country_code":"US"}},{"type":"Feature","geometry":{"type":"Point","coordinates":[-68.79975,44.38785]},"properties":{"id":113542,"name":"Castine","state_code":"ME","country_code":"US"}},{"type":"Feature","geometry":{"type":"Point","coordinates":[-69.04059,45.08506]},"properties":{"id":113767,"name":"Charleston","state_code":"ME","country_code":"US"}},{"type":"Feature","geometry":{"type":"Point","coordinates":[-69.71727,44.25035]},"properties":{"id":113832,"name":"Chelsea","state_code":"ME","country_code":"US"}},{"type":"Feature","geometry":{"type":"Point","coordinates":[-67.92584,44.6073]},"properties":{"id":113866,"name":"Cherryfield","state_code":"ME","country_code":"US"}},{"type":"Feature","geometry":{"type":"Point","coordinates":[-70.08617,44.55117]},"properties":{"id":113911,"name":"Chesterville","state_code":"ME","country_code":"US"}},{"type":"Feature","geometry":{"type":"Point","coordinates":[-69.51726,44.47868]},"properties":{"id":113960,"name":"China","state_code":"ME","country_code":"US"}},{"type":"Feature","geometry":{"type":"Point","coordinates":[-70.1995,44.48145]},"properties":{"id":113980,"name":"Chisholm","state_code":"ME","country_code":"US"}},{"type":"Feature","geometry":{"type":"Point","coordinates":[-69.5031,44.63784]},"properties":{"id":114281,"name":"Clinton","state_code":"ME","country_code":"US"}},{"type":"Feature","geometry":{"type":"Point","coordinates":[-69.26171,44.92117]},"properties":{"id":114642,"name":"Corinna","state_code":"ME","country_code":"US"}},{"type":"Feature","geometry":{"type":"Point","coordinates":[-70.80117,43.8048]},"properties":{"id":114655,"name":"Cornish","state_code":"ME","country_code":"US"}},{"type":"Feature","geometry":{"type":"Point","coordinates":[-69.67311,44.83673]},"properties":{"id":114656,"name":"Cornville","state_code":"ME","country_code":"US"}},{"type":"Feature","geometry":{"type":"Point","coordinates":[-70.25894,43.79647]},"properties":{"id":114911,"name":"Cumberland Center","state_code":"ME","country_code":"US"}},{"type":"Feature","geometry":{"type":"Point","coordinates":[-69.23977,44.01925]},"properties":{"id":114932,"name":"Cushing","state_code":"ME","country_code":"US"}},{"type":"Feature","geometry":{"type":"Point","coordinates":[-69.51866,44.03286]},"properties":{"id":115008,"name":"Damariscotta","state_code":"ME","country_code":"US"}},{"type":"Feature","geometry":{"type":"Point","coordinates":[-70.57555,43.54972]},"properties":{"id":115100,"name":"Dayton","state_code":"ME","country_code":"US"}},{"type":"Feature","geometry":{"type":"Point","coordinates":[-68.66198,44.69174]},"properties":{"id":115168,"name":"Dedham","state_code":"ME","country_code":"US"}},{"type":"Feature","geometry":{"type":"Point","coordinates":[-68.67753,44.22397]},"properties":{"id":115172,"name":"Deer Isle","state_code":"ME","country_code":"US"}},{"type":"Feature","geometry":{"type":"Point","coordinates":[-70.8034,43.97035]},"properties":{"id":115240,"name":"Denmark","state_code":"ME","country_code":"US"}},{"type":"Feature","geometry":{"type":"Point","coordinates":[-69.28977,45.02395]},"properties":{"id":115308,"name":"Dexter","state_code":"ME","country_code":"US"}},{"type":"Feature","geometry":{"type":"Point","coordinates":[-70.4559,44.53395]},"properties":{"id":115359,"name":"Dixfield","state_code":"ME","country_code":"US"}},{"type":"Feature","geometry":{"type":"Point","coordinates":[-69.16282,44.68035]},"properties":{"id":115362,"name":"Dixmont","state_code":"ME","country_code":"US"}},{"type":"Feature","geometry":{"type":"Point","coordinates":[-69.22699,45.18339]},"properties":{"id":115457,"name":"Dover-Foxcroft","state_code":"ME","country_code":"US"}},{"type":"Feature","geometry":{"type":"Point","coordinates":[-67.38999,44.73924]},"properties":{"id":115707,"name":"East Machias","state_code":"ME","country_code":"US"}},{"type":"Feature","geometry":{"type":"Point","coordinates":[-68.57448,45.62755]},"properties":{"id":115713,"name":"East Millinocket","state_code":"ME","country_code":"US"}},{"type":"Feature","geometry":{"type":"Point","coordinates":[-67.90947,46.64115]},"properties":{"id":115788,"name":"Easton","state_code":"ME","country_code":"US"}},{"type":"Feature","geometry":{"type":"Point","coordinates":[-66.98998,44.90619]},"properties":{"id":115795,"name":"Eastport","state_code":"ME","country_code":"US"}},{"type":"Feature","geometry":{"type":"Point","coordinates":[-68.69337,44.82618]},"properties":{"id":115821,"name":"Eddington","state_code":"ME","country_code":"US"}},{"type":"Feature","geometry":{"type":"Point","coordinates":[-69.6306,43.95841]},"properties":{"id":115840,"name":"Edgecomb","state_code":"ME","country_code":"US"}},{"type":"Feature","geometry":{"type":"Point","coordinates":[-70.80006,43.15314]},"properties":{"id":115970,"name":"Eliot","state_code":"ME","country_code":"US"}},{"type":"Feature","geometry":{"type":"Point","coordinates":[-68.41946,44.54341]},"properties":{"id":116038,"name":"Ellsworth","state_code":"ME","country_code":"US"}},{"type":"Feature","geometry":{"type":"Point","coordinates":[-68.56836,45.24894]},"properties":{"id":116126,"name":"Enfield","state_code":"ME","country_code":"US"}},{"type":"Feature","geometry":{"type":"Point","coordinates":[-69.11115,44.8209]},"properties":{"id":116215,"name":"Etna","state_code":"ME","country_code":"US"}},{"type":"Feature","geometry":{"type":"Point","coordinates":[-69.59866,44.5884]},"properties":{"id":116314,"name":"Fairfield","state_code":"ME","country_code":"US"}},{"type":"Feature","geometry":{"type":"Point","coordinates":[-70.24199,43.72953]},"properties":{"id":116389,"name":"Falmouth","state_code":"ME","country_code":"US"}},{"type":"Feature","geometry":{"type":"Point","coordinates":[-70.20783,43.7348]},"properties":{"id":116390,"name":"Falmouth Foreside","state_code":"ME","country_code":"US"}},{"type":"Feature","geometry":{"type":"Point","coordinates":[-69.77143,44.24451]},"properties":{"id":116409,"name":"Farmingdale","state_code":"ME","country_code":"US"}},{"type":"Feature","geometry":{"type":"Point","coordinates":[-70.15117,44.67062]},"properties":{"id":116418,"name":"Farmington","state_code":"ME","country_code":"US"}},{"type":"Feature","geometry":{"type":"Point","coordinates":[-70.03367,44.40896]},"properties":{"id":116442,"name":"Fayette","state_code":"ME","country_code":"US"}},{"type":"Feature","geometry":{"type":"Point","coordinates":[-67.83391,46.77227]},"properties":{"id":116710,"name":"Fort Fairfield","state_code":"ME","country_code":"US"}},{"type":"Feature","geometry":{"type":"Point","coordinates":[-68.58949,47.25865]},"properties":{"id":116720,"name":"Fort Kent","state_code":"ME","country_code":"US"}},{"type":"Feature","geometry":{"type":"Point","coordinates":[-68.8767,44.6098]},"properties":{"id":116822,"name":"Frankfort","state_code":"ME","country_code":"US"}},{"type":"Feature","geometry":{"type":"Point","coordinates":[-68.23224,44.58702]},"properties":{"id":116835,"name":"Franklin","state_code":"ME","country_code":"US"}},{"type":"Feature","geometry":{"type":"Point","coordinates":[-70.10311,43.85702]},"properties":{"id":116913,"name":"Freeport","state_code":"ME","country_code":"US"}},{"type":"Feature","geometry":{"type":"Point","coordinates":[-68.37976,47.28087]},"properties":{"id":116936,"name":"Frenchville","state_code":"ME","country_code":"US"}},{"type":"Feature","geometry":{"type":"Point","coordinates":[-69.33394,43.98369]},"properties":{"id":116948,"name":"Friendship","state_code":"ME","country_code":"US"}},{"type":"Feature","geometry":{"type":"Point","coordinates":[-70.98062,44.01646]},"properties":{"id":116978,"name":"Fryeburg","state_code":"ME","country_code":"US"}},{"type":"Feature","geometry":{"type":"Point","coordinates":[-69.77532,44.23007]},"properties":{"id":117073,"name":"Gardiner","state_code":"ME","country_code":"US"}},{"type":"Feature","geometry":{"type":"Point","coordinates":[-69.16032,45.0384]},"properties":{"id":117089,"name":"Garland","state_code":"ME","country_code":"US"}},{"type":"Feature","geometry":{"type":"Point","coordinates":[-70.44422,43.67952]},"properties":{"id":117403,"name":"Gorham","state_code":"ME","country_code":"US"}},{"type":"Feature","geometry":{"type":"Point","coordinates":[-68.03834,44.47841]},"properties":{"id":117418,"name":"Gouldsboro","state_code":"ME","country_code":"US"}},{"type":"Feature","geometry":{"type":"Point","coordinates":[-68.65086,45.08034]},"properties":{"id":117623,"name":"Greenbush","state_code":"ME","country_code":"US"}},{"type":"Feature","geometry":{"type":"Point","coordinates":[-70.14033,44.18979]},"properties":{"id":117629,"name":"Greene","state_code":"ME","country_code":"US"}},{"type":"Feature","geometry":{"type":"Point","coordinates":[-69.59061,45.45949]},"properties":{"id":117691,"name":"Greenville","state_code":"ME","country_code":"US"}},{"type":"Feature","geometry":{"type":"Point","coordinates":[-69.79088,44.2859]},"properties":{"id":117872,"name":"Hallowell","state_code":"ME","country_code":"US"}},{"type":"Feature","geometry":{"type":"Point","coordinates":[-68.83698,44.74452]},"properties":{"id":117917,"name":"Hampden","state_code":"ME","country_code":"US"}},{"type":"Feature","geometry":{"type":"Point","coordinates":[-68.25363,44.52924]},"properties":{"id":117948,"name":"Hancock","state_code":"ME","country_code":"US"}},{"type":"Feature","geometry":{"type":"Point","coordinates":[-69.98421,43.80175]},"properties":{"id":118037,"name":"Harpswell Center","state_code":"ME","country_code":"US"}},{"type":"Feature","geometry":{"type":"Point","coordinates":[-70.67923,44.11035]},"properties":{"id":118056,"name":"Harrison","state_code":"ME","country_code":"US"}},{"type":"Feature","geometry":{"type":"Point","coordinates":[-70.34673,44.37284]},"properties":{"id":118089,"name":"Hartford","state_code":"ME","country_code":"US"}},{"type":"Feature","geometry":{"type":"Point","coordinates":[-70.40645,44.19813]},"properties":{"id":118237,"name":"Hebron","state_code":"ME","country_code":"US"}},{"type":"Feature","geometry":{"type":"Point","coordinates":[-68.91337,44.81007]},"properties":{"id":118330,"name":"Hermon","state_code":"ME","country_code":"US"}},{"type":"Feature","geometry":{"type":"Point","coordinates":[-70.8034,43.87868]},"properties":{"id":118491,"name":"Hiram","state_code":"ME","country_code":"US"}},{"type":"Feature","geometry":{"type":"Point","coordinates":[-67.86668,46.05394]},"properties":{"id":118506,"name":"Hodgdon","state_code":"ME","country_code":"US"}},{"type":"Feature","geometry":{"type":"Point","coordinates":[-68.67892,44.75285]},"properties":{"id":118524,"name":"Holden","state_code":"ME","country_code":"US"}},{"type":"Feature","geometry":{"type":"Point","coordinates":[-70.59311,43.60508]},"properties":{"id":118550,"name":"Hollis Center","state_code":"ME","country_code":"US"}},{"type":"Feature","geometry":{"type":"Point","coordinates":[-69.15893,44.26508]},"properties":{"id":118644,"name":"Hope","state_code":"ME","country_code":"US"}},{"type":"Feature","geometry":{"type":"Point","coordinates":[-67.8403,46.12616]},"properties":{"id":118693,"name":"Houlton","state_code":"ME","country_code":"US"}},{"type":"Feature","geometry":{"type":"Point","coordinates":[-68.66364,45.23867]},"properties":{"id":118725,"name":"Howland","state_code":"ME","country_code":"US"}},{"type":"Feature","geometry":{"type":"Point","coordinates":[-68.88059,45.00118]},"properties":{"id":118742,"name":"Hudson","state_code":"ME","country_code":"US"}},{"type":"Feature","geometry":{"type":"Point","coordinates":[-70.21617,44.50395]},"properties":{"id":119154,"name":"Jay","state_code":"ME","country_code":"US"}},{"type":"Feature","geometry":{"type":"Point","coordinates":[-69.45254,44.20674]},"properties":{"id":119169,"name":"Jefferson","state_code":"ME","country_code":"US"}},{"type":"Feature","geometry":{"type":"Point","coordinates":[-67.59833,44.53286]},"properties":{"id":119305,"name":"Jonesport","state_code":"ME","country_code":"US"}},{"type":"Feature","geometry":{"type":"Point","coordinates":[-68.9317,44.91951]},"properties":{"id":119452,"name":"Kenduskeag","state_code":"ME","country_code":"US"}},{"type":"Feature","geometry":{"type":"Point","coordinates":[-70.54478,43.38397]},"properties":{"id":119466,"name":"Kennebunk","state_code":"ME","country_code":"US"}},{"type":"Feature","geometry":{"type":"Point","coordinates":[-70.47672,43.36175]},"properties":{"id":119467,"name":"Kennebunkport","state_code":"ME","country_code":"US"}},{"type":"Feature","geometry":{"type":"Point","coordinates":[-70.15395,44.95922]},"properties":{"id":119591,"name":"Kingfield","state_code":"ME","country_code":"US"}},{"type":"Feature","geometry":{"type":"Point","coordinates":[-70.73616,43.08814]},"properties":{"id":119662,"name":"Kittery","state_code":"ME","country_code":"US"}},{"type":"Feature","geometry":{"type":"Point","coordinates":[-70.70783,43.08342]},"properties":{"id":119663,"name":"Kittery Point","state_code":"ME","country_code":"US"}},{"type":"Feature","geometry":{"type":"Point","coordinates":[-70.73478,43.66369]},"properties":{"id":119865,"name":"Lake Arrowhead","state_code":"ME","country_code":"US"}},{"type":"Feature","geometry":{"type":"Point","coordinates":[-70.85089,43.39453]},"properties":{"id":120290,"name":"Lebanon","state_code":"ME","country_code":"US"}},{"type":"Feature","geometry":{"type":"Point","coordinates":[-70.1195,44.3034]},"properties":{"id":120321,"name":"Leeds","state_code":"ME","country_code":"US"}},{"type":"Feature","geometry":{"type":"Point","coordinates":[-68.93476,44.86924]},"properties":{"id":120401,"name":"Levant","state_code":"ME","country_code":"US"}},{"type":"Feature","geometry":{"type":"Point","coordinates":[-70.21478,44.10035]},"properties":{"id":120423,"name":"Lewiston","state_code":"ME","country_code":"US"}},{"type":"Feature","geometry":{"type":"Point","coordinates":[-70.79367,43.68841]},"properties":{"id":120490,"name":"Limerick","state_code":"ME","country_code":"US"}},{"type":"Feature","geometry":{"type":"Point","coordinates":[-67.82585,46.90866]},"properties":{"id":120492,"name":"Limestone","state_code":"ME","country_code":"US"}},{"type":"Feature","geometry":{"type":"Point","coordinates":[-70.71089,43.73174]},"properties":{"id":120497,"name":"Limington","state_code":"ME","country_code":"US"}},{"type":"Feature","geometry":{"type":"Point","coordinates":[-68.50502,45.36228]},"properties":{"id":120505,"name":"Lincoln","state_code":"ME","country_code":"US"}},{"type":"Feature","geometry":{"type":"Point","coordinates":[-69.00865,44.28119]},"properties":{"id":120554,"name":"Lincolnville","state_code":"ME","country_code":"US"}},{"type":"Feature","geometry":{"type":"Point","coordinates":[-70.1045,44.03146]},"properties":{"id":120599,"name":"Lisbon","state_code":"ME","country_code":"US"}},{"type":"Feature","geometry":{"type":"Point","coordinates":[-70.06061,43.99619]},"properties":{"id":120601,"name":"Lisbon Falls","state_code":"ME","country_code":"US"}},{"type":"Feature","geometry":{"type":"Point","coordinates":[-70.24922,44.38396]},"properties":{"id":120643,"name":"Livermore","state_code":"ME","country_code":"US"}},{"type":"Feature","geometry":{"type":"Point","coordinates":[-70.18811,44.47534]},"properties":{"id":120645,"name":"Livermore Falls","state_code":"ME","country_code":"US"}},{"type":"Feature","geometry":{"type":"Point","coordinates":[-70.89173,44.12674]},"properties":{"id":120823,"name":"Lovell","state_code":"ME","country_code":"US"}},{"type":"Feature","geometry":{"type":"Point","coordinates":[-67.46138,44.71508]},"properties":{"id":120956,"name":"Machias","state_code":"ME","country_code":"US"}},{"type":"Feature","geometry":{"type":"Point","coordinates":[-67.39471,44.69869]},"properties":{"id":120958,"name":"Machiasport","state_code":"ME","country_code":"US"}},{"type":"Feature","geometry":{"type":"Point","coordinates":[-67.94725,46.88421]},"properties":{"id":120976,"name":"Madawaska","state_code":"ME","country_code":"US"}},{"type":"Feature","geometry":{"type":"Point","coordinates":[-69.87978,44.79756]},"properties":{"id":120995,"name":"Madison","state_code":"ME","country_code":"US"}},{"type":"Feature","geometry":{"type":"Point","coordinates":[-69.86033,44.32451]},"properties":{"id":121097,"name":"Manchester","state_code":"ME","country_code":"US"}},{"type":"Feature","geometry":{"type":"Point","coordinates":[-70.39172,44.11174]},"properties":{"id":121579,"name":"Mechanic Falls","state_code":"ME","country_code":"US"}},{"type":"Feature","geometry":{"type":"Point","coordinates":[-68.53086,45.60894]},"properties":{"id":121611,"name":"Medway","state_code":"ME","country_code":"US"}},{"type":"Feature","geometry":{"type":"Point","coordinates":[-70.54534,44.5609]},"properties":{"id":121742,"name":"Mexico","state_code":"ME","country_code":"US"}},{"type":"Feature","geometry":{"type":"Point","coordinates":[-67.88083,44.53536]},"properties":{"id":121843,"name":"Milbridge","state_code":"ME","country_code":"US"}},{"type":"Feature","geometry":{"type":"Point","coordinates":[-68.64392,44.94618]},"properties":{"id":121853,"name":"Milford","state_code":"ME","country_code":"US"}},{"type":"Feature","geometry":{"type":"Point","coordinates":[-68.70976,45.65727]},"properties":{"id":121893,"name":"Millinocket","state_code":"ME","country_code":"US"}},{"type":"Feature","geometry":{"type":"Point","coordinates":[-68.98587,45.25366]},"properties":{"id":121908,"name":"Milo","state_code":"ME","country_code":"US"}},{"type":"Feature","geometry":{"type":"Point","coordinates":[-70.32006,44.08563]},"properties":{"id":121965,"name":"Minot","state_code":"ME","country_code":"US"}},{"type":"Feature","geometry":{"type":"Point","coordinates":[-70.03561,44.23868]},"properties":{"id":122043,"name":"Monmouth","state_code":"ME","country_code":"US"}},{"type":"Feature","geometry":{"type":"Point","coordinates":[-69.98756,44.50118]},"properties":{"id":122401,"name":"Mount Vernon","state_code":"ME","country_code":"US"}},{"type":"Feature","geometry":{"type":"Point","coordinates":[-70.28255,43.96285]},"properties":{"id":122709,"name":"New Gloucester","state_code":"ME","country_code":"US"}},{"type":"Feature","geometry":{"type":"Point","coordinates":[-70.01561,44.63895]},"properties":{"id":122777,"name":"New Sharon","state_code":"ME","country_code":"US"}},{"type":"Feature","geometry":{"type":"Point","coordinates":[-70.84701,43.64813]},"properties":{"id":122829,"name":"Newfield","state_code":"ME","country_code":"US"}},{"type":"Feature","geometry":{"type":"Point","coordinates":[-69.27394,44.83534]},"properties":{"id":122846,"name":"Newport","state_code":"ME","country_code":"US"}},{"type":"Feature","geometry":{"type":"Point","coordinates":[-69.48505,44.07952]},"properties":{"id":122919,"name":"Nobleboro","state_code":"ME","country_code":"US"}},{"type":"Feature","geometry":{"type":"Point","coordinates":[-69.79061,44.71312]},"properties":{"id":122954,"name":"Norridgewock","state_code":"ME","country_code":"US"}},{"type":"Feature","geometry":{"type":"Point","coordinates":[-69.81588,43.9348]},"properties":{"id":122974,"name":"North Bath","state_code":"ME","country_code":"US"}},{"type":"Feature","geometry":{"type":"Point","coordinates":[-70.73339,43.3037]},"properties":{"id":122988,"name":"North Berwick","state_code":"ME","country_code":"US"}},{"type":"Feature","geometry":{"type":"Point","coordinates":[-70.43839,43.83424]},"properties":{"id":123131,"name":"North Windham","state_code":"ME","country_code":"US"}},{"type":"Feature","geometry":{"type":"Point","coordinates":[-68.96142,44.33786]},"properties":{"id":123161,"name":"Northport","state_code":"ME","country_code":"US"}},{"type":"Feature","geometry":{"type":"Point","coordinates":[-70.54478,44.21396]},"properties":{"id":123193,"name":"Norway","state_code":"ME","country_code":"US"}},{"type":"Feature","geometry":{"type":"Point","coordinates":[-69.72199,44.54034]},"properties":{"id":123289,"name":"Oakland","state_code":"ME","country_code":"US"}},{"type":"Feature","geometry":{"type":"Point","coordinates":[-70.59922,43.24898]},"properties":{"id":123380,"name":"Ogunquit","state_code":"ME","country_code":"US"}},{"type":"Feature","geometry":{"type":"Point","coordinates":[-70.37755,43.51731]},"properties":{"id":123425,"name":"Old Orchard Beach","state_code":"ME","country_code":"US"}},{"type":"Feature","geometry":{"type":"Point","coordinates":[-68.64531,44.93423]},"properties":{"id":123430,"name":"Old Town","state_code":"ME","country_code":"US"}},{"type":"Feature","geometry":{"type":"Point","coordinates":[-68.73586,44.57035]},"properties":{"id":123558,"name":"Orland","state_code":"ME","country_code":"US"}},{"type":"Feature","geometry":{"type":"Point","coordinates":[-68.67198,44.88312]},"properties":{"id":123574,"name":"Orono","state_code":"ME","country_code":"US"}},{"type":"Feature","geometry":{"type":"Point","coordinates":[-68.82643,44.73118]},"properties":{"id":123581,"name":"Orrington","state_code":"ME","country_code":"US"}},{"type":"Feature","geometry":{"type":"Point","coordinates":[-69.05726,44.0823]},"properties":{"id":123671,"name":"Owls Head","state_code":"ME","country_code":"US"}},{"type":"Feature","geometry":{"type":"Point","coordinates":[-70.49311,44.13174]},"properties":{"id":123684,"name":"Oxford","state_code":"ME","country_code":"US"}},{"type":"Feature","geometry":{"type":"Point","coordinates":[-69.47393,44.40785]},"properties":{"id":123734,"name":"Palermo","state_code":"ME","country_code":"US"}},{"type":"Feature","geometry":{"type":"Point","coordinates":[-69.35866,44.84645]},"properties":{"id":123774,"name":"Palmyra","state_code":"ME","country_code":"US"}},{"type":"Feature","geometry":{"type":"Point","coordinates":[-70.50062,44.25979]},"properties":{"id":123835,"name":"Paris","state_code":"ME","country_code":"US"}},{"type":"Feature","geometry":{"type":"Point","coordinates":[-70.92868,43.72702]},"properties":{"id":123894,"name":"Parsonsfield","state_code":"ME","country_code":"US"}},{"type":"Feature","geometry":{"type":"Point","coordinates":[-68.44614,45.99644]},"properties":{"id":123914,"name":"Patten","state_code":"ME","country_code":"US"}},{"type":"Feature","geometry":{"type":"Point","coordinates":[-68.71114,44.46452]},"properties":{"id":124041,"name":"Penobscot","state_code":"ME","country_code":"US"}},{"type":"Feature","geometry":{"type":"Point","coordinates":[-70.40534,44.50673]},"properties":{"id":124097,"name":"Peru","state_code":"ME","country_code":"US"}},{"type":"Feature","geometry":{"type":"Point","coordinates":[-70.33951,44.82311]},"properties":{"id":124133,"name":"Phillips","state_code":"ME","country_code":"US"}},{"type":"Feature","geometry":{"type":"Point","coordinates":[-69.81477,43.82064]},"properties":{"id":124145,"name":"Phippsburg","state_code":"ME","country_code":"US"}},{"type":"Feature","geometry":{"type":"Point","coordinates":[-69.38338,44.78256]},"properties":{"id":124299,"name":"Pittsfield","state_code":"ME","country_code":"US"}},{"type":"Feature","geometry":{"type":"Point","coordinates":[-69.7556,44.22174]},"properties":{"id":124303,"name":"Pittston","state_code":"ME","country_code":"US"}},{"type":"Feature","geometry":{"type":"Point","coordinates":[-69.21033,44.76729]},"properties":{"id":124404,"name":"Plymouth","state_code":"ME","country_code":"US"}},{"type":"Feature","geometry":{"type":"Point","coordinates":[-70.39367,44.06063]},"properties":{"id":124437,"name":"Poland","state_code":"ME","country_code":"US"}},{"type":"Feature","geometry":{"type":"Point","coordinates":[-70.93256,43.79591]},"properties":{"id":124552,"name":"Porter","state_code":"ME","country_code":"US"}},{"type":"Feature","geometry":{"type":"Point","coordinates":[-70.2589,43.65737]},"properties":{"id":124562,"name":"Portland","state_code":"ME","country_code":"US"}},{"type":"Feature","geometry":{"type":"Point","coordinates":[-68.01586,46.68115]},"properties":{"id":124649,"name":"Presque Isle","state_code":"ME","country_code":"US"}},{"type":"Feature","geometry":{"type":"Point","coordinates":[-69.76671,44.23035]},"properties":{"id":124866,"name":"Randolph","state_code":"ME","country_code":"US"}},{"type":"Feature","geometry":{"type":"Point","coordinates":[-70.47033,43.90146]},"properties":{"id":124918,"name":"Raymond","state_code":"ME","country_code":"US"}},{"type":"Feature","geometry":{"type":"Point","coordinates":[-69.96672,44.38785]},"properties":{"id":124928,"name":"Readfield","state_code":"ME","country_code":"US"}},{"type":"Feature","geometry":{"type":"Point","coordinates":[-69.79893,44.0873]},"properties":{"id":125091,"name":"Richmond","state_code":"ME","country_code":"US"}},{"type":"Feature","geometry":{"type":"Point","coordinates":[-69.10893,44.10369]},"properties":{"id":125308,"name":"Rockland","state_code":"ME","country_code":"US"}},{"type":"Feature","geometry":{"type":"Point","coordinates":[-69.07615,44.18452]},"properties":{"id":125318,"name":"Rockport","state_code":"ME","country_code":"US"}},{"type":"Feature","geometry":{"type":"Point","coordinates":[-69.86922,44.58506]},"properties":{"id":125377,"name":"Rome","state_code":"ME","country_code":"US"}},{"type":"Feature","geometry":{"type":"Point","coordinates":[-70.5509,44.55367]},"properties":{"id":125507,"name":"Rumford","state_code":"ME","country_code":"US"}},{"type":"Feature","geometry":{"type":"Point","coordinates":[-70.10755,44.1198]},"properties":{"id":125566,"name":"Sabattus","state_code":"ME","country_code":"US"}},{"type":"Feature","geometry":{"type":"Point","coordinates":[-70.44283,43.50092]},"properties":{"id":125576,"name":"Saco","state_code":"ME","country_code":"US"}},{"type":"Feature","geometry":{"type":"Point","coordinates":[-69.41005,44.91006]},"properties":{"id":125595,"name":"Saint Albans","state_code":"ME","country_code":"US"}},{"type":"Feature","geometry":{"type":"Point","coordinates":[-69.19893,44.01647]},"properties":{"id":125643,"name":"Saint George","state_code":"ME","country_code":"US"}},{"type":"Feature","geometry":{"type":"Point","coordinates":[-70.77422,43.43925]},"properties":{"id":125888,"name":"Sanford","state_code":"ME","country_code":"US"}},{"type":"Feature","geometry":{"type":"Point","coordinates":[-69.35644,45.16478]},"properties":{"id":125893,"name":"Sangerville","state_code":"ME","country_code":"US"}},{"type":"Feature","geometry":{"type":"Point","coordinates":[-70.32172,43.57814]},"properties":{"id":125997,"name":"Scarborough","state_code":"ME","country_code":"US"}},{"type":"Feature","geometry":{"type":"Point","coordinates":[-69.19504,44.36174]},"properties":{"id":126096,"name":"Searsmont","state_code":"ME","country_code":"US"}},{"type":"Feature","geometry":{"type":"Point","coordinates":[-68.61614,44.30369]},"properties":{"id":126118,"name":"Sedgwick","state_code":"ME","country_code":"US"}},{"type":"Feature","geometry":{"type":"Point","coordinates":[-70.84812,43.54064]},"properties":{"id":126224,"name":"Shapleigh","state_code":"ME","country_code":"US"}},{"type":"Feature","geometry":{"type":"Point","coordinates":[-69.72893,44.41312]},"properties":{"id":126396,"name":"Sidney","state_code":"ME","country_code":"US"}},{"type":"Feature","geometry":{"type":"Point","coordinates":[-69.71922,44.76506]},"properties":{"id":126484,"name":"Skowhegan","state_code":"ME","country_code":"US"}},{"type":"Feature","geometry":{"type":"Point","coordinates":[-70.8095,43.23453]},"properties":{"id":126626,"name":"South Berwick","state_code":"ME","country_code":"US"}},{"type":"Feature","geometry":{"type":"Point","coordinates":[-70.77755,43.10814]},"properties":{"id":126652,"name":"South Eliot","state_code":"ME","country_code":"US"}},{"type":"Feature","geometry":{"type":"Point","coordinates":[-70.51339,44.22368]},"properties":{"id":126702,"name":"South Paris","state_code":"ME","country_code":"US"}},{"type":"Feature","geometry":{"type":"Point","coordinates":[-70.24088,43.64147]},"properties":{"id":126713,"name":"South Portland","state_code":"ME","country_code":"US"}},{"type":"Feature","geometry":{"type":"Point","coordinates":[-70.31533,43.63897]},"properties":{"id":126714,"name":"South Portland Gardens","state_code":"ME","country_code":"US"}},{"type":"Feature","geometry":{"type":"Point","coordinates":[-70.74256,43.41119]},"properties":{"id":126726,"name":"South Sanford","state_code":"ME","country_code":"US"}},{"type":"Feature","geometry":{"type":"Point","coordinates":[-69.12782,44.05147]},"properties":{"id":126735,"name":"South Thomaston","state_code":"ME","country_code":"US"}},{"type":"Feature","geometry":{"type":"Point","coordinates":[-70.42366,43.73619]},"properties":{"id":126752,"name":"South Windham","state_code":"ME","country_code":"US"}},{"type":"Feature","geometry":{"type":"Point","coordinates":[-70.79367,43.46675]},"properties":{"id":126912,"name":"Springvale","state_code":"ME","country_code":"US"}},{"type":"Feature","geometry":{"type":"Point","coordinates":[-70.65256,43.79397]},"properties":{"id":127015,"name":"Steep Falls","state_code":"ME","country_code":"US"}},{"type":"Feature","geometry":{"type":"Point","coordinates":[-69.14282,44.89173]},"properties":{"id":127036,"name":"Stetson","state_code":"ME","country_code":"US"}},{"type":"Feature","geometry":{"type":"Point","coordinates":[-67.96662,44.51098]},"properties":{"id":127037,"name":"Steuben","state_code":"ME","country_code":"US"}},{"type":"Feature","geometry":{"type":"Point","coordinates":[-68.85698,44.48952]},"properties":{"id":127075,"name":"Stockton Springs","state_code":"ME","country_code":"US"}},{"type":"Feature","geometry":{"type":"Point","coordinates":[-68.66669,44.15619]},"properties":{"id":127095,"name":"Stonington","state_code":"ME","country_code":"US"}},{"type":"Feature","geometry":{"type":"Point","coordinates":[-70.2209,44.80756]},"properties":{"id":127138,"name":"Strong","state_code":"ME","country_code":"US"}},{"type":"Feature","geometry":{"type":"Point","coordinates":[-68.19668,44.52036]},"properties":{"id":127184,"name":"Sullivan","state_code":"ME","country_code":"US"}},{"type":"Feature","geometry":{"type":"Point","coordinates":[-68.50169,44.49591]},"properties":{"id":127293,"name":"Surry","state_code":"ME","country_code":"US"}},{"type":"Feature","geometry":{"type":"Point","coordinates":[-68.99781,44.52119]},"properties":{"id":127328,"name":"Swanville","state_code":"ME","country_code":"US"}},{"type":"Feature","geometry":{"type":"Point","coordinates":[-69.18171,44.07897]},"properties":{"id":127585,"name":"Thomaston","state_code":"ME","country_code":"US"}},{"type":"Feature","geometry":{"type":"Point","coordinates":[-69.97588,43.92758]},"properties":{"id":127736,"name":"Topsham","state_code":"ME","country_code":"US"}},{"type":"Feature","geometry":{"type":"Point","coordinates":[-68.35141,44.25369]},"properties":{"id":127794,"name":"Tremont","state_code":"ME","country_code":"US"}},{"type":"Feature","geometry":{"type":"Point","coordinates":[-68.37002,44.43897]},"properties":{"id":127807,"name":"Trenton","state_code":"ME","country_code":"US"}},{"type":"Feature","geometry":{"type":"Point","coordinates":[-69.24088,44.66479]},"properties":{"id":127849,"name":"Troy","state_code":"ME","country_code":"US"}},{"type":"Feature","geometry":{"type":"Point","coordinates":[-70.25617,44.25646]},"properties":{"id":127901,"name":"Turner","state_code":"ME","country_code":"US"}},{"type":"Feature","geometry":{"type":"Point","coordinates":[-69.27421,44.21147]},"properties":{"id":127975,"name":"Union","state_code":"ME","country_code":"US"}},{"type":"Feature","geometry":{"type":"Point","coordinates":[-67.9353,47.15727]},"properties":{"id":128128,"name":"Van Buren","state_code":"ME","country_code":"US"}},{"type":"Feature","geometry":{"type":"Point","coordinates":[-69.67755,44.45923]},"properties":{"id":128158,"name":"Vassalboro","state_code":"ME","country_code":"US"}},{"type":"Feature","geometry":{"type":"Point","coordinates":[-68.70531,44.83868]},"properties":{"id":128160,"name":"Veazie","state_code":"ME","country_code":"US"}},{"type":"Feature","geometry":{"type":"Point","coordinates":[-68.8317,44.04814]},"properties":{"id":128262,"name":"Vinalhaven","state_code":"ME","country_code":"US"}},{"type":"Feature","geometry":{"type":"Point","coordinates":[-69.3756,44.09536]},"properties":{"id":128373,"name":"Waldoboro","state_code":"ME","country_code":"US"}},{"type":"Feature","geometry":{"type":"Point","coordinates":[-69.24005,44.12036]},"properties":{"id":128480,"name":"Warren","state_code":"ME","country_code":"US"}},{"type":"Feature","geometry":{"type":"Point","coordinates":[-69.36727,44.27369]},"properties":{"id":128547,"name":"Washington","state_code":"ME","country_code":"US"}},{"type":"Feature","geometry":{"type":"Point","coordinates":[-70.71506,43.53564]},"properties":{"id":128601,"name":"Waterboro","state_code":"ME","country_code":"US"}},{"type":"Feature","geometry":{"type":"Point","coordinates":[-69.63171,44.55201]},"properties":{"id":128626,"name":"Waterville","state_code":"ME","country_code":"US"}},{"type":"Feature","geometry":{"type":"Point","coordinates":[-70.06616,44.34868]},"properties":{"id":128684,"name":"Wayne","state_code":"ME","country_code":"US"}},{"type":"Feature","geometry":{"type":"Point","coordinates":[-70.59144,43.32397]},"properties":{"id":128784,"name":"Wells Beach Station","state_code":"ME","country_code":"US"}},{"type":"Feature","geometry":{"type":"Point","coordinates":[-70.58144,43.4087]},"properties":{"id":128906,"name":"West Kennebunk","state_code":"ME","country_code":"US"}},{"type":"Feature","geometry":{"type":"Point","coordinates":[-70.57395,44.32423]},"properties":{"id":128948,"name":"West Paris","state_code":"ME","country_code":"US"}},{"type":"Feature","geometry":{"type":"Point","coordinates":[-70.38783,43.57036]},"properties":{"id":128977,"name":"West Scarborough","state_code":"ME","country_code":"US"}},{"type":"Feature","geometry":{"type":"Point","coordinates":[-70.37116,43.67703]},"properties":{"id":129013,"name":"Westbrook","state_code":"ME","country_code":"US"}},{"type":"Feature","geometry":{"type":"Point","coordinates":[-69.62532,44.17007]},"properties":{"id":129164,"name":"Whitefield","state_code":"ME","country_code":"US"}},{"type":"Feature","geometry":{"type":"Point","coordinates":[-70.22812,44.59284]},"properties":{"id":129344,"name":"Wilton","state_code":"ME","country_code":"US"}},{"type":"Feature","geometry":{"type":"Point","coordinates":[-69.5806,44.31063]},"properties":{"id":129383,"name":"Windsor","state_code":"ME","country_code":"US"}},{"type":"Feature","geometry":{"type":"Point","coordinates":[-69.62116,44.54701]},"properties":{"id":129428,"name":"Winslow","state_code":"ME","country_code":"US"}},{"type":"Feature","geometry":{"type":"Point","coordinates":[-68.84504,44.63785]},"properties":{"id":129443,"name":"Winterport","state_code":"ME","country_code":"US"}},{"type":"Feature","geometry":{"type":"Point","coordinates":[-69.977,44.30507]},"properties":{"id":129449,"name":"Winthrop","state_code":"ME","country_code":"US"}},{"type":"Feature","geometry":{"type":"Point","coordinates":[-69.6656,44.00286]},"properties":{"id":129456,"name":"Wiscasset","state_code":"ME","country_code":"US"}},{"type":"Feature","geometry":{"type":"Point","coordinates":[-70.60849,44.37494]},"properties":{"id":129567,"name":"Woodstock","state_code":"ME","country_code":"US"}},{"type":"Feature","geometry":{"type":"Point","coordinates":[-69.80116,43.91869]},"properties":{"id":129581,"name":"Woolwich","state_code":"ME","country_code":"US"}},{"type":"Feature","geometry":{"type":"Point","coordinates":[-70.18672,43.80064]},"properties":{"id":129666,"name":"Yarmouth","state_code":"ME","country_code":"US"}},{"type":"Feature","geometry":{"type":"Point","coordinates":[-70.60894,43.17148]},"properties":{"id":129694,"name":"York Beach","state_code":"ME","country_code":"US"}},{"type":"Feature","geometry":{"type":"Point","coordinates":[-70.64561,43.13676]},"properties":{"id":129700,"name":"York Harbor","state_code":"ME","country_code":"US"}}]}