{"type":"FeatureCollection","features":[{"type":"Feature","geometry":{"type":"Point","coordinates":[-115.16446,37.36496]},"properties":{"id":111095,"name":"Alamo","state_code":"NV","country_code":"US"}},{"type":"Feature","geometry":{"type":"Point","coordinates":[-116.93427,40.64213]},"properties":{"id":111908,"name":"Battle Mountain","state_code":"NV","country_code":"US"}},{"type":"Feature","geometry":{"type":"Point","coordinates":[-116.75923,36.90856]},"properties":{"id":111982,"name":"Beatty","state_code":"NV","country_code":"US"}},{"type":"Feature","geometry":{"type":"Point","coordinates":[-114.83249,35.97859]},"properties":{"id":112602,"name":"Boulder City","state_code":"NV","country_code":"US"}},{"type":"Feature","geometry":{"type":"Point","coordinates":[-114.12802,36.77303]},"properties":{"id":113043,"name":"Bunkerville","state_code":"NV","country_code":"US"}},{"type":"Feature","geometry":{"type":"Point","coordinates":[-114.51194,37.61496]},"properties":{"id":113213,"name":"Caliente","state_code":"NV","country_code":"US"}},{"type":"Feature","geometry":{"type":"Point","coordinates":[-116.10397,40.71381]},"properties":{"id":113399,"name":"Carlin","state_code":"NV","country_code":"US"}},{"type":"Feature","geometry":{"type":"Point","coordinates":[-119.7674,39.1638]},"properties":{"id":113478,"name":"Carson City","state_code":"NV","country_code":"US"}},{"type":"Feature","geometry":{"type":"Point","coordinates":[-119.97659,39.68019]},"properties":{"id":114389,"name":"Cold Springs","state_code":"NV","country_code":"US"}},{"type":"Feature","geometry":{"type":"Point","coordinates":[-119.59295,39.23714]},"properties":{"id":115098,"name":"Dayton","state_code":"NV","country_code":"US"}},{"type":"Feature","geometry":{"type":"Point","coordinates":[-119.69923,38.9434]},"properties":{"id":115768,"name":"East Valley","state_code":"NV","country_code":"US"}},{"type":"Feature","geometry":{"type":"Point","coordinates":[-115.76312,40.83242]},"properties":{"id":116008,"name":"Elko","state_code":"NV","country_code":"US"}},{"type":"Feature","geometry":{"type":"Point","coordinates":[-114.88863,39.24744]},"properties":{"id":116086,"name":"Ely","state_code":"NV","country_code":"US"}},{"type":"Feature","geometry":{"type":"Point","coordinates":[-115.24194,36.02525]},"properties":{"id":116149,"name":"Enterprise","state_code":"NV","country_code":"US"}},{"type":"Feature","geometry":{"type":"Point","coordinates":[-115.96061,39.51271]},"properties":{"id":116237,"name":"Eureka","state_code":"NV","country_code":"US"}},{"type":"Feature","geometry":{"type":"Point","coordinates":[-118.77737,39.47353]},"properties":{"id":116378,"name":"Fallon","state_code":"NV","country_code":"US"}},{"type":"Feature","geometry":{"type":"Point","coordinates":[-119.25183,39.60797]},"properties":{"id":116491,"name":"Fernley","state_code":"NV","country_code":"US"}},{"type":"Feature","geometry":{"type":"Point","coordinates":[-119.74962,38.9413]},"properties":{"id":117078,"name":"Gardnerville","state_code":"NV","country_code":"US"}},{"type":"Feature","geometry":{"type":"Point","coordinates":[-119.74129,38.88824]},"properties":{"id":117079,"name":"Gardnerville Ranchos","state_code":"NV","country_code":"US"}},{"type":"Feature","geometry":{"type":"Point","coordinates":[-119.82658,39.61547]},"properties":{"id":117357,"name":"Golden Valley","state_code":"NV","country_code":"US"}},{"type":"Feature","geometry":{"type":"Point","coordinates":[-117.23563,37.70854]},"properties":{"id":117363,"name":"Goldfield","state_code":"NV","country_code":"US"}},{"type":"Feature","geometry":{"type":"Point","coordinates":[-118.62458,38.52464]},"properties":{"id":118176,"name":"Hawthorne","state_code":"NV","country_code":"US"}},{"type":"Feature","geometry":{"type":"Point","coordinates":[-114.98194,36.0397]},"properties":{"id":118278,"name":"Henderson","state_code":"NV","country_code":"US"}},{"type":"Feature","geometry":{"type":"Point","coordinates":[-119.97297,39.2513]},"properties":{"id":118888,"name":"Incline Village","state_code":"NV","country_code":"US"}},{"type":"Feature","geometry":{"type":"Point","coordinates":[-119.78407,39.08602]},"properties":{"id":118909,"name":"Indian Hills","state_code":"NV","country_code":"US"}},{"type":"Feature","geometry":{"type":"Point","coordinates":[-114.67476,41.98324]},"properties":{"id":119057,"name":"Jackpot","state_code":"NV","country_code":"US"}},{"type":"Feature","geometry":{"type":"Point","coordinates":[-119.72212,39.04796]},"properties":{"id":119273,"name":"Johnson Lane","state_code":"NV","country_code":"US"}},{"type":"Feature","geometry":{"type":"Point","coordinates":[-119.90685,38.97713]},"properties":{"id":119610,"name":"Kingsbury","state_code":"NV","country_code":"US"}},{"type":"Feature","geometry":{"type":"Point","coordinates":[-115.13722,36.17497]},"properties":{"id":120163,"name":"Las Vegas","state_code":"NV","country_code":"US"}},{"type":"Feature","geometry":{"type":"Point","coordinates":[-114.57302,35.16778]},"properties":{"id":120185,"name":"Laughlin","state_code":"NV","country_code":"US"}},{"type":"Feature","geometry":{"type":"Point","coordinates":[-119.84325,39.63602]},"properties":{"id":120358,"name":"Lemmon Valley","state_code":"NV","country_code":"US"}},{"type":"Feature","geometry":{"type":"Point","coordinates":[-118.47348,40.17935]},"properties":{"id":120825,"name":"Lovelock","state_code":"NV","country_code":"US"}},{"type":"Feature","geometry":{"type":"Point","coordinates":[-114.77863,39.40494]},"properties":{"id":121502,"name":"McGill","state_code":"NV","country_code":"US"}},{"type":"Feature","geometry":{"type":"Point","coordinates":[-114.06719,36.80553]},"properties":{"id":121727,"name":"Mesquite","state_code":"NV","country_code":"US"}},{"type":"Feature","geometry":{"type":"Point","coordinates":[-119.76573,38.95407]},"properties":{"id":121930,"name":"Minden","state_code":"NV","country_code":"US"}},{"type":"Feature","geometry":{"type":"Point","coordinates":[-114.59416,36.68219]},"properties":{"id":122007,"name":"Moapa Town","state_code":"NV","country_code":"US"}},{"type":"Feature","geometry":{"type":"Point","coordinates":[-114.47026,36.58053]},"properties":{"id":122008,"name":"Moapa Valley","state_code":"NV","country_code":"US"}},{"type":"Feature","geometry":{"type":"Point","coordinates":[-119.92603,39.5138]},"properties":{"id":122017,"name":"Mogul","state_code":"NV","country_code":"US"}},{"type":"Feature","geometry":{"type":"Point","coordinates":[-115.05721,36.24607]},"properties":{"id":122622,"name":"Nellis Air Force Base","state_code":"NV","country_code":"US"}},{"type":"Feature","geometry":{"type":"Point","coordinates":[-115.1175,36.19886]},"properties":{"id":123052,"name":"North Las Vegas","state_code":"NV","country_code":"US"}},{"type":"Feature","geometry":{"type":"Point","coordinates":[-115.98391,36.20829]},"properties":{"id":123724,"name":"Pahrump","state_code":"NV","country_code":"US"}},{"type":"Feature","geometry":{"type":"Point","coordinates":[-115.14666,36.09719]},"properties":{"id":123819,"name":"Paradise","state_code":"NV","country_code":"US"}},{"type":"Feature","geometry":{"type":"Point","coordinates":[-114.45221,37.92969]},"properties":{"id":124273,"name":"Pioche","state_code":"NV","country_code":"US"}},{"type":"Feature","geometry":{"type":"Point","coordinates":[-119.8138,39.52963]},"properties":{"id":125020,"name":"Reno","state_code":"NV","country_code":"US"}},{"type":"Feature","geometry":{"type":"Point","coordinates":[-115.63223,35.81692]},"properties":{"id":125885,"name":"Sandy Valley","state_code":"NV","country_code":"US"}},{"type":"Feature","geometry":{"type":"Point","coordinates":[-119.22461,39.41547]},"properties":{"id":126435,"name":"Silver Springs","state_code":"NV","country_code":"US"}},{"type":"Feature","geometry":{"type":"Point","coordinates":[-119.32738,38.80047]},"properties":{"id":126510,"name":"Smith","state_code":"NV","country_code":"US"}},{"type":"Feature","geometry":{"type":"Point","coordinates":[-119.34425,38.78421]},"properties":{"id":126517,"name":"Smith Valley","state_code":"NV","country_code":"US"}},{"type":"Feature","geometry":{"type":"Point","coordinates":[-119.70741,39.64908]},"properties":{"id":126801,"name":"Spanish Springs","state_code":"NV","country_code":"US"}},{"type":"Feature","geometry":{"type":"Point","coordinates":[-119.75269,39.53491]},"properties":{"id":126805,"name":"Sparks","state_code":"NV","country_code":"US"}},{"type":"Feature","geometry":{"type":"Point","coordinates":[-115.5859,40.72659]},"properties":{"id":126854,"name":"Spring Creek","state_code":"NV","country_code":"US"}},{"type":"Feature","geometry":{"type":"Point","coordinates":[-115.245,36.10803]},"properties":{"id":126881,"name":"Spring Valley","state_code":"NV","country_code":"US"}},{"type":"Feature","geometry":{"type":"Point","coordinates":[-119.37406,39.3738]},"properties":{"id":126939,"name":"Stagecoach","state_code":"NV","country_code":"US"}},{"type":"Feature","geometry":{"type":"Point","coordinates":[-115.33001,36.11708]},"properties":{"id":127205,"name":"Summerlin South","state_code":"NV","country_code":"US"}},{"type":"Feature","geometry":{"type":"Point","coordinates":[-119.77602,39.5963]},"properties":{"id":127242,"name":"Sun Valley","state_code":"NV","country_code":"US"}},{"type":"Feature","geometry":{"type":"Point","coordinates":[-115.07306,36.21108]},"properties":{"id":127269,"name":"Sunrise Manor","state_code":"NV","country_code":"US"}},{"type":"Feature","geometry":{"type":"Point","coordinates":[-117.23008,38.06716]},"properties":{"id":127722,"name":"Tonopah","state_code":"NV","country_code":"US"}},{"type":"Feature","geometry":{"type":"Point","coordinates":[-119.50079,38.73565]},"properties":{"id":127731,"name":"Topaz Ranch Estates","state_code":"NV","country_code":"US"}},{"type":"Feature","geometry":{"type":"Point","coordinates":[-119.98881,39.51824]},"properties":{"id":128180,"name":"Verdi","state_code":"NV","country_code":"US"}},{"type":"Feature","geometry":{"type":"Point","coordinates":[-119.64962,39.30963]},"properties":{"id":128290,"name":"Virginia City","state_code":"NV","country_code":"US"}},{"type":"Feature","geometry":{"type":"Point","coordinates":[-114.96449,41.11159]},"properties":{"id":128783,"name":"Wells","state_code":"NV","country_code":"US"}},{"type":"Feature","geometry":{"type":"Point","coordinates":[-114.07335,40.7391]},"properties":{"id":129004,"name":"West Wendover","state_code":"NV","country_code":"US"}},{"type":"Feature","geometry":{"type":"Point","coordinates":[-115.0363,36.09831]},"properties":{"id":129209,"name":"Whitney","state_code":"NV","country_code":"US"}},{"type":"Feature","geometry":{"type":"Point","coordinates":[-115.11889,36.12997]},"properties":{"id":129361,"name":"Winchester","state_code":"NV","country_code":"US"}},{"type":"Feature","geometry":{"type":"Point","coordinates":[-117.73568,40.97296]},"properties":{"id":129411,"name":"Winnemucca","state_code":"NV","country_code":"US"}},{"type":"Feature","geometry":{"type":"Point","coordinates":[-119.16293,38.98575]},"properties":{"id":129682,"name":"Yerington","state_code":"NV","country_code":"US"}}]}