{"type":"FeatureCollection","features":[{"type":"Feature","geometry":{"type":"Point","coordinates":[-88.3906,35.23591]},"properties":{"id":111031,"name":"Adamsville","state_code":"TN","country_code":"US"}},{"type":"Feature","geometry":{"type":"Point","coordinates":[-89.11729,35.78479]},"properties":{"id":111091,"name":"Alamo","state_code":"TN","country_code":"US"}},{"type":"Feature","geometry":{"type":"Point","coordinates":[-83.97379,35.78953]},"properties":{"id":111132,"name":"Alcoa","state_code":"TN","country_code":"US"}},{"type":"Feature","geometry":{"type":"Point","coordinates":[-85.44858,36.19589]},"properties":{"id":111168,"name":"Algood","state_code":"TN","country_code":"US"}},{"type":"Feature","geometry":{"type":"Point","coordinates":[-85.72303,35.42952]},"properties":{"id":111234,"name":"Altamont","state_code":"TN","country_code":"US"}},{"type":"Feature","geometry":{"type":"Point","coordinates":[-85.02384,35.02396]},"properties":{"id":111385,"name":"Apison","state_code":"TN","country_code":"US"}},{"type":"Feature","geometry":{"type":"Point","coordinates":[-86.84667,34.99203]},"properties":{"id":111441,"name":"Ardmore","state_code":"TN","country_code":"US"}},{"type":"Feature","geometry":{"type":"Point","coordinates":[-89.66147,35.2962]},"properties":{"id":111462,"name":"Arlington","state_code":"TN","country_code":"US"}},{"type":"Feature","geometry":{"type":"Point","coordinates":[-87.06417,36.27422]},"properties":{"id":111541,"name":"Ashland City","state_code":"TN","country_code":"US"}},{"type":"Feature","geometry":{"type":"Point","coordinates":[-84.59299,35.44285]},"properties":{"id":111575,"name":"Athens","state_code":"TN","country_code":"US"}},{"type":"Feature","geometry":{"type":"Point","coordinates":[-89.77814,35.44119]},"properties":{"id":111604,"name":"Atoka","state_code":"TN","country_code":"US"}},{"type":"Feature","geometry":{"type":"Point","coordinates":[-82.42458,36.13066]},"properties":{"id":111802,"name":"Banner Hill","state_code":"TN","country_code":"US"}},{"type":"Feature","geometry":{"type":"Point","coordinates":[-89.87398,35.20453]},"properties":{"id":111861,"name":"Bartlett","state_code":"TN","country_code":"US"}},{"type":"Feature","geometry":{"type":"Point","coordinates":[-85.64359,36.15367]},"properties":{"id":111914,"name":"Baxter","state_code":"TN","country_code":"US"}},{"type":"Feature","geometry":{"type":"Point","coordinates":[-83.28406,36.3437]},"properties":{"id":111973,"name":"Bean Station","state_code":"TN","country_code":"US"}},{"type":"Feature","geometry":{"type":"Point","coordinates":[-86.85694,36.09589]},"properties":{"id":112087,"name":"Belle Meade","state_code":"TN","country_code":"US"}},{"type":"Feature","geometry":{"type":"Point","coordinates":[-89.08756,35.71118]},"properties":{"id":112126,"name":"Bells","state_code":"TN","country_code":"US"}},{"type":"Feature","geometry":{"type":"Point","coordinates":[-84.65355,35.17424]},"properties":{"id":112196,"name":"Benton","state_code":"TN","country_code":"US"}},{"type":"Feature","geometry":{"type":"Point","coordinates":[-83.70407,36.15425]},"properties":{"id":112402,"name":"Blaine","state_code":"TN","country_code":"US"}},{"type":"Feature","geometry":{"type":"Point","coordinates":[-82.48932,36.58455]},"properties":{"id":112446,"name":"Bloomingdale","state_code":"TN","country_code":"US"}},{"type":"Feature","geometry":{"type":"Point","coordinates":[-82.32681,36.53316]},"properties":{"id":112461,"name":"Blountville","state_code":"TN","country_code":"US"}},{"type":"Feature","geometry":{"type":"Point","coordinates":[-82.26097,36.47427]},"properties":{"id":112481,"name":"Bluff City","state_code":"TN","country_code":"US"}},{"type":"Feature","geometry":{"type":"Point","coordinates":[-88.98784,35.25619]},"properties":{"id":112518,"name":"Bolivar","state_code":"TN","country_code":"US"}},{"type":"Feature","geometry":{"type":"Point","coordinates":[-87.31084,35.92784]},"properties":{"id":112527,"name":"Bon Aqua Junction","state_code":"TN","country_code":"US"}},{"type":"Feature","geometry":{"type":"Point","coordinates":[-88.81006,36.07645]},"properties":{"id":112664,"name":"Bradford","state_code":"TN","country_code":"US"}},{"type":"Feature","geometry":{"type":"Point","coordinates":[-86.78278,36.03312]},"properties":{"id":112729,"name":"Brentwood","state_code":"TN","country_code":"US"}},{"type":"Feature","geometry":{"type":"Point","coordinates":[-86.77917,36.02506]},"properties":{"id":112734,"name":"Brentwood Estates","state_code":"TN","country_code":"US"}},{"type":"Feature","geometry":{"type":"Point","coordinates":[-89.72508,35.48397]},"properties":{"id":112788,"name":"Brighton","state_code":"TN","country_code":"US"}},{"type":"Feature","geometry":{"type":"Point","coordinates":[-82.18874,36.59511]},"properties":{"id":112803,"name":"Bristol","state_code":"TN","country_code":"US"}},{"type":"Feature","geometry":{"type":"Point","coordinates":[-89.26229,35.59397]},"properties":{"id":112931,"name":"Brownsville","state_code":"TN","country_code":"US"}},{"type":"Feature","geometry":{"type":"Point","coordinates":[-88.24449,36.03812]},"properties":{"id":112943,"name":"Bruceton","state_code":"TN","country_code":"US"}},{"type":"Feature","geometry":{"type":"Point","coordinates":[-87.31251,36.05339]},"properties":{"id":113086,"name":"Burns","state_code":"TN","country_code":"US"}},{"type":"Feature","geometry":{"type":"Point","coordinates":[-85.12884,36.57451]},"properties":{"id":113141,"name":"Byrdstown","state_code":"TN","country_code":"US"}},{"type":"Feature","geometry":{"type":"Point","coordinates":[-88.09782,36.05895]},"properties":{"id":113265,"name":"Camden","state_code":"TN","country_code":"US"}},{"type":"Feature","geometry":{"type":"Point","coordinates":[-85.95165,36.25228]},"properties":{"id":113494,"name":"Carthage","state_code":"TN","country_code":"US"}},{"type":"Feature","geometry":{"type":"Point","coordinates":[-84.22326,36.29897]},"properties":{"id":113507,"name":"Caryville","state_code":"TN","country_code":"US"}},{"type":"Feature","geometry":{"type":"Point","coordinates":[-85.50525,36.55006]},"properties":{"id":113630,"name":"Celina","state_code":"TN","country_code":"US"}},{"type":"Feature","geometry":{"type":"Point","coordinates":[-87.46696,35.77896]},"properties":{"id":113655,"name":"Centerville","state_code":"TN","country_code":"US"}},{"type":"Feature","geometry":{"type":"Point","coordinates":[-82.28958,36.32622]},"properties":{"id":113664,"name":"Central","state_code":"TN","country_code":"US"}},{"type":"Feature","geometry":{"type":"Point","coordinates":[-86.69333,35.62646]},"properties":{"id":113742,"name":"Chapel Hill","state_code":"TN","country_code":"US"}},{"type":"Feature","geometry":{"type":"Point","coordinates":[-87.33973,36.17728]},"properties":{"id":113777,"name":"Charlotte","state_code":"TN","country_code":"US"}},{"type":"Feature","geometry":{"type":"Point","coordinates":[-85.30968,35.04563]},"properties":{"id":113811,"name":"Chattanooga","state_code":"TN","country_code":"US"}},{"type":"Feature","geometry":{"type":"Point","coordinates":[-86.39944,35.71007]},"properties":{"id":113998,"name":"Christiana","state_code":"TN","country_code":"US"}},{"type":"Feature","geometry":{"type":"Point","coordinates":[-82.71349,36.52232]},"properties":{"id":114007,"name":"Church Hill","state_code":"TN","country_code":"US"}},{"type":"Feature","geometry":{"type":"Point","coordinates":[-87.35945,36.52977]},"properties":{"id":114154,"name":"Clarksville","state_code":"TN","country_code":"US"}},{"type":"Feature","geometry":{"type":"Point","coordinates":[-84.87661,35.15952]},"properties":{"id":114244,"name":"Cleveland","state_code":"TN","country_code":"US"}},{"type":"Feature","geometry":{"type":"Point","coordinates":[-87.99531,35.38702]},"properties":{"id":114255,"name":"Clifton","state_code":"TN","country_code":"US"}},{"type":"Feature","geometry":{"type":"Point","coordinates":[-84.13186,36.10341]},"properties":{"id":114275,"name":"Clinton","state_code":"TN","country_code":"US"}},{"type":"Feature","geometry":{"type":"Point","coordinates":[-84.42076,36.02897]},"properties":{"id":114335,"name":"Coalfield","state_code":"TN","country_code":"US"}},{"type":"Feature","geometry":{"type":"Point","coordinates":[-85.05023,35.05313]},"properties":{"id":114418,"name":"Collegedale","state_code":"TN","country_code":"US"}},{"type":"Feature","geometry":{"type":"Point","coordinates":[-89.66453,35.04204]},"properties":{"id":114424,"name":"Collierville","state_code":"TN","country_code":"US"}},{"type":"Feature","geometry":{"type":"Point","coordinates":[-82.5032,36.4851]},"properties":{"id":114448,"name":"Colonial Heights","state_code":"TN","country_code":"US"}},{"type":"Feature","geometry":{"type":"Point","coordinates":[-87.03528,35.61507]},"properties":{"id":114472,"name":"Columbia","state_code":"TN","country_code":"US"}},{"type":"Feature","geometry":{"type":"Point","coordinates":[-83.7938,36.18119]},"properties":{"id":114548,"name":"Condon","state_code":"TN","country_code":"US"}},{"type":"Feature","geometry":{"type":"Point","coordinates":[-85.50164,36.16284]},"properties":{"id":114595,"name":"Cookeville","state_code":"TN","country_code":"US"}},{"type":"Feature","geometry":{"type":"Point","coordinates":[-86.96722,36.43755]},"properties":{"id":114609,"name":"Coopertown","state_code":"TN","country_code":"US"}},{"type":"Feature","geometry":{"type":"Point","coordinates":[-86.83972,35.36146]},"properties":{"id":114650,"name":"Cornersville","state_code":"TN","country_code":"US"}},{"type":"Feature","geometry":{"type":"Point","coordinates":[-89.64647,35.56425]},"properties":{"id":114738,"name":"Covington","state_code":"TN","country_code":"US"}},{"type":"Feature","geometry":{"type":"Point","coordinates":[-86.01054,35.16453]},"properties":{"id":114744,"name":"Cowan","state_code":"TN","country_code":"US"}},{"type":"Feature","geometry":{"type":"Point","coordinates":[-86.69611,36.54866]},"properties":{"id":114852,"name":"Cross Plains","state_code":"TN","country_code":"US"}},{"type":"Feature","geometry":{"type":"Point","coordinates":[-85.0269,35.94896]},"properties":{"id":114856,"name":"Crossville","state_code":"TN","country_code":"US"}},{"type":"Feature","geometry":{"type":"Point","coordinates":[-88.31809,35.22175]},"properties":{"id":114873,"name":"Crump","state_code":"TN","country_code":"US"}},{"type":"Feature","geometry":{"type":"Point","coordinates":[-83.41489,36.01537]},"properties":{"id":115018,"name":"Dandridge","state_code":"TN","country_code":"US"}},{"type":"Feature","geometry":{"type":"Point","coordinates":[-85.01245,35.49396]},"properties":{"id":115092,"name":"Dayton","state_code":"TN","country_code":"US"}},{"type":"Feature","geometry":{"type":"Point","coordinates":[-84.79022,35.51479]},"properties":{"id":115154,"name":"Decatur","state_code":"TN","country_code":"US"}},{"type":"Feature","geometry":{"type":"Point","coordinates":[-88.11948,35.58424]},"properties":{"id":115164,"name":"Decaturville","state_code":"TN","country_code":"US"}},{"type":"Feature","geometry":{"type":"Point","coordinates":[-86.07943,35.2098]},"properties":{"id":115165,"name":"Decherd","state_code":"TN","country_code":"US"}},{"type":"Feature","geometry":{"type":"Point","coordinates":[-87.38779,36.077]},"properties":{"id":115331,"name":"Dickson","state_code":"TN","country_code":"US"}},{"type":"Feature","geometry":{"type":"Point","coordinates":[-85.5322,36.31256]},"properties":{"id":115382,"name":"Dodson Branch","state_code":"TN","country_code":"US"}},{"type":"Feature","geometry":{"type":"Point","coordinates":[-87.83836,36.48783]},"properties":{"id":115447,"name":"Dover","state_code":"TN","country_code":"US"}},{"type":"Feature","geometry":{"type":"Point","coordinates":[-88.70811,36.29145]},"properties":{"id":115471,"name":"Dresden","state_code":"TN","country_code":"US"}},{"type":"Feature","geometry":{"type":"Point","coordinates":[-85.39052,35.37146]},"properties":{"id":115542,"name":"Dunlap","state_code":"TN","country_code":"US"}},{"type":"Feature","geometry":{"type":"Point","coordinates":[-88.99395,36.06673]},"properties":{"id":115585,"name":"Dyer","state_code":"TN","country_code":"US"}},{"type":"Feature","geometry":{"type":"Point","coordinates":[-89.38563,36.03452]},"properties":{"id":115588,"name":"Dyersburg","state_code":"TN","country_code":"US"}},{"type":"Feature","geometry":{"type":"Point","coordinates":[-83.93185,35.79508]},"properties":{"id":115613,"name":"Eagleton Village","state_code":"TN","country_code":"US"}},{"type":"Feature","geometry":{"type":"Point","coordinates":[-85.15023,34.99591]},"properties":{"id":115635,"name":"East Brainerd","state_code":"TN","country_code":"US"}},{"type":"Feature","geometry":{"type":"Point","coordinates":[-85.24912,35.06535]},"properties":{"id":115644,"name":"East Chattanooga","state_code":"TN","country_code":"US"}},{"type":"Feature","geometry":{"type":"Point","coordinates":[-84.85772,35.16091]},"properties":{"id":115646,"name":"East Cleveland","state_code":"TN","country_code":"US"}},{"type":"Feature","geometry":{"type":"Point","coordinates":[-85.2519,35.01424]},"properties":{"id":115747,"name":"East Ridge","state_code":"TN","country_code":"US"}},{"type":"Feature","geometry":{"type":"Point","coordinates":[-82.21069,36.34872]},"properties":{"id":115976,"name":"Elizabethton","state_code":"TN","country_code":"US"}},{"type":"Feature","geometry":{"type":"Point","coordinates":[-84.48743,35.42452]},"properties":{"id":116130,"name":"Englewood","state_code":"TN","country_code":"US"}},{"type":"Feature","geometry":{"type":"Point","coordinates":[-87.69474,36.31839]},"properties":{"id":116170,"name":"Erin","state_code":"TN","country_code":"US"}},{"type":"Feature","geometry":{"type":"Point","coordinates":[-82.41681,36.14511]},"properties":{"id":116176,"name":"Erwin","state_code":"TN","country_code":"US"}},{"type":"Feature","geometry":{"type":"Point","coordinates":[-86.12804,35.27064]},"properties":{"id":116213,"name":"Estill Springs","state_code":"TN","country_code":"US"}},{"type":"Feature","geometry":{"type":"Point","coordinates":[-84.52493,35.32341]},"properties":{"id":116218,"name":"Etowah","state_code":"TN","country_code":"US"}},{"type":"Feature","geometry":{"type":"Point","coordinates":[-84.88634,36.00035]},"properties":{"id":116321,"name":"Fairfield Glade","state_code":"TN","country_code":"US"}},{"type":"Feature","geometry":{"type":"Point","coordinates":[-85.32357,35.18146]},"properties":{"id":116339,"name":"Fairmount","state_code":"TN","country_code":"US"}},{"type":"Feature","geometry":{"type":"Point","coordinates":[-87.1214,35.98201]},"properties":{"id":116349,"name":"Fairview","state_code":"TN","country_code":"US"}},{"type":"Feature","geometry":{"type":"Point","coordinates":[-82.62376,36.41816]},"properties":{"id":116370,"name":"Fall Branch","state_code":"TN","country_code":"US"}},{"type":"Feature","geometry":{"type":"Point","coordinates":[-85.25357,35.20312]},"properties":{"id":116377,"name":"Falling Water","state_code":"TN","country_code":"US"}},{"type":"Feature","geometry":{"type":"Point","coordinates":[-84.15353,35.88452]},"properties":{"id":116429,"name":"Farragut","state_code":"TN","country_code":"US"}},{"type":"Feature","geometry":{"type":"Point","coordinates":[-86.57055,35.15203]},"properties":{"id":116457,"name":"Fayetteville","state_code":"TN","country_code":"US"}},{"type":"Feature","geometry":{"type":"Point","coordinates":[-84.0477,36.4098]},"properties":{"id":116513,"name":"Fincastle","state_code":"TN","country_code":"US"}},{"type":"Feature","geometry":{"type":"Point","coordinates":[-86.84417,36.06839]},"properties":{"id":116656,"name":"Forest Hills","state_code":"TN","country_code":"US"}},{"type":"Feature","geometry":{"type":"Point","coordinates":[-86.86889,35.92506]},"properties":{"id":116829,"name":"Franklin","state_code":"TN","country_code":"US"}},{"type":"Feature","geometry":{"type":"Point","coordinates":[-85.65887,36.35561]},"properties":{"id":117013,"name":"Gainesboro","state_code":"TN","country_code":"US"}},{"type":"Feature","geometry":{"type":"Point","coordinates":[-86.44666,36.38838]},"properties":{"id":117033,"name":"Gallatin","state_code":"TN","country_code":"US"}},{"type":"Feature","geometry":{"type":"Point","coordinates":[-83.51189,35.71453]},"properties":{"id":117125,"name":"Gatlinburg","state_code":"TN","country_code":"US"}},{"type":"Feature","geometry":{"type":"Point","coordinates":[-89.81009,35.08676]},"properties":{"id":117173,"name":"Germantown","state_code":"TN","country_code":"US"}},{"type":"Feature","geometry":{"type":"Point","coordinates":[-88.61255,36.21367]},"properties":{"id":117257,"name":"Gleason","state_code":"TN","country_code":"US"}},{"type":"Feature","geometry":{"type":"Point","coordinates":[-86.71333,36.32311]},"properties":{"id":117386,"name":"Goodlettsville","state_code":"TN","country_code":"US"}},{"type":"Feature","geometry":{"type":"Point","coordinates":[-85.92971,36.17256]},"properties":{"id":117400,"name":"Gordonsville","state_code":"TN","country_code":"US"}},{"type":"Feature","geometry":{"type":"Point","coordinates":[-82.47654,36.41983]},"properties":{"id":117552,"name":"Gray","state_code":"TN","country_code":"US"}},{"type":"Feature","geometry":{"type":"Point","coordinates":[-85.0844,35.44701]},"properties":{"id":117567,"name":"Graysville","state_code":"TN","country_code":"US"}},{"type":"Feature","geometry":{"type":"Point","coordinates":[-86.54944,36.22283]},"properties":{"id":117598,"name":"Green Hill","state_code":"TN","country_code":"US"}},{"type":"Feature","geometry":{"type":"Point","coordinates":[-84.17214,35.66119]},"properties":{"id":117615,"name":"Greenback","state_code":"TN","country_code":"US"}},{"type":"Feature","geometry":{"type":"Point","coordinates":[-86.80472,36.42755]},"properties":{"id":117620,"name":"Greenbrier","state_code":"TN","country_code":"US"}},{"type":"Feature","geometry":{"type":"Point","coordinates":[-82.83099,36.16316]},"properties":{"id":117644,"name":"Greeneville","state_code":"TN","country_code":"US"}},{"type":"Feature","geometry":{"type":"Point","coordinates":[-88.80062,36.1534]},"properties":{"id":117648,"name":"Greenfield","state_code":"TN","country_code":"US"}},{"type":"Feature","geometry":{"type":"Point","coordinates":[-84.9844,36.26701]},"properties":{"id":117739,"name":"Grimsley","state_code":"TN","country_code":"US"}},{"type":"Feature","geometry":{"type":"Point","coordinates":[-85.61803,35.3723]},"properties":{"id":117767,"name":"Gruetli-Laager","state_code":"TN","country_code":"US"}},{"type":"Feature","geometry":{"type":"Point","coordinates":[-89.39618,35.87563]},"properties":{"id":117873,"name":"Halls","state_code":"TN","country_code":"US"}},{"type":"Feature","geometry":{"type":"Point","coordinates":[-84.55244,35.93396]},"properties":{"id":118039,"name":"Harriman","state_code":"TN","country_code":"US"}},{"type":"Feature","geometry":{"type":"Point","coordinates":[-85.13801,35.11368]},"properties":{"id":118055,"name":"Harrison","state_code":"TN","country_code":"US"}},{"type":"Feature","geometry":{"type":"Point","coordinates":[-83.65686,36.5823]},"properties":{"id":118079,"name":"Harrogate","state_code":"TN","country_code":"US"}},{"type":"Feature","geometry":{"type":"Point","coordinates":[-86.16721,36.39088]},"properties":{"id":118105,"name":"Hartsville","state_code":"TN","country_code":"US"}},{"type":"Feature","geometry":{"type":"Point","coordinates":[-88.64144,35.43924]},"properties":{"id":118277,"name":"Henderson","state_code":"TN","country_code":"US"}},{"type":"Feature","geometry":{"type":"Point","coordinates":[-86.62,36.30477]},"properties":{"id":118286,"name":"Hendersonville","state_code":"TN","country_code":"US"}},{"type":"Feature","geometry":{"type":"Point","coordinates":[-89.58869,35.24398]},"properties":{"id":118370,"name":"Hickory Withe","state_code":"TN","country_code":"US"}},{"type":"Feature","geometry":{"type":"Point","coordinates":[-87.55196,35.54785]},"properties":{"id":118512,"name":"Hohenwald","state_code":"TN","country_code":"US"}},{"type":"Feature","geometry":{"type":"Point","coordinates":[-84.888,35.23479]},"properties":{"id":118648,"name":"Hopewell","state_code":"TN","country_code":"US"}},{"type":"Feature","geometry":{"type":"Point","coordinates":[-88.9159,35.81979]},"properties":{"id":118776,"name":"Humboldt","state_code":"TN","country_code":"US"}},{"type":"Feature","geometry":{"type":"Point","coordinates":[-82.15874,36.37178]},"properties":{"id":118788,"name":"Hunter","state_code":"TN","country_code":"US"}},{"type":"Feature","geometry":{"type":"Point","coordinates":[-88.42811,36.00062]},"properties":{"id":118795,"name":"Huntingdon","state_code":"TN","country_code":"US"}},{"type":"Feature","geometry":{"type":"Point","coordinates":[-84.49049,36.4098]},"properties":{"id":118817,"name":"Huntsville","state_code":"TN","country_code":"US"}},{"type":"Feature","geometry":{"type":"Point","coordinates":[-84.18382,36.33008]},"properties":{"id":119058,"name":"Jacksboro","state_code":"TN","country_code":"US"}},{"type":"Feature","geometry":{"type":"Point","coordinates":[-88.81395,35.61452]},"properties":{"id":119068,"name":"Jackson","state_code":"TN","country_code":"US"}},{"type":"Feature","geometry":{"type":"Point","coordinates":[-84.93189,36.42757]},"properties":{"id":119122,"name":"Jamestown","state_code":"TN","country_code":"US"}},{"type":"Feature","geometry":{"type":"Point","coordinates":[-85.62608,35.07424]},"properties":{"id":119143,"name":"Jasper","state_code":"TN","country_code":"US"}},{"type":"Feature","geometry":{"type":"Point","coordinates":[-83.4924,36.12231]},"properties":{"id":119174,"name":"Jefferson City","state_code":"TN","country_code":"US"}},{"type":"Feature","geometry":{"type":"Point","coordinates":[-84.12687,36.58786]},"properties":{"id":119209,"name":"Jellico","state_code":"TN","country_code":"US"}},{"type":"Feature","geometry":{"type":"Point","coordinates":[-82.35347,36.31344]},"properties":{"id":119257,"name":"Johnson City","state_code":"TN","country_code":"US"}},{"type":"Feature","geometry":{"type":"Point","coordinates":[-87.95281,36.06006]},"properties":{"id":119275,"name":"Johnsonville","state_code":"TN","country_code":"US"}},{"type":"Feature","geometry":{"type":"Point","coordinates":[-82.47348,36.29427]},"properties":{"id":119304,"name":"Jonesborough","state_code":"TN","country_code":"US"}},{"type":"Feature","geometry":{"type":"Point","coordinates":[-89.01229,36.20229]},"properties":{"id":119497,"name":"Kenton","state_code":"TN","country_code":"US"}},{"type":"Feature","geometry":{"type":"Point","coordinates":[-85.67191,35.04786]},"properties":{"id":119565,"name":"Kimball","state_code":"TN","country_code":"US"}},{"type":"Feature","geometry":{"type":"Point","coordinates":[-82.56182,36.54843]},"properties":{"id":119619,"name":"Kingsport","state_code":"TN","country_code":"US"}},{"type":"Feature","geometry":{"type":"Point","coordinates":[-84.50854,35.88091]},"properties":{"id":119621,"name":"Kingston","state_code":"TN","country_code":"US"}},{"type":"Feature","geometry":{"type":"Point","coordinates":[-87.11501,36.102]},"properties":{"id":119632,"name":"Kingston Springs","state_code":"TN","country_code":"US"}},{"type":"Feature","geometry":{"type":"Point","coordinates":[-83.92074,35.96064]},"properties":{"id":119694,"name":"Knoxville","state_code":"TN","country_code":"US"}},{"type":"Feature","geometry":{"type":"Point","coordinates":[-86.58194,36.01562]},"properties":{"id":119792,"name":"La Vergne","state_code":"TN","country_code":"US"}},{"type":"Feature","geometry":{"type":"Point","coordinates":[-86.02637,36.52116]},"properties":{"id":119833,"name":"Lafayette","state_code":"TN","country_code":"US"}},{"type":"Feature","geometry":{"type":"Point","coordinates":[-84.11993,36.38286]},"properties":{"id":119800,"name":"LaFollette","state_code":"TN","country_code":"US"}},{"type":"Feature","geometry":{"type":"Point","coordinates":[-85.0544,35.87285]},"properties":{"id":119984,"name":"Lake Tansi","state_code":"TN","country_code":"US"}},{"type":"Feature","geometry":{"type":"Point","coordinates":[-89.74036,35.23064]},"properties":{"id":120014,"name":"Lakeland","state_code":"TN","country_code":"US"}},{"type":"Feature","geometry":{"type":"Point","coordinates":[-85.1269,35.20868]},"properties":{"id":120036,"name":"Lakesite","state_code":"TN","country_code":"US"}},{"type":"Feature","geometry":{"type":"Point","coordinates":[-86.63555,36.24311]},"properties":{"id":120046,"name":"Lakewood","state_code":"TN","country_code":"US"}},{"type":"Feature","geometry":{"type":"Point","coordinates":[-87.33474,35.2423]},"properties":{"id":120242,"name":"Lawrenceburg","state_code":"TN","country_code":"US"}},{"type":"Feature","geometry":{"type":"Point","coordinates":[-86.2911,36.20811]},"properties":{"id":120287,"name":"Lebanon","state_code":"TN","country_code":"US"}},{"type":"Feature","geometry":{"type":"Point","coordinates":[-84.25603,35.7973]},"properties":{"id":120373,"name":"Lenoir City","state_code":"TN","country_code":"US"}},{"type":"Feature","geometry":{"type":"Point","coordinates":[-86.78889,35.44924]},"properties":{"id":120419,"name":"Lewisburg","state_code":"TN","country_code":"US"}},{"type":"Feature","geometry":{"type":"Point","coordinates":[-88.39338,35.6509]},"properties":{"id":120444,"name":"Lexington","state_code":"TN","country_code":"US"}},{"type":"Feature","geometry":{"type":"Point","coordinates":[-87.83947,35.61729]},"properties":{"id":120561,"name":"Linden","state_code":"TN","country_code":"US"}},{"type":"Feature","geometry":{"type":"Point","coordinates":[-85.32302,36.3834]},"properties":{"id":120649,"name":"Livingston","state_code":"TN","country_code":"US"}},{"type":"Feature","geometry":{"type":"Point","coordinates":[-85.36413,35.20063]},"properties":{"id":120728,"name":"Lone Oak","state_code":"TN","country_code":"US"}},{"type":"Feature","geometry":{"type":"Point","coordinates":[-85.3494,34.99424]},"properties":{"id":120766,"name":"Lookout Mountain","state_code":"TN","country_code":"US"}},{"type":"Feature","geometry":{"type":"Point","coordinates":[-87.43974,35.07786]},"properties":{"id":120774,"name":"Loretto","state_code":"TN","country_code":"US"}},{"type":"Feature","geometry":{"type":"Point","coordinates":[-84.33381,35.73285]},"properties":{"id":120799,"name":"Loudon","state_code":"TN","country_code":"US"}},{"type":"Feature","geometry":{"type":"Point","coordinates":[-84.04796,35.82175]},"properties":{"id":120815,"name":"Louisville","state_code":"TN","country_code":"US"}},{"type":"Feature","geometry":{"type":"Point","coordinates":[-83.74185,36.19953]},"properties":{"id":120897,"name":"Luttrell","state_code":"TN","country_code":"US"}},{"type":"Feature","geometry":{"type":"Point","coordinates":[-86.37416,35.28314]},"properties":{"id":120915,"name":"Lynchburg","state_code":"TN","country_code":"US"}},{"type":"Feature","geometry":{"type":"Point","coordinates":[-84.36353,35.5198]},"properties":{"id":121026,"name":"Madisonville","state_code":"TN","country_code":"US"}},{"type":"Feature","geometry":{"type":"Point","coordinates":[-86.0886,35.48174]},"properties":{"id":121093,"name":"Manchester","state_code":"TN","country_code":"US"}},{"type":"Feature","geometry":{"type":"Point","coordinates":[-88.85034,36.3434]},"properties":{"id":121335,"name":"Martin","state_code":"TN","country_code":"US"}},{"type":"Feature","geometry":{"type":"Point","coordinates":[-83.97046,35.75647]},"properties":{"id":121364,"name":"Maryville","state_code":"TN","country_code":"US"}},{"type":"Feature","geometry":{"type":"Point","coordinates":[-83.74573,36.0612]},"properties":{"id":121367,"name":"Mascot","state_code":"TN","country_code":"US"}},{"type":"Feature","geometry":{"type":"Point","coordinates":[-89.53285,35.41175]},"properties":{"id":121371,"name":"Mason","state_code":"TN","country_code":"US"}},{"type":"Feature","geometry":{"type":"Point","coordinates":[-83.79741,36.25064]},"properties":{"id":121441,"name":"Maynardville","state_code":"TN","country_code":"US"}},{"type":"Feature","geometry":{"type":"Point","coordinates":[-87.63307,36.10784]},"properties":{"id":121498,"name":"McEwen","state_code":"TN","country_code":"US"}},{"type":"Feature","geometry":{"type":"Point","coordinates":[-88.51866,36.13256]},"properties":{"id":121520,"name":"McKenzie","state_code":"TN","country_code":"US"}},{"type":"Feature","geometry":{"type":"Point","coordinates":[-85.76998,35.6834]},"properties":{"id":121540,"name":"McMinnville","state_code":"TN","country_code":"US"}},{"type":"Feature","geometry":{"type":"Point","coordinates":[-88.77478,35.80285]},"properties":{"id":121602,"name":"Medina","state_code":"TN","country_code":"US"}},{"type":"Feature","geometry":{"type":"Point","coordinates":[-90.04898,35.14953]},"properties":{"id":121639,"name":"Memphis","state_code":"TN","country_code":"US"}},{"type":"Feature","geometry":{"type":"Point","coordinates":[-85.18468,35.1959]},"properties":{"id":121763,"name":"Middle Valley","state_code":"TN","country_code":"US"}},{"type":"Feature","geometry":{"type":"Point","coordinates":[-84.5641,35.87952]},"properties":{"id":121810,"name":"Midtown","state_code":"TN","country_code":"US"}},{"type":"Feature","geometry":{"type":"Point","coordinates":[-82.42375,36.30011]},"properties":{"id":121817,"name":"Midway","state_code":"TN","country_code":"US"}},{"type":"Feature","geometry":{"type":"Point","coordinates":[-88.75895,35.91979]},"properties":{"id":121836,"name":"Milan","state_code":"TN","country_code":"US"}},{"type":"Feature","geometry":{"type":"Point","coordinates":[-86.71,36.37116]},"properties":{"id":121888,"name":"Millersville","state_code":"TN","country_code":"US"}},{"type":"Feature","geometry":{"type":"Point","coordinates":[-89.89731,35.34147]},"properties":{"id":121891,"name":"Millington","state_code":"TN","country_code":"US"}},{"type":"Feature","geometry":{"type":"Point","coordinates":[-85.8397,35.24008]},"properties":{"id":122112,"name":"Monteagle","state_code":"TN","country_code":"US"}},{"type":"Feature","geometry":{"type":"Point","coordinates":[-85.2683,36.14756]},"properties":{"id":122118,"name":"Monterey","state_code":"TN","country_code":"US"}},{"type":"Feature","geometry":{"type":"Point","coordinates":[-83.29489,36.21398]},"properties":{"id":122281,"name":"Morristown","state_code":"TN","country_code":"US"}},{"type":"Feature","geometry":{"type":"Point","coordinates":[-82.95849,36.18954]},"properties":{"id":122304,"name":"Mosheim","state_code":"TN","country_code":"US"}},{"type":"Feature","geometry":{"type":"Point","coordinates":[-82.66099,36.54538]},"properties":{"id":122336,"name":"Mount Carmel","state_code":"TN","country_code":"US"}},{"type":"Feature","geometry":{"type":"Point","coordinates":[-86.51861,36.20005]},"properties":{"id":122359,"name":"Mount Juliet","state_code":"TN","country_code":"US"}},{"type":"Feature","geometry":{"type":"Point","coordinates":[-87.20695,35.53424]},"properties":{"id":122375,"name":"Mount Pleasant","state_code":"TN","country_code":"US"}},{"type":"Feature","geometry":{"type":"Point","coordinates":[-81.80484,36.47456]},"properties":{"id":122412,"name":"Mountain City","state_code":"TN","country_code":"US"}},{"type":"Feature","geometry":{"type":"Point","coordinates":[-85.22246,35.27536]},"properties":{"id":122443,"name":"Mowbray Mountain","state_code":"TN","country_code":"US"}},{"type":"Feature","geometry":{"type":"Point","coordinates":[-89.81508,35.44925]},"properties":{"id":122471,"name":"Munford","state_code":"TN","country_code":"US"}},{"type":"Feature","geometry":{"type":"Point","coordinates":[-86.39027,35.84562]},"properties":{"id":122482,"name":"Murfreesboro","state_code":"TN","country_code":"US"}},{"type":"Feature","geometry":{"type":"Point","coordinates":[-86.78444,36.16589]},"properties":{"id":122577,"name":"Nashville","state_code":"TN","country_code":"US"}},{"type":"Feature","geometry":{"type":"Point","coordinates":[-85.6583,35.00508]},"properties":{"id":122725,"name":"New Hope","state_code":"TN","country_code":"US"}},{"type":"Feature","geometry":{"type":"Point","coordinates":[-87.96698,36.02117]},"properties":{"id":122732,"name":"New Johnsonville","state_code":"TN","country_code":"US"}},{"type":"Feature","geometry":{"type":"Point","coordinates":[-83.55268,36.10398]},"properties":{"id":122750,"name":"New Market","state_code":"TN","country_code":"US"}},{"type":"Feature","geometry":{"type":"Point","coordinates":[-90.05676,35.08676]},"properties":{"id":122780,"name":"New South Memphis","state_code":"TN","country_code":"US"}},{"type":"Feature","geometry":{"type":"Point","coordinates":[-83.59963,36.44258]},"properties":{"id":122785,"name":"New Tazewell","state_code":"TN","country_code":"US"}},{"type":"Feature","geometry":{"type":"Point","coordinates":[-86.08082,35.53258]},"properties":{"id":122789,"name":"New Union","state_code":"TN","country_code":"US"}},{"type":"Feature","geometry":{"type":"Point","coordinates":[-89.26174,36.11285]},"properties":{"id":122809,"name":"Newbern","state_code":"TN","country_code":"US"}},{"type":"Feature","geometry":{"type":"Point","coordinates":[-83.18766,35.96704]},"properties":{"id":122843,"name":"Newport","state_code":"TN","country_code":"US"}},{"type":"Feature","geometry":{"type":"Point","coordinates":[-86.66944,35.95229]},"properties":{"id":122933,"name":"Nolensville","state_code":"TN","country_code":"US"}},{"type":"Feature","geometry":{"type":"Point","coordinates":[-84.06797,36.19563]},"properties":{"id":122955,"name":"Norris","state_code":"TN","country_code":"US"}},{"type":"Feature","geometry":{"type":"Point","coordinates":[-82.42459,36.41177]},"properties":{"id":123237,"name":"Oak Grove","state_code":"TN","country_code":"US"}},{"type":"Feature","geometry":{"type":"Point","coordinates":[-86.78305,36.08784]},"properties":{"id":123244,"name":"Oak Hill","state_code":"TN","country_code":"US"}},{"type":"Feature","geometry":{"type":"Point","coordinates":[-84.26964,36.01036]},"properties":{"id":123262,"name":"Oak Ridge","state_code":"TN","country_code":"US"}},{"type":"Feature","geometry":{"type":"Point","coordinates":[-89.51508,35.22898]},"properties":{"id":123285,"name":"Oakland","state_code":"TN","country_code":"US"}},{"type":"Feature","geometry":{"type":"Point","coordinates":[-89.19174,36.25896]},"properties":{"id":123317,"name":"Obion","state_code":"TN","country_code":"US"}},{"type":"Feature","geometry":{"type":"Point","coordinates":[-84.34437,36.04452]},"properties":{"id":123444,"name":"Oliver Springs","state_code":"TN","country_code":"US"}},{"type":"Feature","geometry":{"type":"Point","coordinates":[-88.20031,35.21425]},"properties":{"id":123446,"name":"Olivet","state_code":"TN","country_code":"US"}},{"type":"Feature","geometry":{"type":"Point","coordinates":[-84.51272,36.49813]},"properties":{"id":123472,"name":"Oneida","state_code":"TN","country_code":"US"}},{"type":"Feature","geometry":{"type":"Point","coordinates":[-88.32671,36.302]},"properties":{"id":123833,"name":"Paris","state_code":"TN","country_code":"US"}},{"type":"Feature","geometry":{"type":"Point","coordinates":[-86.57111,35.08203]},"properties":{"id":123838,"name":"Park City","state_code":"TN","country_code":"US"}},{"type":"Feature","geometry":{"type":"Point","coordinates":[-88.1267,35.64979]},"properties":{"id":123892,"name":"Parsons","state_code":"TN","country_code":"US"}},{"type":"Feature","geometry":{"type":"Point","coordinates":[-87.05112,36.10061]},"properties":{"id":123985,"name":"Pegram","state_code":"TN","country_code":"US"}},{"type":"Feature","geometry":{"type":"Point","coordinates":[-83.55433,35.78842]},"properties":{"id":124183,"name":"Pigeon Forge","state_code":"TN","country_code":"US"}},{"type":"Feature","geometry":{"type":"Point","coordinates":[-85.18885,35.60562]},"properties":{"id":124199,"name":"Pikeville","state_code":"TN","country_code":"US"}},{"type":"Feature","geometry":{"type":"Point","coordinates":[-82.31792,36.29927]},"properties":{"id":124220,"name":"Pine Crest","state_code":"TN","country_code":"US"}},{"type":"Feature","geometry":{"type":"Point","coordinates":[-89.62175,35.04509]},"properties":{"id":124276,"name":"Piperton","state_code":"TN","country_code":"US"}},{"type":"Feature","geometry":{"type":"Point","coordinates":[-83.79534,36.17731]},"properties":{"id":124332,"name":"Plainview","state_code":"TN","country_code":"US"}},{"type":"Feature","geometry":{"type":"Point","coordinates":[-87.03667,36.39422]},"properties":{"id":124380,"name":"Pleasant View","state_code":"TN","country_code":"US"}},{"type":"Feature","geometry":{"type":"Point","coordinates":[-86.51638,36.58171]},"properties":{"id":124558,"name":"Portland","state_code":"TN","country_code":"US"}},{"type":"Feature","geometry":{"type":"Point","coordinates":[-85.4858,35.18952]},"properties":{"id":124614,"name":"Powells Crossroads","state_code":"TN","country_code":"US"}},{"type":"Feature","geometry":{"type":"Point","coordinates":[-87.03084,35.1998]},"properties":{"id":124733,"name":"Pulaski","state_code":"TN","country_code":"US"}},{"type":"Feature","geometry":{"type":"Point","coordinates":[-85.29413,35.11229]},"properties":{"id":124937,"name":"Red Bank","state_code":"TN","country_code":"US"}},{"type":"Feature","geometry":{"type":"Point","coordinates":[-85.84998,36.53339]},"properties":{"id":124941,"name":"Red Boiling Springs","state_code":"TN","country_code":"US"}},{"type":"Feature","geometry":{"type":"Point","coordinates":[-89.48785,36.2634]},"properties":{"id":125126,"name":"Ridgely","state_code":"TN","country_code":"US"}},{"type":"Feature","geometry":{"type":"Point","coordinates":[-86.77944,36.39505]},"properties":{"id":125128,"name":"Ridgetop","state_code":"TN","country_code":"US"}},{"type":"Feature","geometry":{"type":"Point","coordinates":[-89.5298,35.74536]},"properties":{"id":125163,"name":"Ripley","state_code":"TN","country_code":"US"}},{"type":"Feature","geometry":{"type":"Point","coordinates":[-82.0704,36.19623]},"properties":{"id":125223,"name":"Roan Mountain","state_code":"TN","country_code":"US"}},{"type":"Feature","geometry":{"type":"Point","coordinates":[-84.68494,35.86563]},"properties":{"id":125332,"name":"Rockwood","state_code":"TN","country_code":"US"}},{"type":"Feature","geometry":{"type":"Point","coordinates":[-84.15465,36.21786]},"properties":{"id":125340,"name":"Rocky Top","state_code":"TN","country_code":"US"}},{"type":"Feature","geometry":{"type":"Point","coordinates":[-83.00544,36.40732]},"properties":{"id":125356,"name":"Rogersville","state_code":"TN","country_code":"US"}},{"type":"Feature","geometry":{"type":"Point","coordinates":[-86.47916,36.11673]},"properties":{"id":125517,"name":"Rural Hill","state_code":"TN","country_code":"US"}},{"type":"Feature","geometry":{"type":"Point","coordinates":[-88.9859,36.12757]},"properties":{"id":125548,"name":"Rutherford","state_code":"TN","country_code":"US"}},{"type":"Feature","geometry":{"type":"Point","coordinates":[-83.5149,36.28092]},"properties":{"id":125559,"name":"Rutledge","state_code":"TN","country_code":"US"}},{"type":"Feature","geometry":{"type":"Point","coordinates":[-85.10884,35.38229]},"properties":{"id":125725,"name":"Sale Creek","state_code":"TN","country_code":"US"}},{"type":"Feature","geometry":{"type":"Point","coordinates":[-88.2492,35.2248]},"properties":{"id":125976,"name":"Savannah","state_code":"TN","country_code":"US"}},{"type":"Feature","geometry":{"type":"Point","coordinates":[-88.59227,35.17008]},"properties":{"id":126142,"name":"Selmer","state_code":"TN","country_code":"US"}},{"type":"Feature","geometry":{"type":"Point","coordinates":[-83.56184,35.86815]},"properties":{"id":126183,"name":"Sevierville","state_code":"TN","country_code":"US"}},{"type":"Feature","geometry":{"type":"Point","coordinates":[-85.92109,35.20314]},"properties":{"id":126185,"name":"Sewanee","state_code":"TN","country_code":"US"}},{"type":"Feature","geometry":{"type":"Point","coordinates":[-83.72462,35.89064]},"properties":{"id":126194,"name":"Seymour","state_code":"TN","country_code":"US"}},{"type":"Feature","geometry":{"type":"Point","coordinates":[-86.61666,36.3706]},"properties":{"id":126200,"name":"Shackle Island","state_code":"TN","country_code":"US"}},{"type":"Feature","geometry":{"type":"Point","coordinates":[-86.46027,35.48341]},"properties":{"id":126284,"name":"Shelbyville","state_code":"TN","country_code":"US"}},{"type":"Feature","geometry":{"type":"Point","coordinates":[-85.34385,35.12257]},"properties":{"id":126412,"name":"Signal Mountain","state_code":"TN","country_code":"US"}},{"type":"Feature","geometry":{"type":"Point","coordinates":[-85.81415,35.96062]},"properties":{"id":126530,"name":"Smithville","state_code":"TN","country_code":"US"}},{"type":"Feature","geometry":{"type":"Point","coordinates":[-86.5186,35.98284]},"properties":{"id":126536,"name":"Smyrna","state_code":"TN","country_code":"US"}},{"type":"Feature","geometry":{"type":"Point","coordinates":[-83.2174,36.52981]},"properties":{"id":126540,"name":"Sneedville","state_code":"TN","country_code":"US"}},{"type":"Feature","geometry":{"type":"Point","coordinates":[-85.19079,35.2359]},"properties":{"id":126563,"name":"Soddy-Daisy","state_code":"TN","country_code":"US"}},{"type":"Feature","geometry":{"type":"Point","coordinates":[-89.35007,35.2437]},"properties":{"id":126593,"name":"Somerville","state_code":"TN","country_code":"US"}},{"type":"Feature","geometry":{"type":"Point","coordinates":[-85.95193,36.242]},"properties":{"id":126635,"name":"South Carthage","state_code":"TN","country_code":"US"}},{"type":"Feature","geometry":{"type":"Point","coordinates":[-84.87217,35.14119]},"properties":{"id":126639,"name":"South Cleveland","state_code":"TN","country_code":"US"}},{"type":"Feature","geometry":{"type":"Point","coordinates":[-88.87534,36.50089]},"properties":{"id":126656,"name":"South Fulton","state_code":"TN","country_code":"US"}},{"type":"Feature","geometry":{"type":"Point","coordinates":[-85.70441,35.0123]},"properties":{"id":126710,"name":"South Pittsburg","state_code":"TN","country_code":"US"}},{"type":"Feature","geometry":{"type":"Point","coordinates":[-85.46414,35.9259]},"properties":{"id":126810,"name":"Sparta","state_code":"TN","country_code":"US"}},{"type":"Feature","geometry":{"type":"Point","coordinates":[-85.46664,35.74729]},"properties":{"id":126823,"name":"Spencer","state_code":"TN","country_code":"US"}},{"type":"Feature","geometry":{"type":"Point","coordinates":[-84.86078,35.69201]},"properties":{"id":126851,"name":"Spring City","state_code":"TN","country_code":"US"}},{"type":"Feature","geometry":{"type":"Point","coordinates":[-86.93,35.75118]},"properties":{"id":126862,"name":"Spring Hill","state_code":"TN","country_code":"US"}},{"type":"Feature","geometry":{"type":"Point","coordinates":[-86.885,36.50921]},"properties":{"id":126895,"name":"Springfield","state_code":"TN","country_code":"US"}},{"type":"Feature","geometry":{"type":"Point","coordinates":[-82.4557,36.43955]},"properties":{"id":126922,"name":"Spurgeon","state_code":"TN","country_code":"US"}},{"type":"Feature","geometry":{"type":"Point","coordinates":[-82.85183,36.47093]},"properties":{"id":127289,"name":"Surgoinsville","state_code":"TN","country_code":"US"}},{"type":"Feature","geometry":{"type":"Point","coordinates":[-84.46104,35.60146]},"properties":{"id":127341,"name":"Sweetwater","state_code":"TN","country_code":"US"}},{"type":"Feature","geometry":{"type":"Point","coordinates":[-83.56935,36.45425]},"properties":{"id":127468,"name":"Tazewell","state_code":"TN","country_code":"US"}},{"type":"Feature","geometry":{"type":"Point","coordinates":[-84.25518,35.68321]},"properties":{"id":127490,"name":"Tellico Village","state_code":"TN","country_code":"US"}},{"type":"Feature","geometry":{"type":"Point","coordinates":[-87.77336,36.312]},"properties":{"id":127510,"name":"Tennessee Ridge","state_code":"TN","country_code":"US"}},{"type":"Feature","geometry":{"type":"Point","coordinates":[-86.91139,35.80201]},"properties":{"id":127593,"name":"Thompson's Station","state_code":"TN","country_code":"US"}},{"type":"Feature","geometry":{"type":"Point","coordinates":[-88.8595,35.7759]},"properties":{"id":127622,"name":"Three Way","state_code":"TN","country_code":"US"}},{"type":"Feature","geometry":{"type":"Point","coordinates":[-89.47202,36.3784]},"properties":{"id":127681,"name":"Tiptonville","state_code":"TN","country_code":"US"}},{"type":"Feature","geometry":{"type":"Point","coordinates":[-85.73608,35.26036]},"properties":{"id":127772,"name":"Tracy City","state_code":"TN","country_code":"US"}},{"type":"Feature","geometry":{"type":"Point","coordinates":[-88.94145,35.98062]},"properties":{"id":127805,"name":"Trenton","state_code":"TN","country_code":"US"}},{"type":"Feature","geometry":{"type":"Point","coordinates":[-89.16396,36.33868]},"properties":{"id":127847,"name":"Troy","state_code":"TN","country_code":"US"}},{"type":"Feature","geometry":{"type":"Point","coordinates":[-86.20943,35.36202]},"properties":{"id":127886,"name":"Tullahoma","state_code":"TN","country_code":"US"}},{"type":"Feature","geometry":{"type":"Point","coordinates":[-82.75876,36.1751]},"properties":{"id":127913,"name":"Tusculum","state_code":"TN","country_code":"US"}},{"type":"Feature","geometry":{"type":"Point","coordinates":[-82.34958,36.19539]},"properties":{"id":127969,"name":"Unicoi","state_code":"TN","country_code":"US"}},{"type":"Feature","geometry":{"type":"Point","coordinates":[-89.05701,36.42423]},"properties":{"id":127982,"name":"Union City","state_code":"TN","country_code":"US"}},{"type":"Feature","geometry":{"type":"Point","coordinates":[-86.5925,35.62174]},"properties":{"id":128019,"name":"Unionville","state_code":"TN","country_code":"US"}},{"type":"Feature","geometry":{"type":"Point","coordinates":[-84.24186,35.59008]},"properties":{"id":128305,"name":"Vonore","state_code":"TN","country_code":"US"}},{"type":"Feature","geometry":{"type":"Point","coordinates":[-85.30135,35.16479]},"properties":{"id":128367,"name":"Walden","state_code":"TN","country_code":"US"}},{"type":"Feature","geometry":{"type":"Point","coordinates":[-85.59817379,35.80835596]},"properties":{"id":153923,"name":"Walling","state_code":"TN","country_code":"US"}},{"type":"Feature","geometry":{"type":"Point","coordinates":[-82.2568,36.56983]},"properties":{"id":128421,"name":"Walnut Hill","state_code":"TN","country_code":"US"}},{"type":"Feature","geometry":{"type":"Point","coordinates":[-84.59716,36.1048]},"properties":{"id":128523,"name":"Wartburg","state_code":"TN","country_code":"US"}},{"type":"Feature","geometry":{"type":"Point","coordinates":[-86.13193,36.10034]},"properties":{"id":128619,"name":"Watertown","state_code":"TN","country_code":"US"}},{"type":"Feature","geometry":{"type":"Point","coordinates":[-87.79475,36.08395]},"properties":{"id":128666,"name":"Waverly","state_code":"TN","country_code":"US"}},{"type":"Feature","geometry":{"type":"Point","coordinates":[-87.76225,35.31952]},"properties":{"id":128708,"name":"Waynesboro","state_code":"TN","country_code":"US"}},{"type":"Feature","geometry":{"type":"Point","coordinates":[-86.24804,36.56199]},"properties":{"id":129053,"name":"Westmoreland","state_code":"TN","country_code":"US"}},{"type":"Feature","geometry":{"type":"Point","coordinates":[-87.22084,36.10756]},"properties":{"id":129127,"name":"White Bluff","state_code":"TN","country_code":"US"}},{"type":"Feature","geometry":{"type":"Point","coordinates":[-86.65138,36.47032]},"properties":{"id":129143,"name":"White House","state_code":"TN","country_code":"US"}},{"type":"Feature","geometry":{"type":"Point","coordinates":[-83.28683,36.10759]},"properties":{"id":129152,"name":"White Pine","state_code":"TN","country_code":"US"}},{"type":"Feature","geometry":{"type":"Point","coordinates":[-89.14951,35.32647]},"properties":{"id":129190,"name":"Whiteville","state_code":"TN","country_code":"US"}},{"type":"Feature","geometry":{"type":"Point","coordinates":[-85.51913,35.20146]},"properties":{"id":129212,"name":"Whitwell","state_code":"TN","country_code":"US"}},{"type":"Feature","geometry":{"type":"Point","coordinates":[-83.87129,35.8037]},"properties":{"id":129239,"name":"Wildwood","state_code":"TN","country_code":"US"}},{"type":"Feature","geometry":{"type":"Point","coordinates":[-84.85439,35.09202]},"properties":{"id":129242,"name":"Wildwood Lake","state_code":"TN","country_code":"US"}},{"type":"Feature","geometry":{"type":"Point","coordinates":[-86.11221,35.18592]},"properties":{"id":129355,"name":"Winchester","state_code":"TN","country_code":"US"}},{"type":"Feature","geometry":{"type":"Point","coordinates":[-86.07166,35.82757]},"properties":{"id":129507,"name":"Woodbury","state_code":"TN","country_code":"US"}}]}