{"type":"FeatureCollection","features":[{"type":"Feature","geometry":{"type":"Point","coordinates":[-90.31597,44.94636]},"properties":{"id":110970,"name":"Abbotsford","state_code":"WI","country_code":"US"}},{"type":"Feature","geometry":{"type":"Point","coordinates":[-89.81818,43.95608]},"properties":{"id":111015,"name":"Adams","state_code":"WI","country_code":"US"}},{"type":"Feature","geometry":{"type":"Point","coordinates":[-88.37454,43.42278]},"properties":{"id":111038,"name":"Addison","state_code":"WI","country_code":"US"}},{"type":"Feature","geometry":{"type":"Point","coordinates":[-89.43706,42.70778]},"properties":{"id":111109,"name":"Albany","state_code":"WI","country_code":"US"}},{"type":"Feature","geometry":{"type":"Point","coordinates":[-87.43259,44.60889]},"properties":{"id":111162,"name":"Algoma","state_code":"WI","country_code":"US"}},{"type":"Feature","geometry":{"type":"Point","coordinates":[-88.01621,44.47749]},"properties":{"id":111203,"name":"Allouez","state_code":"WI","country_code":"US"}},{"type":"Feature","geometry":{"type":"Point","coordinates":[-91.91488,44.31997]},"properties":{"id":111211,"name":"Alma","state_code":"WI","country_code":"US"}},{"type":"Feature","geometry":{"type":"Point","coordinates":[-88.79511,43.67665]},"properties":{"id":111241,"name":"Alto","state_code":"WI","country_code":"US"}},{"type":"Feature","geometry":{"type":"Point","coordinates":[-91.44321,44.80468]},"properties":{"id":111249,"name":"Altoona","state_code":"WI","country_code":"US"}},{"type":"Feature","geometry":{"type":"Point","coordinates":[-92.36214,45.30691]},"properties":{"id":111275,"name":"Amery","state_code":"WI","country_code":"US"}},{"type":"Feature","geometry":{"type":"Point","coordinates":[-89.28484,44.45081]},"properties":{"id":111284,"name":"Amherst","state_code":"WI","country_code":"US"}},{"type":"Feature","geometry":{"type":"Point","coordinates":[-89.15234,45.14025]},"properties":{"id":111371,"name":"Antigo","state_code":"WI","country_code":"US"}},{"type":"Feature","geometry":{"type":"Point","coordinates":[-88.41538,44.26193]},"properties":{"id":111397,"name":"Appleton","state_code":"WI","country_code":"US"}},{"type":"Feature","geometry":{"type":"Point","coordinates":[-91.50154,44.25274]},"properties":{"id":111424,"name":"Arcadia","state_code":"WI","country_code":"US"}},{"type":"Feature","geometry":{"type":"Point","coordinates":[-88.37066,43.58694]},"properties":{"id":111525,"name":"Ashford","state_code":"WI","country_code":"US"}},{"type":"Feature","geometry":{"type":"Point","coordinates":[-90.8838,46.59244]},"properties":{"id":111539,"name":"Ashland","state_code":"WI","country_code":"US"}},{"type":"Feature","geometry":{"type":"Point","coordinates":[-88.0701,44.48221]},"properties":{"id":111549,"name":"Ashwaubenon","state_code":"WI","country_code":"US"}},{"type":"Feature","geometry":{"type":"Point","coordinates":[-90.07402,45.03302]},"properties":{"id":111581,"name":"Athens","state_code":"WI","country_code":"US"}},{"type":"Feature","geometry":{"type":"Point","coordinates":[-91.11988,44.68024]},"properties":{"id":111651,"name":"Augusta","state_code":"WI","country_code":"US"}},{"type":"Feature","geometry":{"type":"Point","coordinates":[-88.86233,43.07278]},"properties":{"id":111711,"name":"Aztalan","state_code":"WI","country_code":"US"}},{"type":"Feature","geometry":{"type":"Point","coordinates":[-92.37436,44.96663]},"properties":{"id":111758,"name":"Baldwin","state_code":"WI","country_code":"US"}},{"type":"Feature","geometry":{"type":"Point","coordinates":[-92.45464,45.45218]},"properties":{"id":111780,"name":"Balsam Lake","state_code":"WI","country_code":"US"}},{"type":"Feature","geometry":{"type":"Point","coordinates":[-90.99041,43.89302]},"properties":{"id":111794,"name":"Bangor","state_code":"WI","country_code":"US"}},{"type":"Feature","geometry":{"type":"Point","coordinates":[-89.74429,43.47109]},"properties":{"id":111808,"name":"Baraboo","state_code":"WI","country_code":"US"}},{"type":"Feature","geometry":{"type":"Point","coordinates":[-89.8954,43.01555]},"properties":{"id":111831,"name":"Barneveld","state_code":"WI","country_code":"US"}},{"type":"Feature","geometry":{"type":"Point","coordinates":[-91.84906,45.40135]},"properties":{"id":111850,"name":"Barron","state_code":"WI","country_code":"US"}},{"type":"Feature","geometry":{"type":"Point","coordinates":[-88.18065,43.44361]},"properties":{"id":111865,"name":"Barton","state_code":"WI","country_code":"US"}},{"type":"Feature","geometry":{"type":"Point","coordinates":[-87.90064,43.18056]},"properties":{"id":111956,"name":"Bayside","state_code":"WI","country_code":"US"}},{"type":"Feature","geometry":{"type":"Point","coordinates":[-88.83733,43.45777]},"properties":{"id":112001,"name":"Beaver Dam","state_code":"WI","country_code":"US"}},{"type":"Feature","geometry":{"type":"Point","coordinates":[-87.85037,43.49972]},"properties":{"id":112060,"name":"Belgium","state_code":"WI","country_code":"US"}},{"type":"Feature","geometry":{"type":"Point","coordinates":[-88.66621,44.71526]},"properties":{"id":112091,"name":"Belle Plaine","state_code":"WI","country_code":"US"}},{"type":"Feature","geometry":{"type":"Point","coordinates":[-89.53818,42.85972]},"properties":{"id":112108,"name":"Belleville","state_code":"WI","country_code":"US"}},{"type":"Feature","geometry":{"type":"Point","coordinates":[-87.9201,44.44416]},"properties":{"id":112115,"name":"Bellevue","state_code":"WI","country_code":"US"}},{"type":"Feature","geometry":{"type":"Point","coordinates":[-89.03178,42.50835]},"properties":{"id":112146,"name":"Beloit","state_code":"WI","country_code":"US"}},{"type":"Feature","geometry":{"type":"Point","coordinates":[-88.94345,43.96804]},"properties":{"id":112239,"name":"Berlin","state_code":"WI","country_code":"US"}},{"type":"Feature","geometry":{"type":"Point","coordinates":[-89.38956,44.77053]},"properties":{"id":112298,"name":"Bevent","state_code":"WI","country_code":"US"}},{"type":"Feature","geometry":{"type":"Point","coordinates":[-88.20676,42.8814]},"properties":{"id":112318,"name":"Big Bend","state_code":"WI","country_code":"US"}},{"type":"Feature","geometry":{"type":"Point","coordinates":[-88.45066,44.47749]},"properties":{"id":112372,"name":"Black Creek","state_code":"WI","country_code":"US"}},{"type":"Feature","geometry":{"type":"Point","coordinates":[-89.74679,43.13722]},"properties":{"id":112375,"name":"Black Earth","state_code":"WI","country_code":"US"}},{"type":"Feature","geometry":{"type":"Point","coordinates":[-90.85153,44.29468]},"properties":{"id":112383,"name":"Black River Falls","state_code":"WI","country_code":"US"}},{"type":"Feature","geometry":{"type":"Point","coordinates":[-91.23516,44.2944]},"properties":{"id":112410,"name":"Blair","state_code":"WI","country_code":"US"}},{"type":"Feature","geometry":{"type":"Point","coordinates":[-91.48877,45.10024]},"properties":{"id":112432,"name":"Bloomer","state_code":"WI","country_code":"US"}},{"type":"Feature","geometry":{"type":"Point","coordinates":[-88.28037,42.62307]},"properties":{"id":112503,"name":"Bohners Lake","state_code":"WI","country_code":"US"}},{"type":"Feature","geometry":{"type":"Point","coordinates":[-88.44482,44.74027]},"properties":{"id":112533,"name":"Bonduel","state_code":"WI","country_code":"US"}},{"type":"Feature","geometry":{"type":"Point","coordinates":[-90.7054,43.13443]},"properties":{"id":112583,"name":"Boscobel","state_code":"WI","country_code":"US"}},{"type":"Feature","geometry":{"type":"Point","coordinates":[-92.04101,45.04357]},"properties":{"id":112640,"name":"Boyceville","state_code":"WI","country_code":"US"}},{"type":"Feature","geometry":{"type":"Point","coordinates":[-91.29986,43.93857]},"properties":{"id":112752,"name":"Brice Prairie","state_code":"WI","country_code":"US"}},{"type":"Feature","geometry":{"type":"Point","coordinates":[-88.06427,44.17721]},"properties":{"id":112796,"name":"Brillion","state_code":"WI","country_code":"US"}},{"type":"Feature","geometry":{"type":"Point","coordinates":[-88.04925,42.55891]},"properties":{"id":112811,"name":"Bristol","state_code":"WI","country_code":"US"}},{"type":"Feature","geometry":{"type":"Point","coordinates":[-89.37623,42.61834]},"properties":{"id":112838,"name":"Brodhead","state_code":"WI","country_code":"US"}},{"type":"Feature","geometry":{"type":"Point","coordinates":[-88.10648,43.06057]},"properties":{"id":112855,"name":"Brookfield","state_code":"WI","country_code":"US"}},{"type":"Feature","geometry":{"type":"Point","coordinates":[-89.3704,42.85361]},"properties":{"id":112873,"name":"Brooklyn","state_code":"WI","country_code":"US"}},{"type":"Feature","geometry":{"type":"Point","coordinates":[-88.30899,43.96805]},"properties":{"id":112902,"name":"Brothertown","state_code":"WI","country_code":"US"}},{"type":"Feature","geometry":{"type":"Point","coordinates":[-87.96453,43.16334]},"properties":{"id":112915,"name":"Brown Deer","state_code":"WI","country_code":"US"}},{"type":"Feature","geometry":{"type":"Point","coordinates":[-88.2312,42.69252]},"properties":{"id":112920,"name":"Browns Lake","state_code":"WI","country_code":"US"}},{"type":"Feature","geometry":{"type":"Point","coordinates":[-87.62093,44.73611]},"properties":{"id":112958,"name":"Brussels","state_code":"WI","country_code":"US"}},{"type":"Feature","geometry":{"type":"Point","coordinates":[-88.2762,42.67807]},"properties":{"id":113073,"name":"Burlington","state_code":"WI","country_code":"US"}},{"type":"Feature","geometry":{"type":"Point","coordinates":[-88.06953,43.10584]},"properties":{"id":113112,"name":"Butler","state_code":"WI","country_code":"US"}},{"type":"Feature","geometry":{"type":"Point","coordinates":[-91.1507,44.94802]},"properties":{"id":113166,"name":"Cadott","state_code":"WI","country_code":"US"}},{"type":"Feature","geometry":{"type":"Point","coordinates":[-87.92425,42.8078]},"properties":{"id":113192,"name":"Caledonia","state_code":"WI","country_code":"US"}},{"type":"Feature","geometry":{"type":"Point","coordinates":[-89.0165,43.00361]},"properties":{"id":113255,"name":"Cambridge","state_code":"WI","country_code":"US"}},{"type":"Feature","geometry":{"type":"Point","coordinates":[-91.74406,45.40857]},"properties":{"id":113276,"name":"Cameron","state_code":"WI","country_code":"US"}},{"type":"Feature","geometry":{"type":"Point","coordinates":[-88.1437,42.53474]},"properties":{"id":113288,"name":"Camp Lake","state_code":"WI","country_code":"US"}},{"type":"Feature","geometry":{"type":"Point","coordinates":[-88.27899,43.59777]},"properties":{"id":113304,"name":"Campbellsport","state_code":"WI","country_code":"US"}},{"type":"Feature","geometry":{"type":"Point","coordinates":[-90.7793,43.74191]},"properties":{"id":113523,"name":"Cashton","state_code":"WI","country_code":"US"}},{"type":"Feature","geometry":{"type":"Point","coordinates":[-87.8612,44.14277]},"properties":{"id":113574,"name":"Cato","state_code":"WI","country_code":"US"}},{"type":"Feature","geometry":{"type":"Point","coordinates":[-87.82342,43.56972]},"properties":{"id":113612,"name":"Cedar Grove","state_code":"WI","country_code":"US"}},{"type":"Feature","geometry":{"type":"Point","coordinates":[-87.98759,43.29667]},"properties":{"id":113624,"name":"Cedarburg","state_code":"WI","country_code":"US"}},{"type":"Feature","geometry":{"type":"Point","coordinates":[-91.651,45.31413]},"properties":{"id":113915,"name":"Chetek","state_code":"WI","country_code":"US"}},{"type":"Feature","geometry":{"type":"Point","coordinates":[-88.16288,44.02888]},"properties":{"id":113956,"name":"Chilton","state_code":"WI","country_code":"US"}},{"type":"Feature","geometry":{"type":"Point","coordinates":[-91.39293,44.93691]},"properties":{"id":113976,"name":"Chippewa Falls","state_code":"WI","country_code":"US"}},{"type":"Feature","geometry":{"type":"Point","coordinates":[-92.2713,45.25191]},"properties":{"id":114211,"name":"Clear Lake","state_code":"WI","country_code":"US"}},{"type":"Feature","geometry":{"type":"Point","coordinates":[-87.74731,43.91499]},"properties":{"id":114247,"name":"Cleveland","state_code":"WI","country_code":"US"}},{"type":"Feature","geometry":{"type":"Point","coordinates":[-88.86511,42.55779]},"properties":{"id":114286,"name":"Clinton","state_code":"WI","country_code":"US"}},{"type":"Feature","geometry":{"type":"Point","coordinates":[-88.76232,44.62053]},"properties":{"id":114299,"name":"Clintonville","state_code":"WI","country_code":"US"}},{"type":"Feature","geometry":{"type":"Point","coordinates":[-90.31569,44.90997]},"properties":{"id":114380,"name":"Colby","state_code":"WI","country_code":"US"}},{"type":"Feature","geometry":{"type":"Point","coordinates":[-91.72712,44.99746]},"properties":{"id":114407,"name":"Colfax","state_code":"WI","country_code":"US"}},{"type":"Feature","geometry":{"type":"Point","coordinates":[-89.01539,43.33805]},"properties":{"id":114497,"name":"Columbus","state_code":"WI","country_code":"US"}},{"type":"Feature","geometry":{"type":"Point","coordinates":[-88.31427,44.26582]},"properties":{"id":114518,"name":"Combined Locks","state_code":"WI","country_code":"US"}},{"type":"Feature","geometry":{"type":"Point","coordinates":[-88.48232,42.61224]},"properties":{"id":114528,"name":"Como","state_code":"WI","country_code":"US"}},{"type":"Feature","geometry":{"type":"Point","coordinates":[-88.59871,43.06945]},"properties":{"id":114542,"name":"Concord","state_code":"WI","country_code":"US"}},{"type":"Feature","geometry":{"type":"Point","coordinates":[-87.77453,44.31277]},"properties":{"id":114607,"name":"Cooperstown","state_code":"WI","country_code":"US"}},{"type":"Feature","geometry":{"type":"Point","coordinates":[-91.14931,45.16719]},"properties":{"id":114649,"name":"Cornell","state_code":"WI","country_code":"US"}},{"type":"Feature","geometry":{"type":"Point","coordinates":[-89.19956,43.07611]},"properties":{"id":114692,"name":"Cottage Grove","state_code":"WI","country_code":"US"}},{"type":"Feature","geometry":{"type":"Point","coordinates":[-88.90289,45.57191]},"properties":{"id":114766,"name":"Crandon","state_code":"WI","country_code":"US"}},{"type":"Feature","geometry":{"type":"Point","coordinates":[-89.65568,43.11444]},"properties":{"id":114853,"name":"Cross Plains","state_code":"WI","country_code":"US"}},{"type":"Feature","geometry":{"type":"Point","coordinates":[-90.42985,42.60555]},"properties":{"id":114888,"name":"Cuba City","state_code":"WI","country_code":"US"}},{"type":"Feature","geometry":{"type":"Point","coordinates":[-87.86147,42.95974]},"properties":{"id":114889,"name":"Cudahy","state_code":"WI","country_code":"US"}},{"type":"Feature","geometry":{"type":"Point","coordinates":[-92.01935,45.53218]},"properties":{"id":114910,"name":"Cumberland","state_code":"WI","country_code":"US"}},{"type":"Feature","geometry":{"type":"Point","coordinates":[-89.35651,43.99025]},"properties":{"id":114973,"name":"Dakota","state_code":"WI","country_code":"US"}},{"type":"Feature","geometry":{"type":"Point","coordinates":[-89.50151,43.25055]},"properties":{"id":115019,"name":"Dane","state_code":"WI","country_code":"US"}},{"type":"Feature","geometry":{"type":"Point","coordinates":[-88.7076,42.60168]},"properties":{"id":115048,"name":"Darien","state_code":"WI","country_code":"US"}},{"type":"Feature","geometry":{"type":"Point","coordinates":[-90.11763,42.68306]},"properties":{"id":115050,"name":"Darlington","state_code":"WI","country_code":"US"}},{"type":"Feature","geometry":{"type":"Point","coordinates":[-89.34373,43.24777]},"properties":{"id":115105,"name":"De Forest","state_code":"WI","country_code":"US"}},{"type":"Feature","geometry":{"type":"Point","coordinates":[-88.06038,44.44888]},"properties":{"id":115112,"name":"De Pere","state_code":"WI","country_code":"US"}},{"type":"Feature","geometry":{"type":"Point","coordinates":[-89.41155,42.63433]},"properties":{"id":115158,"name":"Decatur","state_code":"WI","country_code":"US"}},{"type":"Feature","geometry":{"type":"Point","coordinates":[-89.07567,43.05194]},"properties":{"id":115183,"name":"Deerfield","state_code":"WI","country_code":"US"}},{"type":"Feature","geometry":{"type":"Point","coordinates":[-88.40371,43.06084]},"properties":{"id":115196,"name":"Delafield","state_code":"WI","country_code":"US"}},{"type":"Feature","geometry":{"type":"Point","coordinates":[-88.64371,42.63307]},"properties":{"id":115201,"name":"Delavan","state_code":"WI","country_code":"US"}},{"type":"Feature","geometry":{"type":"Point","coordinates":[-88.6326,42.58418]},"properties":{"id":115202,"name":"Delavan Lake","state_code":"WI","country_code":"US"}},{"type":"Feature","geometry":{"type":"Point","coordinates":[-87.82732,44.34777]},"properties":{"id":115241,"name":"Denmark","state_code":"WI","country_code":"US"}},{"type":"Feature","geometry":{"type":"Point","coordinates":[-90.59207,42.62722]},"properties":{"id":115324,"name":"Dickeyville","state_code":"WI","country_code":"US"}},{"type":"Feature","geometry":{"type":"Point","coordinates":[-90.13012,42.96027]},"properties":{"id":115381,"name":"Dodgeville","state_code":"WI","country_code":"US"}},{"type":"Feature","geometry":{"type":"Point","coordinates":[-88.4726,43.01418]},"properties":{"id":115441,"name":"Dousman","state_code":"WI","country_code":"US"}},{"type":"Feature","geometry":{"type":"Point","coordinates":[-91.96573,44.62635]},"properties":{"id":115564,"name":"Durand","state_code":"WI","country_code":"US"}},{"type":"Feature","geometry":{"type":"Point","coordinates":[-88.47427,42.87946]},"properties":{"id":115596,"name":"Eagle","state_code":"WI","country_code":"US"}},{"type":"Feature","geometry":{"type":"Point","coordinates":[-88.12814,42.70696]},"properties":{"id":115605,"name":"Eagle Lake","state_code":"WI","country_code":"US"}},{"type":"Feature","geometry":{"type":"Point","coordinates":[-89.2443,45.91718]},"properties":{"id":115611,"name":"Eagle River","state_code":"WI","country_code":"US"}},{"type":"Feature","geometry":{"type":"Point","coordinates":[-88.4051,42.78529]},"properties":{"id":115766,"name":"East Troy","state_code":"WI","country_code":"US"}},{"type":"Feature","geometry":{"type":"Point","coordinates":[-89.80679,43.83803]},"properties":{"id":115790,"name":"Easton","state_code":"WI","country_code":"US"}},{"type":"Feature","geometry":{"type":"Point","coordinates":[-91.49849,44.81135]},"properties":{"id":115810,"name":"Eau Claire","state_code":"WI","country_code":"US"}},{"type":"Feature","geometry":{"type":"Point","coordinates":[-89.96346,44.92719]},"properties":{"id":115835,"name":"Edgar","state_code":"WI","country_code":"US"}},{"type":"Feature","geometry":{"type":"Point","coordinates":[-89.06761,42.83528]},"properties":{"id":115850,"name":"Edgerton","state_code":"WI","country_code":"US"}},{"type":"Feature","geometry":{"type":"Point","coordinates":[-88.62178,43.82471]},"properties":{"id":115953,"name":"Eldorado","state_code":"WI","country_code":"US"}},{"type":"Feature","geometry":{"type":"Point","coordinates":[-88.54454,42.67279]},"properties":{"id":116002,"name":"Elkhorn","state_code":"WI","country_code":"US"}},{"type":"Feature","geometry":{"type":"Point","coordinates":[-92.48741,44.73219]},"properties":{"id":116039,"name":"Ellsworth","state_code":"WI","country_code":"US"}},{"type":"Feature","geometry":{"type":"Point","coordinates":[-88.07898,43.04307]},"properties":{"id":116044,"name":"Elm Grove","state_code":"WI","country_code":"US"}},{"type":"Feature","geometry":{"type":"Point","coordinates":[-90.27235,43.7408]},"properties":{"id":116067,"name":"Elroy","state_code":"WI","country_code":"US"}},{"type":"Feature","geometry":{"type":"Point","coordinates":[-89.29928,42.78028]},"properties":{"id":116254,"name":"Evansville","state_code":"WI","country_code":"US"}},{"type":"Feature","geometry":{"type":"Point","coordinates":[-89.63762,44.84247]},"properties":{"id":116262,"name":"Evergreen","state_code":"WI","country_code":"US"}},{"type":"Feature","geometry":{"type":"Point","coordinates":[-91.2771,44.76357]},"properties":{"id":116372,"name":"Fall Creek","state_code":"WI","country_code":"US"}},{"type":"Feature","geometry":{"type":"Point","coordinates":[-89.04511,43.38443]},"properties":{"id":116374,"name":"Fall River","state_code":"WI","country_code":"US"}},{"type":"Feature","geometry":{"type":"Point","coordinates":[-90.6554,42.9836]},"properties":{"id":116472,"name":"Fennimore","state_code":"WI","country_code":"US"}},{"type":"Feature","geometry":{"type":"Point","coordinates":[-89.46984,42.96083]},"properties":{"id":116535,"name":"Fitchburg","state_code":"WI","country_code":"US"}},{"type":"Feature","geometry":{"type":"Point","coordinates":[-88.2518,45.92218]},"properties":{"id":116584,"name":"Florence","state_code":"WI","country_code":"US"}},{"type":"Feature","geometry":{"type":"Point","coordinates":[-88.43883,43.775]},"properties":{"id":116627,"name":"Fond du Lac","state_code":"WI","country_code":"US"}},{"type":"Feature","geometry":{"type":"Point","coordinates":[-88.5751,42.55141]},"properties":{"id":116630,"name":"Fontana","state_code":"WI","country_code":"US"}},{"type":"Feature","geometry":{"type":"Point","coordinates":[-88.83705,42.92889]},"properties":{"id":116689,"name":"Fort Atkinson","state_code":"WI","country_code":"US"}},{"type":"Feature","geometry":{"type":"Point","coordinates":[-88.9065,43.56554]},"properties":{"id":116804,"name":"Fox Lake","state_code":"WI","country_code":"US"}},{"type":"Feature","geometry":{"type":"Point","coordinates":[-87.90175,43.15751]},"properties":{"id":116806,"name":"Fox Point","state_code":"WI","country_code":"US"}},{"type":"Feature","geometry":{"type":"Point","coordinates":[-88.03842,42.88863]},"properties":{"id":116841,"name":"Franklin","state_code":"WI","country_code":"US"}},{"type":"Feature","geometry":{"type":"Point","coordinates":[-87.91341,42.76002]},"properties":{"id":116878,"name":"Franksville","state_code":"WI","country_code":"US"}},{"type":"Feature","geometry":{"type":"Point","coordinates":[-92.46714,45.65912]},"properties":{"id":116884,"name":"Frederic","state_code":"WI","country_code":"US"}},{"type":"Feature","geometry":{"type":"Point","coordinates":[-87.95065,43.47056]},"properties":{"id":116897,"name":"Fredonia","state_code":"WI","country_code":"US"}},{"type":"Feature","geometry":{"type":"Point","coordinates":[-91.26042,43.8583]},"properties":{"id":116930,"name":"French Island","state_code":"WI","country_code":"US"}},{"type":"Feature","geometry":{"type":"Point","coordinates":[-89.81679,43.97053]},"properties":{"id":116950,"name":"Friendship","state_code":"WI","country_code":"US"}},{"type":"Feature","geometry":{"type":"Point","coordinates":[-91.34904,44.08163]},"properties":{"id":117029,"name":"Galesville","state_code":"WI","country_code":"US"}},{"type":"Feature","geometry":{"type":"Point","coordinates":[-88.32815,42.49835]},"properties":{"id":117148,"name":"Genoa City","state_code":"WI","country_code":"US"}},{"type":"Feature","geometry":{"type":"Point","coordinates":[-88.11037,43.22862]},"properties":{"id":117174,"name":"Germantown","state_code":"WI","country_code":"US"}},{"type":"Feature","geometry":{"type":"Point","coordinates":[-88.30732,44.88999]},"properties":{"id":117216,"name":"Gillett","state_code":"WI","country_code":"US"}},{"type":"Feature","geometry":{"type":"Point","coordinates":[-87.93564,43.13529]},"properties":{"id":117284,"name":"Glendale","state_code":"WI","country_code":"US"}},{"type":"Feature","geometry":{"type":"Point","coordinates":[-87.92732,44.38583]},"properties":{"id":117295,"name":"Glenmore","state_code":"WI","country_code":"US"}},{"type":"Feature","geometry":{"type":"Point","coordinates":[-92.17241,45.05857]},"properties":{"id":117316,"name":"Glenwood City","state_code":"WI","country_code":"US"}},{"type":"Feature","geometry":{"type":"Point","coordinates":[-87.95342,43.31973]},"properties":{"id":117432,"name":"Grafton","state_code":"WI","country_code":"US"}},{"type":"Feature","geometry":{"type":"Point","coordinates":[-92.6827,45.77634]},"properties":{"id":117529,"name":"Grantsburg","state_code":"WI","country_code":"US"}},{"type":"Feature","geometry":{"type":"Point","coordinates":[-88.01983,44.51916]},"properties":{"id":117591,"name":"Green Bay","state_code":"WI","country_code":"US"}},{"type":"Feature","geometry":{"type":"Point","coordinates":[-88.96011,43.84415]},"properties":{"id":117601,"name":"Green Lake","state_code":"WI","country_code":"US"}},{"type":"Feature","geometry":{"type":"Point","coordinates":[-87.99592,42.94057]},"properties":{"id":117627,"name":"Greendale","state_code":"WI","country_code":"US"}},{"type":"Feature","geometry":{"type":"Point","coordinates":[-88.01259,42.9614]},"properties":{"id":117653,"name":"Greenfield","state_code":"WI","country_code":"US"}},{"type":"Feature","geometry":{"type":"Point","coordinates":[-90.59931,44.77024]},"properties":{"id":117708,"name":"Greenwood","state_code":"WI","country_code":"US"}},{"type":"Feature","geometry":{"type":"Point","coordinates":[-88.0487,42.93751]},"properties":{"id":117851,"name":"Hales Corners","state_code":"WI","country_code":"US"}},{"type":"Feature","geometry":{"type":"Point","coordinates":[-92.43575,44.97886]},"properties":{"id":117914,"name":"Hammond","state_code":"WI","country_code":"US"}},{"type":"Feature","geometry":{"type":"Point","coordinates":[-88.33591,44.22776]},"properties":{"id":118061,"name":"Harrison","state_code":"WI","country_code":"US"}},{"type":"Feature","geometry":{"type":"Point","coordinates":[-88.37899,43.31778]},"properties":{"id":118091,"name":"Hartford","state_code":"WI","country_code":"US"}},{"type":"Feature","geometry":{"type":"Point","coordinates":[-88.34204,43.10501]},"properties":{"id":118097,"name":"Hartland","state_code":"WI","country_code":"US"}},{"type":"Feature","geometry":{"type":"Point","coordinates":[-91.48462,46.01301]},"properties":{"id":118196,"name":"Hayward","state_code":"WI","country_code":"US"}},{"type":"Feature","geometry":{"type":"Point","coordinates":[-90.43457,42.53278]},"properties":{"id":118205,"name":"Hazel Green","state_code":"WI","country_code":"US"}},{"type":"Feature","geometry":{"type":"Point","coordinates":[-88.16399,44.14027]},"properties":{"id":118428,"name":"Hilbert","state_code":"WI","country_code":"US"}},{"type":"Feature","geometry":{"type":"Point","coordinates":[-90.34402,43.6522]},"properties":{"id":118451,"name":"Hillsboro","state_code":"WI","country_code":"US"}},{"type":"Feature","geometry":{"type":"Point","coordinates":[-88.14986,44.49925]},"properties":{"id":118499,"name":"Hobart","state_code":"WI","country_code":"US"}},{"type":"Feature","geometry":{"type":"Point","coordinates":[-91.25625,43.9633]},"properties":{"id":118569,"name":"Holmen","state_code":"WI","country_code":"US"}},{"type":"Feature","geometry":{"type":"Point","coordinates":[-88.63121,43.45138]},"properties":{"id":118663,"name":"Horicon","state_code":"WI","country_code":"US"}},{"type":"Feature","geometry":{"type":"Point","coordinates":[-88.63816,44.3347]},"properties":{"id":118679,"name":"Hortonville","state_code":"WI","country_code":"US"}},{"type":"Feature","geometry":{"type":"Point","coordinates":[-88.08816,44.5436]},"properties":{"id":118708,"name":"Howard","state_code":"WI","country_code":"US"}},{"type":"Feature","geometry":{"type":"Point","coordinates":[-87.82009,43.83388]},"properties":{"id":118720,"name":"Howards Grove","state_code":"WI","country_code":"US"}},{"type":"Feature","geometry":{"type":"Point","coordinates":[-92.75687,44.97469]},"properties":{"id":118746,"name":"Hudson","state_code":"WI","country_code":"US"}},{"type":"Feature","geometry":{"type":"Point","coordinates":[-90.18656,46.44967]},"properties":{"id":118821,"name":"Hurley","state_code":"WI","country_code":"US"}},{"type":"Feature","geometry":{"type":"Point","coordinates":[-88.60066,43.34611]},"properties":{"id":118833,"name":"Hustisford","state_code":"WI","country_code":"US"}},{"type":"Feature","geometry":{"type":"Point","coordinates":[-91.42043,44.35691]},"properties":{"id":118896,"name":"Independence","state_code":"WI","country_code":"US"}},{"type":"Feature","geometry":{"type":"Point","coordinates":[-89.13067,44.50803]},"properties":{"id":118967,"name":"Iola","state_code":"WI","country_code":"US"}},{"type":"Feature","geometry":{"type":"Point","coordinates":[-88.59732,43.14389]},"properties":{"id":119053,"name":"Ixonia","state_code":"WI","country_code":"US"}},{"type":"Feature","geometry":{"type":"Point","coordinates":[-88.16676,43.32389]},"properties":{"id":119072,"name":"Jackson","state_code":"WI","country_code":"US"}},{"type":"Feature","geometry":{"type":"Point","coordinates":[-89.01872,42.68279]},"properties":{"id":119131,"name":"Janesville","state_code":"WI","country_code":"US"}},{"type":"Feature","geometry":{"type":"Point","coordinates":[-88.80733,43.00556]},"properties":{"id":119171,"name":"Jefferson","state_code":"WI","country_code":"US"}},{"type":"Feature","geometry":{"type":"Point","coordinates":[-88.77427,43.07611]},"properties":{"id":119272,"name":"Johnson Creek","state_code":"WI","country_code":"US"}},{"type":"Feature","geometry":{"type":"Point","coordinates":[-88.7051,43.40555]},"properties":{"id":119337,"name":"Juneau","state_code":"WI","country_code":"US"}},{"type":"Feature","geometry":{"type":"Point","coordinates":[-88.27205,44.27804]},"properties":{"id":119399,"name":"Kaukauna","state_code":"WI","country_code":"US"}},{"type":"Feature","geometry":{"type":"Point","coordinates":[-87.82119,42.58474]},"properties":{"id":119476,"name":"Kenosha","state_code":"WI","country_code":"US"}},{"type":"Feature","geometry":{"type":"Point","coordinates":[-88.63372,44.88387]},"properties":{"id":119522,"name":"Keshena","state_code":"WI","country_code":"US"}},{"type":"Feature","geometry":{"type":"Point","coordinates":[-88.22899,43.52083]},"properties":{"id":119533,"name":"Kewaskum","state_code":"WI","country_code":"US"}},{"type":"Feature","geometry":{"type":"Point","coordinates":[-87.50314,44.45833]},"properties":{"id":119534,"name":"Kewaunee","state_code":"WI","country_code":"US"}},{"type":"Feature","geometry":{"type":"Point","coordinates":[-88.03565,43.91249]},"properties":{"id":119554,"name":"Kiel","state_code":"WI","country_code":"US"}},{"type":"Feature","geometry":{"type":"Point","coordinates":[-88.339,44.27221]},"properties":{"id":119570,"name":"Kimberly","state_code":"WI","country_code":"US"}},{"type":"Feature","geometry":{"type":"Point","coordinates":[-89.14178,44.33748]},"properties":{"id":119577,"name":"King","state_code":"WI","country_code":"US"}},{"type":"Feature","geometry":{"type":"Point","coordinates":[-87.78175,43.73916]},"properties":{"id":119701,"name":"Kohler","state_code":"WI","country_code":"US"}},{"type":"Feature","geometry":{"type":"Point","coordinates":[-89.5904,44.82219]},"properties":{"id":119717,"name":"Kronenwetter","state_code":"WI","country_code":"US"}},{"type":"Feature","geometry":{"type":"Point","coordinates":[-91.23958,43.80136]},"properties":{"id":119744,"name":"La Crosse","state_code":"WI","country_code":"US"}},{"type":"Feature","geometry":{"type":"Point","coordinates":[-89.8921,45.96967]},"properties":{"id":119810,"name":"Lac du Flambeau","state_code":"WI","country_code":"US"}},{"type":"Feature","geometry":{"type":"Point","coordinates":[-91.10404,45.46302]},"properties":{"id":119830,"name":"Ladysmith","state_code":"WI","country_code":"US"}},{"type":"Feature","geometry":{"type":"Point","coordinates":[-89.79374,43.60109]},"properties":{"id":119903,"name":"Lake Delton","state_code":"WI","country_code":"US"}},{"type":"Feature","geometry":{"type":"Point","coordinates":[-88.43343,42.59168]},"properties":{"id":119913,"name":"Lake Geneva","state_code":"WI","country_code":"US"}},{"type":"Feature","geometry":{"type":"Point","coordinates":[-91.44071,44.87579]},"properties":{"id":119915,"name":"Lake Hallie","state_code":"WI","country_code":"US"}},{"type":"Feature","geometry":{"type":"Point","coordinates":[-88.91955,42.90973]},"properties":{"id":119928,"name":"Lake Koshkonong","state_code":"WI","country_code":"US"}},{"type":"Feature","geometry":{"type":"Point","coordinates":[-88.91177,43.08139]},"properties":{"id":119943,"name":"Lake Mills","state_code":"WI","country_code":"US"}},{"type":"Feature","geometry":{"type":"Point","coordinates":[-91.69991,46.51494]},"properties":{"id":119951,"name":"Lake Nebagamon","state_code":"WI","country_code":"US"}},{"type":"Feature","geometry":{"type":"Point","coordinates":[-88.98622,43.00583]},"properties":{"id":119969,"name":"Lake Ripley","state_code":"WI","country_code":"US"}},{"type":"Feature","geometry":{"type":"Point","coordinates":[-89.75651,44.37108]},"properties":{"id":119992,"name":"Lake Wazeecha","state_code":"WI","country_code":"US"}},{"type":"Feature","geometry":{"type":"Point","coordinates":[-89.57568,43.3736]},"properties":{"id":119995,"name":"Lake Wisconsin","state_code":"WI","country_code":"US"}},{"type":"Feature","geometry":{"type":"Point","coordinates":[-91.30099,44.92635]},"properties":{"id":119996,"name":"Lake Wissota","state_code":"WI","country_code":"US"}},{"type":"Feature","geometry":{"type":"Point","coordinates":[-88.56872,43.73332]},"properties":{"id":120065,"name":"Lamartine","state_code":"WI","country_code":"US"}},{"type":"Feature","geometry":{"type":"Point","coordinates":[-90.71068,42.84749]},"properties":{"id":120088,"name":"Lancaster","state_code":"WI","country_code":"US"}},{"type":"Feature","geometry":{"type":"Point","coordinates":[-88.1662,43.14612]},"properties":{"id":120120,"name":"Lannon","state_code":"WI","country_code":"US"}},{"type":"Feature","geometry":{"type":"Point","coordinates":[-88.54406,44.89095]},"properties":{"id":120332,"name":"Legend Lake","state_code":"WI","country_code":"US"}},{"type":"Feature","geometry":{"type":"Point","coordinates":[-88.31844,44.27999]},"properties":{"id":120614,"name":"Little Chute","state_code":"WI","country_code":"US"}},{"type":"Feature","geometry":{"type":"Point","coordinates":[-91.36795,45.96495]},"properties":{"id":120629,"name":"Little Round Lake","state_code":"WI","country_code":"US"}},{"type":"Feature","geometry":{"type":"Point","coordinates":[-89.52651,43.31388]},"properties":{"id":120690,"name":"Lodi","state_code":"WI","country_code":"US"}},{"type":"Feature","geometry":{"type":"Point","coordinates":[-88.44371,43.59138]},"properties":{"id":120715,"name":"Lomira","state_code":"WI","country_code":"US"}},{"type":"Feature","geometry":{"type":"Point","coordinates":[-90.49597,44.73691]},"properties":{"id":120853,"name":"Loyal","state_code":"WI","country_code":"US"}},{"type":"Feature","geometry":{"type":"Point","coordinates":[-92.4827,45.57607]},"properties":{"id":120867,"name":"Luck","state_code":"WI","country_code":"US"}},{"type":"Feature","geometry":{"type":"Point","coordinates":[-87.70398,44.53861]},"properties":{"id":120901,"name":"Luxemburg","state_code":"WI","country_code":"US"}},{"type":"Feature","geometry":{"type":"Point","coordinates":[-89.40123,43.07305]},"properties":{"id":120999,"name":"Madison","state_code":"WI","country_code":"US"}},{"type":"Feature","geometry":{"type":"Point","coordinates":[-89.69039,45.02716]},"properties":{"id":121050,"name":"Maine","state_code":"WI","country_code":"US"}},{"type":"Feature","geometry":{"type":"Point","coordinates":[-88.91983,44.46443]},"properties":{"id":121086,"name":"Manawa","state_code":"WI","country_code":"US"}},{"type":"Feature","geometry":{"type":"Point","coordinates":[-89.04845,43.69054]},"properties":{"id":121101,"name":"Manchester","state_code":"WI","country_code":"US"}},{"type":"Feature","geometry":{"type":"Point","coordinates":[-87.65758,44.08861]},"properties":{"id":121127,"name":"Manitowoc","state_code":"WI","country_code":"US"}},{"type":"Feature","geometry":{"type":"Point","coordinates":[-89.37956,43.11833]},"properties":{"id":121165,"name":"Maple Bluff","state_code":"WI","country_code":"US"}},{"type":"Feature","geometry":{"type":"Point","coordinates":[-89.8404,44.92913]},"properties":{"id":121185,"name":"Marathon","state_code":"WI","country_code":"US"}},{"type":"Feature","geometry":{"type":"Point","coordinates":[-87.63066,45.09998]},"properties":{"id":121228,"name":"Marinette","state_code":"WI","country_code":"US"}},{"type":"Feature","geometry":{"type":"Point","coordinates":[-88.88927,44.67081]},"properties":{"id":121245,"name":"Marion","state_code":"WI","country_code":"US"}},{"type":"Feature","geometry":{"type":"Point","coordinates":[-88.99011,43.7072]},"properties":{"id":121268,"name":"Markesan","state_code":"WI","country_code":"US"}},{"type":"Feature","geometry":{"type":"Point","coordinates":[-89.06678,43.16833]},"properties":{"id":121309,"name":"Marshall","state_code":"WI","country_code":"US"}},{"type":"Feature","geometry":{"type":"Point","coordinates":[-90.1718,44.66885]},"properties":{"id":121327,"name":"Marshfield","state_code":"WI","country_code":"US"}},{"type":"Feature","geometry":{"type":"Point","coordinates":[-90.07735,43.79719]},"properties":{"id":121427,"name":"Mauston","state_code":"WI","country_code":"US"}},{"type":"Feature","geometry":{"type":"Point","coordinates":[-88.54482,43.49416]},"properties":{"id":121456,"name":"Mayville","state_code":"WI","country_code":"US"}},{"type":"Feature","geometry":{"type":"Point","coordinates":[-89.79485,43.17666]},"properties":{"id":121460,"name":"Mazomanie","state_code":"WI","country_code":"US"}},{"type":"Feature","geometry":{"type":"Point","coordinates":[-89.28984,43.0125]},"properties":{"id":121499,"name":"McFarland","state_code":"WI","country_code":"US"}},{"type":"Feature","geometry":{"type":"Point","coordinates":[-90.34014,45.13858]},"properties":{"id":121595,"name":"Medford","state_code":"WI","country_code":"US"}},{"type":"Feature","geometry":{"type":"Point","coordinates":[-88.4465,44.20221]},"properties":{"id":121649,"name":"Menasha","state_code":"WI","country_code":"US"}},{"type":"Feature","geometry":{"type":"Point","coordinates":[-88.11731,43.1789]},"properties":{"id":121665,"name":"Menomonee Falls","state_code":"WI","country_code":"US"}},{"type":"Feature","geometry":{"type":"Point","coordinates":[-91.91934,44.87552]},"properties":{"id":121666,"name":"Menomonie","state_code":"WI","country_code":"US"}},{"type":"Feature","geometry":{"type":"Point","coordinates":[-88.03001,43.21555]},"properties":{"id":121669,"name":"Mequon","state_code":"WI","country_code":"US"}},{"type":"Feature","geometry":{"type":"Point","coordinates":[-89.68346,45.18052]},"properties":{"id":121707,"name":"Merrill","state_code":"WI","country_code":"US"}},{"type":"Feature","geometry":{"type":"Point","coordinates":[-88.30676,43.14667]},"properties":{"id":121718,"name":"Merton","state_code":"WI","country_code":"US"}},{"type":"Feature","geometry":{"type":"Point","coordinates":[-89.50429,43.09722]},"properties":{"id":121783,"name":"Middleton","state_code":"WI","country_code":"US"}},{"type":"Feature","geometry":{"type":"Point","coordinates":[-88.84677,43.10083]},"properties":{"id":121858,"name":"Milford","state_code":"WI","country_code":"US"}},{"type":"Feature","geometry":{"type":"Point","coordinates":[-88.944,42.77556]},"properties":{"id":121918,"name":"Milton","state_code":"WI","country_code":"US"}},{"type":"Feature","geometry":{"type":"Point","coordinates":[-87.90647,43.0389]},"properties":{"id":121923,"name":"Milwaukee","state_code":"WI","country_code":"US"}},{"type":"Feature","geometry":{"type":"Point","coordinates":[-90.17985,42.86]},"properties":{"id":121938,"name":"Mineral Point","state_code":"WI","country_code":"US"}},{"type":"Feature","geometry":{"type":"Point","coordinates":[-87.64119,44.23916]},"properties":{"id":121977,"name":"Mishicot","state_code":"WI","country_code":"US"}},{"type":"Feature","geometry":{"type":"Point","coordinates":[-91.67099,44.56774]},"properties":{"id":122036,"name":"Mondovi","state_code":"WI","country_code":"US"}},{"type":"Feature","geometry":{"type":"Point","coordinates":[-89.33401,43.06222]},"properties":{"id":122052,"name":"Monona","state_code":"WI","country_code":"US"}},{"type":"Feature","geometry":{"type":"Point","coordinates":[-89.63845,42.60112]},"properties":{"id":122063,"name":"Monroe","state_code":"WI","country_code":"US"}},{"type":"Feature","geometry":{"type":"Point","coordinates":[-89.31984,43.79137]},"properties":{"id":122117,"name":"Montello","state_code":"WI","country_code":"US"}},{"type":"Feature","geometry":{"type":"Point","coordinates":[-89.59484,42.74556]},"properties":{"id":122170,"name":"Monticello","state_code":"WI","country_code":"US"}},{"type":"Feature","geometry":{"type":"Point","coordinates":[-89.70318,44.79302]},"properties":{"id":122305,"name":"Mosinee","state_code":"WI","country_code":"US"}},{"type":"Feature","geometry":{"type":"Point","coordinates":[-89.73846,43.00861]},"properties":{"id":122354,"name":"Mount Horeb","state_code":"WI","country_code":"US"}},{"type":"Feature","geometry":{"type":"Point","coordinates":[-89.19067,44.11442]},"properties":{"id":122366,"name":"Mount Morris","state_code":"WI","country_code":"US"}},{"type":"Feature","geometry":{"type":"Point","coordinates":[-87.85577,42.69743]},"properties":{"id":122382,"name":"Mount Pleasant","state_code":"WI","country_code":"US"}},{"type":"Feature","geometry":{"type":"Point","coordinates":[-88.33343,42.86668]},"properties":{"id":122451,"name":"Mukwonago","state_code":"WI","country_code":"US"}},{"type":"Feature","geometry":{"type":"Point","coordinates":[-90.44318,43.18499]},"properties":{"id":122504,"name":"Muscoda","state_code":"WI","country_code":"US"}},{"type":"Feature","geometry":{"type":"Point","coordinates":[-88.13898,42.90585]},"properties":{"id":122508,"name":"Muskego","state_code":"WI","country_code":"US"}},{"type":"Feature","geometry":{"type":"Point","coordinates":[-88.40232,43.09779]},"properties":{"id":122569,"name":"Nashotah","state_code":"WI","country_code":"US"}},{"type":"Feature","geometry":{"type":"Point","coordinates":[-89.02484,45.52274]},"properties":{"id":122579,"name":"Nashville","state_code":"WI","country_code":"US"}},{"type":"Feature","geometry":{"type":"Point","coordinates":[-88.46261,44.18582]},"properties":{"id":122616,"name":"Neenah","state_code":"WI","country_code":"US"}},{"type":"Feature","geometry":{"type":"Point","coordinates":[-90.59625,44.55996]},"properties":{"id":122618,"name":"Neillsville","state_code":"WI","country_code":"US"}},{"type":"Feature","geometry":{"type":"Point","coordinates":[-89.90429,44.31246]},"properties":{"id":122619,"name":"Nekoosa","state_code":"WI","country_code":"US"}},{"type":"Feature","geometry":{"type":"Point","coordinates":[-88.10842,42.9764]},"properties":{"id":122664,"name":"New Berlin","state_code":"WI","country_code":"US"}},{"type":"Feature","geometry":{"type":"Point","coordinates":[-89.63512,42.81445]},"properties":{"id":122708,"name":"New Glarus","state_code":"WI","country_code":"US"}},{"type":"Feature","geometry":{"type":"Point","coordinates":[-88.08426,43.94999]},"properties":{"id":122722,"name":"New Holstein","state_code":"WI","country_code":"US"}},{"type":"Feature","geometry":{"type":"Point","coordinates":[-90.16541,43.87914]},"properties":{"id":122738,"name":"New Lisbon","state_code":"WI","country_code":"US"}},{"type":"Feature","geometry":{"type":"Point","coordinates":[-88.73983,44.39276]},"properties":{"id":122745,"name":"New London","state_code":"WI","country_code":"US"}},{"type":"Feature","geometry":{"type":"Point","coordinates":[-92.53659,45.12302]},"properties":{"id":122770,"name":"New Richmond","state_code":"WI","country_code":"US"}},{"type":"Feature","geometry":{"type":"Point","coordinates":[-88.04648,43.43167]},"properties":{"id":122815,"name":"Newburg","state_code":"WI","country_code":"US"}},{"type":"Feature","geometry":{"type":"Point","coordinates":[-87.99485,45.77135]},"properties":{"id":122880,"name":"Niagara","state_code":"WI","country_code":"US"}},{"type":"Feature","geometry":{"type":"Point","coordinates":[-88.48344,43.81138]},"properties":{"id":123026,"name":"North Fond du Lac","state_code":"WI","country_code":"US"}},{"type":"Feature","geometry":{"type":"Point","coordinates":[-92.75687,44.99302]},"properties":{"id":123043,"name":"North Hudson","state_code":"WI","country_code":"US"}},{"type":"Feature","geometry":{"type":"Point","coordinates":[-91.24819,43.84635]},"properties":{"id":123049,"name":"North La Crosse","state_code":"WI","country_code":"US"}},{"type":"Feature","geometry":{"type":"Point","coordinates":[-88.40537,42.93446]},"properties":{"id":123088,"name":"North Prairie","state_code":"WI","country_code":"US"}},{"type":"Feature","geometry":{"type":"Point","coordinates":[-87.86314,42.88585]},"properties":{"id":123232,"name":"Oak Creek","state_code":"WI","country_code":"US"}},{"type":"Feature","geometry":{"type":"Point","coordinates":[-88.5465,43.6861]},"properties":{"id":123277,"name":"Oakfield","state_code":"WI","country_code":"US"}},{"type":"Feature","geometry":{"type":"Point","coordinates":[-88.49927,43.11167]},"properties":{"id":123350,"name":"Oconomowoc","state_code":"WI","country_code":"US"}},{"type":"Feature","geometry":{"type":"Point","coordinates":[-87.86455,44.88721]},"properties":{"id":123351,"name":"Oconto","state_code":"WI","country_code":"US"}},{"type":"Feature","geometry":{"type":"Point","coordinates":[-88.14288,44.87388]},"properties":{"id":123353,"name":"Oconto Falls","state_code":"WI","country_code":"US"}},{"type":"Feature","geometry":{"type":"Point","coordinates":[-88.44065,43.12334]},"properties":{"id":123396,"name":"Okauchee Lake","state_code":"WI","country_code":"US"}},{"type":"Feature","geometry":{"type":"Point","coordinates":[-88.74428,44.03943]},"properties":{"id":123466,"name":"Omro","state_code":"WI","country_code":"US"}},{"type":"Feature","geometry":{"type":"Point","coordinates":[-91.23514,43.88441]},"properties":{"id":123468,"name":"Onalaska","state_code":"WI","country_code":"US"}},{"type":"Feature","geometry":{"type":"Point","coordinates":[-88.18288,44.4986]},"properties":{"id":123474,"name":"Oneida","state_code":"WI","country_code":"US"}},{"type":"Feature","geometry":{"type":"Point","coordinates":[-87.79453,43.62277]},"properties":{"id":123493,"name":"Oostburg","state_code":"WI","country_code":"US"}},{"type":"Feature","geometry":{"type":"Point","coordinates":[-89.38456,42.92611]},"properties":{"id":123547,"name":"Oregon","state_code":"WI","country_code":"US"}},{"type":"Feature","geometry":{"type":"Point","coordinates":[-89.25317,42.62751]},"properties":{"id":123553,"name":"Orfordville","state_code":"WI","country_code":"US"}},{"type":"Feature","geometry":{"type":"Point","coordinates":[-92.70493,45.32052]},"properties":{"id":123602,"name":"Osceola","state_code":"WI","country_code":"US"}},{"type":"Feature","geometry":{"type":"Point","coordinates":[-88.54261,44.02471]},"properties":{"id":123609,"name":"Oshkosh","state_code":"WI","country_code":"US"}},{"type":"Feature","geometry":{"type":"Point","coordinates":[-91.22738,44.57218]},"properties":{"id":123615,"name":"Osseo","state_code":"WI","country_code":"US"}},{"type":"Feature","geometry":{"type":"Point","coordinates":[-88.10509,42.57752]},"properties":{"id":123713,"name":"Paddock Lake","state_code":"WI","country_code":"US"}},{"type":"Feature","geometry":{"type":"Point","coordinates":[-88.58621,42.87779]},"properties":{"id":123778,"name":"Palmyra","state_code":"WI","country_code":"US"}},{"type":"Feature","geometry":{"type":"Point","coordinates":[-89.30012,43.53776]},"properties":{"id":123828,"name":"Pardeeville","state_code":"WI","country_code":"US"}},{"type":"Feature","geometry":{"type":"Point","coordinates":[-90.44155,45.9344]},"properties":{"id":123844,"name":"Park Falls","state_code":"WI","country_code":"US"}},{"type":"Feature","geometry":{"type":"Point","coordinates":[-88.35093,42.53807]},"properties":{"id":123998,"name":"Pell Lake","state_code":"WI","country_code":"US"}},{"type":"Feature","geometry":{"type":"Point","coordinates":[-87.74927,45.05443]},"properties":{"id":124099,"name":"Peshtigo","state_code":"WI","country_code":"US"}},{"type":"Feature","geometry":{"type":"Point","coordinates":[-88.2612,43.08057]},"properties":{"id":124115,"name":"Pewaukee","state_code":"WI","country_code":"US"}},{"type":"Feature","geometry":{"type":"Point","coordinates":[-90.40043,45.69663]},"properties":{"id":124134,"name":"Phillips","state_code":"WI","country_code":"US"}},{"type":"Feature","geometry":{"type":"Point","coordinates":[-88.2451,44.59944]},"properties":{"id":124301,"name":"Pittsfield","state_code":"WI","country_code":"US"}},{"type":"Feature","geometry":{"type":"Point","coordinates":[-90.47846,42.73416]},"properties":{"id":124357,"name":"Platteville","state_code":"WI","country_code":"US"}},{"type":"Feature","geometry":{"type":"Point","coordinates":[-87.93341,42.55308]},"properties":{"id":124375,"name":"Pleasant Prairie","state_code":"WI","country_code":"US"}},{"type":"Feature","geometry":{"type":"Point","coordinates":[-89.54401,44.45636]},"properties":{"id":124391,"name":"Plover","state_code":"WI","country_code":"US"}},{"type":"Feature","geometry":{"type":"Point","coordinates":[-87.97704,43.74861]},"properties":{"id":124408,"name":"Plymouth","state_code":"WI","country_code":"US"}},{"type":"Feature","geometry":{"type":"Point","coordinates":[-89.8654,44.3508]},"properties":{"id":124505,"name":"Port Edwards","state_code":"WI","country_code":"US"}},{"type":"Feature","geometry":{"type":"Point","coordinates":[-87.87564,43.38722]},"properties":{"id":124540,"name":"Port Washington","state_code":"WI","country_code":"US"}},{"type":"Feature","geometry":{"type":"Point","coordinates":[-89.46262,43.53915]},"properties":{"id":124546,"name":"Portage","state_code":"WI","country_code":"US"}},{"type":"Feature","geometry":{"type":"Point","coordinates":[-90.85819,43.76886]},"properties":{"id":124564,"name":"Portland","state_code":"WI","country_code":"US"}},{"type":"Feature","geometry":{"type":"Point","coordinates":[-88.34898,42.82168]},"properties":{"id":124595,"name":"Potter Lake","state_code":"WI","country_code":"US"}},{"type":"Feature","geometry":{"type":"Point","coordinates":[-88.29454,42.55363]},"properties":{"id":124616,"name":"Powers Lake","state_code":"WI","country_code":"US"}},{"type":"Feature","geometry":{"type":"Point","coordinates":[-89.4029,43.39026]},"properties":{"id":124621,"name":"Poynette","state_code":"WI","country_code":"US"}},{"type":"Feature","geometry":{"type":"Point","coordinates":[-91.14124,43.05165]},"properties":{"id":124633,"name":"Prairie du Chien","state_code":"WI","country_code":"US"}},{"type":"Feature","geometry":{"type":"Point","coordinates":[-89.72401,43.28693]},"properties":{"id":124634,"name":"Prairie du Sac","state_code":"WI","country_code":"US"}},{"type":"Feature","geometry":{"type":"Point","coordinates":[-92.80215,44.74886]},"properties":{"id":124644,"name":"Prescott","state_code":"WI","country_code":"US"}},{"type":"Feature","geometry":{"type":"Point","coordinates":[-89.12178,43.85081]},"properties":{"id":124691,"name":"Princeton","state_code":"WI","country_code":"US"}},{"type":"Feature","geometry":{"type":"Point","coordinates":[-88.2426,44.67222]},"properties":{"id":124736,"name":"Pulaski","state_code":"WI","country_code":"US"}},{"type":"Feature","geometry":{"type":"Point","coordinates":[-87.78285,42.72613]},"properties":{"id":124813,"name":"Racine","state_code":"WI","country_code":"US"}},{"type":"Feature","geometry":{"type":"Point","coordinates":[-89.00678,43.53915]},"properties":{"id":124869,"name":"Randolph","state_code":"WI","country_code":"US"}},{"type":"Feature","geometry":{"type":"Point","coordinates":[-87.96176,43.55222]},"properties":{"id":124880,"name":"Random Lake","state_code":"WI","country_code":"US"}},{"type":"Feature","geometry":{"type":"Point","coordinates":[-89.09845,44.04192]},"properties":{"id":124970,"name":"Redgranite","state_code":"WI","country_code":"US"}},{"type":"Feature","geometry":{"type":"Point","coordinates":[-90.00263,43.53248]},"properties":{"id":124994,"name":"Reedsburg","state_code":"WI","country_code":"US"}},{"type":"Feature","geometry":{"type":"Point","coordinates":[-87.95676,44.1536]},"properties":{"id":124996,"name":"Reedsville","state_code":"WI","country_code":"US"}},{"type":"Feature","geometry":{"type":"Point","coordinates":[-89.41208,45.63662]},"properties":{"id":125046,"name":"Rhinelander","state_code":"WI","country_code":"US"}},{"type":"Feature","geometry":{"type":"Point","coordinates":[-89.6754,44.91275]},"properties":{"id":125050,"name":"Rib Mountain","state_code":"WI","country_code":"US"}},{"type":"Feature","geometry":{"type":"Point","coordinates":[-91.73823,45.50607]},"properties":{"id":125055,"name":"Rice Lake","state_code":"WI","country_code":"US"}},{"type":"Feature","geometry":{"type":"Point","coordinates":[-88.19398,43.25612]},"properties":{"id":125062,"name":"Richfield","state_code":"WI","country_code":"US"}},{"type":"Feature","geometry":{"type":"Point","coordinates":[-90.38679,43.33471]},"properties":{"id":125073,"name":"Richland Center","state_code":"WI","country_code":"US"}},{"type":"Feature","geometry":{"type":"Point","coordinates":[-88.74927,42.71473]},"properties":{"id":125095,"name":"Richmond","state_code":"WI","country_code":"US"}},{"type":"Feature","geometry":{"type":"Point","coordinates":[-89.23984,43.44776]},"properties":{"id":125146,"name":"Rio","state_code":"WI","country_code":"US"}},{"type":"Feature","geometry":{"type":"Point","coordinates":[-88.83594,43.8422]},"properties":{"id":125167,"name":"Ripon","state_code":"WI","country_code":"US"}},{"type":"Feature","geometry":{"type":"Point","coordinates":[-92.62381,44.86136]},"properties":{"id":125178,"name":"River Falls","state_code":"WI","country_code":"US"}},{"type":"Feature","geometry":{"type":"Point","coordinates":[-87.92425,43.17418]},"properties":{"id":125182,"name":"River Hills","state_code":"WI","country_code":"US"}},{"type":"Feature","geometry":{"type":"Point","coordinates":[-92.55603,44.98386]},"properties":{"id":125241,"name":"Roberts","state_code":"WI","country_code":"US"}},{"type":"Feature","geometry":{"type":"Point","coordinates":[-88.22426,42.74141]},"properties":{"id":125269,"name":"Rochester","state_code":"WI","country_code":"US"}},{"type":"Feature","geometry":{"type":"Point","coordinates":[-89.80843,44.2206]},"properties":{"id":125379,"name":"Rome","state_code":"WI","country_code":"US"}},{"type":"Feature","geometry":{"type":"Point","coordinates":[-88.67483,43.80776]},"properties":{"id":125434,"name":"Rosendale","state_code":"WI","country_code":"US"}},{"type":"Feature","geometry":{"type":"Point","coordinates":[-89.62012,44.88719]},"properties":{"id":125465,"name":"Rothschild","state_code":"WI","country_code":"US"}},{"type":"Feature","geometry":{"type":"Point","coordinates":[-89.6754,43.24943]},"properties":{"id":125486,"name":"Roxbury","state_code":"WI","country_code":"US"}},{"type":"Feature","geometry":{"type":"Point","coordinates":[-89.35012,42.87889]},"properties":{"id":125556,"name":"Rutland","state_code":"WI","country_code":"US"}},{"type":"Feature","geometry":{"type":"Point","coordinates":[-92.63965,45.40996]},"properties":{"id":125629,"name":"Saint Croix Falls","state_code":"WI","country_code":"US"}},{"type":"Feature","geometry":{"type":"Point","coordinates":[-87.87758,42.96752]},"properties":{"id":125634,"name":"Saint Francis","state_code":"WI","country_code":"US"}},{"type":"Feature","geometry":{"type":"Point","coordinates":[-88.34149,43.83638]},"properties":{"id":125709,"name":"Saint Peter","state_code":"WI","country_code":"US"}},{"type":"Feature","geometry":{"type":"Point","coordinates":[-88.11092,42.55474]},"properties":{"id":125738,"name":"Salem","state_code":"WI","country_code":"US"}},{"type":"Feature","geometry":{"type":"Point","coordinates":[-89.72207,43.27082]},"properties":{"id":125963,"name":"Sauk City","state_code":"WI","country_code":"US"}},{"type":"Feature","geometry":{"type":"Point","coordinates":[-87.94065,43.38167]},"properties":{"id":125967,"name":"Saukville","state_code":"WI","country_code":"US"}},{"type":"Feature","geometry":{"type":"Point","coordinates":[-89.60457,44.90969]},"properties":{"id":126013,"name":"Schofield","state_code":"WI","country_code":"US"}},{"type":"Feature","geometry":{"type":"Point","coordinates":[-88.33038,44.51499]},"properties":{"id":126197,"name":"Seymour","state_code":"WI","country_code":"US"}},{"type":"Feature","geometry":{"type":"Point","coordinates":[-88.72899,42.50252]},"properties":{"id":126230,"name":"Sharon","state_code":"WI","country_code":"US"}},{"type":"Feature","geometry":{"type":"Point","coordinates":[-88.60899,44.78221]},"properties":{"id":126247,"name":"Shawano","state_code":"WI","country_code":"US"}},{"type":"Feature","geometry":{"type":"Point","coordinates":[-87.71453,43.75083]},"properties":{"id":126255,"name":"Sheboygan","state_code":"WI","country_code":"US"}},{"type":"Feature","geometry":{"type":"Point","coordinates":[-87.82213,43.73197]},"properties":{"id":126257,"name":"Sheboygan Falls","state_code":"WI","country_code":"US"}},{"type":"Feature","geometry":{"type":"Point","coordinates":[-91.92545,45.73939]},"properties":{"id":126290,"name":"Shell Lake","state_code":"WI","country_code":"US"}},{"type":"Feature","geometry":{"type":"Point","coordinates":[-88.25983,44.1736]},"properties":{"id":126341,"name":"Sherwood","state_code":"WI","country_code":"US"}},{"type":"Feature","geometry":{"type":"Point","coordinates":[-87.88758,43.08918]},"properties":{"id":126372,"name":"Shorewood","state_code":"WI","country_code":"US"}},{"type":"Feature","geometry":{"type":"Point","coordinates":[-89.44568,43.0775]},"properties":{"id":126374,"name":"Shorewood Hills","state_code":"WI","country_code":"US"}},{"type":"Feature","geometry":{"type":"Point","coordinates":[-90.23096,42.57334]},"properties":{"id":126388,"name":"Shullsburg","state_code":"WI","country_code":"US"}},{"type":"Feature","geometry":{"type":"Point","coordinates":[-89.22623,44.05526]},"properties":{"id":126430,"name":"Silver Lake","state_code":"WI","country_code":"US"}},{"type":"Feature","geometry":{"type":"Point","coordinates":[-92.38103,45.78578]},"properties":{"id":126463,"name":"Siren","state_code":"WI","country_code":"US"}},{"type":"Feature","geometry":{"type":"Point","coordinates":[-88.28621,43.33361]},"properties":{"id":126502,"name":"Slinger","state_code":"WI","country_code":"US"}},{"type":"Feature","geometry":{"type":"Point","coordinates":[-87.91036,42.6403]},"properties":{"id":126576,"name":"Somers","state_code":"WI","country_code":"US"}},{"type":"Feature","geometry":{"type":"Point","coordinates":[-92.67354,45.12441]},"properties":{"id":126585,"name":"Somerset","state_code":"WI","country_code":"US"}},{"type":"Feature","geometry":{"type":"Point","coordinates":[-87.86064,42.91057]},"properties":{"id":126693,"name":"South Milwaukee","state_code":"WI","country_code":"US"}},{"type":"Feature","geometry":{"type":"Point","coordinates":[-90.81291,43.94413]},"properties":{"id":126813,"name":"Sparta","state_code":"WI","country_code":"US"}},{"type":"Feature","geometry":{"type":"Point","coordinates":[-90.2968,44.75774]},"properties":{"id":126827,"name":"Spencer","state_code":"WI","country_code":"US"}},{"type":"Feature","geometry":{"type":"Point","coordinates":[-91.88934,45.82245]},"properties":{"id":126845,"name":"Spooner","state_code":"WI","country_code":"US"}},{"type":"Feature","geometry":{"type":"Point","coordinates":[-90.0679,43.17527]},"properties":{"id":126856,"name":"Spring Green","state_code":"WI","country_code":"US"}},{"type":"Feature","geometry":{"type":"Point","coordinates":[-92.2388,44.84524]},"properties":{"id":126879,"name":"Spring Valley","state_code":"WI","country_code":"US"}},{"type":"Feature","geometry":{"type":"Point","coordinates":[-90.93708,44.95997]},"properties":{"id":126960,"name":"Stanley","state_code":"WI","country_code":"US"}},{"type":"Feature","geometry":{"type":"Point","coordinates":[-89.57456,44.52358]},"properties":{"id":127043,"name":"Stevens Point","state_code":"WI","country_code":"US"}},{"type":"Feature","geometry":{"type":"Point","coordinates":[-89.21789,42.91695]},"properties":{"id":127110,"name":"Stoughton","state_code":"WI","country_code":"US"}},{"type":"Feature","geometry":{"type":"Point","coordinates":[-90.0793,44.80108]},"properties":{"id":127126,"name":"Stratford","state_code":"WI","country_code":"US"}},{"type":"Feature","geometry":{"type":"Point","coordinates":[-91.39266,44.54969]},"properties":{"id":127141,"name":"Strum","state_code":"WI","country_code":"US"}},{"type":"Feature","geometry":{"type":"Point","coordinates":[-87.37704,44.83416]},"properties":{"id":127149,"name":"Sturgeon Bay","state_code":"WI","country_code":"US"}},{"type":"Feature","geometry":{"type":"Point","coordinates":[-87.89452,42.69807]},"properties":{"id":127153,"name":"Sturtevant","state_code":"WI","country_code":"US"}},{"type":"Feature","geometry":{"type":"Point","coordinates":[-88.03927,44.63194]},"properties":{"id":127156,"name":"Suamico","state_code":"WI","country_code":"US"}},{"type":"Feature","geometry":{"type":"Point","coordinates":[-89.21373,43.1836]},"properties":{"id":127237,"name":"Sun Prairie","state_code":"WI","country_code":"US"}},{"type":"Feature","geometry":{"type":"Point","coordinates":[-92.10408,46.72077]},"properties":{"id":127279,"name":"Superior","state_code":"WI","country_code":"US"}},{"type":"Feature","geometry":{"type":"Point","coordinates":[-88.22204,43.1339]},"properties":{"id":127302,"name":"Sussex","state_code":"WI","country_code":"US"}},{"type":"Feature","geometry":{"type":"Point","coordinates":[-91.84767,44.98913]},"properties":{"id":127381,"name":"Tainter Lake","state_code":"WI","country_code":"US"}},{"type":"Feature","geometry":{"type":"Point","coordinates":[-88.45121,43.51722]},"properties":{"id":127569,"name":"Theresa","state_code":"WI","country_code":"US"}},{"type":"Feature","geometry":{"type":"Point","coordinates":[-87.9787,43.23751]},"properties":{"id":127576,"name":"Thiensville","state_code":"WI","country_code":"US"}},{"type":"Feature","geometry":{"type":"Point","coordinates":[-90.79986,44.96108]},"properties":{"id":127607,"name":"Thorp","state_code":"WI","country_code":"US"}},{"type":"Feature","geometry":{"type":"Point","coordinates":[-88.19759,42.8289]},"properties":{"id":127634,"name":"Tichigan","state_code":"WI","country_code":"US"}},{"type":"Feature","geometry":{"type":"Point","coordinates":[-90.50402,43.97858]},"properties":{"id":127708,"name":"Tomah","state_code":"WI","country_code":"US"}},{"type":"Feature","geometry":{"type":"Point","coordinates":[-89.72986,45.47108]},"properties":{"id":127709,"name":"Tomahawk","state_code":"WI","country_code":"US"}},{"type":"Feature","geometry":{"type":"Point","coordinates":[-91.44209,44.00552]},"properties":{"id":127798,"name":"Trempealeau","state_code":"WI","country_code":"US"}},{"type":"Feature","geometry":{"type":"Point","coordinates":[-92.14241,45.3944]},"properties":{"id":127908,"name":"Turtle Lake","state_code":"WI","country_code":"US"}},{"type":"Feature","geometry":{"type":"Point","coordinates":[-88.24815,42.53113]},"properties":{"id":127929,"name":"Twin Lakes","state_code":"WI","country_code":"US"}},{"type":"Feature","geometry":{"type":"Point","coordinates":[-87.56925,44.15388]},"properties":{"id":127936,"name":"Two Rivers","state_code":"WI","country_code":"US"}},{"type":"Feature","geometry":{"type":"Point","coordinates":[-88.05147,42.68807]},"properties":{"id":128005,"name":"Union Grove","state_code":"WI","country_code":"US"}},{"type":"Feature","geometry":{"type":"Point","coordinates":[-89.53318,42.99083]},"properties":{"id":128205,"name":"Verona","state_code":"WI","country_code":"US"}},{"type":"Feature","geometry":{"type":"Point","coordinates":[-90.88874,43.55692]},"properties":{"id":128292,"name":"Viroqua","state_code":"WI","country_code":"US"}},{"type":"Feature","geometry":{"type":"Point","coordinates":[-88.37676,43.00445]},"properties":{"id":128380,"name":"Wales","state_code":"WI","country_code":"US"}},{"type":"Feature","geometry":{"type":"Point","coordinates":[-88.59955,42.53113]},"properties":{"id":128440,"name":"Walworth","state_code":"WI","country_code":"US"}},{"type":"Feature","geometry":{"type":"Point","coordinates":[-90.89491,46.67327]},"properties":{"id":128534,"name":"Washburn","state_code":"WI","country_code":"US"}},{"type":"Feature","geometry":{"type":"Point","coordinates":[-88.21426,42.76307]},"properties":{"id":128608,"name":"Waterford","state_code":"WI","country_code":"US"}},{"type":"Feature","geometry":{"type":"Point","coordinates":[-88.98844,43.18388]},"properties":{"id":128616,"name":"Waterloo","state_code":"WI","country_code":"US"}},{"type":"Feature","geometry":{"type":"Point","coordinates":[-88.72899,43.19472]},"properties":{"id":128624,"name":"Watertown","state_code":"WI","country_code":"US"}},{"type":"Feature","geometry":{"type":"Point","coordinates":[-88.23148,43.01168]},"properties":{"id":128649,"name":"Waukesha","state_code":"WI","country_code":"US"}},{"type":"Feature","geometry":{"type":"Point","coordinates":[-89.45567,43.19194]},"properties":{"id":128654,"name":"Waunakee","state_code":"WI","country_code":"US"}},{"type":"Feature","geometry":{"type":"Point","coordinates":[-89.08595,44.35803]},"properties":{"id":128655,"name":"Waupaca","state_code":"WI","country_code":"US"}},{"type":"Feature","geometry":{"type":"Point","coordinates":[-88.72955,43.63332]},"properties":{"id":128657,"name":"Waupun","state_code":"WI","country_code":"US"}},{"type":"Feature","geometry":{"type":"Point","coordinates":[-89.63012,44.95914]},"properties":{"id":128660,"name":"Wausau","state_code":"WI","country_code":"US"}},{"type":"Feature","geometry":{"type":"Point","coordinates":[-89.2879,44.0747]},"properties":{"id":128662,"name":"Wautoma","state_code":"WI","country_code":"US"}},{"type":"Feature","geometry":{"type":"Point","coordinates":[-88.00759,43.04946]},"properties":{"id":128663,"name":"Wauwatosa","state_code":"WI","country_code":"US"}},{"type":"Feature","geometry":{"type":"Point","coordinates":[-88.00703,43.01668]},"properties":{"id":128817,"name":"West Allis","state_code":"WI","country_code":"US"}},{"type":"Feature","geometry":{"type":"Point","coordinates":[-89.7704,43.47443]},"properties":{"id":128820,"name":"West Baraboo","state_code":"WI","country_code":"US"}},{"type":"Feature","geometry":{"type":"Point","coordinates":[-88.18343,43.42528]},"properties":{"id":128825,"name":"West Bend","state_code":"WI","country_code":"US"}},{"type":"Feature","geometry":{"type":"Point","coordinates":[-87.97259,43.01251]},"properties":{"id":128933,"name":"West Milwaukee","state_code":"WI","country_code":"US"}},{"type":"Feature","geometry":{"type":"Point","coordinates":[-91.08125,43.89913]},"properties":{"id":128973,"name":"West Salem","state_code":"WI","country_code":"US"}},{"type":"Feature","geometry":{"type":"Point","coordinates":[-90.8543,43.65692]},"properties":{"id":129016,"name":"Westby","state_code":"WI","country_code":"US"}},{"type":"Feature","geometry":{"type":"Point","coordinates":[-89.49346,43.88359]},"properties":{"id":129032,"name":"Westfield","state_code":"WI","country_code":"US"}},{"type":"Feature","geometry":{"type":"Point","coordinates":[-89.54762,44.8908]},"properties":{"id":129063,"name":"Weston","state_code":"WI","country_code":"US"}},{"type":"Feature","geometry":{"type":"Point","coordinates":[-88.93372,44.32137]},"properties":{"id":129098,"name":"Weyauwega","state_code":"WI","country_code":"US"}},{"type":"Feature","geometry":{"type":"Point","coordinates":[-87.90009,43.11334]},"properties":{"id":129167,"name":"Whitefish Bay","state_code":"WI","country_code":"US"}},{"type":"Feature","geometry":{"type":"Point","coordinates":[-91.31655,44.36746]},"properties":{"id":129171,"name":"Whitehall","state_code":"WI","country_code":"US"}},{"type":"Feature","geometry":{"type":"Point","coordinates":[-88.73233,42.83362]},"properties":{"id":129191,"name":"Whitewater","state_code":"WI","country_code":"US"}},{"type":"Feature","geometry":{"type":"Point","coordinates":[-89.55873,44.49358]},"properties":{"id":129197,"name":"Whiting","state_code":"WI","country_code":"US"}},{"type":"Feature","geometry":{"type":"Point","coordinates":[-88.54093,42.57807]},"properties":{"id":129263,"name":"Williams Bay","state_code":"WI","country_code":"US"}},{"type":"Feature","geometry":{"type":"Point","coordinates":[-88.1587,42.82946]},"properties":{"id":129364,"name":"Wind Lake","state_code":"WI","country_code":"US"}},{"type":"Feature","geometry":{"type":"Point","coordinates":[-87.76619,42.78446]},"properties":{"id":129365,"name":"Wind Point","state_code":"WI","country_code":"US"}},{"type":"Feature","geometry":{"type":"Point","coordinates":[-89.34151,43.21833]},"properties":{"id":129385,"name":"Windsor","state_code":"WI","country_code":"US"}},{"type":"Feature","geometry":{"type":"Point","coordinates":[-88.71261,44.11082]},"properties":{"id":129410,"name":"Winneconne","state_code":"WI","country_code":"US"}},{"type":"Feature","geometry":{"type":"Point","coordinates":[-89.77096,43.62748]},"properties":{"id":129457,"name":"Wisconsin Dells","state_code":"WI","country_code":"US"}},{"type":"Feature","geometry":{"type":"Point","coordinates":[-89.81735,44.38358]},"properties":{"id":129458,"name":"Wisconsin Rapids","state_code":"WI","country_code":"US"}},{"type":"Feature","geometry":{"type":"Point","coordinates":[-89.16956,44.8272]},"properties":{"id":129464,"name":"Wittenberg","state_code":"WI","country_code":"US"}},{"type":"Feature","geometry":{"type":"Point","coordinates":[-92.2913,44.95302]},"properties":{"id":129573,"name":"Woodville","state_code":"WI","country_code":"US"}},{"type":"Feature","geometry":{"type":"Point","coordinates":[-88.16288,44.32582]},"properties":{"id":129612,"name":"Wrightstown","state_code":"WI","country_code":"US"}}]}