{"type":"FeatureCollection","features":[{"type":"Feature","geometry":{"type":"Point","coordinates":[-56.5073996,-33.74975963]},"properties":{"id":163003,"name":"Ahogados","state_code":"FS","country_code":"UY"}},{"type":"Feature","geometry":{"type":"Point","coordinates":[-57.13110099,-33.16753144]},"properties":{"id":162533,"name":"Andresito","state_code":"FS","country_code":"UY"}},{"type":"Feature","geometry":{"type":"Point","coordinates":[-57.12321085,-33.57466122]},"properties":{"id":163025,"name":"Arenal Chico","state_code":"FS","country_code":"UY"}},{"type":"Feature","geometry":{"type":"Point","coordinates":[-57.16395688,-33.47682667]},"properties":{"id":163021,"name":"Arenal Grande","state_code":"FS","country_code":"UY"}},{"type":"Feature","geometry":{"type":"Point","coordinates":[-56.92906311,-33.32351076]},"properties":{"id":162303,"name":"Arroyo Malo","state_code":"FS","country_code":"UY"}},{"type":"Feature","geometry":{"type":"Point","coordinates":[-56.99163778,-33.60302729]},"properties":{"id":163851,"name":"Cañada Amilivia","state_code":"FS","country_code":"UY"}},{"type":"Feature","geometry":{"type":"Point","coordinates":[-56.79900975,-33.72635175]},"properties":{"id":162449,"name":"Cerro Colorado","state_code":"FS","country_code":"UY"}},{"type":"Feature","geometry":{"type":"Point","coordinates":[-56.85000969,-33.50299537]},"properties":{"id":163007,"name":"Chacras","state_code":"FS","country_code":"UY"}},{"type":"Feature","geometry":{"type":"Point","coordinates":[-56.85479072,-33.53967444]},"properties":{"id":163008,"name":"Chacras de Borghi","state_code":"FS","country_code":"UY"}},{"type":"Feature","geometry":{"type":"Point","coordinates":[-57.02827954,-33.46231453]},"properties":{"id":163022,"name":"Colonia Alemana","state_code":"FS","country_code":"UY"}},{"type":"Feature","geometry":{"type":"Point","coordinates":[-56.87041504,-33.85275233]},"properties":{"id":163013,"name":"Costas de San Jose","state_code":"FS","country_code":"UY"}},{"type":"Feature","geometry":{"type":"Point","coordinates":[-56.9494455,-33.24080209]},"properties":{"id":163016,"name":"Costas del Tala","state_code":"FS","country_code":"UY"}},{"type":"Feature","geometry":{"type":"Point","coordinates":[-56.74008239,-33.44968683]},"properties":{"id":163006,"name":"Cuchilla de Villasboas","state_code":"FS","country_code":"UY"}},{"type":"Feature","geometry":{"type":"Point","coordinates":[-57.07827063,-33.25859414]},"properties":{"id":163017,"name":"El Coronilla","state_code":"FS","country_code":"UY"}},{"type":"Feature","geometry":{"type":"Point","coordinates":[-56.96799859,-33.43297463]},"properties":{"id":163020,"name":"El Totoral","state_code":"FS","country_code":"UY"}},{"type":"Feature","geometry":{"type":"Point","coordinates":[-56.60643363,-33.69911061]},"properties":{"id":163011,"name":"Ferrizo","state_code":"FS","country_code":"UY"}},{"type":"Feature","geometry":{"type":"Point","coordinates":[-57.0885713,-33.96131118]},"properties":{"id":162500,"name":"Ismael Cortinas","state_code":"FS","country_code":"UY"}},{"type":"Feature","geometry":{"type":"Point","coordinates":[-56.74311883,-33.49350912]},"properties":{"id":162537,"name":"Juan Jose Castro","state_code":"FS","country_code":"UY"}},{"type":"Feature","geometry":{"type":"Point","coordinates":[-56.96597365,-33.72402727]},"properties":{"id":163030,"name":"La Alianza","state_code":"FS","country_code":"UY"}},{"type":"Feature","geometry":{"type":"Point","coordinates":[-56.94713199,-33.67051581]},"properties":{"id":162230,"name":"La Casilla","state_code":"FS","country_code":"UY"}},{"type":"Feature","geometry":{"type":"Point","coordinates":[-56.63757351,-33.40679213]},"properties":{"id":163005,"name":"La Cordobesa","state_code":"FS","country_code":"UY"}},{"type":"Feature","geometry":{"type":"Point","coordinates":[-57.00318842,-33.75072014]},"properties":{"id":163029,"name":"La Guardia","state_code":"FS","country_code":"UY"}},{"type":"Feature","geometry":{"type":"Point","coordinates":[-57.15456644,-33.13635121]},"properties":{"id":163909,"name":"Los Puentes","state_code":"FS","country_code":"UY"}},{"type":"Feature","geometry":{"type":"Point","coordinates":[-57.13044648,-33.22563334]},"properties":{"id":163018,"name":"Marincho","state_code":"FS","country_code":"UY"}},{"type":"Feature","geometry":{"type":"Point","coordinates":[-57.25941945,-33.25065125]},"properties":{"id":163033,"name":"Paso  de Lugo","state_code":"FS","country_code":"UY"}},{"type":"Feature","geometry":{"type":"Point","coordinates":[-57.34899679,-33.38168263]},"properties":{"id":163034,"name":"Paso Hondo","state_code":"FS","country_code":"UY"}},{"type":"Feature","geometry":{"type":"Point","coordinates":[-56.83910866,-33.88623692]},"properties":{"id":163014,"name":"Pueblo Pintos","state_code":"FS","country_code":"UY"}},{"type":"Feature","geometry":{"type":"Point","coordinates":[-56.65275793,-33.7831988]},"properties":{"id":163010,"name":"Puntas de Chamanga","state_code":"FS","country_code":"UY"}},{"type":"Feature","geometry":{"type":"Point","coordinates":[-57.04768647,-33.52053702]},"properties":{"id":163023,"name":"Puntas de Marincho","state_code":"FS","country_code":"UY"}},{"type":"Feature","geometry":{"type":"Point","coordinates":[-56.90768936,-33.70064749]},"properties":{"id":163031,"name":"Puntas de San Jose","state_code":"FS","country_code":"UY"}},{"type":"Feature","geometry":{"type":"Point","coordinates":[-56.92691015,-33.60397577]},"properties":{"id":163026,"name":"Puntas de Sarandi","state_code":"FS","country_code":"UY"}},{"type":"Feature","geometry":{"type":"Point","coordinates":[-56.48174104,-33.86197804]},"properties":{"id":163004,"name":"Puntas del Corral de Piedra","state_code":"FS","country_code":"UY"}},{"type":"Feature","geometry":{"type":"Point","coordinates":[-57.02676795,-33.8192182]},"properties":{"id":163028,"name":"Puntas del Sauce","state_code":"FS","country_code":"UY"}},{"type":"Feature","geometry":{"type":"Point","coordinates":[-57.14605373,-33.27161584]},"properties":{"id":163019,"name":"Rincon del Palacio","state_code":"FS","country_code":"UY"}},{"type":"Feature","geometry":{"type":"Point","coordinates":[-56.75723412,-33.88137852]},"properties":{"id":163015,"name":"San Gregorio de Flores","state_code":"FS","country_code":"UY"}},{"type":"Feature","geometry":{"type":"Point","coordinates":[-57.15574604,-33.76535747]},"properties":{"id":163027,"name":"Santa Adelaida","state_code":"FS","country_code":"UY"}},{"type":"Feature","geometry":{"type":"Point","coordinates":[-56.93064809,-33.50969292]},"properties":{"id":163024,"name":"Sarandi","state_code":"FS","country_code":"UY"}},{"type":"Feature","geometry":{"type":"Point","coordinates":[-56.56472059,-33.74525844]},"properties":{"id":163012,"name":"Talas de Maciel","state_code":"FS","country_code":"UY"}},{"type":"Feature","geometry":{"type":"Point","coordinates":[-56.89957,-33.5165]},"properties":{"id":129884,"name":"Trinidad","state_code":"FS","country_code":"UY"}},{"type":"Feature","geometry":{"type":"Point","coordinates":[-57.03712507,-33.92682088]},"properties":{"id":163032,"name":"Villa Pastora","state_code":"FS","country_code":"UY"}},{"type":"Feature","geometry":{"type":"Point","coordinates":[-56.724134,-33.64363868]},"properties":{"id":163009,"name":"Villasboas","state_code":"FS","country_code":"UY"}}]}