{"type":"FeatureCollection","features":[{"type":"Feature","geometry":{"type":"Point","coordinates":[-58.03110363,-32.35913716]},"properties":{"id":163804,"name":"Al Sur de Arroyo Sacra","state_code":"PA","country_code":"UY"}},{"type":"Feature","geometry":{"type":"Point","coordinates":[-57.74368267,-31.99662602]},"properties":{"id":162471,"name":"Araujo","state_code":"PA","country_code":"UY"}},{"type":"Feature","geometry":{"type":"Point","coordinates":[-56.48083994,-32.22642108]},"properties":{"id":162312,"name":"Arbolito (Totoral)","state_code":"PA","country_code":"UY"}},{"type":"Feature","geometry":{"type":"Point","coordinates":[-58.00179666,-31.95209341]},"properties":{"id":163310,"name":"Arroyo Malo","state_code":"PA","country_code":"UY"}},{"type":"Feature","geometry":{"type":"Point","coordinates":[-57.5577667,-32.4767017]},"properties":{"id":163292,"name":"Arroyo Negro","state_code":"PA","country_code":"UY"}},{"type":"Feature","geometry":{"type":"Point","coordinates":[-57.05401718,-32.31750263]},"properties":{"id":162458,"name":"Beisso","state_code":"PA","country_code":"UY"}},{"type":"Feature","geometry":{"type":"Point","coordinates":[-57.72335809,-31.66370046]},"properties":{"id":162253,"name":"Bella Vista","state_code":"PA","country_code":"UY"}},{"type":"Feature","geometry":{"type":"Point","coordinates":[-57.18195327,-31.9475637]},"properties":{"id":162587,"name":"Cañada del Pueblo","state_code":"PA","country_code":"UY"}},{"type":"Feature","geometry":{"type":"Point","coordinates":[-58.03253481,-32.38558995]},"properties":{"id":163808,"name":"Cangue","state_code":"PA","country_code":"UY"}},{"type":"Feature","geometry":{"type":"Point","coordinates":[-57.60549243,-31.7450352]},"properties":{"id":163301,"name":"Carumbe","state_code":"PA","country_code":"UY"}},{"type":"Feature","geometry":{"type":"Point","coordinates":[-58.15758522,-32.39785187]},"properties":{"id":162207,"name":"Casa Blanca","state_code":"PA","country_code":"UY"}},{"type":"Feature","geometry":{"type":"Point","coordinates":[-57.53837961,-31.85813213]},"properties":{"id":162626,"name":"Cerro Chato","state_code":"PA","country_code":"UY"}},{"type":"Feature","geometry":{"type":"Point","coordinates":[-58.00147205,-32.35244193]},"properties":{"id":162257,"name":"Chacras de Paysandu","state_code":"PA","country_code":"UY"}},{"type":"Feature","geometry":{"type":"Point","coordinates":[-57.99182431,-32.34920187]},"properties":{"id":163798,"name":"Chacras de Paysandu Norte","state_code":"PA","country_code":"UY"}},{"type":"Feature","geometry":{"type":"Point","coordinates":[-58.01363839,-32.37588632]},"properties":{"id":163797,"name":"Chacras de Paysandu Sur","state_code":"PA","country_code":"UY"}},{"type":"Feature","geometry":{"type":"Point","coordinates":[-57.88853565,-31.66081508]},"properties":{"id":162596,"name":"Chapicuy","state_code":"PA","country_code":"UY"}},{"type":"Feature","geometry":{"type":"Point","coordinates":[-58.10032443,-31.9291419]},"properties":{"id":163311,"name":"Colonia Arroyo Malo","state_code":"PA","country_code":"UY"}},{"type":"Feature","geometry":{"type":"Point","coordinates":[-58.02812661,-32.42526101]},"properties":{"id":163317,"name":"Colonia Cangue","state_code":"PA","country_code":"UY"}},{"type":"Feature","geometry":{"type":"Point","coordinates":[-57.22136718,-32.36163119]},"properties":{"id":163275,"name":"Colonia Juncal","state_code":"PA","country_code":"UY"}},{"type":"Feature","geometry":{"type":"Point","coordinates":[-58.09730638,-32.07799089]},"properties":{"id":163891,"name":"Colonia las Delicias","state_code":"PA","country_code":"UY"}},{"type":"Feature","geometry":{"type":"Point","coordinates":[-58.13646152,-32.42277012]},"properties":{"id":163316,"name":"Colonia Paysandu","state_code":"PA","country_code":"UY"}},{"type":"Feature","geometry":{"type":"Point","coordinates":[-57.79354371,-31.75597105]},"properties":{"id":163299,"name":"Colonia Santa Blanca","state_code":"PA","country_code":"UY"}},{"type":"Feature","geometry":{"type":"Point","coordinates":[-57.26510926,-32.17833469]},"properties":{"id":163286,"name":"Colonia Uruguaya","state_code":"PA","country_code":"UY"}},{"type":"Feature","geometry":{"type":"Point","coordinates":[-58.00563259,-32.20635001]},"properties":{"id":162627,"name":"Constancia","state_code":"PA","country_code":"UY"}},{"type":"Feature","geometry":{"type":"Point","coordinates":[-58.02936474,-32.35839904]},"properties":{"id":163314,"name":"Costa de Sacra","state_code":"PA","country_code":"UY"}},{"type":"Feature","geometry":{"type":"Point","coordinates":[-57.53877758,-31.99778356]},"properties":{"id":162213,"name":"Cuchilla de Buricayupi","state_code":"PA","country_code":"UY"}},{"type":"Feature","geometry":{"type":"Point","coordinates":[-56.91441333,-32.0897548]},"properties":{"id":162243,"name":"Cuchilla de Fuego","state_code":"PA","country_code":"UY"}},{"type":"Feature","geometry":{"type":"Point","coordinates":[-57.49943867,-31.8335526]},"properties":{"id":163889,"name":"Cuchilla San Jose","state_code":"PA","country_code":"UY"}},{"type":"Feature","geometry":{"type":"Point","coordinates":[-57.50707229,-31.96395242]},"properties":{"id":163281,"name":"El Chaco","state_code":"PA","country_code":"UY"}},{"type":"Feature","geometry":{"type":"Point","coordinates":[-57.52885659,-32.37369018]},"properties":{"id":163289,"name":"El Duraznal","state_code":"PA","country_code":"UY"}},{"type":"Feature","geometry":{"type":"Point","coordinates":[-57.26123825,-31.90401086]},"properties":{"id":162580,"name":"El Eucaliptus","state_code":"PA","country_code":"UY"}},{"type":"Feature","geometry":{"type":"Point","coordinates":[-57.48352404,-31.98575901]},"properties":{"id":163282,"name":"El Horno","state_code":"PA","country_code":"UY"}},{"type":"Feature","geometry":{"type":"Point","coordinates":[-57.25662921,-31.98016061]},"properties":{"id":163284,"name":"El Tarugo","state_code":"PA","country_code":"UY"}},{"type":"Feature","geometry":{"type":"Point","coordinates":[-57.85371,-32.37085]},"properties":{"id":129803,"name":"Estación Porvenir","state_code":"PA","country_code":"UY"}},{"type":"Feature","geometry":{"type":"Point","coordinates":[-57.70403163,-32.36113939]},"properties":{"id":163308,"name":"Etchemendi","state_code":"PA","country_code":"UY"}},{"type":"Feature","geometry":{"type":"Point","coordinates":[-57.47858648,-31.8840104]},"properties":{"id":162517,"name":"Gallinal","state_code":"PA","country_code":"UY"}},{"type":"Feature","geometry":{"type":"Point","coordinates":[-57.32759755,-31.93351982]},"properties":{"id":163279,"name":"Gualeguay","state_code":"PA","country_code":"UY"}},{"type":"Feature","geometry":{"type":"Point","coordinates":[-57.95784194,-31.91516707]},"properties":{"id":163303,"name":"Guaviyu de Quebracho","state_code":"PA","country_code":"UY"}},{"type":"Feature","geometry":{"type":"Point","coordinates":[-57.31860123,-32.27837332]},"properties":{"id":163287,"name":"Guayabos","state_code":"PA","country_code":"UY"}},{"type":"Feature","geometry":{"type":"Point","coordinates":[-57.19778,-32.35846]},"properties":{"id":129807,"name":"Guichón","state_code":"PA","country_code":"UY"}},{"type":"Feature","geometry":{"type":"Point","coordinates":[-58.04378108,-32.36965651]},"properties":{"id":163802,"name":"La Lata Ruta 3 (Km. 375)","state_code":"PA","country_code":"UY"}},{"type":"Feature","geometry":{"type":"Point","coordinates":[-57.92096051,-32.55191599]},"properties":{"id":163805,"name":"La Paz (Ruta 3 Km. 346)","state_code":"PA","country_code":"UY"}},{"type":"Feature","geometry":{"type":"Point","coordinates":[-57.74503882,-32.48829087]},"properties":{"id":162244,"name":"La Tentacion","state_code":"PA","country_code":"UY"}},{"type":"Feature","geometry":{"type":"Point","coordinates":[-57.56511417,-32.39643428]},"properties":{"id":163291,"name":"Las Flores","state_code":"PA","country_code":"UY"}},{"type":"Feature","geometry":{"type":"Point","coordinates":[-58.00899146,-32.34090266]},"properties":{"id":163313,"name":"Las Palmas","state_code":"PA","country_code":"UY"}},{"type":"Feature","geometry":{"type":"Point","coordinates":[-57.91892901,-32.07851957]},"properties":{"id":162203,"name":"Lorenzo Geyres","state_code":"PA","country_code":"UY"}},{"type":"Feature","geometry":{"type":"Point","coordinates":[-56.90863781,-32.38435672]},"properties":{"id":162570,"name":"Merinos","state_code":"PA","country_code":"UY"}},{"type":"Feature","geometry":{"type":"Point","coordinates":[-57.17209051,-32.07870817]},"properties":{"id":163890,"name":"Molles Grande","state_code":"PA","country_code":"UY"}},{"type":"Feature","geometry":{"type":"Point","coordinates":[-56.70151154,-32.37801235]},"properties":{"id":162597,"name":"Morato (Tres Arboles)","state_code":"PA","country_code":"UY"}},{"type":"Feature","geometry":{"type":"Point","coordinates":[-58.0147231,-32.33990093]},"properties":{"id":162210,"name":"Nuevo Paysandu","state_code":"PA","country_code":"UY"}},{"type":"Feature","geometry":{"type":"Point","coordinates":[-57.51719737,-32.38194321]},"properties":{"id":162624,"name":"Orgoroso","state_code":"PA","country_code":"UY"}},{"type":"Feature","geometry":{"type":"Point","coordinates":[-57.73538668,-31.89824673]},"properties":{"id":163302,"name":"Palmar del Quebracho","state_code":"PA","country_code":"UY"}},{"type":"Feature","geometry":{"type":"Point","coordinates":[-57.9074066,-31.52554996]},"properties":{"id":163296,"name":"Parada Dayman","state_code":"PA","country_code":"UY"}},{"type":"Feature","geometry":{"type":"Point","coordinates":[-57.46038651,-32.38932928]},"properties":{"id":163288,"name":"Parada Pandule","state_code":"PA","country_code":"UY"}},{"type":"Feature","geometry":{"type":"Point","coordinates":[-57.89019393,-31.82575957]},"properties":{"id":163298,"name":"Parada Rivas","state_code":"PA","country_code":"UY"}},{"type":"Feature","geometry":{"type":"Point","coordinates":[-57.43580743,-31.98989905]},"properties":{"id":163283,"name":"Paso de los Carros","state_code":"PA","country_code":"UY"}},{"type":"Feature","geometry":{"type":"Point","coordinates":[-58.08072,-32.3171]},"properties":{"id":129844,"name":"Paysandú","state_code":"PA","country_code":"UY"}},{"type":"Feature","geometry":{"type":"Point","coordinates":[-57.37388285,-31.69782113]},"properties":{"id":163276,"name":"Perico Moreno","state_code":"PA","country_code":"UY"}},{"type":"Feature","geometry":{"type":"Point","coordinates":[-56.31002074,-32.08200049]},"properties":{"id":162441,"name":"Piedra Sola","state_code":"PA","country_code":"UY"}},{"type":"Feature","geometry":{"type":"Point","coordinates":[-57.60901,-32.37183]},"properties":{"id":129845,"name":"Piedras Coloradas","state_code":"PA","country_code":"UY"}},{"type":"Feature","geometry":{"type":"Point","coordinates":[-57.04739933,-32.32873486]},"properties":{"id":162285,"name":"Piñera","state_code":"PA","country_code":"UY"}},{"type":"Feature","geometry":{"type":"Point","coordinates":[-57.96957392,-32.39369736]},"properties":{"id":162623,"name":"Porvenir","state_code":"PA","country_code":"UY"}},{"type":"Feature","geometry":{"type":"Point","coordinates":[-56.72839657,-32.39576745]},"properties":{"id":162468,"name":"Pueblo Alonzo","state_code":"PA","country_code":"UY"}},{"type":"Feature","geometry":{"type":"Point","coordinates":[-57.95451945,-32.35033235]},"properties":{"id":162451,"name":"Pueblo Esperanza","state_code":"PA","country_code":"UY"}},{"type":"Feature","geometry":{"type":"Point","coordinates":[-57.32015831,-32.04168065]},"properties":{"id":162212,"name":"Pueblo Federacion","state_code":"PA","country_code":"UY"}},{"type":"Feature","geometry":{"type":"Point","coordinates":[-57.55993098,-32.47741536]},"properties":{"id":162338,"name":"Puntas de Arroyo Negro","state_code":"PA","country_code":"UY"}},{"type":"Feature","geometry":{"type":"Point","coordinates":[-57.51797167,-32.3681977]},"properties":{"id":163290,"name":"Puntas de Bacacua","state_code":"PA","country_code":"UY"}},{"type":"Feature","geometry":{"type":"Point","coordinates":[-57.33761396,-31.86775297]},"properties":{"id":163278,"name":"Puntas de Buricayupi","state_code":"PA","country_code":"UY"}},{"type":"Feature","geometry":{"type":"Point","coordinates":[-58.00857487,-32.39633341]},"properties":{"id":163312,"name":"Puntas de Cangue","state_code":"PA","country_code":"UY"}},{"type":"Feature","geometry":{"type":"Point","coordinates":[-57.79898214,-32.33323461]},"properties":{"id":163307,"name":"Puntas de las Isletas","state_code":"PA","country_code":"UY"}},{"type":"Feature","geometry":{"type":"Point","coordinates":[-57.9014,-31.93526]},"properties":{"id":129850,"name":"Quebracho","state_code":"PA","country_code":"UY"}},{"type":"Feature","geometry":{"type":"Point","coordinates":[-57.42123997,-32.14714053]},"properties":{"id":163285,"name":"Queguay Grande","state_code":"PA","country_code":"UY"}},{"type":"Feature","geometry":{"type":"Point","coordinates":[-57.84917343,-32.03219936]},"properties":{"id":162246,"name":"Queguayar","state_code":"PA","country_code":"UY"}},{"type":"Feature","geometry":{"type":"Point","coordinates":[-57.9679352,-32.52881651]},"properties":{"id":163319,"name":"Rabon","state_code":"PA","country_code":"UY"}},{"type":"Feature","geometry":{"type":"Point","coordinates":[-58.10094,-32.34631]},"properties":{"id":129861,"name":"San Félix","state_code":"PA","country_code":"UY"}},{"type":"Feature","geometry":{"type":"Point","coordinates":[-57.99520894,-32.30917604]},"properties":{"id":163315,"name":"San Francisco","state_code":"PA","country_code":"UY"}},{"type":"Feature","geometry":{"type":"Point","coordinates":[-57.80870481,-31.54300079]},"properties":{"id":163294,"name":"San Mauricio","state_code":"PA","country_code":"UY"}},{"type":"Feature","geometry":{"type":"Point","coordinates":[-57.98068609,-32.4377052]},"properties":{"id":163318,"name":"San Miguel","state_code":"PA","country_code":"UY"}},{"type":"Feature","geometry":{"type":"Point","coordinates":[-57.74453454,-31.8349303]},"properties":{"id":163300,"name":"Santa Kilda","state_code":"PA","country_code":"UY"}},{"type":"Feature","geometry":{"type":"Point","coordinates":[-57.64252241,-32.1264167]},"properties":{"id":163305,"name":"Sauce de Abajo","state_code":"PA","country_code":"UY"}},{"type":"Feature","geometry":{"type":"Point","coordinates":[-57.53869591,-31.99751313]},"properties":{"id":163280,"name":"Sauce del Buricayupi","state_code":"PA","country_code":"UY"}},{"type":"Feature","geometry":{"type":"Point","coordinates":[-57.61065419,-32.09475878]},"properties":{"id":163304,"name":"Sauce del Queguay","state_code":"PA","country_code":"UY"}},{"type":"Feature","geometry":{"type":"Point","coordinates":[-57.5546722,-31.97529685]},"properties":{"id":162625,"name":"Soto","state_code":"PA","country_code":"UY"}},{"type":"Feature","geometry":{"type":"Point","coordinates":[-56.24362443,-31.87790712]},"properties":{"id":162621,"name":"Tambores","state_code":"PA","country_code":"UY"}},{"type":"Feature","geometry":{"type":"Point","coordinates":[-57.27003986,-32.35825025]},"properties":{"id":162254,"name":"Termas de Almiron","state_code":"PA","country_code":"UY"}},{"type":"Feature","geometry":{"type":"Point","coordinates":[-57.8902747,-31.83962539]},"properties":{"id":162629,"name":"Termas de Guaviyu","state_code":"PA","country_code":"UY"}},{"type":"Feature","geometry":{"type":"Point","coordinates":[-57.68837145,-31.63455221]},"properties":{"id":163293,"name":"Tomas Paz","state_code":"PA","country_code":"UY"}},{"type":"Feature","geometry":{"type":"Point","coordinates":[-57.44498336,-31.85332252]},"properties":{"id":163277,"name":"Tres Bocas","state_code":"PA","country_code":"UY"}},{"type":"Feature","geometry":{"type":"Point","coordinates":[-57.80329775,-32.46524853]},"properties":{"id":163309,"name":"Valdez","state_code":"PA","country_code":"UY"}},{"type":"Feature","geometry":{"type":"Point","coordinates":[-56.54481331,-32.34535991]},"properties":{"id":162631,"name":"Villa Maria (Tiatucura)","state_code":"PA","country_code":"UY"}},{"type":"Feature","geometry":{"type":"Point","coordinates":[-57.41976135,-32.04881529]},"properties":{"id":162628,"name":"Zeballos","state_code":"PA","country_code":"UY"}}]}