{"type":"FeatureCollection","features":[{"type":"Feature","geometry":{"type":"Point","coordinates":[-56.4461929,-34.44187256]},"properties":{"id":162141,"name":"18 de Julio - Pueblo Nuevo","state_code":"SJ","country_code":"UY"}},{"type":"Feature","geometry":{"type":"Point","coordinates":[-56.44647039,-34.29995465]},"properties":{"id":163037,"name":"Arroyo de la Virgen","state_code":"SJ","country_code":"UY"}},{"type":"Feature","geometry":{"type":"Point","coordinates":[-56.76802884,-34.36593235]},"properties":{"id":163057,"name":"Arroyo Llano","state_code":"SJ","country_code":"UY"}},{"type":"Feature","geometry":{"type":"Point","coordinates":[-56.41326281,-34.76022167]},"properties":{"id":163950,"name":"Autodromo","state_code":"SJ","country_code":"UY"}},{"type":"Feature","geometry":{"type":"Point","coordinates":[-56.41748016,-34.75838525]},"properties":{"id":163800,"name":"Autodromo Nacional","state_code":"SJ","country_code":"UY"}},{"type":"Feature","geometry":{"type":"Point","coordinates":[-56.70331707,-34.38382019]},"properties":{"id":163845,"name":"Bañado","state_code":"SJ","country_code":"UY"}},{"type":"Feature","geometry":{"type":"Point","coordinates":[-56.96399787,-34.30875375]},"properties":{"id":163091,"name":"Bella Vista","state_code":"SJ","country_code":"UY"}},{"type":"Feature","geometry":{"type":"Point","coordinates":[-57.14746068,-34.44375611]},"properties":{"id":162682,"name":"Boca del Cufre","state_code":"SJ","country_code":"UY"}},{"type":"Feature","geometry":{"type":"Point","coordinates":[-56.5503757,-34.46427609]},"properties":{"id":163072,"name":"Cagancha","state_code":"SJ","country_code":"UY"}},{"type":"Feature","geometry":{"type":"Point","coordinates":[-56.58188279,-34.27991995]},"properties":{"id":163064,"name":"Cagancha Chico","state_code":"SJ","country_code":"UY"}},{"type":"Feature","geometry":{"type":"Point","coordinates":[-56.75068536,-34.46763128]},"properties":{"id":162221,"name":"Cañada Grande","state_code":"SJ","country_code":"UY"}},{"type":"Feature","geometry":{"type":"Point","coordinates":[-56.46433465,-34.42990625]},"properties":{"id":162411,"name":"Capurro","state_code":"SJ","country_code":"UY"}},{"type":"Feature","geometry":{"type":"Point","coordinates":[-56.55448052,-34.17187802]},"properties":{"id":162633,"name":"Carreta Quemada","state_code":"SJ","country_code":"UY"}},{"type":"Feature","geometry":{"type":"Point","coordinates":[-56.49683166,-34.70751467]},"properties":{"id":162339,"name":"Ceramicas del Sur","state_code":"SJ","country_code":"UY"}},{"type":"Feature","geometry":{"type":"Point","coordinates":[-56.68973151,-34.16693319]},"properties":{"id":163048,"name":"Chamizo","state_code":"SJ","country_code":"UY"}},{"type":"Feature","geometry":{"type":"Point","coordinates":[-56.41276362,-34.75363792]},"properties":{"id":163806,"name":"Ciudad del Plata","state_code":"SJ","country_code":"UY"}},{"type":"Feature","geometry":{"type":"Point","coordinates":[-56.65667174,-34.61474393]},"properties":{"id":162218,"name":"Cololo Tinosa","state_code":"SJ","country_code":"UY"}},{"type":"Feature","geometry":{"type":"Point","coordinates":[-56.96575013,-34.20738115]},"properties":{"id":163089,"name":"Colonia America","state_code":"SJ","country_code":"UY"}},{"type":"Feature","geometry":{"type":"Point","coordinates":[-57.02072538,-34.43941876]},"properties":{"id":162647,"name":"Colonia Delta","state_code":"SJ","country_code":"UY"}},{"type":"Feature","geometry":{"type":"Point","coordinates":[-56.43383573,-34.43544149]},"properties":{"id":162705,"name":"Colonia Dr. Bernardo Etchepare","state_code":"SJ","country_code":"UY"}},{"type":"Feature","geometry":{"type":"Point","coordinates":[-56.92962364,-34.489442]},"properties":{"id":163904,"name":"Colonia Fernandez Crespo","state_code":"SJ","country_code":"UY"}},{"type":"Feature","geometry":{"type":"Point","coordinates":[-56.64156825,-34.62202411]},"properties":{"id":162957,"name":"Colonia Italia","state_code":"SJ","country_code":"UY"}},{"type":"Feature","geometry":{"type":"Point","coordinates":[-56.76740608,-34.6518294]},"properties":{"id":163080,"name":"Colonia Juan Maria Perez","state_code":"SJ","country_code":"UY"}},{"type":"Feature","geometry":{"type":"Point","coordinates":[-56.89185527,-34.48261066]},"properties":{"id":163096,"name":"Colonia San Joaquin","state_code":"SJ","country_code":"UY"}},{"type":"Feature","geometry":{"type":"Point","coordinates":[-56.52133399,-34.71649988]},"properties":{"id":163042,"name":"Colonia Wilson","state_code":"SJ","country_code":"UY"}},{"type":"Feature","geometry":{"type":"Point","coordinates":[-56.84151966,-34.14047112]},"properties":{"id":163051,"name":"Coronilla","state_code":"SJ","country_code":"UY"}},{"type":"Feature","geometry":{"type":"Point","coordinates":[-56.67222056,-34.68474867]},"properties":{"id":163081,"name":"Costa del Mauricio","state_code":"SJ","country_code":"UY"}},{"type":"Feature","geometry":{"type":"Point","coordinates":[-56.89948516,-34.46020311]},"properties":{"id":162643,"name":"Costas de Pereira - Rapetti","state_code":"SJ","country_code":"UY"}},{"type":"Feature","geometry":{"type":"Point","coordinates":[-56.87867695,-34.16285674]},"properties":{"id":163050,"name":"Costas del Sauce","state_code":"SJ","country_code":"UY"}},{"type":"Feature","geometry":{"type":"Point","coordinates":[-56.70010945,-34.26045577]},"properties":{"id":163061,"name":"Cruz de los Caminos","state_code":"SJ","country_code":"UY"}},{"type":"Feature","geometry":{"type":"Point","coordinates":[-56.86716229,-34.35492783]},"properties":{"id":163903,"name":"Cuchilla de Pereira","state_code":"SJ","country_code":"UY"}},{"type":"Feature","geometry":{"type":"Point","coordinates":[-56.50630566,-34.41591883]},"properties":{"id":163039,"name":"Cuchilla del Vichadero","state_code":"SJ","country_code":"UY"}},{"type":"Feature","geometry":{"type":"Point","coordinates":[-56.47523642,-34.16346042]},"properties":{"id":163036,"name":"Cuchilla Seca","state_code":"SJ","country_code":"UY"}},{"type":"Feature","geometry":{"type":"Point","coordinates":[-56.3645,-34.76488]},"properties":{"id":129797,"name":"Delta del Tigre","state_code":"SJ","country_code":"UY"}},{"type":"Feature","geometry":{"type":"Point","coordinates":[-57.04883,-34.35778]},"properties":{"id":129801,"name":"Ecilda Paullier","state_code":"SJ","country_code":"UY"}},{"type":"Feature","geometry":{"type":"Point","coordinates":[-56.97960469,-34.25720626]},"properties":{"id":163090,"name":"Escudero","state_code":"SJ","country_code":"UY"}},{"type":"Feature","geometry":{"type":"Point","coordinates":[-56.5378808,-34.38111002]},"properties":{"id":162174,"name":"Estacion Rodriguez","state_code":"SJ","country_code":"UY"}},{"type":"Feature","geometry":{"type":"Point","coordinates":[-56.55503794,-34.17484469]},"properties":{"id":163047,"name":"Fajardo","state_code":"SJ","country_code":"UY"}},{"type":"Feature","geometry":{"type":"Point","coordinates":[-56.80889552,-34.19111617]},"properties":{"id":163053,"name":"Fajina","state_code":"SJ","country_code":"UY"}},{"type":"Feature","geometry":{"type":"Point","coordinates":[-56.87600409,-34.2316852]},"properties":{"id":162511,"name":"Gonzalez","state_code":"SJ","country_code":"UY"}},{"type":"Feature","geometry":{"type":"Point","coordinates":[-57.03602339,-34.05934182]},"properties":{"id":163086,"name":"Guaycuru","state_code":"SJ","country_code":"UY"}},{"type":"Feature","geometry":{"type":"Point","coordinates":[-56.42404785,-34.42036807]},"properties":{"id":162681,"name":"Ituzaingo","state_code":"SJ","country_code":"UY"}},{"type":"Feature","geometry":{"type":"Point","coordinates":[-56.79952719,-34.25098812]},"properties":{"id":163059,"name":"Jesus Maria","state_code":"SJ","country_code":"UY"}},{"type":"Feature","geometry":{"type":"Point","coordinates":[-56.80553091,-34.32234484]},"properties":{"id":162377,"name":"Juan Soler","state_code":"SJ","country_code":"UY"}},{"type":"Feature","geometry":{"type":"Point","coordinates":[-56.80252899,-34.41652752]},"properties":{"id":163071,"name":"Juncal","state_code":"SJ","country_code":"UY"}},{"type":"Feature","geometry":{"type":"Point","coordinates":[-56.73201328,-34.6991894]},"properties":{"id":162190,"name":"Kiyu - Ordeig","state_code":"SJ","country_code":"UY"}},{"type":"Feature","geometry":{"type":"Point","coordinates":[-56.98741432,-34.40801748]},"properties":{"id":162220,"name":"La Boyada","state_code":"SJ","country_code":"UY"}},{"type":"Feature","geometry":{"type":"Point","coordinates":[-56.84486553,-34.27646866]},"properties":{"id":163054,"name":"La Casilla","state_code":"SJ","country_code":"UY"}},{"type":"Feature","geometry":{"type":"Point","coordinates":[-56.53292089,-34.36401774]},"properties":{"id":163067,"name":"La Cuchilla","state_code":"SJ","country_code":"UY"}},{"type":"Feature","geometry":{"type":"Point","coordinates":[-56.84020868,-34.31186756]},"properties":{"id":163055,"name":"Laurel","state_code":"SJ","country_code":"UY"}},{"type":"Feature","geometry":{"type":"Point","coordinates":[-56.61739,-34.63459]},"properties":{"id":129823,"name":"Libertad","state_code":"SJ","country_code":"UY"}},{"type":"Feature","geometry":{"type":"Point","coordinates":[-56.88409453,-34.0603696]},"properties":{"id":163087,"name":"Mahoma","state_code":"SJ","country_code":"UY"}},{"type":"Feature","geometry":{"type":"Point","coordinates":[-56.95201418,-34.14810034]},"properties":{"id":162504,"name":"Mal Abrigo","state_code":"SJ","country_code":"UY"}},{"type":"Feature","geometry":{"type":"Point","coordinates":[-56.83908468,-34.5838506]},"properties":{"id":162482,"name":"Mangrullo","state_code":"SJ","country_code":"UY"}},{"type":"Feature","geometry":{"type":"Point","coordinates":[-56.41304592,-34.74089901]},"properties":{"id":162684,"name":"Monte Grande","state_code":"SJ","country_code":"UY"}},{"type":"Feature","geometry":{"type":"Point","coordinates":[-56.56323125,-34.149604]},"properties":{"id":163045,"name":"Mundo Azul","state_code":"SJ","country_code":"UY"}},{"type":"Feature","geometry":{"type":"Point","coordinates":[-56.61824564,-34.13063752]},"properties":{"id":163046,"name":"Mundo Azul Aguirre","state_code":"SJ","country_code":"UY"}},{"type":"Feature","geometry":{"type":"Point","coordinates":[-56.58416682,-34.66296058]},"properties":{"id":163083,"name":"Orillas del Plata","state_code":"SJ","country_code":"UY"}},{"type":"Feature","geometry":{"type":"Point","coordinates":[-56.77001899,-34.28694185]},"properties":{"id":163058,"name":"Pachina","state_code":"SJ","country_code":"UY"}},{"type":"Feature","geometry":{"type":"Point","coordinates":[-56.76726698,-34.22811985]},"properties":{"id":163060,"name":"Panta","state_code":"SJ","country_code":"UY"}},{"type":"Feature","geometry":{"type":"Point","coordinates":[-57.04860645,-34.21971107]},"properties":{"id":163088,"name":"Pantanoso","state_code":"SJ","country_code":"UY"}},{"type":"Feature","geometry":{"type":"Point","coordinates":[-56.39299022,-34.75958313]},"properties":{"id":162709,"name":"Parque Postel","state_code":"SJ","country_code":"UY"}},{"type":"Feature","geometry":{"type":"Point","coordinates":[-56.3974025,-34.7582801]},"properties":{"id":162366,"name":"Parque Postel Cnel. Adrian Medina","state_code":"SJ","country_code":"UY"}},{"type":"Feature","geometry":{"type":"Point","coordinates":[-56.44938116,-34.5366135]},"properties":{"id":163041,"name":"Paso Belastiqui","state_code":"SJ","country_code":"UY"}},{"type":"Feature","geometry":{"type":"Point","coordinates":[-56.53718148,-34.2069645]},"properties":{"id":163062,"name":"Paso de Cames","state_code":"SJ","country_code":"UY"}},{"type":"Feature","geometry":{"type":"Point","coordinates":[-56.96305423,-34.43996232]},"properties":{"id":163097,"name":"Paso de las Piedras","state_code":"SJ","country_code":"UY"}},{"type":"Feature","geometry":{"type":"Point","coordinates":[-56.45693183,-34.04840781]},"properties":{"id":163035,"name":"Paso de Mas","state_code":"SJ","country_code":"UY"}},{"type":"Feature","geometry":{"type":"Point","coordinates":[-56.82519044,-34.36447694]},"properties":{"id":163056,"name":"Paso del Carreton","state_code":"SJ","country_code":"UY"}},{"type":"Feature","geometry":{"type":"Point","coordinates":[-56.98255789,-33.98573186]},"properties":{"id":163085,"name":"Paso del Guaycuru","state_code":"SJ","country_code":"UY"}},{"type":"Feature","geometry":{"type":"Point","coordinates":[-56.75953187,-34.16283176]},"properties":{"id":163049,"name":"Paso del Rey","state_code":"SJ","country_code":"UY"}},{"type":"Feature","geometry":{"type":"Point","coordinates":[-56.90730772,-34.31228111]},"properties":{"id":163092,"name":"Pavon","state_code":"SJ","country_code":"UY"}},{"type":"Feature","geometry":{"type":"Point","coordinates":[-56.42456207,-34.75477725]},"properties":{"id":162380,"name":"Penino","state_code":"SJ","country_code":"UY"}},{"type":"Feature","geometry":{"type":"Point","coordinates":[-56.61883979,-34.28288472]},"properties":{"id":163066,"name":"Perico Perez","state_code":"SJ","country_code":"UY"}},{"type":"Feature","geometry":{"type":"Point","coordinates":[-57.07542814,-34.3964236]},"properties":{"id":163093,"name":"Picada Gambetta","state_code":"SJ","country_code":"UY"}},{"type":"Feature","geometry":{"type":"Point","coordinates":[-56.45396097,-34.74226798]},"properties":{"id":162201,"name":"Playa Pascual","state_code":"SJ","country_code":"UY"}},{"type":"Feature","geometry":{"type":"Point","coordinates":[-56.4424705,-34.44316077]},"properties":{"id":163956,"name":"Pueblo Nuevo","state_code":"SJ","country_code":"UY"}},{"type":"Feature","geometry":{"type":"Point","coordinates":[-56.51410456,-34.30113237]},"properties":{"id":163038,"name":"Puntas de Cagancha","state_code":"SJ","country_code":"UY"}},{"type":"Feature","geometry":{"type":"Point","coordinates":[-56.73854099,-34.40776278]},"properties":{"id":163877,"name":"Puntas de Cañada Grande","state_code":"SJ","country_code":"UY"}},{"type":"Feature","geometry":{"type":"Point","coordinates":[-56.60704935,-33.88259225]},"properties":{"id":163044,"name":"Puntas de Chamizo","state_code":"SJ","country_code":"UY"}},{"type":"Feature","geometry":{"type":"Point","coordinates":[-56.75243874,-34.4694875]},"properties":{"id":163076,"name":"Puntas de Gregorio","state_code":"SJ","country_code":"UY"}},{"type":"Feature","geometry":{"type":"Point","coordinates":[-56.87376194,-34.39197176]},"properties":{"id":163070,"name":"Puntas de Laurel","state_code":"SJ","country_code":"UY"}},{"type":"Feature","geometry":{"type":"Point","coordinates":[-56.55425776,-34.67868613]},"properties":{"id":163084,"name":"Puntas de Tropa Vieja","state_code":"SJ","country_code":"UY"}},{"type":"Feature","geometry":{"type":"Point","coordinates":[-56.70097,-34.5855]},"properties":{"id":129849,"name":"Puntas de Valdéz","state_code":"SJ","country_code":"UY"}},{"type":"Feature","geometry":{"type":"Point","coordinates":[-56.75868015,-34.55008055]},"properties":{"id":162656,"name":"Radial Ruta 3","state_code":"SJ","country_code":"UY"}},{"type":"Feature","geometry":{"type":"Point","coordinates":[-56.7971,-34.52335]},"properties":{"id":129851,"name":"Rafael Perazza","state_code":"SJ","country_code":"UY"}},{"type":"Feature","geometry":{"type":"Point","coordinates":[-56.66705967,-34.34054984]},"properties":{"id":162261,"name":"Raigon","state_code":"SJ","country_code":"UY"}},{"type":"Feature","geometry":{"type":"Point","coordinates":[-56.49835074,-34.47655586]},"properties":{"id":163040,"name":"Rincon de Albano","state_code":"SJ","country_code":"UY"}},{"type":"Feature","geometry":{"type":"Point","coordinates":[-57.05049324,-34.47986311]},"properties":{"id":163095,"name":"Rincon de Arazati","state_code":"SJ","country_code":"UY"}},{"type":"Feature","geometry":{"type":"Point","coordinates":[-56.58077323,-34.24956727]},"properties":{"id":163063,"name":"Rincon de Arias","state_code":"SJ","country_code":"UY"}},{"type":"Feature","geometry":{"type":"Point","coordinates":[-56.52661427,-34.58923605]},"properties":{"id":163082,"name":"Rincon de Buschental","state_code":"SJ","country_code":"UY"}},{"type":"Feature","geometry":{"type":"Point","coordinates":[-57.0700976,-34.44733541]},"properties":{"id":163094,"name":"Rincon de Cufre","state_code":"SJ","country_code":"UY"}},{"type":"Feature","geometry":{"type":"Point","coordinates":[-56.41310722,-34.75426473]},"properties":{"id":163807,"name":"Rincon de la Bolsa","state_code":"SJ","country_code":"UY"}},{"type":"Feature","geometry":{"type":"Point","coordinates":[-56.61416304,-34.4595894]},"properties":{"id":163073,"name":"Rincon de la Torre","state_code":"SJ","country_code":"UY"}},{"type":"Feature","geometry":{"type":"Point","coordinates":[-56.70537302,-34.31034855]},"properties":{"id":162304,"name":"Rincon de Nazareth","state_code":"SJ","country_code":"UY"}},{"type":"Feature","geometry":{"type":"Point","coordinates":[-56.83526513,-34.50286711]},"properties":{"id":162266,"name":"Rincon del Pino","state_code":"SJ","country_code":"UY"}},{"type":"Feature","geometry":{"type":"Point","coordinates":[-56.73413889,-34.33521843]},"properties":{"id":163069,"name":"Rocho","state_code":"SJ","country_code":"UY"}},{"type":"Feature","geometry":{"type":"Point","coordinates":[-56.53797,-34.381]},"properties":{"id":129854,"name":"Rodríguez","state_code":"SJ","country_code":"UY"}},{"type":"Feature","geometry":{"type":"Point","coordinates":[-56.41684767,-34.7469714]},"properties":{"id":162422,"name":"Safici","state_code":"SJ","country_code":"UY"}},{"type":"Feature","geometry":{"type":"Point","coordinates":[-56.38538211,-34.76637192]},"properties":{"id":162677,"name":"San Fernando","state_code":"SJ","country_code":"UY"}},{"type":"Feature","geometry":{"type":"Point","coordinates":[-56.36293898,-34.77392576]},"properties":{"id":162445,"name":"San Fernando Chico","state_code":"SJ","country_code":"UY"}},{"type":"Feature","geometry":{"type":"Point","coordinates":[-56.75250197,-33.93829031]},"properties":{"id":162699,"name":"San Gregorio","state_code":"SJ","country_code":"UY"}},{"type":"Feature","geometry":{"type":"Point","coordinates":[-56.71361,-34.3375]},"properties":{"id":129864,"name":"San José de Mayo","state_code":"SJ","country_code":"UY"}},{"type":"Feature","geometry":{"type":"Point","coordinates":[-56.43347909,-34.73611459]},"properties":{"id":162195,"name":"Santa Monica","state_code":"SJ","country_code":"UY"}},{"type":"Feature","geometry":{"type":"Point","coordinates":[-56.69708933,-34.50633447]},"properties":{"id":163078,"name":"Sauce","state_code":"SJ","country_code":"UY"}},{"type":"Feature","geometry":{"type":"Point","coordinates":[-56.69357205,-34.54612102]},"properties":{"id":163079,"name":"Sauce Chico","state_code":"SJ","country_code":"UY"}},{"type":"Feature","geometry":{"type":"Point","coordinates":[-57.04790425,-34.36947704]},"properties":{"id":162685,"name":"Scavino","state_code":"SJ","country_code":"UY"}},{"type":"Feature","geometry":{"type":"Point","coordinates":[-56.56111612,-34.09743832]},"properties":{"id":163052,"name":"Tabarez","state_code":"SJ","country_code":"UY"}},{"type":"Feature","geometry":{"type":"Point","coordinates":[-56.78269011,-34.45007521]},"properties":{"id":163075,"name":"Tala de Pereira","state_code":"SJ","country_code":"UY"}},{"type":"Feature","geometry":{"type":"Point","coordinates":[-56.59247912,-34.31040921]},"properties":{"id":163065,"name":"Tranquera Colorada","state_code":"SJ","country_code":"UY"}},{"type":"Feature","geometry":{"type":"Point","coordinates":[-56.45052999,-34.73257011]},"properties":{"id":163043,"name":"Tropas Viejas","state_code":"SJ","country_code":"UY"}},{"type":"Feature","geometry":{"type":"Point","coordinates":[-56.54858613,-34.39603401]},"properties":{"id":162305,"name":"Tropezon","state_code":"SJ","country_code":"UY"}},{"type":"Feature","geometry":{"type":"Point","coordinates":[-56.61832065,-34.5321266]},"properties":{"id":163077,"name":"Valdez Chico","state_code":"SJ","country_code":"UY"}},{"type":"Feature","geometry":{"type":"Point","coordinates":[-56.76192446,-34.51554485]},"properties":{"id":162683,"name":"Villa Maria","state_code":"SJ","country_code":"UY"}},{"type":"Feature","geometry":{"type":"Point","coordinates":[-56.46589777,-34.74193222]},"properties":{"id":163801,"name":"Villa Olimpica","state_code":"SJ","country_code":"UY"}},{"type":"Feature","geometry":{"type":"Point","coordinates":[-56.3729806,-34.77343829]},"properties":{"id":162439,"name":"Villa Rives","state_code":"SJ","country_code":"UY"}},{"type":"Feature","geometry":{"type":"Point","coordinates":[-56.61282122,-34.36147693]},"properties":{"id":163068,"name":"Zanja Honda","state_code":"SJ","country_code":"UY"}}]}