{"type":"FeatureCollection","features":[{"type":"Feature","geometry":{"type":"Point","coordinates":[-66.87558,10.43424]},"properties":{"id":130048,"name":"Baruta","state_code":"M","country_code":"VE"}},{"type":"Feature","geometry":{"type":"Point","coordinates":[-66.98632,10.34985]},"properties":{"id":130058,"name":"Carrizal","state_code":"M","country_code":"VE"}},{"type":"Feature","geometry":{"type":"Point","coordinates":[-66.80252,10.35782]},"properties":{"id":130061,"name":"Caucaguita","state_code":"M","country_code":"VE"}},{"type":"Feature","geometry":{"type":"Point","coordinates":[-66.73799,10.48666]},"properties":{"id":130062,"name":"Caucagüito","state_code":"M","country_code":"VE"}},{"type":"Feature","geometry":{"type":"Point","coordinates":[-66.85367,10.49581]},"properties":{"id":130063,"name":"Chacao","state_code":"M","country_code":"VE"}},{"type":"Feature","geometry":{"type":"Point","coordinates":[-66.85723,10.24247]},"properties":{"id":130064,"name":"Charallave","state_code":"M","country_code":"VE"}},{"type":"Feature","geometry":{"type":"Point","coordinates":[-66.88248,10.16245]},"properties":{"id":130073,"name":"Cúa","state_code":"M","country_code":"VE"}},{"type":"Feature","geometry":{"type":"Point","coordinates":[-66.82951,10.46541]},"properties":{"id":130075,"name":"El Cafetal","state_code":"M","country_code":"VE"}},{"type":"Feature","geometry":{"type":"Point","coordinates":[-66.82581,10.42411]},"properties":{"id":130076,"name":"El Hatillo","state_code":"M","country_code":"VE"}},{"type":"Feature","geometry":{"type":"Point","coordinates":[-66.61934,10.47027]},"properties":{"id":130083,"name":"Guarenas","state_code":"M","country_code":"VE"}},{"type":"Feature","geometry":{"type":"Point","coordinates":[-66.54241,10.474]},"properties":{"id":130084,"name":"Guatire","state_code":"M","country_code":"VE"}},{"type":"Feature","geometry":{"type":"Point","coordinates":[-66.78608,10.4883]},"properties":{"id":130089,"name":"La Dolorita","state_code":"M","country_code":"VE"}},{"type":"Feature","geometry":{"type":"Point","coordinates":[-66.82863,10.49389]},"properties":{"id":130097,"name":"Los Dos Caminos","state_code":"M","country_code":"VE"}},{"type":"Feature","geometry":{"type":"Point","coordinates":[-67.04325,10.34447]},"properties":{"id":130100,"name":"Los Teques","state_code":"M","country_code":"VE"}},{"type":"Feature","geometry":{"type":"Point","coordinates":[-66.77513,10.1182]},"properties":{"id":130126,"name":"Ocumare del Tuy","state_code":"M","country_code":"VE"}},{"type":"Feature","geometry":{"type":"Point","coordinates":[-66.80786,10.47679]},"properties":{"id":130129,"name":"Petare","state_code":"M","country_code":"VE"}},{"type":"Feature","geometry":{"type":"Point","coordinates":[-66.95179,10.38853]},"properties":{"id":130139,"name":"San Antonio de Los Altos","state_code":"M","country_code":"VE"}},{"type":"Feature","geometry":{"type":"Point","coordinates":[-66.66474,10.23291]},"properties":{"id":130155,"name":"Santa Teresa del Tuy","state_code":"M","country_code":"VE"}}]}