{"type":"FeatureCollection","features":[{"type":"Feature","geometry":{"type":"Point","coordinates":[-63.09985,10.11135]},"properties":{"id":130056,"name":"Caripito","state_code":"N","country_code":"VE"}},{"type":"Feature","geometry":{"type":"Point","coordinates":[-63.18323,9.74569]},"properties":{"id":130107,"name":"Maturín","state_code":"N","country_code":"VE"}},{"type":"Feature","geometry":{"type":"Point","coordinates":[-63.03333,9.4]},"properties":{"id":130117,"name":"Municipio Maturín","state_code":"N","country_code":"VE"}},{"type":"Feature","geometry":{"type":"Point","coordinates":[-62.35164,8.9996]},"properties":{"id":130122,"name":"Municipio Uracoa","state_code":"N","country_code":"VE"}}]}