{"type":"FeatureCollection","features":[{"type":"Feature","geometry":{"type":"Point","coordinates":[-71.45206,10.39907]},"properties":{"id":130050,"name":"Cabimas","state_code":"V","country_code":"VE"}},{"type":"Feature","geometry":{"type":"Point","coordinates":[-71.3148,10.20161]},"properties":{"id":130069,"name":"Ciudad Ojeda","state_code":"V","country_code":"VE"}},{"type":"Feature","geometry":{"type":"Point","coordinates":[-72.31343,10.3258]},"properties":{"id":130094,"name":"La Villa del Rosario","state_code":"V","country_code":"VE"}},{"type":"Feature","geometry":{"type":"Point","coordinates":[-71.25946,10.13008]},"properties":{"id":130095,"name":"Lagunillas","state_code":"V","country_code":"VE"}},{"type":"Feature","geometry":{"type":"Point","coordinates":[-72.55212,10.06077]},"properties":{"id":130101,"name":"Machiques","state_code":"V","country_code":"VE"}},{"type":"Feature","geometry":{"type":"Point","coordinates":[-71.61245,10.66663]},"properties":{"id":130103,"name":"Maracaibo","state_code":"V","country_code":"VE"}},{"type":"Feature","geometry":{"type":"Point","coordinates":[-71.92683,9.00098]},"properties":{"id":130143,"name":"San Carlos del Zulia","state_code":"V","country_code":"VE"}},{"type":"Feature","geometry":{"type":"Point","coordinates":[-71.51104,10.53642]},"properties":{"id":130154,"name":"Santa Rita","state_code":"V","country_code":"VE"}}]}