{"type":"FeatureCollection","features":[{"type":"Feature","geometry":{"type":"Point","coordinates":[104.98357,22.82333]},"properties":{"id":130555,"name":"Hà Giang","state_code":"07","country_code":"VN"}},{"type":"Feature","geometry":{"type":"Point","coordinates":[105.29023,22.75477]},"properties":{"id":130235,"name":"Huyện Bắc Mê","state_code":"07","country_code":"VN"}},{"type":"Feature","geometry":{"type":"Point","coordinates":[104.91831,22.42301]},"properties":{"id":130236,"name":"Huyện Bắc Quang","state_code":"07","country_code":"VN"}},{"type":"Feature","geometry":{"type":"Point","coordinates":[105.27671,22.17895]},"properties":{"id":130247,"name":"Huyện Chiêm Hóa","state_code":"07","country_code":"VN"}},{"type":"Feature","geometry":{"type":"Point","coordinates":[105.27626,23.25449]},"properties":{"id":130548,"name":"Huyện Đồng Văn","state_code":"07","country_code":"VN"}},{"type":"Feature","geometry":{"type":"Point","coordinates":[105.0163,22.10935]},"properties":{"id":130305,"name":"Huyện Hàm Yên","state_code":"07","country_code":"VN"}},{"type":"Feature","geometry":{"type":"Point","coordinates":[105.21903,22.46411]},"properties":{"id":130345,"name":"Huyện Lâm Bình","state_code":"07","country_code":"VN"}},{"type":"Feature","geometry":{"type":"Point","coordinates":[105.4838,22.47522]},"properties":{"id":130373,"name":"Huyện Na Hang","state_code":"07","country_code":"VN"}},{"type":"Feature","geometry":{"type":"Point","coordinates":[104.66018,22.41507]},"properties":{"id":130406,"name":"Huyện Quang Bình","state_code":"07","country_code":"VN"}},{"type":"Feature","geometry":{"type":"Point","coordinates":[105.38901,21.63623]},"properties":{"id":130423,"name":"Huyện Sơn Dương","state_code":"07","country_code":"VN"}},{"type":"Feature","geometry":{"type":"Point","coordinates":[104.90827,22.73096]},"properties":{"id":130508,"name":"Huyện Vị Xuyên","state_code":"07","country_code":"VN"}},{"type":"Feature","geometry":{"type":"Point","coordinates":[104.52089,22.64148]},"properties":{"id":130511,"name":"Huyện Xín Mần","state_code":"07","country_code":"VN"}},{"type":"Feature","geometry":{"type":"Point","coordinates":[105.17865,23.06992]},"properties":{"id":130516,"name":"Huyện Yên Minh","state_code":"07","country_code":"VN"}},{"type":"Feature","geometry":{"type":"Point","coordinates":[105.27656,21.88363]},"properties":{"id":130519,"name":"Huyện Yên Sơn","state_code":"07","country_code":"VN"}},{"type":"Feature","geometry":{"type":"Point","coordinates":[105.21424,21.82356]},"properties":{"id":130619,"name":"Tuyên Quang","state_code":"07","country_code":"VN"}}]}