{"type":"FeatureCollection","features":[{"type":"Feature","geometry":{"type":"Point","coordinates":[104.30769,22.50998]},"properties":{"id":130234,"name":"Huyện Bắc Hà","state_code":"02","country_code":"VN"}},{"type":"Feature","geometry":{"type":"Point","coordinates":[104.46424,22.26109]},"properties":{"id":130232,"name":"Huyện Bảo Yên","state_code":"02","country_code":"VN"}},{"type":"Feature","geometry":{"type":"Point","coordinates":[103.71339,22.56767]},"properties":{"id":130219,"name":"Huyện Bát Xát","state_code":"02","country_code":"VN"}},{"type":"Feature","geometry":{"type":"Point","coordinates":[104.72538,22.10235]},"properties":{"id":130355,"name":"Huyện Lục Yên","state_code":"02","country_code":"VN"}},{"type":"Feature","geometry":{"type":"Point","coordinates":[104.11998,21.78815]},"properties":{"id":130360,"name":"Huyện Mù Cang Chải","state_code":"02","country_code":"VN"}},{"type":"Feature","geometry":{"type":"Point","coordinates":[104.11772,22.67111]},"properties":{"id":130362,"name":"Huyện Mường Khương","state_code":"02","country_code":"VN"}},{"type":"Feature","geometry":{"type":"Point","coordinates":[103.84037,22.33769]},"properties":{"id":130418,"name":"Huyện Sa Pa","state_code":"02","country_code":"VN"}},{"type":"Feature","geometry":{"type":"Point","coordinates":[104.27326,22.67161]},"properties":{"id":130420,"name":"Huyện Si Ma Cai","state_code":"02","country_code":"VN"}},{"type":"Feature","geometry":{"type":"Point","coordinates":[104.42756,21.48553]},"properties":{"id":130470,"name":"Huyện Trạm Tấu","state_code":"02","country_code":"VN"}},{"type":"Feature","geometry":{"type":"Point","coordinates":[104.79702,21.66586]},"properties":{"id":130473,"name":"Huyện Trấn Yên","state_code":"02","country_code":"VN"}},{"type":"Feature","geometry":{"type":"Point","coordinates":[104.18122,22.07002]},"properties":{"id":130495,"name":"Huyện Văn Bàn","state_code":"02","country_code":"VN"}},{"type":"Feature","geometry":{"type":"Point","coordinates":[104.64038,21.55722]},"properties":{"id":130496,"name":"Huyện Văn Chấn","state_code":"02","country_code":"VN"}},{"type":"Feature","geometry":{"type":"Point","coordinates":[104.56669,21.90022]},"properties":{"id":130497,"name":"Huyện Văn Yên","state_code":"02","country_code":"VN"}},{"type":"Feature","geometry":{"type":"Point","coordinates":[103.97066,22.48556]},"properties":{"id":130571,"name":"Lào Cai","state_code":"02","country_code":"VN"}},{"type":"Feature","geometry":{"type":"Point","coordinates":[103.86844,22.31377]},"properties":{"id":130568,"name":"Lao Chải","state_code":"02","country_code":"VN"}},{"type":"Feature","geometry":{"type":"Point","coordinates":[103.84415,22.34023]},"properties":{"id":130591,"name":"Sa Pa","state_code":"02","country_code":"VN"}},{"type":"Feature","geometry":{"type":"Point","coordinates":[104.9113,21.72288]},"properties":{"id":130628,"name":"Yên Bái","state_code":"02","country_code":"VN"}}]}