{"type":"FeatureCollection","features":[{"type":"Feature","geometry":{"type":"Point","coordinates":[107.59546,16.4619]},"properties":{"id":130554,"name":"Huế","state_code":"26","country_code":"VN"}},{"type":"Feature","geometry":{"type":"Point","coordinates":[107.3065,16.23422]},"properties":{"id":130207,"name":"Huyện A Lưới","state_code":"26","country_code":"VN"}},{"type":"Feature","geometry":{"type":"Point","coordinates":[107.6927,16.12396]},"properties":{"id":130379,"name":"Huyện Nam Đông","state_code":"26","country_code":"VN"}},{"type":"Feature","geometry":{"type":"Point","coordinates":[107.28889,16.48769]},"properties":{"id":130395,"name":"Huyện Phong Điền","state_code":"26","country_code":"VN"}},{"type":"Feature","geometry":{"type":"Point","coordinates":[107.88545,16.27066]},"properties":{"id":130399,"name":"Huyện Phú Lộc","state_code":"26","country_code":"VN"}},{"type":"Feature","geometry":{"type":"Point","coordinates":[107.71458,16.47007]},"properties":{"id":130402,"name":"Huyện Phú Vang","state_code":"26","country_code":"VN"}},{"type":"Feature","geometry":{"type":"Point","coordinates":[107.4937,16.57941]},"properties":{"id":130410,"name":"Huyện Quảng Ðiền","state_code":"26","country_code":"VN"}}]}