{"type":"FeatureCollection","features":[{"type":"Feature","geometry":{"type":"Point","coordinates":[108.03775,12.66747]},"properties":{"id":130173,"name":"Buôn Ma Thuột","state_code":"33","country_code":"VN"}},{"type":"Feature","geometry":{"type":"Point","coordinates":[107.7387,12.90396]},"properties":{"id":130217,"name":"Huyện Buôn Đôn","state_code":"33","country_code":"VN"}},{"type":"Feature","geometry":{"type":"Point","coordinates":[108.07148,13.31814]},"properties":{"id":130283,"name":"Huyện Ea H'Leo","state_code":"33","country_code":"VN"}},{"type":"Feature","geometry":{"type":"Point","coordinates":[107.79954,13.18279]},"properties":{"id":130284,"name":"Huyện Ea Súp","state_code":"33","country_code":"VN"}},{"type":"Feature","geometry":{"type":"Point","coordinates":[108.97281,13.15868]},"properties":{"id":130425,"name":"Huyện Sơn Hòa","state_code":"33","country_code":"VN"}},{"type":"Feature","geometry":{"type":"Point","coordinates":[108.91667,12.91667]},"properties":{"id":130421,"name":"Huyện Sông Hinh","state_code":"33","country_code":"VN"}},{"type":"Feature","geometry":{"type":"Point","coordinates":[109.22348,13.4556]},"properties":{"id":130593,"name":"Sông Cầu","state_code":"33","country_code":"VN"}},{"type":"Feature","geometry":{"type":"Point","coordinates":[109.32094,13.09546]},"properties":{"id":130618,"name":"Tuy Hòa","state_code":"33","country_code":"VN"}}]}