{"type":"FeatureCollection","features":[{"type":"Feature","geometry":{"type":"Point","coordinates":[105.11667,10.7]},"properties":{"id":130185,"name":"Cho Dok","state_code":"44","country_code":"VN"}},{"type":"Feature","geometry":{"type":"Point","coordinates":[103.95929,10.21716]},"properties":{"id":130199,"name":"Dương Đông","state_code":"44","country_code":"VN"}},{"type":"Feature","geometry":{"type":"Point","coordinates":[104.48753,10.3831]},"properties":{"id":130556,"name":"Hà Tiên","state_code":"44","country_code":"VN"}},{"type":"Feature","geometry":{"type":"Point","coordinates":[105.0523,9.81291]},"properties":{"id":130208,"name":"Huyện An Biên","state_code":"44","country_code":"VN"}},{"type":"Feature","geometry":{"type":"Point","coordinates":[104.94848,9.66704]},"properties":{"id":130210,"name":"Huyện An Minh","state_code":"44","country_code":"VN"}},{"type":"Feature","geometry":{"type":"Point","coordinates":[105.0899,10.84274]},"properties":{"id":130211,"name":"Huyện An Phú","state_code":"44","country_code":"VN"}},{"type":"Feature","geometry":{"type":"Point","coordinates":[105.16991,10.57166]},"properties":{"id":130248,"name":"Huyện Châu Phú","state_code":"44","country_code":"VN"}},{"type":"Feature","geometry":{"type":"Point","coordinates":[105.16868,9.94372]},"properties":{"id":130249,"name":"Huyện Châu Thành","state_code":"44","country_code":"VN"}},{"type":"Feature","geometry":{"type":"Point","coordinates":[105.49092,10.4773]},"properties":{"id":130262,"name":"Huyện Chợ Mới","state_code":"44","country_code":"VN"}},{"type":"Feature","geometry":{"type":"Point","coordinates":[105.37311,9.91224]},"properties":{"id":130290,"name":"Huyện Giồng Riềng","state_code":"44","country_code":"VN"}},{"type":"Feature","geometry":{"type":"Point","coordinates":[105.29766,9.74027]},"properties":{"id":130295,"name":"Huyện Gò Quao","state_code":"44","country_code":"VN"}},{"type":"Feature","geometry":{"type":"Point","coordinates":[104.9528,10.22908]},"properties":{"id":130307,"name":"Huyện Hòn Đất","state_code":"44","country_code":"VN"}},{"type":"Feature","geometry":{"type":"Point","coordinates":[104.6156,9.83971]},"properties":{"id":130330,"name":"Huyện Kiên Hải","state_code":"44","country_code":"VN"}},{"type":"Feature","geometry":{"type":"Point","coordinates":[104.01455,10.25516]},"properties":{"id":130400,"name":"Huyện Phú Quốc","state_code":"44","country_code":"VN"}},{"type":"Feature","geometry":{"type":"Point","coordinates":[105.28459,10.65716]},"properties":{"id":130401,"name":"Huyện Phú Tân","state_code":"44","country_code":"VN"}},{"type":"Feature","geometry":{"type":"Point","coordinates":[105.25936,10.0954]},"properties":{"id":130481,"name":"Huyện Tân Hiệp","state_code":"44","country_code":"VN"}},{"type":"Feature","geometry":{"type":"Point","coordinates":[104.96136,10.41416]},"properties":{"id":130461,"name":"Huyện Tri Tôn","state_code":"44","country_code":"VN"}},{"type":"Feature","geometry":{"type":"Point","coordinates":[105.2449,9.53306]},"properties":{"id":130502,"name":"Huyện Vĩnh Thuận","state_code":"44","country_code":"VN"}},{"type":"Feature","geometry":{"type":"Point","coordinates":[104.59,10.24892]},"properties":{"id":130564,"name":"Kien Luong Town","state_code":"44","country_code":"VN"}},{"type":"Feature","geometry":{"type":"Point","coordinates":[105.43518,10.38639]},"properties":{"id":130569,"name":"Long Xuyên","state_code":"44","country_code":"VN"}},{"type":"Feature","geometry":{"type":"Point","coordinates":[105.08091,10.01245]},"properties":{"id":130588,"name":"Rạch Giá","state_code":"44","country_code":"VN"}}]}