{"type":"FeatureCollection","features":[{"type":"Feature","geometry":{"type":"Point","coordinates":[105.33759,20.81717]},"properties":{"id":130559,"name":"Hòa Bình","state_code":"68","country_code":"VN"}},{"type":"Feature","geometry":{"type":"Point","coordinates":[105.66225,21.30561]},"properties":{"id":130225,"name":"Huyện Bình Xuyên","state_code":"68","country_code":"VN"}},{"type":"Feature","geometry":{"type":"Point","coordinates":[105.09845,21.40683]},"properties":{"id":130275,"name":"Huyện Cẩm Khê","state_code":"68","country_code":"VN"}},{"type":"Feature","geometry":{"type":"Point","coordinates":[105.33559,20.69532]},"properties":{"id":130245,"name":"Huyện Cao Phong","state_code":"68","country_code":"VN"}},{"type":"Feature","geometry":{"type":"Point","coordinates":[105.1611,21.61776]},"properties":{"id":130530,"name":"Huyện Đoan Hùng","state_code":"68","country_code":"VN"}},{"type":"Feature","geometry":{"type":"Point","coordinates":[104.99464,21.57763]},"properties":{"id":130312,"name":"Huyện Hạ Hòa","state_code":"68","country_code":"VN"}},{"type":"Feature","geometry":{"type":"Point","coordinates":[105.39659,20.89631]},"properties":{"id":130338,"name":"Huyện Kỳ Sơn","state_code":"68","country_code":"VN"}},{"type":"Feature","geometry":{"type":"Point","coordinates":[105.74092,20.49794]},"properties":{"id":130350,"name":"Huyện Lạc Thủy","state_code":"68","country_code":"VN"}},{"type":"Feature","geometry":{"type":"Point","coordinates":[105.31119,21.29971]},"properties":{"id":130203,"name":"Huyen Lam Thao","state_code":"68","country_code":"VN"}},{"type":"Feature","geometry":{"type":"Point","coordinates":[105.51219,20.8765]},"properties":{"id":130349,"name":"Huyện Lương Sơn","state_code":"68","country_code":"VN"}},{"type":"Feature","geometry":{"type":"Point","coordinates":[105.5569,21.36189]},"properties":{"id":130429,"name":"Huyện Tam Dương","state_code":"68","country_code":"VN"}},{"type":"Feature","geometry":{"type":"Point","coordinates":[105.5946,21.4569]},"properties":{"id":130432,"name":"Huyện Tam Đảo","state_code":"68","country_code":"VN"}},{"type":"Feature","geometry":{"type":"Point","coordinates":[105.23399,20.60557]},"properties":{"id":130484,"name":"Huyện Tân Lạc","state_code":"68","country_code":"VN"}},{"type":"Feature","geometry":{"type":"Point","coordinates":[105.15881,21.47816]},"properties":{"id":130434,"name":"Huyện Thanh Ba","state_code":"68","country_code":"VN"}},{"type":"Feature","geometry":{"type":"Point","coordinates":[105.57586,21.21845]},"properties":{"id":130514,"name":"Huyện Yên Lạc","state_code":"68","country_code":"VN"}},{"type":"Feature","geometry":{"type":"Point","coordinates":[105.00493,21.35569]},"properties":{"id":130515,"name":"Huyện Yên Lập","state_code":"68","country_code":"VN"}},{"type":"Feature","geometry":{"type":"Point","coordinates":[105.39217,21.32958]},"properties":{"id":130603,"name":"Thành Phố Việt Trì","state_code":"68","country_code":"VN"}},{"type":"Feature","geometry":{"type":"Point","coordinates":[105.23636,21.41664]},"properties":{"id":130615,"name":"Thị xã Phú Thọ","state_code":"68","country_code":"VN"}},{"type":"Feature","geometry":{"type":"Point","coordinates":[105.40198,21.32274]},"properties":{"id":130623,"name":"Việt Trì","state_code":"68","country_code":"VN"}},{"type":"Feature","geometry":{"type":"Point","coordinates":[105.60489,21.30891]},"properties":{"id":130625,"name":"Vĩnh Yên","state_code":"68","country_code":"VN"}}]}