{"type":"FeatureCollection","features":[{"type":"Feature","geometry":{"type":"Point","coordinates":[107.04819,20.72779]},"properties":{"id":130188,"name":"Cát Bà","state_code":"HP","country_code":"VN"}},{"type":"Feature","geometry":{"type":"Point","coordinates":[106.33302,20.94099]},"properties":{"id":130562,"name":"Hải Dương","state_code":"HP","country_code":"VN"}},{"type":"Feature","geometry":{"type":"Point","coordinates":[106.68345,20.86481]},"properties":{"id":130200,"name":"Haiphong","state_code":"HP","country_code":"VN"}},{"type":"Feature","geometry":{"type":"Point","coordinates":[106.19138,20.87586]},"properties":{"id":130221,"name":"Huyện Bình Giang","state_code":"HP","country_code":"VN"}},{"type":"Feature","geometry":{"type":"Point","coordinates":[106.21667,20.95]},"properties":{"id":130274,"name":"Huyện Cẩm Giàng","state_code":"HP","country_code":"VN"}},{"type":"Feature","geometry":{"type":"Point","coordinates":[106.2913,20.85164]},"properties":{"id":130286,"name":"Huyện Gia Lộc","state_code":"HP","country_code":"VN"}},{"type":"Feature","geometry":{"type":"Point","coordinates":[106.50384,21.01634]},"properties":{"id":130329,"name":"Huyện Kinh Môn","state_code":"HP","country_code":"VN"}},{"type":"Feature","geometry":{"type":"Point","coordinates":[106.34042,21.00484]},"properties":{"id":130376,"name":"Huyện Nam Sách","state_code":"HP","country_code":"VN"}},{"type":"Feature","geometry":{"type":"Point","coordinates":[106.22218,20.77953]},"properties":{"id":130438,"name":"Huyện Thanh Miện","state_code":"HP","country_code":"VN"}},{"type":"Feature","geometry":{"type":"Point","coordinates":[106.39638,21.13722]},"properties":{"id":130609,"name":"Thị Xã Chí Linh","state_code":"HP","country_code":"VN"}}]}