{"type":"FeatureCollection","features":[{"type":"Feature","geometry":{"type":"Point","coordinates":[106.95474,10.41115]},"properties":{"id":130191,"name":"Cần Giờ","state_code":"SG","country_code":"VN"}},{"type":"Feature","geometry":{"type":"Point","coordinates":[106.60824,8.68641]},"properties":{"id":130189,"name":"Côn Sơn","state_code":"SG","country_code":"VN"}},{"type":"Feature","geometry":{"type":"Point","coordinates":[106.49325,10.97333]},"properties":{"id":130194,"name":"Củ Chi","state_code":"SG","country_code":"VN"}},{"type":"Feature","geometry":{"type":"Point","coordinates":[106.7694,10.90682]},"properties":{"id":130198,"name":"Dĩ An","state_code":"SG","country_code":"VN"}},{"type":"Feature","geometry":{"type":"Point","coordinates":[106.62965,10.82302]},"properties":{"id":130202,"name":"Ho Chi Minh City","state_code":"SG","country_code":"VN"}},{"type":"Feature","geometry":{"type":"Point","coordinates":[107.25098,10.65805]},"properties":{"id":130255,"name":"Huyện Châu Đức","state_code":"SG","country_code":"VN"}},{"type":"Feature","geometry":{"type":"Point","coordinates":[107.27879,10.48025]},"properties":{"id":130539,"name":"Huyện Đất Đỏ","state_code":"SG","country_code":"VN"}},{"type":"Feature","geometry":{"type":"Point","coordinates":[107.10189,10.57381]},"properties":{"id":130487,"name":"Huyện Tân Thành","state_code":"SG","country_code":"VN"}},{"type":"Feature","geometry":{"type":"Point","coordinates":[107.46568,10.63048]},"properties":{"id":130510,"name":"Huyện Xuyên Mộc","state_code":"SG","country_code":"VN"}},{"type":"Feature","geometry":{"type":"Point","coordinates":[107.14239,10.40239]},"properties":{"id":130604,"name":"Thành Phố Vũng Tàu","state_code":"SG","country_code":"VN"}},{"type":"Feature","geometry":{"type":"Point","coordinates":[107.12999,10.56815]},"properties":{"id":130613,"name":"Thị Xã Phú Mỹ","state_code":"SG","country_code":"VN"}},{"type":"Feature","geometry":{"type":"Point","coordinates":[106.6519,10.9804]},"properties":{"id":130616,"name":"Thủ Dầu Một","state_code":"SG","country_code":"VN"}},{"type":"Feature","geometry":{"type":"Point","coordinates":[107.08426,10.34599]},"properties":{"id":130626,"name":"Vũng Tàu","state_code":"SG","country_code":"VN"}}]}