{"type":"FeatureCollection","features":[{"type":"Feature","geometry":{"type":"Point","coordinates":[43.1935,15.2232]},"properties":{"id":130665,"name":"Ad Dahi","state_code":"HU","country_code":"YE"}},{"type":"Feature","geometry":{"type":"Point","coordinates":[43.0718,14.6046]},"properties":{"id":130667,"name":"Ad Durayhimi","state_code":"HU","country_code":"YE"}},{"type":"Feature","geometry":{"type":"Point","coordinates":[43.4094,14.1058]},"properties":{"id":130686,"name":"Al Garrahi","state_code":"HU","country_code":"YE"}},{"type":"Feature","geometry":{"type":"Point","coordinates":[43.5823,14.9907]},"properties":{"id":130692,"name":"Al Hajjaylah","state_code":"HU","country_code":"YE"}},{"type":"Feature","geometry":{"type":"Point","coordinates":[43.0014,14.825]},"properties":{"id":130693,"name":"Al Hali","state_code":"HU","country_code":"YE"}},{"type":"Feature","geometry":{"type":"Point","coordinates":[42.9978,14.7601]},"properties":{"id":130695,"name":"Al Hawak","state_code":"HU","country_code":"YE"}},{"type":"Feature","geometry":{"type":"Point","coordinates":[42.95452,14.79781]},"properties":{"id":130757,"name":"Al Ḩudaydah","state_code":"HU","country_code":"YE"}},{"type":"Feature","geometry":{"type":"Point","coordinates":[43.3682,14.6903]},"properties":{"id":130720,"name":"Al Mansuriyah","state_code":"HU","country_code":"YE"}},{"type":"Feature","geometry":{"type":"Point","coordinates":[43.1965,14.8346]},"properties":{"id":130722,"name":"Al Marawi'ah","state_code":"HU","country_code":"YE"}},{"type":"Feature","geometry":{"type":"Point","coordinates":[43.1836,15.3111]},"properties":{"id":130731,"name":"Al Mighlaf","state_code":"HU","country_code":"YE"}},{"type":"Feature","geometry":{"type":"Point","coordinates":[42.93732,14.80775]},"properties":{"id":130733,"name":"Al Mina","state_code":"HU","country_code":"YE"}},{"type":"Feature","geometry":{"type":"Point","coordinates":[42.9062,15.3528]},"properties":{"id":130740,"name":"Al Munirah","state_code":"HU","country_code":"YE"}},{"type":"Feature","geometry":{"type":"Point","coordinates":[43.13782,15.49206]},"properties":{"id":130748,"name":"Al Qanawis","state_code":"HU","country_code":"YE"}},{"type":"Feature","geometry":{"type":"Point","coordinates":[42.87157,15.63628]},"properties":{"id":130762,"name":"Alluheyah","state_code":"HU","country_code":"YE"}},{"type":"Feature","geometry":{"type":"Point","coordinates":[42.72542,15.22882]},"properties":{"id":130777,"name":"As Salif","state_code":"HU","country_code":"YE"}},{"type":"Feature","geometry":{"type":"Point","coordinates":[43.3342,14.7484]},"properties":{"id":130785,"name":"As Sukhnah","state_code":"HU","country_code":"YE"}},{"type":"Feature","geometry":{"type":"Point","coordinates":[43.15979,14.10994]},"properties":{"id":130799,"name":"At Tuhayat","state_code":"HU","country_code":"YE"}},{"type":"Feature","geometry":{"type":"Point","coordinates":[43.06452,15.29586]},"properties":{"id":130805,"name":"Az Zaydīyah","state_code":"HU","country_code":"YE"}},{"type":"Feature","geometry":{"type":"Point","coordinates":[43.0637,15.7173]},"properties":{"id":130806,"name":"Az Zuhrah","state_code":"HU","country_code":"YE"}},{"type":"Feature","geometry":{"type":"Point","coordinates":[43.1735,15.07561]},"properties":{"id":130829,"name":"Bājil","state_code":"HU","country_code":"YE"}},{"type":"Feature","geometry":{"type":"Point","coordinates":[43.27815,14.48738]},"properties":{"id":130823,"name":"Bayt al Faqīh","state_code":"HU","country_code":"YE"}},{"type":"Feature","geometry":{"type":"Point","coordinates":[43.4753,14.8982]},"properties":{"id":130828,"name":"Bura","state_code":"HU","country_code":"YE"}},{"type":"Feature","geometry":{"type":"Point","coordinates":[43.4984,13.9332]},"properties":{"id":130863,"name":"Hays","state_code":"HU","country_code":"YE"}},{"type":"Feature","geometry":{"type":"Point","coordinates":[43.6278,14.0309]},"properties":{"id":130877,"name":"Jabal Ra's","state_code":"HU","country_code":"YE"}},{"type":"Feature","geometry":{"type":"Point","coordinates":[42.5854,15.3605]},"properties":{"id":130884,"name":"Kamaran","state_code":"HU","country_code":"YE"}},{"type":"Feature","geometry":{"type":"Point","coordinates":[43.36841,14.27742]},"properties":{"id":131006,"name":"Zabīd","state_code":"HU","country_code":"YE"}}]}