{"type":"FeatureCollection","features":[{"type":"Feature","geometry":{"type":"Point","coordinates":[44.31252,16.72189]},"properties":{"id":130758,"name":"Al ‘Inān","state_code":"JA","country_code":"YE"}},{"type":"Feature","geometry":{"type":"Point","coordinates":[44.6852,16.0914]},"properties":{"id":130688,"name":"Al Ghayl","state_code":"JA","country_code":"YE"}},{"type":"Feature","geometry":{"type":"Point","coordinates":[44.9585,16.0378]},"properties":{"id":130698,"name":"Al Hazm","state_code":"JA","country_code":"YE"}},{"type":"Feature","geometry":{"type":"Point","coordinates":[44.4299,16.4667]},"properties":{"id":130699,"name":"Al Humaydat","state_code":"JA","country_code":"YE"}},{"type":"Feature","geometry":{"type":"Point","coordinates":[44.797,16.0681]},"properties":{"id":130706,"name":"Al Khalq","state_code":"JA","country_code":"YE"}},{"type":"Feature","geometry":{"type":"Point","coordinates":[44.5667,16.0961]},"properties":{"id":130725,"name":"Al Maslub","state_code":"JA","country_code":"YE"}},{"type":"Feature","geometry":{"type":"Point","coordinates":[44.3902,16.1984]},"properties":{"id":130726,"name":"Al Matammah","state_code":"JA","country_code":"YE"}},{"type":"Feature","geometry":{"type":"Point","coordinates":[44.6389,16.2872]},"properties":{"id":130727,"name":"Al Maton","state_code":"JA","country_code":"YE"}},{"type":"Feature","geometry":{"type":"Point","coordinates":[44.51882,16.91972]},"properties":{"id":130821,"name":"Barţ al ‘Anān","state_code":"JA","country_code":"YE"}},{"type":"Feature","geometry":{"type":"Point","coordinates":[45.7853,16.5975]},"properties":{"id":130885,"name":"Khabb wa ash Sha'af","state_code":"JA","country_code":"YE"}},{"type":"Feature","geometry":{"type":"Point","coordinates":[44.2255,16.6107]},"properties":{"id":130888,"name":"Kharab Al Marashi","state_code":"JA","country_code":"YE"}},{"type":"Feature","geometry":{"type":"Point","coordinates":[44.5042,16.6342]},"properties":{"id":130950,"name":"Rajuzah","state_code":"JA","country_code":"YE"}}]}