{"type":"FeatureCollection","features":[{"type":"Feature","geometry":{"type":"Point","coordinates":[45.3934,14.717]},"properties":{"id":130677,"name":"Al Abdiyah","state_code":"MA","country_code":"YE"}},{"type":"Feature","geometry":{"type":"Point","coordinates":[45.2868,15.1249]},"properties":{"id":130704,"name":"Al Jubah","state_code":"MA","country_code":"YE"}},{"type":"Feature","geometry":{"type":"Point","coordinates":[44.7473,15.3981]},"properties":{"id":130824,"name":"Bidbadah","state_code":"MA","country_code":"YE"}},{"type":"Feature","geometry":{"type":"Point","coordinates":[45.3682,14.93045]},"properties":{"id":131012,"name":"Ḩarīb","state_code":"MA","country_code":"YE"}},{"type":"Feature","geometry":{"type":"Point","coordinates":[44.6153,15.4735]},"properties":{"id":130856,"name":"Harib Al Qaramish","state_code":"MA","country_code":"YE"}},{"type":"Feature","geometry":{"type":"Point","coordinates":[45.1887,15.0474]},"properties":{"id":130876,"name":"Jabal Murad","state_code":"MA","country_code":"YE"}},{"type":"Feature","geometry":{"type":"Point","coordinates":[45.32581,15.46253]},"properties":{"id":130902,"name":"Ma'rib","state_code":"MA","country_code":"YE"}},{"type":"Feature","geometry":{"type":"Point","coordinates":[45.1832,14.6821]},"properties":{"id":130905,"name":"Mahliyah","state_code":"MA","country_code":"YE"}},{"type":"Feature","geometry":{"type":"Point","coordinates":[44.7941,15.8277]},"properties":{"id":130907,"name":"Majzar","state_code":"MA","country_code":"YE"}},{"type":"Feature","geometry":{"type":"Point","coordinates":[46.0111,15.6213]},"properties":{"id":130912,"name":"Marib","state_code":"MA","country_code":"YE"}},{"type":"Feature","geometry":{"type":"Point","coordinates":[45.0038,15.6384]},"properties":{"id":130921,"name":"Medghal","state_code":"MA","country_code":"YE"}},{"type":"Feature","geometry":{"type":"Point","coordinates":[45.0694,15.7902]},"properties":{"id":130948,"name":"Raghwan","state_code":"MA","country_code":"YE"}},{"type":"Feature","geometry":{"type":"Point","coordinates":[45.0885,14.951]},"properties":{"id":130949,"name":"Rahabah","state_code":"MA","country_code":"YE"}},{"type":"Feature","geometry":{"type":"Point","coordinates":[45.0115,15.4369]},"properties":{"id":130982,"name":"Sirwah","state_code":"MA","country_code":"YE"}}]}