{"type":"FeatureCollection","features":[{"type":"Feature","geometry":{"type":"Point","coordinates":[43.8393,15.2722]},"properties":{"id":130696,"name":"Al Haymah Ad Dakhiliyah","state_code":"SN","country_code":"YE"}},{"type":"Feature","geometry":{"type":"Point","coordinates":[43.85,15.0267]},"properties":{"id":130697,"name":"Al Haymah Al Kharijiyah","state_code":"SN","country_code":"YE"}},{"type":"Feature","geometry":{"type":"Point","coordinates":[44.5044,15.0206]},"properties":{"id":130700,"name":"Al Husn","state_code":"SN","country_code":"YE"}},{"type":"Feature","geometry":{"type":"Point","coordinates":[44.18158,15.50253]},"properties":{"id":130707,"name":"Al Khāniq","state_code":"SN","country_code":"YE"}},{"type":"Feature","geometry":{"type":"Point","coordinates":[44.2466,15.7995]},"properties":{"id":130770,"name":"Arhab","state_code":"SN","country_code":"YE"}},{"type":"Feature","geometry":{"type":"Point","coordinates":[44.57739,15.32931]},"properties":{"id":130802,"name":"Attyal","state_code":"SN","country_code":"YE"}},{"type":"Feature","geometry":{"type":"Point","coordinates":[44.8718,15.0481]},"properties":{"id":130813,"name":"Bani Dhabyan","state_code":"SN","country_code":"YE"}},{"type":"Feature","geometry":{"type":"Point","coordinates":[44.3782,15.4505]},"properties":{"id":130814,"name":"Bani Hushaysh","state_code":"SN","country_code":"YE"}},{"type":"Feature","geometry":{"type":"Point","coordinates":[44.0498,15.215]},"properties":{"id":130815,"name":"Bani Matar","state_code":"SN","country_code":"YE"}},{"type":"Feature","geometry":{"type":"Point","coordinates":[44.2514,15.0351]},"properties":{"id":130825,"name":"Bilad Ar Rus","state_code":"SN","country_code":"YE"}},{"type":"Feature","geometry":{"type":"Point","coordinates":[44.0603,15.50662]},"properties":{"id":130853,"name":"Hamdān","state_code":"SN","country_code":"YE"}},{"type":"Feature","geometry":{"type":"Point","coordinates":[44.5195,15.1919]},"properties":{"id":130883,"name":"Jihanah","state_code":"SN","country_code":"YE"}},{"type":"Feature","geometry":{"type":"Point","coordinates":[44.7686,15.2749]},"properties":{"id":130892,"name":"Khwlan","state_code":"SN","country_code":"YE"}},{"type":"Feature","geometry":{"type":"Point","coordinates":[43.6862,15.0717]},"properties":{"id":130909,"name":"Manakhah","state_code":"SN","country_code":"YE"}},{"type":"Feature","geometry":{"type":"Point","coordinates":[44.5746,15.7516]},"properties":{"id":130937,"name":"Nihm","state_code":"SN","country_code":"YE"}},{"type":"Feature","geometry":{"type":"Point","coordinates":[43.5827,15.0712]},"properties":{"id":130958,"name":"Sa'fan","state_code":"SN","country_code":"YE"}},{"type":"Feature","geometry":{"type":"Point","coordinates":[44.3088,15.31637]},"properties":{"id":130971,"name":"Saḩar","state_code":"SN","country_code":"YE"}},{"type":"Feature","geometry":{"type":"Point","coordinates":[44.3057,15.2252]},"properties":{"id":130965,"name":"Sanhan","state_code":"SN","country_code":"YE"}},{"type":"Feature","geometry":{"type":"Point","coordinates":[44.32442,15.17177]},"properties":{"id":130970,"name":"Sayyān","state_code":"SN","country_code":"YE"}}]}