{"type":"FeatureCollection","features":[{"type":"Feature","geometry":{"type":"Point","coordinates":[43.9262,13.3742]},"properties":{"id":130708,"name":"Al Ma'afer","state_code":"TA","country_code":"YE"}},{"type":"Feature","geometry":{"type":"Point","coordinates":[44.1005,13.3042]},"properties":{"id":130728,"name":"Al Mawasit","state_code":"TA","country_code":"YE"}},{"type":"Feature","geometry":{"type":"Point","coordinates":[44.0377,13.4702]},"properties":{"id":130734,"name":"Al Misrakh","state_code":"TA","country_code":"YE"}},{"type":"Feature","geometry":{"type":"Point","coordinates":[43.9927,13.5831]},"properties":{"id":130736,"name":"Al Mudhaffar","state_code":"TA","country_code":"YE"}},{"type":"Feature","geometry":{"type":"Point","coordinates":[43.42798,13.51998]},"properties":{"id":130739,"name":"Al Mukhā’","state_code":"TA","country_code":"YE"}},{"type":"Feature","geometry":{"type":"Point","coordinates":[44.0101,13.5849]},"properties":{"id":130747,"name":"Al Qahirah","state_code":"TA","country_code":"YE"}},{"type":"Feature","geometry":{"type":"Point","coordinates":[43.7298,13.1846]},"properties":{"id":130753,"name":"Al Wazi'iyah","state_code":"TA","country_code":"YE"}},{"type":"Feature","geometry":{"type":"Point","coordinates":[44.2072,13.3459]},"properties":{"id":130783,"name":"As Silw","state_code":"TA","country_code":"YE"}},{"type":"Feature","geometry":{"type":"Point","coordinates":[43.98,13.1822]},"properties":{"id":130790,"name":"Ash Shamayatayn","state_code":"TA","country_code":"YE"}},{"type":"Feature","geometry":{"type":"Point","coordinates":[44.00941,13.69479]},"properties":{"id":130798,"name":"At Ta‘izzīyah","state_code":"TA","country_code":"YE"}},{"type":"Feature","geometry":{"type":"Point","coordinates":[43.4724,12.9659]},"properties":{"id":130838,"name":"Dhubab","state_code":"TA","country_code":"YE"}},{"type":"Feature","geometry":{"type":"Point","coordinates":[44.2542,13.4386]},"properties":{"id":130840,"name":"Dimnat Khadir","state_code":"TA","country_code":"YE"}},{"type":"Feature","geometry":{"type":"Point","coordinates":[44.2607,13.2906]},"properties":{"id":130861,"name":"Hayfan","state_code":"TA","country_code":"YE"}},{"type":"Feature","geometry":{"type":"Point","coordinates":[43.881,13.4665]},"properties":{"id":130874,"name":"Jabal Habashy","state_code":"TA","country_code":"YE"}},{"type":"Feature","geometry":{"type":"Point","coordinates":[43.6674,13.6212]},"properties":{"id":130911,"name":"Maqbanah","state_code":"TA","country_code":"YE"}},{"type":"Feature","geometry":{"type":"Point","coordinates":[43.9983,13.5417]},"properties":{"id":130914,"name":"Mashra'a Wa Hadnan","state_code":"TA","country_code":"YE"}},{"type":"Feature","geometry":{"type":"Point","coordinates":[44.31912,13.58461]},"properties":{"id":130932,"name":"Māwīyah","state_code":"TA","country_code":"YE"}},{"type":"Feature","geometry":{"type":"Point","coordinates":[43.6145,13.3782]},"properties":{"id":130917,"name":"Mawza","state_code":"TA","country_code":"YE"}},{"type":"Feature","geometry":{"type":"Point","coordinates":[44.0462,13.5318]},"properties":{"id":130960,"name":"Sabir Al Mawadim","state_code":"TA","country_code":"YE"}},{"type":"Feature","geometry":{"type":"Point","coordinates":[44.0402,13.5839]},"properties":{"id":130962,"name":"Salh","state_code":"TA","country_code":"YE"}},{"type":"Feature","geometry":{"type":"Point","coordinates":[44.1166,13.3809]},"properties":{"id":130963,"name":"Sama","state_code":"TA","country_code":"YE"}},{"type":"Feature","geometry":{"type":"Point","coordinates":[43.7672,13.7336]},"properties":{"id":130976,"name":"Shara'b Ar Rawnah","state_code":"TA","country_code":"YE"}},{"type":"Feature","geometry":{"type":"Point","coordinates":[43.8861,13.7832]},"properties":{"id":130977,"name":"Shara'b As Salam","state_code":"TA","country_code":"YE"}},{"type":"Feature","geometry":{"type":"Point","coordinates":[44.02091,13.57952]},"properties":{"id":130988,"name":"Ta‘izz","state_code":"TA","country_code":"YE"}},{"type":"Feature","geometry":{"type":"Point","coordinates":[43.72992,13.74318]},"properties":{"id":130995,"name":"Village of Alamrah","state_code":"TA","country_code":"YE"}}]}