{"type":"FeatureCollection","features":[{"type":"Feature","geometry":{"type":"Point","coordinates":[45.16667,-12.8]},"properties":{"id":160292,"name":"Combani","state_code":"03","country_code":"YT"}},{"type":"Feature","geometry":{"type":"Point","coordinates":[45.22419,-12.77121]},"properties":{"id":160290,"name":"Kaouéni","state_code":"03","country_code":"YT"}},{"type":"Feature","geometry":{"type":"Point","coordinates":[45.22299,-12.78447]},"properties":{"id":160289,"name":"Kavani","state_code":"03","country_code":"YT"}},{"type":"Feature","geometry":{"type":"Point","coordinates":[45.22968,-12.75572]},"properties":{"id":160291,"name":"Majikavo Lamir","state_code":"03","country_code":"YT"}},{"type":"Feature","geometry":{"type":"Point","coordinates":[45.22878,-12.78234]},"properties":{"id":160293,"name":"Mamoudzou","state_code":"03","country_code":"YT"}},{"type":"Feature","geometry":{"type":"Point","coordinates":[45.21732,-12.78636]},"properties":{"id":160288,"name":"Mtsapéré","state_code":"03","country_code":"YT"}},{"type":"Feature","geometry":{"type":"Point","coordinates":[45.20818,-12.80201]},"properties":{"id":160294,"name":"Passamainty","state_code":"03","country_code":"YT"}},{"type":"Feature","geometry":{"type":"Point","coordinates":[45.2023,-12.80615]},"properties":{"id":160287,"name":"Tsoundzou 1","state_code":"03","country_code":"YT"}},{"type":"Feature","geometry":{"type":"Point","coordinates":[45.1972,-12.81845]},"properties":{"id":160286,"name":"Tsoundzou 2","state_code":"03","country_code":"YT"}},{"type":"Feature","geometry":{"type":"Point","coordinates":[45.17707,-12.79024]},"properties":{"id":160285,"name":"Vahibé","state_code":"03","country_code":"YT"}}]}