{"type":"FeatureCollection","features":[{"type":"Feature","geometry":{"type":"Point","coordinates":[45.19256,-12.91276]},"properties":{"id":160302,"name":"Bandrele","state_code":"05","country_code":"YT"}},{"type":"Feature","geometry":{"type":"Point","coordinates":[45.21494,-12.8813]},"properties":{"id":160303,"name":"Hamouro","state_code":"05","country_code":"YT"}},{"type":"Feature","geometry":{"type":"Point","coordinates":[45.17449,-12.96232]},"properties":{"id":160300,"name":"Mtsamoudou","state_code":"05","country_code":"YT"}},{"type":"Feature","geometry":{"type":"Point","coordinates":[45.20214,-12.89346]},"properties":{"id":160301,"name":"Nyambadao","state_code":"05","country_code":"YT"}}]}