{"type":"FeatureCollection","features":[{"type":"Feature","geometry":{"type":"Point","coordinates":[28.9349,-18.20476]},"properties":{"id":131435,"name":"Gokwe","state_code":"MI","country_code":"ZW"}},{"type":"Feature","geometry":{"type":"Point","coordinates":[29.81667,-19.45]},"properties":{"id":131441,"name":"Gweru","state_code":"MI","country_code":"ZW"}},{"type":"Feature","geometry":{"type":"Point","coordinates":[29.64495,-19.45665]},"properties":{"id":131442,"name":"Gweru District","state_code":"MI","country_code":"ZW"}},{"type":"Feature","geometry":{"type":"Point","coordinates":[29.81486,-18.92809]},"properties":{"id":131457,"name":"Kwekwe","state_code":"MI","country_code":"ZW"}},{"type":"Feature","geometry":{"type":"Point","coordinates":[29.5,-18.75]},"properties":{"id":131458,"name":"Kwekwe District","state_code":"MI","country_code":"ZW"}},{"type":"Feature","geometry":{"type":"Point","coordinates":[30.17768,-19.33225]},"properties":{"id":131459,"name":"Lalapanzi","state_code":"MI","country_code":"ZW"}},{"type":"Feature","geometry":{"type":"Point","coordinates":[30.00962,-20.72579]},"properties":{"id":131474,"name":"Mberengwa","state_code":"MI","country_code":"ZW"}},{"type":"Feature","geometry":{"type":"Point","coordinates":[30.52828,-19.27924]},"properties":{"id":131484,"name":"Mvuma","state_code":"MI","country_code":"ZW"}},{"type":"Feature","geometry":{"type":"Point","coordinates":[29.78333,-19.03333]},"properties":{"id":131496,"name":"Redcliff","state_code":"MI","country_code":"ZW"}},{"type":"Feature","geometry":{"type":"Point","coordinates":[29.36667,-19.78333]},"properties":{"id":131502,"name":"Shangani","state_code":"MI","country_code":"ZW"}},{"type":"Feature","geometry":{"type":"Point","coordinates":[30.00589,-19.67016]},"properties":{"id":131503,"name":"Shurugwi","state_code":"MI","country_code":"ZW"}},{"type":"Feature","geometry":{"type":"Point","coordinates":[30.16667,-19.75]},"properties":{"id":131504,"name":"Shurugwi District","state_code":"MI","country_code":"ZW"}},{"type":"Feature","geometry":{"type":"Point","coordinates":[30.07514,-20.30345]},"properties":{"id":131508,"name":"Zvishavane","state_code":"MI","country_code":"ZW"}}]}